{"version": 0.6, "generator": "Overpass API 0.7.56.7 b85c4387", "osm3s": {"timestamp_osm_base": "2021-02-26T13:57:02Z", "timestamp_areas_base": "2021-02-26T13:32:27Z", "copyright": "The data included in this document is from www.openstreetmap.org. The data is made available under ODbL."}, "elements": [{"type": "node", "id": 64616759, "lat": 49.7949836, "lon": 5.0672528, "tags": {"name": "Bouillon", "name:fr": "Bouillon", "name:la": "Bullionium", "name:ru": "\u0411\u0443\u0439\u043e\u043d", "name:wa": "Bouyon", "place": "town", "population": "5426", "population:date": "2012", "postal_code": "6830", "ref:INS": "84010", "website": "http://www.bouillon.be/", "wikidata": "Q217216", "wikipedia": "fr:Bouillon (Belgique)"}}, {"type": "node", "id": 79367863, "lat": 49.8404652, "lon": 5.4355333, "tags": {"name": "Neufch\u00e2teau", "name:fr": "Neufch\u00e2teau", "name:la": "Novum Castrum", "name:ru": "\u041d\u0451\u0448\u0430\u0442\u043e", "name:wa": "Li Tchestea", "old_name:de": "Neuenburg", "place": "town", "population": "6700", "wikidata": "Q21766053"}}, {"type": "node", "id": 207429027, "lat": 49.9156327, "lon": 5.3762007, "tags": {"name": "Libramont-Chevigny", "name:ru": "\u041b\u0438\u0431\u0440\u0430\u043c\u043e\u043d-\u0428\u0435\u0432\u0438\u043d\u044c\u0438", "name:wa": "Libr\u00e5mont", "place": "town", "population": "10459", "population:date": "2011", "short_name": "Libramont"}}, {"type": "node", "id": 79452949, "lat": 49.5677263, "lon": 5.5329559, "tags": {"addr:postcode": "6760", "name": "Virton", "name:de": "Wirten", "name:fr": "Virton", "name:fr-lor": "V\u00e8rtan", "name:la": "Vertonum", "name:lt": "Virtonas", "name:ru": "\u0412\u0438\u0440\u0442\u043e\u043d", "name:wa": "Vierton", "place": "town", "population": "11670", "population:date": "2012", "ref:INS": "85045", "website": "http://www.virton.be/", "wikidata": "Q456495", "wikipedia": "fr:Virton"}}, {"type": "node", "id": 270800099, "lat": 49.5615482, "lon": 5.8306932, "tags": {"name": "Athus", "name:de": "Athem", "name:lb": "Attem", "name:nl": "Athus", "name:wa": "Atu", "place": "town", "population": "7367", "population:date": "31/12/2013", "postal_code": "6791", "wikidata": "Q653845", "wikipedia": "fr:Athus"}}, {"type": "node", "id": 63111399, "lat": 49.6834601, "lon": 5.8167711, "tags": {"alt_name:la": "Castellum Harlonis", "capital": "6", "name": "Arlon", "name:de": "Arel", "name:fr": "Arlon", "name:la": "Orolaunum", "name:lb": "Arel", "name:lt": "Arlonas", "name:nl": "Aarlen", "name:ru": "\u0410\u0440\u043b\u043e\u043d", "name:wa": "\u00c5rlon", "place": "town", "population": "28759", "postal_code": "6700", "wikidata": "Q675960", "wikipedia": "fr:Arlon"}}, {"type": "node", "id": 1678308936, "lat": 50.765419, "lon": 2.8984493, "tags": {"name": "Mesen", "name:fr": "Messines", "name:nl": "Mesen", "name:ru": "\u041c\u0435\u0441\u0435\u043d", "name:vls": "M\u00eaesn", "place": "town"}}, {"type": "node", "id": 539515887, "lat": 50.7433351, "lon": 3.2139093, "tags": {"ele": "47", "name": "Mouscron", "name:fr": "Mouscron", "name:la": "Musera", "name:lt": "Mukronas", "name:nl": "Moeskroen", "name:pcd": "Moucron", "name:ru": "\u041c\u0443\u0441\u043a\u0440\u043e\u043d", "name:vls": "Meschro\u00ean", "nat_name": "La cit\u00e9 des Hurlus", "place": "town", "population": "56626", "population:date": "2014", "postal_code": "7700", "website": "https://www.mouscron.be", "wikidata": "Q220145", "wikipedia": "fr:Mouscron"}}, {"type": "node", "id": 477193158, "lat": 50.7059794, "lon": 3.2640184, "tags": {"name": "Estaimpuis", "name:fr": "Estaimpuis", "name:nl": "Steenput", "name:ru": "\u042d\u0441\u0442\u0435\u043c\u043f\u044e\u0438", "place": "town", "population": "10000", "postal_code": "7730", "website": "http://www.estaimpuis.be/", "wikidata": "Q666393", "wikipedia": "fr:Estaimpuis"}}, {"type": "node", "id": 79430297, "lat": 50.8556646, "lon": 2.7264961, "tags": {"name": "Poperinge", "name:ru": "\u041f\u043e\u043f\u0435\u0440\u0438\u043d\u0433\u0435", "place": "town", "population": "19893", "postal_code": "8970", "wikidata": "Q499588", "wikipedia": "nl:Poperinge"}}, {"type": "node", "id": 6258897758, "lat": 50.773569, "lon": 2.8326917, "tags": {"name": "Heuvelland", "place": "town", "wikidata": "Q822755", "wikipedia": "nl:Heuvelland (gemeente)"}}, {"type": "node", "id": 1637737203, "lat": 50.8521947, "lon": 2.8846047, "tags": {"name": "Ieper", "name:cs": "Ypry", "name:de": "Ypern", "name:en": "Ypres", "name:fr": "Ypres", "name:he": "\u05d0\u05d9\u05e4\u05e8", "name:la": "Ypra", "name:lt": "Ypras", "name:lv": "Ipra", "name:nl": "Ieper", "name:pl": "Ypres", "name:ru": "\u0418\u043f\u0440", "name:sv": "Ypern", "name:uk": "\u0406\u043f\u0440", "name:vls": "Yper", "place": "town", "wikidata": "Q102728", "wikipedia": "nl:Ieper"}}, {"type": "node", "id": 77932695, "lat": 50.9638066, "lon": 2.7643391, "tags": {"name": "Lo-Reninge", "name:la": "Loa et Rinenga", "name:vls": "Lo-R\u00eaninge", "place": "town", "population": "3300", "postal_code": "8647", "wikidata": "Q822790", "wikipedia": "nl:Lo-Reninge"}}, {"type": "node", "id": 1651548030, "lat": 51.0724273, "lon": 2.6621323, "tags": {"name": "Veurne", "name:fr": "Furnes", "name:la": "Furna", "name:nl": "Veurne", "name:ru": "\u0412\u0451\u0440\u043d\u0435", "place": "town", "wikidata": "Q506707", "wikipedia": "nl:Veurne"}}, {"type": "node", "id": 720858823, "lat": 51.1187723, "lon": 2.6349277, "tags": {"name": "Koksijde", "name:fr": "Coxyde", "name:la": "Coxida", "name:nl": "Koksijde", "name:ru": "\u041a\u043e\u043a\u0441\u0435\u0439\u0434\u0435", "name:vls": "Koksyde", "place": "town", "postal_code": "8670", "wikidata": "Q465545", "wikipedia": "nl:Koksijde"}}, {"type": "node", "id": 1653177701, "lat": 51.0333408, "lon": 2.8647185, "tags": {"loc_name": "Smude", "name": "Diksmuide", "name:fr": "Dixmude", "name:la": "Dixmuda", "name:nl": "Diksmuide", "name:ru": "\u0414\u0438\u043a\u0441\u043c\u0451\u0439\u0434\u0435", "name:vls": "Diksmude", "place": "town", "wikidata": "Q215244", "wikipedia": "nl:Diksmuide"}}, {"type": "node", "id": 1651552938, "lat": 51.1294306, "lon": 2.751666, "tags": {"name": "Nieuwpoort", "name:fr": "Nieuport", "name:la": "Novus Portus", "name:nl": "Nieuwpoort", "name:ru": "\u041d\u044c\u0438\u0432\u043f\u043e\u0440\u0442", "place": "town", "wikidata": "Q623310", "wikipedia": "nl:Nieuwpoort (Belgi\u00eb)"}}, {"type": "node", "id": 1719301306, "lat": 50.7683055, "lon": 3.0001175, "tags": {"name": "Comines-Warneton", "name:fr": "Comines-Warneton", "name:la": "Comineum et Varnetonium", "name:nl": "Komen-Waasten", "name:pcd": "Com\u00e8ne-Warneuton", "name:ru": "\u041a\u043e\u043c\u0438\u043d-\u0412\u0430\u0440\u043d\u0435\u0442\u043e\u043d", "place": "town", "population": "17890", "population:date": "2012", "postal_code": "7780", "website": "http://villedecomines-warneton.be/", "wikidata": "Q665761", "wikipedia": "fr:Comines-Warneton"}}, {"type": "node", "id": 79456056, "lat": 50.7780196, "lon": 3.043836, "tags": {"alt_name:la": "Virovino", "name": "Wervik", "name:fr": "Wervicq", "name:la": "Viroviacum", "name:nl": "Wervik", "name:ru": "\u0412\u0435\u0440\u0432\u0438\u043a", "name:uk": "\u0412\u0435\u0440\u0432\u0456\u043a", "name:vls": "Wervik", "place": "town", "population": "18435", "postal_code": "8940", "wikidata": "Q318532", "wikipedia": "nl:Wervik"}}, {"type": "node", "id": 1678309134, "lat": 50.7960046, "lon": 3.1208922, "tags": {"name": "Menen", "name:fr": "Menin", "name:nl": "Menen", "name:ru": "\u041c\u0435\u043d\u0435\u043d", "name:vls": "Mjinde", "place": "town"}}, {"type": "node", "id": 73719944, "lat": 50.8731885, "lon": 2.9874678, "tags": {"alt_name:la": "Zonnebecka", "name": "Zonnebeke", "name:la": "Sonnebeca", "name:nl": "Zonnebeke", "name:ru": "\u0417\u043e\u043d\u043d\u0435\u0431\u0435\u043a\u0435", "name:vls": "Zunnebeke", "place": "town", "wikidata": "Q214154", "wikipedia": "nl:Zonnebeke"}}, {"type": "node", "id": 32649495, "lat": 50.9747148, "lon": 3.0145726, "tags": {"name": "Staden", "name:ru": "\u0421\u0442\u0430\u0434\u0435\u043d", "name:vls": "Staen", "place": "town", "postal_code": "8840", "wikidata": "Q742876", "wikipedia": "nl:Staden"}}, {"type": "node", "id": 710440599, "lat": 50.8914424, "lon": 3.0631252, "tags": {"name": "Moorslede", "name:ru": "\u041c\u043e\u0440\u0441\u043b\u0435\u0434\u0435", "name:vls": "M\u00f4oslee", "place": "town", "population": "10840", "postal_code": "8890", "wikidata": "Q628733", "wikipedia": "nl:Moorslede"}}, {"type": "node", "id": 1669149648, "lat": 50.9444948, "lon": 3.124765, "tags": {"name": "Roeselare", "name:fr": "Roulers", "name:la": "Roslara", "name:lt": "Ruselar\u0117", "name:nl": "Roeselare", "name:ru": "\u0420\u0443\u0441\u0435\u043b\u0430\u0440\u0435", "name:uk": "\u0420\u0443\u0441\u0435\u043b\u0430\u0440\u0435", "name:vls": "Rousseloare", "place": "town", "postal_code": "8800", "wikidata": "Q211037", "wikipedia": "nl:Roeselare"}}, {"type": "node", "id": 5458266808, "lat": 50.8276429, "lon": 3.2659884, "tags": {"image": "http://en.wikipedia.org/wiki/File:Flag_of_Kortrijk.svg", "name": "Kortrijk", "name:an": "Contrai", "name:be": "\u0413\u043e\u0440\u0430\u0434 \u041a\u043e\u0440\u0442\u0440\u044d\u0439\u043a", "name:bg": "\u041a\u043e\u0440\u0442\u0440\u0435\u0439\u043a", "name:en": "Kortrijk", "name:eo": "Kortrejko", "name:es": "Cortrique", "name:fa": "\u06a9\u0648\u0631\u062a\u0631\u06cc\u06a9", "name:fr": "Courtrai", "name:fy": "Kortrik", "name:gl": "Courtrai", "name:he": "\u05e7\u05d5\u05e8\u05d8\u05e8\u05d9\u05d9\u05e7", "name:it": "Courtrai", "name:ja": "\u30b3\u30eb\u30c8\u30ec\u30a4\u30af", "name:ko": "\ucf54\ub974\ud2b8\ub808\uc774\ud06c", "name:ky": "\u041a\u043e\u0440\u0442\u0440\u0435\u0439\u043a", "name:la": "Cortoriacum", "name:lt": "Kortreikas", "name:lv": "Kortreika", "name:nl": "Kortrijk", "name:oc": "Courtrai", "name:pt": "Courtrai", "name:ru": "\u041a\u043e\u0440\u0442\u0440\u0435\u0439\u043a", "name:sr": "\u041a\u043e\u0440\u0442\u0440\u0430\u0458\u043a", "name:th": "\u0e04\u0e2d\u0e23\u0e4c\u0e17\u0e44\u0e23\u0e04\u0e4c", "name:uk": "\u041a\u043e\u0440\u0442\u0440\u0435\u0439\u043a", "name:vi": "Courtrai", "name:vls": "Kortryk", "name:zh": "\u79d1\u7279\u8d56\u514b", "place": "city", "population": "77109", "source:population": "wikipedia", "wikidata": "Q12995", "wikipedia": "nl:Kortrijk"}}, {"type": "node", "id": 712762055, "lat": 50.8516592, "lon": 3.2856695, "tags": {"name": "Kuurne", "name:fr": "Cuerne", "name:it": "Kuurne", "name:nl": "Kuurne", "name:ru": "\u041a\u044e\u0440\u043d\u0435", "place": "town", "population": "12650", "postal_code": "8520", "wikidata": "Q731501", "wikipedia": "nl:Kuurne"}}, {"type": "node", "id": 64819222, "lat": 50.857512, "lon": 3.3113699, "tags": {"name": "Harelbeke", "name:lt": "Harelbek\u0117", "name:ru": "\u0425\u0430\u0440\u0435\u043b\u0431\u0435\u043a\u0435", "place": "town", "population": "26819", "wikidata": "Q478797", "wikipedia": "nl:Harelbeke"}}, {"type": "node", "id": 64841932, "lat": 50.9198187, "lon": 3.2154595, "tags": {"name": "Izegem", "name:fr": "Iseghem", "name:nl": "Izegem", "name:ru": "\u0418\u0437\u0435\u0433\u0435\u043c", "name:vls": "Yzegem", "place": "town", "wikidata": "Q392337", "wikipedia": "nl:Izegem"}}, {"type": "node", "id": 126355252, "lat": 50.9202812, "lon": 3.2549979, "tags": {"name": "Ingelmunster", "name:ru": "\u0418\u043d\u0433\u0435\u043b\u043c\u044e\u043d\u0441\u0442\u0435\u0440", "name:vls": "Iengelmunstr", "place": "town", "wikidata": "Q822748", "wikipedia": "nl:Ingelmunster"}}, {"type": "node", "id": 505738482, "lat": 50.977425, "lon": 2.9524442, "tags": {"name": "Houthulst", "name:ru": "\u0425\u0430\u0443\u0442\u0445\u044e\u043b\u0441\u0442", "name:vls": "Outulst", "place": "town", "population": "10110", "wikidata": "Q696942", "wikipedia": "nl:Houthulst"}}, {"type": "node", "id": 73747411, "lat": 51.0647837, "lon": 3.1016415, "tags": {"name": "Torhout", "name:fr": "Thourout", "name:nl": "Torhout", "name:ru": "\u0422\u043e\u0440\u0445\u0430\u0443\u0442", "name:vls": "Tourout", "old_name:fr": "Thourout", "place": "town", "population": "20395", "wikidata": "Q270633", "wikipedia": "nl:Torhout"}}, {"type": "node", "id": 64810524, "lat": 51.1542785, "lon": 2.961541, "tags": {"name": "Gistel", "name:ru": "\u0413\u0438\u0441\u0442\u0435\u043b", "name:vls": "Gistel", "place": "town"}}, {"type": "node", "id": 79421716, "lat": 51.1841877, "lon": 3.0049405, "tags": {"alt_name:fr": "Audenbourg", "name": "Oudenburg", "name:fr": "Audembourg", "name:ru": "\u0410\u0443\u0434\u0435\u043d\u0431\u0443\u0440\u0433", "name:vls": "Oudeburg", "place": "town", "population": "9279", "postal_code": "8460", "website": "https://www.oudenburg.be/", "wikidata": "Q835128", "wikipedia": "nl:Oudenburg"}}, {"type": "node", "id": 73747438, "lat": 51.0002939, "lon": 3.3273362, "tags": {"name": "Tielt", "name:ar": "\u062a\u064a\u0644\u062a", "name:nl": "Tielt", "name:ru": "\u0422\u0438\u043b\u0442", "name:vls": "Tiejt", "place": "town", "postal_code": "8700", "wikidata": "Q651811", "wikipedia": "nl:Tielt"}}, {"type": "node", "id": 720890360, "lat": 51.1532024, "lon": 3.2344535, "tags": {"name": "Oostkamp", "name:ru": "\u041e\u0441\u0442\u043a\u0430\u043c\u043f", "name:vls": "\u00d4ostkamp", "place": "town"}}, {"type": "node", "id": 707143079, "lat": 51.1405698, "lon": 3.3347317, "tags": {"name": "Beernem", "name:ru": "\u0411\u0435\u0440\u043d\u0435\u043c", "name:vls": "Beirnem", "place": "town", "population": "14806", "wikidata": "Q687921", "wikipedia": "nl:Beernem"}}, {"type": "node", "id": 715288654, "lat": 51.2024792, "lon": 2.9149729, "tags": {"name": "Stene", "name:ru": "\u0421\u0442\u0435\u043d\u0435", "name:vls": "St\u00e8ne", "place": "town", "postal_code": "8400", "wikidata": "Q3472086", "wikipedia": "nl:Stene (Belgi\u00eb)"}}, {"type": "node", "id": 1651555409, "lat": 51.2258565, "lon": 2.919496, "tags": {"name": "Oostende", "name:de": "Ostende", "name:en": "Ostend", "name:es": "Ostende", "name:fr": "Ostende", "name:he": "\u05d0\u05d5\u05e1\u05d8\u05e0\u05d3\u05d4", "name:it": "Ostenda", "name:la": "Ostenda", "name:lt": "Ostend\u0117", "name:nl": "Oostende", "name:pl": "Ostenda", "name:ru": "\u041e\u0441\u0442\u0435\u043d\u0434\u0435", "name:uk": "\u041e\u0441\u0442\u0435\u043d\u0434\u0435", "name:vls": "Ostende", "name:zh-Hans": "\u5965\u65af\u5766\u5fb7", "name:zh-Hant": "\u5967\u65af\u5766\u5fb7", "place": "city", "population": "71647", "population:date": "2020-01-01", "source:population": "wikipedia", "wikidata": "Q12996", "wikipedia": "nl:Oostende"}}, {"type": "node", "id": 79380508, "lat": 51.2408491, "lon": 2.9647914, "tags": {"name": "Bredene", "name:ru": "\u0411\u0440\u0435\u0434\u0435\u043d\u0435", "name:vls": "Brenienge", "place": "town", "population": "16411", "wikidata": "Q742920", "wikipedia": "nl:Bredene"}}, {"type": "node", "id": 79382706, "lat": 51.275083, "lon": 3.03169, "tags": {"alt_name:fr": "Le Coq-sur-Mer", "name": "De Haan", "name:fr": "Le Coq", "name:nl": "De Haan", "name:ru": "\u0414\u0435-\u0425\u0430\u043d", "name:vls": "'n Oane", "place": "town", "wikidata": "Q13571265", "wikipedia": "nl:De Haan-Centrum"}}, {"type": "node", "id": 64615947, "lat": 51.3112589, "lon": 3.1323429, "tags": {"name": "Blankenberge", "name:fr": "Blankenberghe", "name:la": "Blancoberga", "name:nl": "Blankenberge", "name:ru": "\u0411\u043b\u0430\u043d\u043a\u0435\u043d\u0431\u0435\u0440\u0433\u0435", "name:vls": "Blanknberge", "place": "town", "wikidata": "Q328104", "wikipedia": "nl:Blankenberge"}}, {"type": "node", "id": 1651558422, "lat": 51.2085526, "lon": 3.226772, "tags": {"alt_name:mk": "\u0411\u0440\u0438\u0436", "capital": "6", "heritage": "1", "heritage:operator": "whc", "heritage:ref": "996", "heritage:since": "2000", "heritage:website": "http://whc.unesco.org/en/list/996/", "image": "http://commons.wikimedia.org/wiki/File:Bruegge_huidenvettersplein.jpg", "name": "Brugge", "name:ar": "\u0628\u0631\u0648\u062c", "name:be": "\u0411\u0440\u0443\u0433\u044d", "name:ca": "Bruges", "name:cs": "Bruggy", "name:de": "Br\u00fcgge", "name:el": "\u0392\u03c1\u03cd\u03b3\u03b7", "name:en": "Bruges", "name:eo": "Bru\u011do", "name:es": "Brujas", "name:fr": "Bruges", "name:it": "Bruges", "name:ko": "\ube0c\ub93c\ud5c8", "name:la": "Brugae", "name:lb": "Bruges", "name:lt": "Briug\u0117", "name:lv": "Brige", "name:mk": "\u0411\u0440\u0443\u0445\u0435", "name:nl": "Brugge", "name:pcd": "Brudje", "name:pl": "Brugia", "name:pt": "Bruges", "name:ru": "\u0411\u0440\u044e\u0433\u0433\u0435", "name:sk": "Bruggy", "name:sr": "\u0411\u0440\u0438\u0436", "name:sv": "Brygge", "name:tr": "Br\u00fcj", "name:vls": "Brugge", "name:wa": "Brudje", "name:zh": "\u5e03\u9b6f\u65e5", "name:zh-Hans": "\u5e03\u9c81\u65e5", "place": "city", "population": "117639", "population:date": "2012", "ref:INS": "31005", "wikidata": "Q12994", "wikipedia": "nl:Brugge"}}, {"type": "node", "id": 64669594, "lat": 51.2514978, "lon": 3.281482, "tags": {"name": "Damme", "name:la": "Dammum", "name:ru": "\u0414\u0430\u043c\u043c\u0435", "place": "town", "wikidata": "Q323408", "wikipedia": "nl:Damme (Belgi\u00eb)"}}, {"type": "node", "id": 79387375, "lat": 51.3433866, "lon": 3.2884738, "tags": {"name": "Knokke-Heist", "name:fr": "Knocke-Heist", "name:nl": "Knokke-Heist", "name:ru": "\u041a\u043d\u043e\u043a\u043a\u0435-\u0425\u0435\u0439\u0441\u0442", "name:vls": "Knokke-Heist", "place": "town", "population": "34034", "wikidata": "Q2437344", "wikipedia": "nl:Knokke"}}, {"type": "node", "id": 79427177, "lat": 50.5079857, "lon": 3.5908805, "tags": {"name": "P\u00e9ruwelz", "name:la": "Petrosa", "name:ru": "\u041f\u0435\u0440\u044e\u0432\u0435\u043b\u044c\u0437", "nat_name": "La cit\u00e9 des sources", "place": "town", "postal_code": "7600"}}, {"type": "node", "id": 36162975, "lat": 50.60566, "lon": 3.3878259, "tags": {"alt_name": "La ville aux cinq clochers", "alt_name:la": "Turnaco", "name": "Tournai", "name:fr": "Tournai", "name:la": "Turnacum", "name:nl": "Doornik", "name:ru": "\u0422\u0443\u0440\u043d\u0435", "old_name:de": "Dornick", "place": "city", "population": "69842", "postal_code": "7500", "wikidata": "Q173219"}}, {"type": "node", "id": 34078889, "lat": 50.6005326, "lon": 3.6214536, "tags": {"alt_name": "Leuze", "name": "Leuze-en-Hainaut", "name:la": "Lutosa Hannoniae", "name:ru": "\u041b\u0451\u0437-\u0430\u043d-\u042d\u043d\u043e", "place": "town", "population": "13519", "population:date": "2012", "postal_code": "7900"}}, {"type": "node", "id": 1678174119, "lat": 50.7476192, "lon": 3.6020465, "tags": {"alt_name:la": "Rotnacum", "name": "Ronse", "name:fr": "Renaix", "name:la": "Rothnacum", "name:lg": "Ronse", "name:nl": "Ronse", "name:ru": "\u0420\u043e\u043d\u0441\u0435", "name:wa": "Rinais", "place": "town", "population": "26000", "postal_code": "9600"}}, {"type": "node", "id": 477168724, "lat": 50.3978815, "lon": 3.7806897, "tags": {"name": "Dour", "name:la": "Durnum", "name:ru": "\u0414\u0443\u0440", "place": "town", "population": "16903", "population:date": "2012", "postal_code": "7370", "ref:INS": "53020", "website": "http://www.communedour.be/", "wikidata": "Q665938", "wikipedia": "fr:Dour"}}, {"type": "node", "id": 476259459, "lat": 50.4331253, "lon": 3.7960902, "tags": {"name": "Boussu", "name:fr": "Boussu", "name:pcd": "Boussu-dl\u00e9-Mont", "name:ru": "\u0411\u0443\u0441\u0441\u044e", "name:wa": "Boussu-dl\u00e9-Mont", "note": "19.942 habitants (Boussu-Hornu) (1er janvier 2014)", "phone": "+32 65 71 73 00", "place": "town", "population": "19942", "population:date": "2012", "postal_code": "7300", "ref:INS": "53014", "website": "http://www.boussu.be", "wikidata": "Q95126", "wikipedia": "fr:Boussu"}}, {"type": "node", "id": 79435626, "lat": 50.4477484, "lon": 3.8195241, "tags": {"name": "Saint-Ghislain", "name:bg": "\u0421\u0435\u043d \u0413\u0438\u0441\u043b\u0435\u043d", "name:fa": "\u0633\u0646-\u06af\u06cc\u0632\u0644\u0646", "name:la": "Ghislenopolis", "name:ru": "\u0421\u0435\u043d-\u0413\u0438\u043b\u0435\u043d", "place": "town", "population": "22969", "population:date": "2014", "postal_code": "7330", "ref:INS": "53070", "website": "https://www.saint-ghislain.be/", "wikidata": "Q668950", "wikipedia": "fr:Saint-Ghislain"}}, {"type": "node", "id": 476285157, "lat": 50.4056635, "lon": 3.8513958, "tags": {"name": "Colfontaine", "name:fr": "Colfontaine", "name:pcd": "Colfontinne", "name:ru": "\u041a\u043e\u043b\u044c\u0444\u043e\u043d\u0442\u0435\u043d", "place": "town", "population": "20446", "population:date": "2012", "postal_code": "7340", "ref:INS": "53082", "website": "http://www.colfontaine.be/", "wikidata": "Q665573", "wikipedia": "fr:Colfontaine"}}, {"type": "node", "id": 1144636557, "lat": 50.4421647, "lon": 3.8637279, "tags": {"name": "Quaregnon", "name:fr": "Quaregnon", "name:la": "Quaregio", "name:pcd": "Cwargnon", "name:ru": "\u041a\u0430\u0440\u0435\u043d\u044c\u043e\u043d", "place": "town", "population": "18868", "postal_code": "7390", "ref:INS": "53065", "wikidata": "Q538735"}}, {"type": "node", "id": 480959936, "lat": 50.4096511, "lon": 3.8933015, "tags": {"name": "Frameries", "name:ru": "\u0424\u0440\u0430\u043c\u0440\u0438", "place": "town", "population": "21296", "population:date": "2012", "postal_code": "7080", "ref:INS": "53028", "website": "http://www.frameries.be/", "wikidata": "Q666751", "wikipedia": "fr:Frameries"}}, {"type": "node", "id": 893278148, "lat": 50.4549568, "lon": 3.951958, "tags": {"capital": "6", "name": "Mons", "name:ar": "\u0645\u0648\u0646\u0633", "name:de": "Bergen", "name:fr": "Mons", "name:la": "Montes", "name:mk": "\u041c\u043e\u043d\u0441\u0435\u0440\u0430\u0442", "name:nl": "Bergen", "name:ru": "\u041c\u043e\u043d\u0441", "name:sr": "\u041c\u043e\u043d\u0441", "nat_name": "La cit\u00e9 du Doudou", "place": "city", "population": "92721", "wikidata": "Q83407", "wikipedia": "en:Mons"}}, {"type": "node", "id": 672743181, "lat": 50.5325067, "lon": 3.9113179, "tags": {"name": "Jurbise", "name:fr": "Jurbise", "name:la": "Iorbisa", "name:nl": "Jurbeke", "name:pcd": "Djurbize", "name:ru": "\u0416\u044e\u0440\u0431\u0438\u0437", "place": "town", "postal_code": "7050"}}, {"type": "node", "id": 428181182, "lat": 50.4103004, "lon": 4.165163, "tags": {"name": "Binche", "name:la": "Binchium", "name:ru": "\u0411\u0435\u043d\u0448", "place": "town", "population": "32000", "postal_code": "7130", "wikidata": "Q95121"}}, {"type": "node", "id": 64850883, "lat": 50.479487, "lon": 4.1852682, "tags": {"alt_name:la": "Lovaria", "name": "La Louvi\u00e8re", "name:la": "Luparia", "name:ru": "\u041b\u0430-\u041b\u0443\u0432\u044c\u0435\u0440", "nat_name": "La cit\u00e9 des Loups", "place": "town", "population": "79486", "postal_code": "7100", "wikidata": "Q211572", "wikipedia": "de:La Louvi\u00e8re"}}, {"type": "node", "id": 33372516, "lat": 50.6311349, "lon": 3.7769485, "tags": {"name": "Ath", "name:fr": "Ath", "name:la": "Athum", "name:nl": "Aat", "name:ru": "\u0410\u0442", "nat_name": "La cit\u00e9 des g\u00e9ants, La capitale du Pays vert, La capitale des collines", "place": "town", "population": "28523", "postal_code": "7800", "wikidata": "Q95096", "wikipedia": "fr:Ath"}}, {"type": "node", "id": 31353523, "lat": 50.7123036, "lon": 3.8301131, "tags": {"name": "Lessines", "name:fr": "Lessines", "name:la": "Lessinia", "name:nl": "Lessen", "name:ru": "\u041b\u0435\u0441\u0438\u043d", "place": "town", "population": "18000", "postal_code": "7860", "wikidata": "Q667790"}}, {"type": "node", "id": 79443904, "lat": 50.579203, "lon": 4.0685604, "tags": {"name": "Soignies", "name:fr": "Soignies", "name:la": "Suniacum", "name:nl": "Zinnik", "name:pcd": "Sougniye", "name:ru": "\u0421\u0443\u0430\u043d\u044c\u0438", "name:wa": "Sougniye", "nat_name": "La cit\u00e9 de Saint-Vincent", "place": "town", "population": "26796", "postal_code": "7060", "wikidata": "Q462985"}}, {"type": "node", "id": 190299276, "lat": 50.5696606, "lon": 4.1753672, "tags": {"name": "\u00c9caussinnes", "name:ru": "\u042d\u043a\u043e\u0441\u0441\u0438\u043d\u043d", "place": "town", "population": "10000", "postal_code": "7190"}}, {"type": "node", "id": 476260354, "lat": 50.6107057, "lon": 4.1360702, "tags": {"name": "Braine-Le-Comte", "name:de": "Braine-le-Comte", "name:en": "Braine-le-Comte", "name:fr": "Braine-le-Comte", "name:la": "Brenna Comitis", "name:lb": "Braine-le-Comte", "name:li": "'s-Gravebrakel", "name:nl": "'s-Gravenbrakel", "name:pcd": "Brinne-in-H\u00e9nau", "name:ru": "\u0411\u0440\u0435\u043d-\u043b\u0435-\u041a\u043e\u043d\u0442", "name:wa": "Brinne-e-Hinnot", "place": "town", "population": "21000", "postal_code": "7090", "wikidata": "Q95129", "wikipedia": "fr:Braine-le-Comte"}}, {"type": "node", "id": 61756241, "lat": 50.6957066, "lon": 4.0411928, "tags": {"name": "Enghien", "name:en": "Enghien", "name:fr": "Enghien", "name:la": "Angia", "name:lb": "Enghien", "name:li": "Edinge", "name:nl": "Edingen", "name:pcd": "Ing\u00ee", "name:wa": "Ingu\u00ee", "place": "town", "population": "13563", "postal_code": "7850", "website": "http://www.enghien-edingen.be/", "wikidata": "Q666238", "wikipedia": "fr:Enghien"}}, {"type": "node", "id": 64620446, "lat": 50.0479266, "lon": 4.3173338, "tags": {"name": "Chimay", "name:la": "Cimaium", "name:ru": "\u0428\u0438\u043c\u0435", "nat_name": "La Cit\u00e9 princi\u00e8re", "place": "town", "population": "9900", "postal_code": "6460"}}, {"type": "node", "id": 60561637, "lat": 50.0524906, "lon": 4.4955009, "tags": {"name": "Couvin", "name:nl": "Couvin", "name:ru": "\u041a\u0443\u0432\u0435\u043d", "name:wa": "Couv\u00e9n", "place": "town", "population": "13000", "postal_code": "5660", "wikidata": "Q326771", "wikipedia": "fr:Couvin"}}, {"type": "node", "id": 64608294, "lat": 50.2355294, "lon": 4.2383115, "tags": {"name": "Beaumont", "name:la": "Bellomontium", "name:ru": "\u0411\u043e\u043c\u043e\u043d", "place": "town", "population": "6800", "postal_code": "6500", "wikidata": "Q95100"}}, {"type": "node", "id": 79447645, "lat": 50.3397445, "lon": 4.2870475, "tags": {"name": "Thuin", "name:la": "Tudinum", "name:ru": "\u0422\u044e\u044d\u043d", "place": "town", "postal_code": "6530"}}, {"type": "node", "id": 427106635, "lat": 50.3171621, "lon": 4.3803219, "tags": {"name": "Ham-sur-Heure-Nalinnes", "name:ru": "\u0410\u043c-\u0441\u044e\u0440-\u042d\u0440-\u041d\u0430\u043b\u0438\u043d", "place": "town", "population": "13000", "postal_code": "6120"}}, {"type": "node", "id": 60561681, "lat": 50.196268, "lon": 4.5436078, "tags": {"name": "Philippeville", "name:fr": "Philippeville", "name:la": "Philipopolis", "name:nl": "Philippeville", "name:ru": "\u0424\u0438\u043b\u0438\u043f\u0432\u0438\u043b\u044c", "name:wa": "Flipveye", "place": "town", "population": "8600", "postal_code": "5600", "wikidata": "Q650239", "wikipedia": "fr:Philippeville"}}, {"type": "node", "id": 79453563, "lat": 50.2513997, "lon": 4.4314089, "tags": {"name": "Walcourt", "name:la": "Vallocuria", "name:nl": "Walcourt", "name:ru": "\u0412\u0430\u043b\u044c\u043a\u0443\u0440", "name:wa": "Walco\u00fb", "place": "town", "population": "17800", "postal_code": "5650", "wikidata": "Q497565", "wikipedia": "fr:Walcourt"}}, {"type": "node", "id": 683781476, "lat": 50.2514227, "lon": 4.6030187, "tags": {"name": "Florennes", "name:nl": "Florennes", "name:ru": "\u0424\u043b\u043e\u0440\u0435\u043d", "name:wa": "Florene", "place": "town", "population": "10800", "postal_code": "5620", "wikidata": "Q720429", "wikipedia": "fr:Florennes"}}, {"type": "node", "id": 331350597, "lat": 50.3378166, "lon": 4.5276771, "tags": {"name": "Gerpinnes", "name:ru": "\u0416\u0435\u0440\u043f\u0438\u043d\u043d", "place": "town", "population": "12000", "postal_code": "6280"}}, {"type": "node", "id": 252141952, "lat": 50.3212094, "lon": 4.6584949, "tags": {"name": "Mettet", "name:nl": "Mettet", "name:ru": "\u041c\u0435\u0442\u0435", "name:wa": "Metet", "place": "town", "postal_code": "5640", "wikidata": "Q118769", "wikipedia": "fr:Mettet"}}, {"type": "node", "id": 2850062184, "lat": 50.2591576, "lon": 4.9130624, "tags": {"name": "Dinant", "name:fr": "Dinant", "name:la": "Dionantum", "name:nl": "Dinant", "name:ru": "\u0414\u0438\u043d\u0430\u043d", "nat_name": "La ville citadelle", "note": "100600000", "place": "town", "population": "13668", "population:date": "2013", "ref:INS": "91034", "website": "http://www.dinant.be/", "wikidata": "Q108247", "wikipedia": "fr:Dinant"}}, {"type": "node", "id": 470539134, "lat": 50.4079969, "lon": 4.2696102, "tags": {"name": "Anderlues", "name:ru": "\u0410\u043d\u0434\u0435\u0440\u043b\u044e", "place": "town", "population": "11000", "postal_code": "6150"}}, {"type": "node", "id": 470539132, "lat": 50.4509843, "lon": 4.2523562, "tags": {"name": "Morlanwelz", "name:ru": "\u041c\u043e\u0440\u043b\u0430\u043d\u0432\u0435", "place": "town", "population": "18800", "wikidata": "Q668493"}}, {"type": "node", "id": 1024116145, "lat": 50.3791631, "lon": 4.3796745, "tags": {"name": "Montigny-le-Tilleul", "name:ru": "\u041c\u043e\u043d\u0442\u0438\u043d\u044c\u0438-\u043b\u0435-\u0422\u0438\u0439\u0451\u043b\u044c", "old_name": "Montignies-Le-Tilleul", "place": "town", "population": "10100", "postal_code": "6110", "wikidata": "Q668437", "wikipedia": "fr:Montigny-le-Tilleul"}}, {"type": "node", "id": 64804585, "lat": 50.4117794, "lon": 4.3246322, "tags": {"name": "Fontaine-l'\u00c9v\u00eaque", "name:la": "Fons Episcopi", "name:ru": "\u0424\u043e\u043d\u0442\u0435\u043d-\u043b\u2019\u042d\u0432\u0435\u043a", "place": "town", "population": "17000", "postal_code": "6140", "wikidata": "Q666696"}}, {"type": "node", "id": 348312112, "lat": 50.4713265, "lon": 4.2804202, "tags": {"name": "Chapelle-lez-Herlaimont", "name:ru": "\u0428\u0430\u043f\u0435\u043b\u044c-\u043b\u0435\u0437-\u042d\u0440\u043b\u0435\u043c\u043e\u043d", "place": "town", "population": "14650", "postal_code": "7160", "wikidata": "Q95140", "wikipedia": "fr:Chapelle-lez-Herlaimont"}}, {"type": "node", "id": 432651710, "lat": 50.5292555, "lon": 4.2566988, "tags": {"name": "Seneffe", "name:la": "Senefia", "name:ru": "\u0421\u0435\u043d\u0435\u0444", "place": "town", "population": "10000", "postal_code": "7180"}}, {"type": "node", "id": 331198493, "lat": 50.4574699, "lon": 4.376008, "tags": {"name": "Courcelles", "name:la": "Curticellae", "name:ru": "\u041a\u0443\u0440\u0441\u0435\u043b\u044c", "place": "town", "population": "30000", "postal_code": "6180", "wikidata": "Q665860"}}, {"type": "node", "id": 325851346, "lat": 50.5122563, "lon": 4.3617367, "tags": {"name": "Pont-\u00e0-Celles", "name:ru": "\u041f\u043e\u043d\u0442-\u0430-\u0421\u0435\u043b\u044c", "place": "town", "postal_code": "6230"}}, {"type": "node", "id": 674001818, "lat": 50.3902046, "lon": 4.4046365, "tags": {"name": "Mont-sur-Marchienne", "place": "town", "postal_code": "6032"}}, {"type": "node", "id": 674001446, "lat": 50.3977245, "lon": 4.4442531, "tags": {"name": "Marcinelle", "place": "town", "postal_code": "6001"}}, {"type": "node", "id": 673999413, "lat": 50.391219, "lon": 4.468631, "tags": {"name": "Couillet", "name:ru": "\u041a\u0443\u0439\u0435", "place": "town", "postal_code": "6010"}}, {"type": "node", "id": 9002746, "lat": 50.4120332, "lon": 4.4436244, "tags": {"alt_name:wa": "Ch\u00e5lerw\u00e8", "name": "Charleroi", "name:ar": "\u0634\u0627\u0631\u0644\u0648\u0631\u0648\u0627", "name:de": "Charleroi", "name:fr": "Charleroi", "name:hu": "Charleroi", "name:la": "Caroloregium", "name:lt": "\u0160arlerua", "name:mk": "\u0428\u0430\u0440\u043b\u0435\u0440\u043e\u0430", "name:nl": "Charleroi", "name:ru": "\u0428\u0430\u0440\u043b\u0435\u0440\u0443\u0430", "name:sr": "\u0428\u0430\u0440\u043b\u0440\u043e\u0430", "name:wa": "Tch\u00e5lerw\u00e8", "nat_name": "La capitale du Pays noir", "note": "100600000", "old_name:de": "Karolingen", "place": "city", "population": "202730", "postal_code": "6000", "wikidata": "Q81046", "wikipedia": "fr:Charleroi"}}, {"type": "node", "id": 673999730, "lat": 50.4250323, "lon": 4.4865026, "tags": {"name": "Gilly", "place": "town", "postal_code": "6060"}}, {"type": "node", "id": 64619244, "lat": 50.4046075, "lon": 4.5243511, "tags": {"name": "Ch\u00e2telet", "name:la": "Castellarium", "name:ru": "\u0428\u0430\u0442\u043b\u0435", "place": "town", "population": "36390", "postal_code": "6200", "wikidata": "Q95144", "wikipedia": "fr:Ch\u00e2telet (Belgique)"}}, {"type": "node", "id": 357148969, "lat": 50.4318404, "lon": 4.5465179, "tags": {"name": "Farciennes", "name:la": "Farcinae", "name:ru": "\u0424\u0430\u0440\u0441\u044c\u0435\u043d", "place": "town", "population": "11180", "postal_code": "6240"}}, {"type": "node", "id": 471921355, "lat": 50.4163581, "lon": 4.5711984, "tags": {"name": "Aiseau-Presles", "name:ru": "\u042d\u0437\u043e-\u041f\u0440\u0435\u043b\u044c", "place": "town", "population": "10700", "postal_code": "6250"}}, {"type": "node", "id": 335461892, "lat": 50.4653846, "lon": 4.4301757, "tags": {"name": "Gosselies", "name:ro": "cazare", "name:ru": "\u0413\u043e\u0441\u043b\u0438", "place": "town", "postal_code": "6041"}}, {"type": "node", "id": 138133013, "lat": 50.5226424, "lon": 4.4763492, "tags": {"name": "Les Bons Villers", "name:ru": "\u041b\u0435-\u0411\u043e\u043d-\u0412\u0438\u043b\u043b\u0435\u0440", "place": "town", "population": "9000"}}, {"type": "node", "id": 64802854, "lat": 50.482944, "lon": 4.549699, "tags": {"name": "Fleurus", "name:la": "Flerius", "name:ru": "\u0424\u043b\u0451\u0440\u044e\u0441", "place": "town", "population": "22000", "postal_code": "6220", "wikidata": "Q314922"}}, {"type": "node", "id": 60285677, "lat": 50.5976885, "lon": 4.3235854, "tags": {"alt_name:la": "Nivella", "ele": "65", "name": "Nivelles", "name:fr": "Nivelles", "name:la": "Nivellae", "name:nl": "Nijvel", "name:pcd": "Niv\u00e8le", "name:ru": "\u041d\u0438\u0432\u0435\u043b\u044c", "name:vls": "Neyvel", "name:wa": "Nivele", "place": "town", "population": "27488", "website": "https://www.nivelles.be/", "wikidata": "Q319463", "wikipedia": "fr:Nivelles"}}, {"type": "node", "id": 60610019, "lat": 50.69302, "lon": 4.204696, "tags": {"name": "Tubize", "name:fr": "Tubize", "name:nl": "Tubeke", "name:ru": "\u0422\u044e\u0431\u0438\u0437", "note": "population Tubize seule = 14300", "place": "town", "population": "22000", "wikidata": "Q497549", "wikipedia": "fr:Tubize"}}, {"type": "node", "id": 1677365023, "lat": 50.7360524, "lon": 4.2374349, "tags": {"name": "Halle", "name:fr": "Hal", "name:la": "Halla", "name:nl": "Halle", "name:ru": "\u0425\u0430\u043b\u043b\u0435", "name:wa": "Hal", "place": "town", "population": "35000", "postal_code": "1500", "website": "https://www.halle.be/", "wikidata": "Q210003", "wikipedia": "nl:Halle (Vlaams-Brabant)"}}, {"type": "node", "id": 130703255, "lat": 50.6828722, "lon": 4.3692706, "tags": {"name": "Braine-l'Alleud", "name:de": "Braine-l\u2019Alleud", "name:en": "Braine-l\u2019Alleud", "name:fr": "Braine-l'Alleud", "name:la": "Brania Allodii", "name:lb": "Braine-l\u2019Alleud", "name:nl": "Eigenbrakel", "name:ru": "\u0411\u0440\u0435\u043d-\u043b\u2019\u0410\u043b\u043b\u0451", "name:wa": "Brinne-l'-Alou", "place": "town", "population": "38000", "wikidata": "Q497572", "wikipedia": "fr:Braine-l'Alleud"}}, {"type": "node", "id": 2640805833, "lat": 50.7660759, "lon": 4.3079526, "tags": {"name": "Beersel", "name:ru": "\u0411\u0435\u0440\u0441\u0435\u043b", "place": "town", "postal_code": "1650", "website": "https://www.beersel.be/", "wikidata": "Q692168", "wikipedia": "nl:Beersel"}}, {"type": "node", "id": 1678634235, "lat": 50.74503, "lon": 4.3463687, "tags": {"name": "Sint-Genesius-Rode", "name:fr": "Rhode-Saint-Gen\u00e8se", "name:la": "Rhoda Sancti Genesii", "name:nl": "Sint-Genesius-Rode", "name:ru": "\u0421\u0438\u043d\u0442-\u0413\u0435\u043d\u0435\u0441\u0438\u0443\u0441-\u0420\u043e\u0434\u0435", "place": "town", "postal_code": "1640", "short_name": "Rode", "short_name:fr": "Rhode", "short_name:la": "Rhoda", "short_name:nl": "Rode", "website": "https://www.sint-genesius-rode.be/", "website:fr": "http://www.rhode-saint-genese.be", "wikidata": "Q841597", "wikipedia": "nl:Sint-Genesius-Rode"}}, {"type": "node", "id": 130692807, "lat": 50.7153727, "lon": 4.396367, "tags": {"name": "Waterloo", "name:la": "Waterloum", "name:lb": "Waterloo", "name:ru": "\u0412\u0430\u0442\u0435\u0440\u043b\u043e\u043e", "name:vls": "Woaterloo", "name:wa": "Waterl\u00f4", "name:zea": "Waeterloo", "place": "town", "population": "29649", "wikidata": "Q179034", "wikipedia": "fr:Waterloo"}}, {"type": "node", "id": 60115919, "lat": 50.6108733, "lon": 4.4510726, "tags": {"name": "Genappe", "name:fr": "Genappe", "name:la": "Genappia", "name:nl": "Genepi\u00ebn", "name:ru": "\u0416\u0435\u043d\u0430\u043f", "place": "town", "population": "14000", "wikidata": "Q517899", "wikipedia": "fr:Genappe"}}, {"type": "node", "id": 130610211, "lat": 50.5727351, "lon": 4.5342675, "tags": {"name": "Villers-la-Ville", "name:ru": "\u0412\u0438\u043b\u043b\u0435\u0440-\u043b\u0430-\u0412\u0438\u043b\u044c", "place": "town", "population": "9900", "wikidata": "Q678612", "wikipedia": "fr:Villers-la-Ville (Belgique)"}}, {"type": "node", "id": 292551547, "lat": 50.6443208, "lon": 4.5685766, "tags": {"name": "Court-Saint-Etienne", "name:ru": "\u041a\u0443\u0440-\u0421\u0435\u043d-\u042d\u0442\u044c\u0435\u043d", "name:wa": "Co\u00fb-Sint-Stiene", "place": "town", "population": "9000", "wikidata": "Q670210", "wikipedia": "fr:Court-Saint-\u00c9tienne"}}, {"type": "node", "id": 138160966, "lat": 50.7313729, "lon": 4.4893987, "tags": {"name": "La Hulpe", "name:fr": "La Hulpe", "name:la": "Hulpenum", "name:nl": "Terhulpen", "name:ru": "\u041b\u0430-\u042e\u043b\u044c\u043f", "place": "town", "population": "7000", "wikidata": "Q670407", "wikipedia": "fr:La Hulpe"}}, {"type": "node", "id": 138160978, "lat": 50.7122504, "lon": 4.5216455, "tags": {"name": "Rixensart", "name:ru": "\u0420\u0438\u043a\u0441\u0430\u043d\u0441\u0430\u0440", "name:wa": "Ricsins\u00e5t", "place": "town", "population": "21000", "wikidata": "Q630478", "wikipedia": "fr:Rixensart"}}, {"type": "node", "id": 292453525, "lat": 50.6654216, "lon": 4.5674107, "tags": {"name": "Ottignies-Louvain-la-Neuve", "name:la": "Ottiniacum et Novum Lovanium", "name:ru": "\u041e\u0442\u0442\u0438\u043d\u044c\u0438-\u041b\u0443\u0432\u0435\u043d-\u043b\u0430-\u041d\u0451\u0432", "place": "town", "population": "30000", "wikidata": "Q329642"}}, {"type": "node", "id": 60172442, "lat": 50.6682012, "lon": 4.6128839, "tags": {"name": "Louvain-la-Neuve", "name:de": "Neu-L\u00f6wen", "name:la": "Novum Lovanium", "name:ru": "\u041b\u0443\u0432\u0435\u043d-\u043b\u0430-\u041d\u0451\u0432", "nat_name": "La cit\u00e9 \u00e9tudiante, La capitale mondiale de la guindaille", "place": "town", "population": "10000", "short_name": "LLN", "wikidata": "Q329642", "wikipedia": "fr:Ottignies-Louvain-la-Neuve"}}, {"type": "node", "id": 60284787, "lat": 50.7162425, "lon": 4.60845, "tags": {"alt_name:wa": "Aufe", "capital": "6", "name": "Wavre", "name:fr": "Wavre", "name:la": "Wavria", "name:nl": "Waver", "name:ru": "\u0412\u0430\u0432\u0440", "name:wa": "W\u00e5ve", "nat_name": "La cit\u00e9 du Maca", "place": "town", "population": "33498", "population:date": "2014", "ref:INS": "25112", "website": "https://www.wavre.be/", "wikidata": "Q181314", "wikipedia": "fr:Wavre"}}, {"type": "node", "id": 64807081, "lat": 50.3959512, "lon": 4.6978935, "tags": {"alt_name:wa": "Fosse", "name": "Fosses-la-Ville", "name:la": "Fossa", "name:nl": "Fosses-la-Ville", "name:ru": "\u0424\u043e\u0441-\u043b\u0430-\u0412\u0438\u043b\u044c", "name:wa": "Fosse-li-Veye", "old_name": "Fosses", "place": "town", "postal_code": "5070", "wikidata": "Q720478", "wikipedia": "fr:Fosses-la-Ville"}}, {"type": "node", "id": 688355308, "lat": 50.4656388, "lon": 4.6686837, "tags": {"name": "Jemeppe-sur-Sambre", "name:fr": "Jemeppe-sur-Sambre", "name:nl": "Jemeppe-sur-Sambre", "name:ru": "\u0416\u0435\u043c\u0435\u043f-\u0441\u044e\u0440-\u0421\u0430\u043c\u0431\u0440", "name:wa": "Djimepe-so-Sambe", "place": "town", "population": "18646", "population:date": "2012", "ref:INS": "92140", "website": "http://www.jemeppe-sur-sambre.be/", "wikidata": "Q720791", "wikipedia": "fr:Jemeppe-sur-Sambre"}}, {"type": "node", "id": 265779208, "lat": 50.3762043, "lon": 4.8675024, "tags": {"name": "Profondeville", "name:ru": "\u041f\u0440\u043e\u0444\u043e\u043d\u0434\u0432\u0438\u043b\u044c", "name:wa": "Parfondveye", "place": "town", "postal_code": "5170", "wikidata": "Q696940", "wikipedia": "fr:Profondeville"}}, {"type": "node", "id": 30103484, "lat": 50.4589561, "lon": 4.8723252, "tags": {"name": "Jambes", "name:fr": "Jambes", "name:ru": "\u0416\u0430\u043c\u0431", "name:wa": "Djambe", "place": "town", "postal_code": "5100", "wikidata": "Q3160833", "wikipedia": "fr:Jambes"}}, {"type": "node", "id": 1765500676, "lat": 50.4665284, "lon": 4.8661892, "tags": {"addr:postcode": "5000", "admin_level": "8", "capital": "4", "name": "Namur", "name:ar": "\u0646\u0627\u0645\u0648\u0631", "name:de": "Namur", "name:en": "Namur", "name:eo": "Namuro", "name:es": "Namur", "name:fr": "Namur", "name:it": "Namur", "name:la": "Namurcum", "name:lb": "Namouer", "name:lt": "Nami\u016bras", "name:mk": "\u041d\u0430\u043c\u0438\u0440", "name:nl": "Namen", "name:ru": "\u041d\u0430\u043c\u044e\u0440", "name:sr": "\u041d\u0430\u043c\u0438\u0440", "name:uk": "\u041d\u0430\u043c\u044e\u0440", "name:wa": "Nameur", "name:zh": "\u90a3\u6155\u723e", "place": "city", "population": "110691", "website": "https://www.namur.be", "wikidata": "Q134121", "wikipedia": "fr:Namur"}}, {"type": "node", "id": 60302311, "lat": 50.5597273, "lon": 4.6943126, "tags": {"name": "Gembloux", "name:fr": "Gembloux", "name:la": "Gemblacum", "name:nl": "Gembloers", "name:ru": "\u0416\u0430\u043c\u0431\u043b\u0443", "name:wa": "Djiblou", "old_name": "Gembloux-sur-Orneau", "place": "town", "population": "23000", "postal_code": "5030", "wikidata": "Q223927"}}, {"type": "node", "id": 292556047, "lat": 50.6839808, "lon": 4.6974182, "tags": {"name": "Chaumont-Gistoux", "name:fr": "Chaumont-Gistoux", "name:ru": "\u0428\u043e\u043c\u043e\u043d-\u0416\u0438\u0441\u0442\u043e", "name:wa": "Tch\u00e5mont-Djistou", "place": "town", "population": "11601", "population:date": "2012", "ref:INS": "25018", "website": "https://www.chaumont-gistoux.be/", "wikidata": "Q670141", "wikipedia": "fr:Chaumont-Gistoux"}}, {"type": "node", "id": 292561459, "lat": 50.7386182, "lon": 4.6962324, "tags": {"name": "Grez-Doiceau", "name:fr": "Grez-Doiceau", "name:nl": "Graven", "name:ru": "\u0413\u0440\u0435\u0441-\u0414\u0443\u0430\u0441\u043e", "name:wa": "Gr\u00e9", "place": "town", "population": "12288", "population:date": "2012", "ref:INS": "25037", "website": "http://www.grez-doiceau.be/", "wikidata": "Q670310", "wikipedia": "fr:Grez-Doiceau"}}, {"type": "node", "id": 29827646, "lat": 50.5917416, "lon": 4.9049523, "tags": {"name": "\u00c9ghez\u00e9e", "name:fr": "\u00c9ghez\u00e9e", "name:nl": "\u00c9ghez\u00e9e", "name:ru": "\u042d\u0433\u0437\u0435", "name:wa": "Inguez\u00eaye", "place": "town", "population": "14000", "postal_code": "5310", "wikidata": "Q274522", "wikipedia": "fr:\u00c9ghez\u00e9e"}}, {"type": "node", "id": 64845591, "lat": 50.724179, "lon": 4.8679997, "tags": {"name": "Jodoigne", "name:la": "Geldonia", "name:nl": "Geldenaken", "name:ru": "\u0416\u043e\u0434\u0443\u0430\u043d\u044c", "name:wa": "Djodogne", "place": "town", "population": "12000", "wikidata": "Q670500", "wikipedia": "fr:Jodoigne"}}, {"type": "node", "id": 292561469, "lat": 50.7001001, "lon": 4.9889872, "tags": {"name": "Orp-Jauche", "name:fr": "Orp-Jauche", "name:ru": "\u041e\u0440\u043f-\u0416\u043e\u0448", "name:wa": "O\u00fb-Dj\u00e5ce", "place": "town", "population": "8390", "population:date": "2012", "ref:INS": "25120", "website": "http://www.orp-jauche.be/", "wikidata": "Q678218", "wikipedia": "fr:Orp-Jauche"}}, {"type": "node", "id": 79454098, "lat": 50.8868222, "lon": 3.4323622, "tags": {"name": "Waregem", "name:lt": "Varegemas", "name:ru": "\u0412\u0430\u0440\u0435\u0433\u0435\u043c", "name:uk": "\u0412\u0430\u0440\u0435\u0433\u0435\u043c", "place": "town", "wikidata": "Q204547", "wikipedia": "nl:Waregem"}}, {"type": "node", "id": 702562542, "lat": 50.9206638, "lon": 3.4485632, "tags": {"name": "Zulte", "name:ru": "\u0417\u044e\u043b\u0442\u0435", "place": "town", "postal_code": "9870"}}, {"type": "node", "id": 702564188, "lat": 50.96478, "lon": 3.4179961, "tags": {"name": "Dentergem", "name:ru": "\u0414\u0435\u043d\u0442\u0435\u0440\u0433\u0435\u043c", "name:vls": "Dentergem", "place": "town", "population": "8223", "postal_code": "8720", "wikidata": "Q742906", "wikipedia": "nl:Dentergem"}}, {"type": "node", "id": 6182051607, "lat": 50.9085536, "lon": 3.5648916, "tags": {"name": "Kruisem", "place": "town", "wikidata": "Q46865464", "wikipedia": "nl:Kruisem"}}, {"type": "node", "id": 1639591317, "lat": 50.8432766, "lon": 3.604179, "tags": {"name": "Oudenaarde", "name:el": "\u039f\u03bd\u03c4\u03b5\u03bd\u03ac\u03c1\u03bd\u03c4", "name:fr": "Audenarde", "name:la": "Aldenarda", "name:nl": "Oudenaarde", "name:ru": "\u0410\u0443\u0434\u0435\u043d\u0430\u0440\u0434\u0435", "place": "town", "postal_code": "9700", "wikidata": "Q12992", "wikipedia": "nl:Oudenaarde"}}, {"type": "node", "id": 269249763, "lat": 50.9292335, "lon": 3.6614192, "tags": {"name": "Gavere", "name:ru": "\u0413\u0430\u0432\u0435\u0440\u0435", "place": "town"}}, {"type": "node", "id": 855368245, "lat": 50.8793307, "lon": 3.719334, "tags": {"name": "Zwalm", "name:fr": "Zwalin", "name:nl": "Zwalm", "name:ru": "\u0417\u0432\u0430\u043b\u043c", "place": "town"}}, {"type": "node", "id": 64669915, "lat": 50.9840526, "lon": 3.5274017, "tags": {"name": "Deinze", "name:la": "Deinsa", "name:ru": "\u0414\u0435\u0439\u043d\u0437\u0435", "old_name": "Deynze", "place": "town", "postal_code": "9800", "wikidata": "Q499313", "wikipedia": "nl:Deinze"}}, {"type": "node", "id": 539138808, "lat": 51.083894, "lon": 3.4485192, "tags": {"name": "Aalter", "name:fr": "Aeltre", "name:nl": "Aalter", "name:ru": "\u0410\u043b\u0442\u0435\u0440", "place": "town", "population": "19028", "postal_code": "9880", "wikidata": "Q300970", "wikipedia": "nl:Aalter"}}, {"type": "node", "id": 727319197, "lat": 50.9924205, "lon": 3.6495958, "tags": {"name": "De Pinte", "name:fr": "La Pinte", "name:nl": "De Pinte", "name:ru": "\u0414\u0435-\u041f\u0438\u043d\u0442\u0435", "place": "town"}}, {"type": "node", "id": 708418816, "lat": 51.020971, "lon": 3.6397549, "tags": {"name": "Sint-Martens-Latem", "name:fr": "Laethem-Saint-Martin", "name:nl": "Sint-Martens-Latem", "name:ru": "\u0421\u0438\u043d\u0442-\u041c\u0430\u0440\u0442\u0435\u043d\u0441-\u041b\u0430\u0442\u0435\u043c", "place": "town", "wikidata": "Q737538", "wikipedia": "nl:Sint-Martens-Latem"}}, {"type": "node", "id": 319839776, "lat": 50.9942924, "lon": 3.7459119, "tags": {"name": "Merelbeke", "name:ru": "\u041c\u0435\u0440\u0435\u043b\u0431\u0435\u043a\u0435", "place": "town", "wikidata": "Q187755", "wikipedia": "nl:Merelbeke"}}, {"type": "node", "id": 1668655163, "lat": 51.0538286, "lon": 3.7250121, "tags": {"capital": "6", "name": "Gent", "name:ar": "\u063a\u0646\u062a", "name:ast": "Gante", "name:be": "\u0413\u0435\u043d\u0442", "name:bg": "\u0413\u0435\u043d\u0442", "name:ca": "Gant", "name:de": "Gent", "name:el": "\u0393\u03ac\u03bd\u03b4\u03b7", "name:en": "Ghent", "name:eo": "Gento", "name:es": "Gante", "name:eu": "Gante", "name:fa": "\u06af\u0646\u062a", "name:fr": "Gand", "name:fy": "Gint", "name:gl": "Gante - Gent", "name:he": "\u05d2\u05e0\u05d8", "name:hi": "\u0916\u0947\u0902\u091f", "name:it": "Gand", "name:ja": "\u30d8\u30f3\u30c8", "name:ka": "\u10d2\u10d4\u10dc\u10e2\u10d8", "name:ko": "\ud5e8\ud2b8", "name:la": "Gandavum", "name:lt": "Gentas", "name:lv": "\u0122ente", "name:mk": "\u0413\u0435\u043d\u0442", "name:mn": "\u0413\u0435\u043d\u0442", "name:mr": "\u0917\u0947\u0902\u091f", "name:my": "\u1002\u1004\u1037\u103a\u1019\u103c\u102d\u102f\u1037", "name:na": "Ghent", "name:nl": "Gent", "name:oc": "Gant", "name:os": "\u0413\u0435\u043d\u0442", "name:pl": "Gandawa", "name:pt": "Gante", "name:ru": "\u0413\u0435\u043d\u0442", "name:sr": "\u0413\u0435\u043d\u0442", "name:th": "\u0e40\u0e01\u0e19\u0e15\u0e4c", "name:tl": "Gante", "name:ug": "Gant", "name:uk": "\u0413\u0435\u043d\u0442", "name:vo": "Ghent", "name:zh": "\u6839\u7279", "place": "city", "population": "237000", "ref:LOCODE": "BEGNE", "wikidata": "Q1296", "wikipedia": "nl:Gent"}}, {"type": "node", "id": 2428604667, "lat": 51.0447236, "lon": 3.7588813, "tags": {"name": "Gentbrugge", "name:ru": "\u0413\u0435\u043d\u0442\u0431\u0440\u044e\u0433\u0433\u0435", "place": "town", "wikidata": "Q680916"}}, {"type": "node", "id": 6182051605, "lat": 51.1266908, "lon": 3.5884951, "tags": {"name": "Lievegem", "place": "town", "wikidata": "Q46865167"}}, {"type": "node", "id": 64801366, "lat": 51.1844827, "lon": 3.5665965, "tags": {"name": "Eeklo", "name:ru": "\u042d\u043a\u043b\u043e", "place": "town", "population": "20708", "postal_code": "9900", "wikidata": "Q12440", "wikipedia": "nl:Eeklo"}}, {"type": "node", "id": 1004306783, "lat": 51.1087891, "lon": 3.7078565, "tags": {"name": "Evergem", "name:fr": "Everghem", "name:nl": "Evergem", "name:ru": "\u042d\u0432\u0435\u0440\u0433\u0435\u043c", "old_name:nl": "Everghem", "place": "town", "population": "33671", "postal_code": "9940", "wikidata": "Q12997"}}, {"type": "node", "id": 2591992116, "lat": 50.869252, "lon": 3.8103878, "tags": {"name": "Zottegem", "name:ru": "\u0417\u043e\u0442\u0442\u0435\u0433\u0435\u043c", "place": "town"}}, {"type": "node", "id": 2986395431, "lat": 50.7715779, "lon": 3.8827287, "tags": {"name": "Geraardsbergen", "name:fr": "Grammont", "name:la": "Gerardimontium", "name:nl": "Geraardsbergen", "name:ru": "\u0413\u0435\u0440\u0430\u0440\u0434\u0441\u0431\u0435\u0440\u0433\u0435\u043d", "place": "town", "population": "33204", "website": "https://www.geraardsbergen.be/", "wikidata": "Q499532", "wikipedia": "nl:Geraardsbergen"}}, {"type": "node", "id": 343759325, "lat": 50.9206903, "lon": 3.8601373, "tags": {"name": "Sint-Lievens-Houtem", "name:fr": "Hautem-Saint-Li\u00e9vin", "name:nl": "Sint-Lievens-Houtem", "name:ru": "\u0421\u0438\u043d\u0442-\u041b\u0438\u0432\u0435\u043d\u0441-\u0425\u0430\u0443\u0442\u0435\u043c", "place": "town", "wikidata": "Q817372", "wikipedia": "fr:Hautem-Saint-Li\u00e9vin"}}, {"type": "node", "id": 344976955, "lat": 50.9456388, "lon": 3.8032713, "tags": {"name": "Oosterzele", "name:ru": "\u041e\u0441\u0442\u0435\u0440\u0437\u0435\u043b\u0435", "place": "town"}}, {"type": "node", "id": 343761662, "lat": 50.9226391, "lon": 3.9459888, "tags": {"name": "Erpe-Mere", "place": "town", "wikipedia": "nl:Erpe-Mere"}}, {"type": "node", "id": 240043532, "lat": 50.9662645, "lon": 3.9775505, "tags": {"name": "Lede", "name:ru": "\u041b\u0435\u0434\u0435", "place": "town", "population": "18400", "wikidata": "Q912113"}}, {"type": "node", "id": 1630178047, "lat": 50.8353611, "lon": 4.0242373, "tags": {"name": "Ninove", "name:la": "Niniva", "name:ru": "\u041d\u0438\u043d\u043e\u0432\u0435", "place": "town", "population": "36500", "wikidata": "Q385026"}}, {"type": "node", "id": 471221012, "lat": 50.8711313, "lon": 4.0860754, "tags": {"name": "Liedekerke", "name:ru": "\u041b\u0438\u0434\u0435\u043a\u0435\u0440\u043a\u0435", "place": "town", "postal_code": "1770", "website": "https://www.liedekerke.be/", "wikidata": "Q818621", "wikipedia": "nl:Liedekerke"}}, {"type": "node", "id": 251470983, "lat": 50.8713392, "lon": 4.1756966, "tags": {"alt_name:fr": "Ternath;Le Natte", "alt_name:wa": "Le Natte", "name": "Ternat", "name:fr": "Ternat", "name:nl": "Ternat", "name:pcd": "Le Natte", "name:ru": "\u0422\u0435\u0440\u043d\u0430\u0442", "name:wa": "Li Nate", "place": "town", "postal_code": "1740", "website": "https://www.ternat.be/", "wikidata": "Q930249", "wikipedia": "nl:Ternat (Belgi\u00eb)"}}, {"type": "node", "id": 1630177961, "lat": 50.9022532, "lon": 4.0057717, "tags": {"name": "Haaltert", "place": "town", "wikidata": "Q21767627"}}, {"type": "node", "id": 1643538392, "lat": 50.8834499, "lon": 4.0816397, "tags": {"name": "Denderleeuw", "name:ru": "\u0414\u0435\u043d\u0434\u0435\u0440\u043b\u0435\u0443", "place": "town"}}, {"type": "node", "id": 1668613880, "lat": 50.9383226, "lon": 4.0392147, "tags": {"name": "Aalst", "name:fr": "Alost", "name:la": "Alostum", "name:lt": "Alstas", "name:nl": "Aalst", "name:ru": "\u0410\u043b\u0441\u0442", "name:uk": "\u0410\u043b\u0441\u0442", "place": "town", "population": "85000", "wikidata": "Q13121", "wikipedia": "nl:Aalst (Oost-Vlaanderen)"}}, {"type": "node", "id": 290930345, "lat": 50.9035063, "lon": 4.1174675, "tags": {"name": "Affligem", "name:ru": "\u0410\u0444\u0444\u043b\u0438\u0433\u0435\u043c", "place": "town", "postal_code": "1790", "wikidata": "Q382860", "wikipedia": "nl:Affligem"}}, {"type": "node", "id": 268933881, "lat": 50.9690529, "lon": 4.1896665, "tags": {"name": "Opwijk", "name:ru": "\u041e\u043f\u0432\u0435\u0439\u043a", "place": "town", "population": "12575", "postal_code": "1745", "wikidata": "Q930292", "wikipedia": "nl:Opwijk"}}, {"type": "node", "id": 763107371, "lat": 51.00303, "lon": 3.7988833, "tags": {"name": "Melle", "name:ru": "\u041c\u0435\u043b\u043b\u0435", "place": "town", "wikidata": "Q696355"}}, {"type": "node", "id": 3606118154, "lat": 51.0556204, "lon": 3.7978887, "tags": {"name": "Destelbergen", "name:ru": "\u0414\u0435\u0441\u0442\u0435\u043b\u0431\u0435\u0440\u0433\u0435\u043d", "place": "town", "wikipedia": "nl:Destelbergen"}}, {"type": "node", "id": 255853162, "lat": 51.029657, "lon": 3.8504738, "tags": {"name": "Laarne", "name:fr": "Laerne", "name:nl": "Laarne", "name:ru": "\u041b\u0430\u0440\u043d\u0435", "place": "town", "wikidata": "Q730696", "wikipedia": "nl:Laarne"}}, {"type": "node", "id": 248774704, "lat": 51.0068804, "lon": 3.8855494, "tags": {"name": "Wetteren", "name:ru": "\u0412\u0435\u0442\u0442\u0435\u0440\u0435\u043d", "place": "town", "population": "23000", "postal_code": "9230", "wikidata": "Q643980"}}, {"type": "node", "id": 1629427493, "lat": 51.0060797, "lon": 3.9742524, "tags": {"name": "Wichelen", "name:ru": "\u0412\u0438\u0445\u0435\u043b\u0435\u043d", "place": "town", "wikidata": "Q730801"}}, {"type": "node", "id": 300731587, "lat": 51.0991574, "lon": 3.8271355, "tags": {"name": "Lochristi", "name:ru": "\u041b\u043e\u0445\u0440\u0438\u0441\u0442\u0438", "place": "town", "population": "20734", "postal_code": "9080", "wikidata": "Q735827", "wikipedia": "nl:Lochristi"}}, {"type": "node", "id": 448402065, "lat": 51.1742698, "lon": 3.9446436, "tags": {"alt_name": "Moerbeke-Waas", "name": "Moerbeke", "name:ru": "\u041c\u0443\u0440\u0431\u0435\u043a\u0435", "place": "town", "population": "5942", "postal_code": "9180", "website": "http://www.moerbeke.be", "wikidata": "Q397705", "wikipedia": "nl:Moerbeke (Waasland)"}}, {"type": "node", "id": 1625082107, "lat": 51.0251576, "lon": 4.0034747, "tags": {"name": "Berlare", "name:ru": "\u0411\u0435\u0440\u043b\u0430\u0440\u0435", "place": "town", "population": "13500", "postal_code": "9290", "wikidata": "Q793584", "wikipedia": "nl:Berlare"}}, {"type": "node", "id": 97084162, "lat": 51.0683621, "lon": 4.0385864, "tags": {"name": "Zele", "name:ru": "\u0417\u0435\u043b\u0435", "name:uk": "\u0417\u0435\u043b\u0435", "place": "town", "population": "20550", "wikidata": "Q388115", "wikipedia": "nl:Zele"}}, {"type": "node", "id": 272224561, "lat": 51.0004013, "lon": 4.1307711, "tags": {"name": "Lebbeke", "name:ru": "\u041b\u0435\u0431\u0431\u0435\u043a\u0435", "place": "town", "population": "17651", "wikidata": "Q504653", "wikipedia": "nl:Lebbeke"}}, {"type": "node", "id": 3053707058, "lat": 51.0195213, "lon": 4.1105542, "tags": {"alt_name": "Sint-Gillis", "name": "Sint-Gillis-bij-Dendermonde", "name:fr": "Saint-Gilles-lez-Termonde", "name:nl": "Sint-Gillis-bij-Dendermonde", "name:ru": "\u0421\u0438\u043d\u0442-\u0413\u0438\u043b\u043b\u0438\u0441-\u0431\u044d\u0439-\u0414\u0435\u043d\u0434\u0435\u0440\u043c\u043e\u043d\u0434\u0435", "place": "town", "postal_code": "9200", "wikidata": "Q898394", "wikipedia": "nl:Sint-Gillis-bij-Dendermonde"}}, {"type": "node", "id": 1597576695, "lat": 51.0312293, "lon": 4.098112, "tags": {"name": "Dendermonde", "name:fr": "Termonde", "name:la": "Teneramonda", "name:nl": "Dendermonde", "name:ru": "\u0414\u0435\u043d\u0434\u0435\u0440\u043c\u043e\u043d\u0434\u0435", "name:uk": "\u0414\u0435\u043d\u0434\u0435\u0440\u043c\u043e\u043d\u0434\u0435", "place": "town", "population": "45870", "population:date": "2020-01-01", "wikidata": "Q13122", "wikipedia": "nl:Dendermonde"}}, {"type": "node", "id": 1625642783, "lat": 51.1042159, "lon": 3.9911114, "tags": {"name": "Lokeren", "name:lt": "Lokerenas", "name:ru": "\u041b\u043e\u043a\u0435\u0440\u0435\u043d", "place": "town", "population": "39000", "postal_code": "9160", "website": "https://www.lokeren.be/", "wikidata": "Q12910", "wikipedia": "nl:Lokeren"}}, {"type": "node", "id": 1627119238, "lat": 51.1097147, "lon": 4.0842158, "tags": {"name": "Waasmunster", "name:fr": "Waesmunster", "name:nl": "Waasmunster", "name:ru": "\u0412\u0430\u0441\u043c\u044e\u043d\u0441\u0442\u0435\u0440", "place": "town", "population": "10312", "postal_code": "9250", "wikidata": "Q587906", "wikipedia": "nl:Waasmunster"}}, {"type": "node", "id": 269348038, "lat": 51.0977642, "lon": 4.1377229, "tags": {"name": "Hamme", "name:lt": "Ham\u0117", "name:ru": "\u0425\u0430\u043c\u043c\u0435", "place": "town", "population": "23547", "postal_code": "9220", "wikidata": "Q391294", "wikipedia": "nl:Hamme (Oost-Vlaanderen)"}}, {"type": "node", "id": 1646069513, "lat": 51.1646685, "lon": 4.1395124, "tags": {"name": "Sint-Niklaas", "name:fr": "Saint-Nicolas", "name:lt": "Sint Niklasas", "name:nl": "Sint-Niklaas", "name:ru": "\u0421\u0438\u043d\u0442-\u041d\u0438\u043a\u043b\u0430\u0441", "place": "town", "postal_code": "9100", "website": "https://www.sint-niklaas.be/", "wikidata": "Q13127", "wikipedia": "nl:Sint-Niklaas"}}, {"type": "node", "id": 662007517, "lat": 51.2088871, "lon": 3.4452214, "tags": {"name": "Maldegem", "name:ru": "\u041c\u0430\u043b\u0434\u0435\u0433\u0435\u043c", "place": "town", "population": "22397", "wikidata": "Q12896", "wikipedia": "nl:Maldegem"}}, {"type": "node", "id": 289835450, "lat": 51.2275942, "lon": 3.7532864, "tags": {"name": "Assenede", "place": "town", "population": "13637", "postal_code": "9960", "wikidata": "Q12901", "wikipedia": "nl:Assenede"}}, {"type": "node", "id": 280407020, "lat": 51.2000036, "lon": 3.8105002, "tags": {"name": "Zelzate", "name:ru": "\u0417\u0435\u043b\u0437\u0430\u0442\u0435", "place": "town", "population": "12242", "postal_code": "9060", "wikidata": "Q14062", "wikipedia": "nl:Zelzate"}}, {"type": "node", "id": 296361920, "lat": 51.2062265, "lon": 4.0396925, "tags": {"name": "Stekene", "name:ru": "\u0421\u0442\u0435\u043a\u0435\u043d\u0435", "place": "town", "postal_code": "9190", "website": "https://www.stekene.be/", "wikidata": "Q735851", "wikipedia": "nl:Stekene"}}, {"type": "node", "id": 2576214733, "lat": 51.2179895, "lon": 4.1286101, "tags": {"alt_name": "Sint-Gillis", "name": "Sint-Gillis-Waas", "name:fr": "Saint-Gilles-Waes", "name:nl": "Sint-Gillis-Waas", "name:ru": "\u0421\u0438\u043d\u0442-\u0413\u0438\u043b\u043b\u0438\u0441-\u0412\u0430\u0441", "place": "town", "postal_code": "9170", "website": "https://www.sint-gillis-waas.be/", "wikidata": "Q430510", "wikipedia": "nl:Sint-Gillis-Waas"}}, {"type": "node", "id": 251471298, "lat": 50.7800261, "lon": 4.2443604, "tags": {"name": "Sint-Pieters-Leeuw", "name:fr": "Leeuw-Saint-Pierre", "name:la": "Ieus Sancti Petri", "name:nl": "Sint-Pieters-Leeuw", "name:ru": "\u0421\u0438\u043d\u0442-\u041f\u0438\u0442\u0435\u0440\u0441-\u041b\u0435\u0443\u0432", "place": "town", "population": "31000", "short_name": "Leeuw", "short_name:la": "Ieus", "website": "https://www.sint-pieters-leeuw.be/", "wikidata": "Q688790", "wikipedia": "nl:Sint-Pieters-Leeuw"}}, {"type": "node", "id": 251470517, "lat": 50.8480711, "lon": 4.2662591, "tags": {"name": "Dilbeek", "name:ru": "\u0414\u0438\u043b\u0431\u0435\u043a", "place": "town", "postal_code": "1700", "website": "https://www.dilbeek.be/", "wikidata": "Q641134", "wikipedia": "nl:Dilbeek"}}, {"type": "node", "id": 66194565, "lat": 50.8649231, "lon": 4.2946734, "tags": {"alt_name:ru": "\u0421\u0438\u043d\u0442-\u0410\u0433\u0430\u0442\u0430-\u0411\u0435\u0440\u0445\u0435\u043c", "name": "Berchem-Sainte-Agathe - Sint-Agatha-Berchem", "name:fr": "Berchem-Sainte-Agathe", "name:la": "Berchemium Agathae", "name:li": "Sint-Agatha-Berchem", "name:nl": "Sint-Agatha-Berchem", "name:ru": "\u0411\u0435\u0440\u043a\u0435\u043c-\u0421\u0435\u043d\u0442-\u0410\u0433\u0430\u0442", "place": "town", "population": "22975", "population:date": "2012", "ref:INS": "21003", "website": "https://www.berchem-sainte-agathe.be/", "wikidata": "Q272272", "wikipedia": "fr:Berchem-Sainte-Agathe"}}, {"type": "node", "id": 66197751, "lat": 50.811795, "lon": 4.3181187, "tags": {"alt_name": "Veust", "alt_name:fr": "Veust", "alt_name:nl": "Veust", "alt_name:ru": "\u0412\u043e\u0440\u0441\u0442", "name": "Forest - Vorst", "name:fr": "Forest", "name:la": "Forestum", "name:nl": "Vorst", "name:ru": "\u0424\u043e\u0440\u0435-\u0412\u043e\u0440\u0441\u0442", "name:wa": "Foresse", "place": "town", "population": "53412", "population:date": "2012", "ref:INS": "21007", "website": "http://www.forest.irisnet.be/", "wikidata": "Q72946", "wikipedia": "fr:Forest (Bruxelles)", "wikipedia:nl": "Vorst (Brussel)"}}, {"type": "node", "id": 66199982, "lat": 50.8035441, "lon": 4.3338445, "tags": {"addr:postcode": "1180", "alt_name:ru": "\u042e\u043a\u043b\u044c", "name": "Uccle - Ukkel", "name:fr": "Uccle", "name:la": "Uccla", "name:nl": "Ukkel", "name:ru": "\u042e\u043a\u043a\u0435\u043b-\u042e\u043a\u043b\u044c", "name:wa": "Uke", "place": "town", "population": "79766", "population:date": "2012", "ref:INS": "21016", "website": "http://www.uccle.be/", "website:fr": "http://www.uccle.be/", "website:nl": "http://www.ukkel.be/", "wikidata": "Q203312", "wikipedia": "nl:Ukkel"}}, {"type": "node", "id": 26032499, "lat": 50.8249958, "lon": 4.3454841, "tags": {"alt_name:fr": "Saint-Gilles-lez-Bruxelles", "alt_name:la": "Sancti \u00c6gydii Obbruxel\u00e6;Sancti \u00c6gydii", "name": "Saint-Gilles - Sint-Gillis", "name:fr": "Saint-Gilles", "name:la": "Sanctus Aegidius", "name:nl": "Sint-Gillis", "name:ru": "\u0421\u0435\u043d-\u0416\u0438\u043b\u044c", "place": "town", "population": "49769", "population:date": "2012", "ref:INS": "21013", "website": "http://www.stgilles.irisnet.be/", "website:fr": "http://www.stgilles.irisnet.be/", "website:nl": "http://www.stgillis.irisnet.be/", "wikidata": "Q237674", "wikipedia": "fr:Saint-Gilles (Bruxelles)", "wikipedia:nl": "Sint-Gillis"}}, {"type": "node", "id": 66163274, "lat": 50.8390983, "lon": 4.3296526, "tags": {"alt_name:ar": "\u0622\u0646\u062f\u0631\u0644\u062e\u062a", "name": "Anderlecht", "name:ar": "\u0623\u0646\u062f\u0631\u0644\u062e\u062a", "name:fr": "Anderlecht", "name:la": "Anderlacum", "name:li": "Anderlech", "name:nl": "Anderlecht", "name:ru": "\u0410\u043d\u0434\u0435\u0440\u043b\u0435\u0445\u0442", "name:uk": "\u0410\u043d\u0434\u0435\u0440\u043b\u0435\u0445\u0442", "name:wa": "Anderlek", "note": "100600000", "place": "town", "population": "113462", "population:date": "2013", "ref:INS": "21001", "website": "https://www.anderlecht.be/", "wikidata": "Q12886", "wikipedia": "fr:Anderlecht"}}, {"type": "node", "id": 66191039, "lat": 50.8703273, "lon": 4.307798, "tags": {"name": "Ganshoren", "name:la": "Ganshorna", "name:ru": "\u0413\u0430\u043d\u0441\u0445\u043e\u0440\u0435\u043d", "place": "town", "population": "23466", "population:date": "2012", "ref:INS": "21008", "website": "https://www.ganshoren.be/", "wikidata": "Q366552", "wikipedia": "fr:Ganshoren", "wikipedia:nl": "Ganshoren"}}, {"type": "node", "id": 66196464, "lat": 50.8545959, "lon": 4.338636, "tags": {"alt_name": "Molenbeek", "alt_name:ru": "\u0421\u0438\u043d\u0442-\u042f\u043d\u0441-\u041c\u043e\u043b\u0435\u043d\u0431\u0435\u043a", "name": "Molenbeek-Saint-Jean - Sint-Jans-Molenbeek", "name:ar": "\u0633\u064a\u0646\u062a-\u064a\u0627\u0646\u0633-\u0645\u0648\u0644\u064a\u0646\u0628\u064a\u0643", "name:fr": "Molenbeek-Saint-Jean", "name:la": "Molenbecca", "name:nl": "Sint-Jans-Molenbeek", "name:ru": "\u041c\u043e\u043b\u0435\u043d\u0431\u0435\u043a-\u0421\u0435\u043d-\u0416\u0430\u043d", "place": "town", "population": "94798", "population:date": "2012", "ref:INS": "21012", "website": "http://www.molenbeek.be/", "wikidata": "Q180775", "wikipedia": "fr:Molenbeek-Saint-Jean", "wikipedia:nl": "Sint-Jans-Molenbeek"}}, {"type": "node", "id": 66192903, "lat": 50.8606042, "lon": 4.3315503, "tags": {"name": "Koekelberg", "name:ar": "\u0643\u0648\u0643\u0644\u0628\u0631\u063a", "name:la": "Cuckelberga", "name:ru": "\u041a\u0443\u043a\u0435\u043b\u044c\u0431\u0435\u0440\u0433", "place": "town", "population": "20742", "population:date": "2012", "ref:INS": "21011", "website": "http://www.koekelberg.be/", "wikidata": "Q219244", "wikipedia": "fr:Koekelberg", "wikipedia:nl": "Koekelberg"}}, {"type": "node", "id": 66498145, "lat": 50.8331141, "lon": 4.3668279, "tags": {"alt_name:ru": "\u042d\u043b\u0441\u0435\u043d\u0435", "loc_name": "Olche", "loc_name:fr": "Olche", "loc_name:nl": "Olche", "name": "Ixelles - Elsene", "name:ar": "\u0625\u064a\u0643\u0633\u0644", "name:fr": "Ixelles", "name:la": "Elsela", "name:nl": "Elsene", "name:ru": "\u0418\u043a\u0441\u0435\u043b\u044c", "name:wa": "Icsele", "place": "town", "population": "84073", "population:date": "2012", "ref:INS": "21009", "website": "http://www.ixelles.be/", "website:fr": "http://www.ixelles.be/", "website:nl": "http://www.elsene.be/", "wikidata": "Q208713", "wikipedia": "nl:Elsene"}}, {"type": "node", "id": 26032501, "lat": 50.8361447, "lon": 4.3861737, "tags": {"name": "Etterbeek", "name:fr": "Etterbeek", "name:la": "Iatrebecca", "name:nl": "Etterbeek", "name:ru": "\u042d\u0442\u0442\u0435\u0440\u0431\u0435\u043a", "name:wa": "Eterbek", "place": "town", "population": "46228", "population:date": "2013", "ref:INS": "21005", "website": "https://www.etterbeek.be/", "wikidata": "Q192859", "wikipedia": "fr:Etterbeek"}}, {"type": "node", "id": 1635651356, "lat": 50.8465573, "lon": 4.351697, "tags": {"ISO3166-1:alpha2": "BE", "admin_level": "2", "capital": "yes", "capital_ISO3166-1": "yes", "ele": "70", "name": "Bruxelles - Brussel", "name:af": "Brussel", "name:am": "\u1265\u1229\u12ad\u1234\u120d", "name:an": "Bruselas", "name:ang": "Brysel", "name:ar": "\u0628\u0631\u0648\u0643\u0633\u0644", "name:arc": "\u0712\u072a\u0718\u071f\u0723\u0720", "name:ast": "Bruxeles", "name:azb": "\u0628\u0631\u0648\u06a9\u0633\u0644", "name:bat-smg": "Briuselis", "name:be": "\u0411\u0440\u0443\u0441\u0435\u043b\u044c", "name:be-tarask": "\u0411\u0440\u0443\u0441\u044d\u043b\u044c", "name:bg": "\u0411\u0440\u044e\u043a\u0441\u0435\u043b", "name:bo": "\u0f54\u0f74\u0f60\u0f74\u0f0b\u0f63\u0f74\u0f60\u0f74\u0f0b\u0f66\u0f7a\u0f63\u200b\u0f0d", "name:br": "Brusel", "name:bs": "Brisel", "name:ca": "Brussel\u00b7les", "name:ce": "\u0411\u0440\u0443\u0441\u0441\u0435\u043b\u044c", "name:ckb": "\u0628\u0631\u0648\u06a9\u0633\u06ce\u0644", "name:crh": "Br\u00fcksel", "name:cs": "Brusel", "name:cy": "Brwsel", "name:da": "Bruxelles", "name:de": "Br\u00fcssel", "name:diq": "Bruksel", "name:el": "\u0392\u03c1\u03c5\u03be\u03ad\u03bb\u03bb\u03b5\u03c2", "name:en": "Brussels", "name:eo": "Bruselo", "name:es": "Bruselas", "name:et": "Br\u00fcssel", "name:eu": "Brusela", "name:ext": "Brusselas", "name:fa": "\u0628\u0631\u0648\u06a9\u0633\u0644", "name:fi": "Bryssel", "name:fo": "Brussel", "name:fr": "Bruxelles", "name:frp": "Bruss\u00e8les", "name:fy": "Brussel", "name:ga": "An Bhruis\u00e9il", "name:gd": "A' Bhruiseal", "name:gl": "Bruxelas", "name:gv": "Yn Vrussyl", "name:he": "\u05d1\u05e8\u05d9\u05e1\u05dc", "name:hr": "Brisel", "name:ht": "Briks\u00e8l", "name:hu": "Br\u00fcsszel", "name:hy": "\u0532\u0580\u0575\u0578\u0582\u057d\u0565\u056c", "name:ia": "Brussel", "name:id": "Brussel", "name:io": "Bruxel", "name:is": "Brussel", "name:it": "Bruxelles", "name:ja": "\u30d6\u30ea\u30e5\u30c3\u30bb\u30eb", "name:jv": "Brussel", "name:ka": "\u10d1\u10e0\u10d8\u10e3\u10e1\u10d4\u10da\u10d8", "name:kab": "Bruxelles", "name:kk": "\u0411\u0440\u0443\u0441\u0441\u0435\u043b", "name:kl": "Bruxelles", "name:kmr": "\u0628\u0631\u0648\u06a9\u0633\u06d5\u0644", "name:kn": "\u0cac\u0ccd\u0cb0\u0cb8\u0cc6\u0cb2\u0ccd\u0cb8\u0ccd", "name:ko": "\ube0c\ub93c\uc140", "name:ku": "Bruksel", "name:kv": "\u0411\u0440\u044e\u0441\u0441\u0435\u043b\u044c", "name:kw": "Brusselas", "name:la": "Bruxellae", "name:lad": "Bruselas", "name:lb": "Br\u00e9issel", "name:li": "Brussel", "name:lij": "Bruxelles", "name:ln": "Bruxelles", "name:lrc": "\u0628\u0648\u0631\u06ca\u06a9\u0633\u0644", "name:lt": "Briuselis", "name:lv": "Brisele", "name:mg": "Brussel", "name:mi": "Parahara", "name:mk": "\u0411\u0440\u0438\u0441\u0435\u043b", "name:mn": "\u0411\u0440\u044e\u0441\u0441\u0435\u043b\u044c", "name:mr": "\u092c\u094d\u0930\u0938\u0947\u0932\u094d\u0938", "name:ms": "Brussels", "name:mt": "Brussell", "name:my": "\u1018\u101b\u1015\u103a\u1006\u1032\u101c\u103a\u1019\u103c\u102d\u102f\u1037", "name:mzn": "\u0628\u0631\u0648\u06a9\u0633\u0644", "name:na": "Brussels", "name:nah": "Brusel", "name:nan": "Brussels", "name:nap": "Bruxelles", "name:nds": "Br\u00fcssel", "name:nl": "Brussel", "name:nn": "Brussel", "name:no": "Brussel", "name:nov": "Bruxelles", "name:oc": "Bruss\u00e8las", "name:os": "\u0411\u0440\u044e\u0441\u0441\u0435\u043b\u044c", "name:pa": "\u0a2c\u0a30\u0a42\u0a38\u0a32", "name:pap": "Brusela", "name:pl": "Bruksela", "name:pms": "Brussel", "name:pnb": "\u0628\u0631\u0633\u0644\u0632", "name:ps": "\u0628\u0631\u0648\u06a9\u0633\u0644", "name:pt": "Bruxelas", "name:qu": "Brussel", "name:ro": "Bruxelles", "name:ru": "\u0411\u0440\u044e\u0441\u0441\u0435\u043b\u044c", "name:rue": "\u0411\u0440\u0443\u0441\u0435\u043b", "name:sah": "\u0411\u0440\u04af\u0441\u0441\u0435\u043b\u044c", "name:scn": "Bruxelles", "name:sh": "Bruxelles", "name:simple": "Brussels", "name:sk": "Brusel", "name:sl": "Bruselj", "name:sq": "Brukseli", "name:sr": "\u0411\u0440\u0438\u0441\u0435\u043b", "name:sr-Latn": "Brisel", "name:stq": "Brussel", "name:sv": "Bryssel", "name:sw": "Brussels", "name:szl": "Bruksela", "name:ta": "\u0baa\u0bbf\u0bb0\u0b9a\u0bc6\u0bb2\u0bcd\u0b9a\u0bc1", "name:tg": "\u0411\u0440\u044e\u0441\u0441\u0435\u043b", "name:th": "\u0e1a\u0e23\u0e31\u0e2a\u0e40\u0e0b\u0e25\u0e2a\u0e4c", "name:tpi": "Brussels", "name:tr": "Br\u00fcksel", "name:tzl": "Br\u00fcxell", "name:ug": "Bryuss\u00e9l", "name:uk": "\u0411\u0440\u044e\u0441\u0441\u0435\u043b\u044c", "name:ur": "\u0628\u0631\u0633\u0644\u0632", "name:vec": "Borse\u0142a", "name:vep": "Br\u00fcssel'", "name:vi": "Bruxelles", "name:vls": "Brussel", "name:wa": "Brussele", "name:wuu": "\u5e03\u9c81\u585e\u5c14", "name:yi": "\u05d1\u05e8\u05d9\u05e1\u05dc", "name:yue": "\u5e03\u9b6f\u585e\u723e", "name:zea": "Brussel", "name:zh": "\u5e03\u9b6f\u585e\u723e", "place": "city", "population": "153377", "population:date": "2012", "ref:INS": "21004", "short_name": "BXL", "website": "http://www.bruxelles.be/", "wikidata": "Q239", "wikipedia": "en:City of Brussels"}}, {"type": "node", "id": 66164808, "lat": 50.8508197, "lon": 4.3691634, "tags": {"alt_name": "Saint-Josse - Sint-Joost", "alt_name:fr": "Saint-Josse", "alt_name:la": "Sanctus Iudocus", "alt_name:nl": "Sint-Joost", "name": "Saint-Josse-ten-Noode - Sint-Joost-ten-Node", "name:fr": "Saint-Josse-ten-Noode", "name:la": "Sanctus Iudocus ten Hoye", "name:nl": "Sint-Joost-ten-Node", "name:ru": "\u0421\u0435\u043d-\u0416\u043e\u0441\u0441-\u0442\u0435\u043d-\u041d\u043e\u0434\u0435", "place": "town", "population": "27548", "population:date": "2012", "ref:INS": "21014", "website": "http://www.stjosse.irisnet.be/", "website:fr": "http://www.stjosse.irisnet.be/", "website:nl": "http://www.stjoost.irisnet.be/", "wikidata": "Q272243", "wikipedia": "fr:Saint-Josse-ten-Noode", "wikipedia:nl": "Sint-Joost-ten-Noode"}}, {"type": "node", "id": 66169638, "lat": 50.8676041, "lon": 4.3737121, "tags": {"loc_name": "Scho\u00fbrebeik;Schoerebeik", "loc_name:fr": "Scho\u00fbrebeik;Schoerebeik", "loc_name:nl": "Scho\u00fbrebeik;Schoerebeik", "name": "Schaerbeek - Schaarbeek", "name:ar": "\u0633\u0643\u0627\u0631\u0628\u064a\u0643", "name:fr": "Schaerbeek", "name:la": "Scarbeca", "name:nl": "Schaarbeek", "name:ru": "\u0421\u0445\u0430\u0440\u0431\u0435\u043a", "name:wa": "Skerbek", "place": "town", "population": "130587", "population:date": "2013", "ref:INS": "21015", "website": "https://www.schaerbeek.be/", "wikidata": "Q12887", "wikipedia": "fr:Schaerbeek"}}, {"type": "node", "id": 317709828, "lat": 50.8720096, "lon": 4.4034182, "tags": {"name": "Evere", "name:fr": "Evere", "name:la": "Everna", "name:nl": "Evere", "name:ru": "\u042d\u0432\u0435\u0440\u0435", "name:wa": "Eterbek", "place": "town", "population": "37190", "population:date": "2012", "ref:INS": "21006", "website": "http://www.evere.be/", "wikidata": "Q321718", "wikipedia": "fr:Evere", "wikipedia:nl": "Evere"}}, {"type": "node", "id": 268514020, "lat": 50.9094333, "lon": 4.2015646, "tags": {"alt_name:fr": "Assche", "name": "Asse", "name:la": "Asca", "name:ru": "\u0410\u0441\u0441\u0435", "place": "town", "wikidata": "Q515710"}}, {"type": "node", "id": 388500555, "lat": 50.9591981, "lon": 4.2327769, "tags": {"name": "Merchtem", "name:ru": "\u041c\u0435\u0440\u0445\u0442\u0435\u043c", "place": "town", "population": "15110", "postal_code": "1785", "wikidata": "Q912106", "wikipedia": "nl:Merchtem"}}, {"type": "node", "id": 66513277, "lat": 50.8759585, "lon": 4.3245702, "tags": {"alt_name:fr": "Jette-Saint-Pierre;Yet", "alt_name:nl": "Sint-Pieters-Jette;Yet", "alt_name:ru": "\u0415\u0442\u0442\u0435", "name": "Jette", "name:ar": "\u062c\u064a\u062a\u064a", "name:fr": "Jette", "name:la": "Ietta", "name:nl": "Jette", "name:ru": "\u0416\u0435\u0442", "name:wa": "Djete", "place": "town", "population": "50237", "population:date": "2014", "postal_code": "1090", "ref:INS": "21010", "website": "www.jette.be", "wikidata": "Q241918", "wikipedia": "fr:Jette", "wikipedia:nl": "Jette"}}, {"type": "node", "id": 344911882, "lat": 50.9087716, "lon": 4.3034586, "tags": {"name": "Wemmel", "name:ru": "\u0412\u0435\u043c\u043c\u0435\u043b", "place": "town"}}, {"type": "node", "id": 266783207, "lat": 50.9341625, "lon": 4.3287322, "tags": {"name": "Meise", "name:fr": "Meysse", "name:nl": "Meise", "name:ru": "\u041c\u0435\u0439\u0441\u0435", "place": "town", "wikidata": "Q922260", "wikipedia": "nl:Meise"}}, {"type": "node", "id": 266234967, "lat": 50.932458, "lon": 4.3717863, "tags": {"name": "Grimbergen", "name:la": "Grimberga", "name:ru": "\u0413\u0440\u0438\u043c\u0431\u0435\u0440\u0433\u0435\u043d", "place": "town"}}, {"type": "node", "id": 66501221, "lat": 50.7981063, "lon": 4.4176441, "tags": {"alt_name:ru": "\u0412\u0430\u0442\u0435\u0440\u043c\u0430\u043b-\u0411\u043e\u0441\u0432\u043e\u0440\u0434\u0435", "name": "Watermael-Boitsfort - Watermaal-Bosvoorde", "name:fr": "Watermael-Boitsfort", "name:la": "Watermala-Bostfort", "name:nl": "Watermaal-Bosvoorde", "name:ru": "\u0412\u0430\u0442\u0435\u0440\u043c\u0430\u043b\u044c-\u0411\u0443\u0430\u0444\u043e\u0440", "place": "town", "population": "24320", "population:date": "2012", "ref:INS": "21017", "website": "http://www.watermael-boitsfort.be/", "website:fr": "http://www.watermael-boitsfort.be/", "website:nl": "http://www.watermaal-bosvoorde.be/", "wikidata": "Q272262", "wikipedia": "fr:Watermael-Boitsfort", "wikipedia:nl": "Watermaal-Bosvoorde"}}, {"type": "node", "id": 66509952, "lat": 50.8172355, "lon": 4.4268982, "tags": {"alt_name:ru": "\u0410\u0443\u0434\u0435\u0440\u0433\u0435\u043c", "loc_name": "\u00c2vergoum", "loc_name:fr": "\u00c2vergoum", "loc_name:nl": "\u00c2vergoum", "name": "Auderghem - Oudergem", "name:fr": "Auderghem", "name:la": "Audergemium", "name:nl": "Oudergem", "name:ru": "\u041e\u0434\u0435\u0440\u0433\u0435\u043c", "name:wa": "Oderguem", "place": "town", "population": "30456", "population:date": "2012", "ref:INS": "21002", "website": "http://www.auderghem.be/", "website:fr": "http://www.auderghem.be/", "website:nl": "http://www.oudergem.be/", "wikidata": "Q272228", "wikipedia": "fr:Auderghem", "wikipedia:nl": "Oudergem"}}, {"type": "node", "id": 252608972, "lat": 50.7674846, "lon": 4.474407, "tags": {"name": "Hoeilaart", "name:fr": "Hoeilaert", "name:nl": "Hoeilaart", "name:ru": "\u0425\u0443\u043b\u0430\u0440\u0442", "old_name": "Hoeylaert", "place": "town", "population": "10200", "postal_code": "1560", "website": "https://www.hoeilaart.be/", "wikidata": "Q641278", "wikipedia": "nl:Hoeilaart"}}, {"type": "node", "id": 66508549, "lat": 50.8370253, "lon": 4.4274636, "tags": {"alt_name:ru": "\u0421\u0438\u043d\u0442-\u041f\u0438\u0442\u0435\u0440\u0441-\u0412\u043e\u043b\u044e\u0432\u0435", "name": "Woluwe-Saint-Pierre - Sint-Pieters-Woluwe", "name:fr": "Woluwe-Saint-Pierre", "name:la": "Wolua Sancti Petri", "name:nl": "Sint-Pieters-Woluwe", "name:ru": "\u0412\u043e\u043b\u044e\u0432\u0435-\u0421\u0435\u043d-\u041f\u044c\u0435\u0440", "name:wa": "Woluw\u00e9-Sint-Pire", "place": "town", "population": "40044", "population:date": "2012", "ref:INS": "21019", "website": "https://www.woluwe1150.be/", "wikidata": "Q242393", "wikipedia": "fr:Woluwe-Saint-Pierre", "wikipedia:nl": "Sint-Pieters-Woluwe"}}, {"type": "node", "id": 66503288, "lat": 50.8430448, "lon": 4.4256732, "tags": {"alt_name:ru": "\u0421\u0438\u043d\u0442-\u041b\u0430\u043c\u0431\u0440\u0435\u0445\u0442\u0441-\u0412\u043e\u043b\u044e\u0432\u0435", "name": "Woluwe-Saint-Lambert - Sint-Lambrechts-Woluwe", "name:fr": "Woluwe-Saint-Lambert", "name:la": "Wolua Sancti Lamberti", "name:nl": "Sint-Lambrechts-Woluwe", "name:ru": "\u0421\u0438\u043d\u0442-\u041b\u0430\u043c\u0440\u0435\u0445\u0442\u0441-\u0412\u043e\u043b\u044e\u0432\u0435", "name:wa": "Woluw\u00e9-Sint-Lambiet", "place": "town", "population": "51937", "population:date": "2012", "ref:INS": "21018", "website": "https://www.woluwe1200.be/", "wikidata": "Q211764", "wikipedia": "fr:Woluwe-Saint-Lambert", "wikipedia:nl": "Sint-Lambrechts-Woluwe"}}, {"type": "node", "id": 347082350, "lat": 50.8440554, "lon": 4.4871796, "tags": {"alt_name:fr": "Wesembeek-Ophem", "name": "Wezembeek-Oppem", "name:nl": "Wezembeek-Oppem", "name:ru": "\u0412\u0435\u0437\u0435\u043c\u0431\u0435\u043a-\u041e\u043f\u043f\u0435\u043c", "old_name": "Wesembeek-Ophem", "place": "town", "wikidata": "Q912091", "wikipedia": "nl:Wezembeek-Oppem", "wikipedia:fr": "Wezembeek-Oppem"}}, {"type": "node", "id": 347083997, "lat": 50.860961, "lon": 4.4662618, "tags": {"name": "Kraainem", "place": "town"}}, {"type": "node", "id": 362632215, "lat": 50.7701622, "lon": 4.5351806, "tags": {"name": "Overijse", "name:ru": "\u041e\u0432\u0435\u0440\u0435\u0439\u0441\u0435", "old_name": "Overyssche;Over-Yssche", "place": "town", "population": "24200", "postal_code": "3090", "website": "http://www.overijse.be", "wikidata": "Q599127", "wikipedia": "nl:Overijse"}}, {"type": "node", "id": 254400196, "lat": 50.8241883, "lon": 4.5138824, "tags": {"alt_name:la": "Fura", "name": "Tervuren", "name:fr": "Tervueren", "name:la": "Fura Ducis", "name:nl": "Tervuren", "name:ru": "\u0422\u0435\u0440\u0432\u044e\u0440\u0435\u043d", "old_name": "Tervueren", "place": "town", "population": "20816", "postal_code": "3080", "website": "https://www.tervuren.be/", "wikidata": "Q456544", "wikipedia": "nl:Tervuren"}}, {"type": "node", "id": 308897364, "lat": 50.9126722, "lon": 4.4328991, "tags": {"name": "Machelen", "name:ru": "\u041c\u0430\u0445\u0435\u043b\u0435\u043d", "operator": "Toerisme Vlaams-Brabant", "place": "town", "postal_code": "1830"}}, {"type": "node", "id": 60166648, "lat": 50.8806207, "lon": 4.4730008, "tags": {"name": "Zaventem", "name:ru": "\u0417\u0430\u0432\u0435\u043d\u0442\u0435\u043c", "place": "town", "wikidata": "Q28898", "wikipedia": "en:Zaventem"}}, {"type": "node", "id": 1677252814, "lat": 50.9287524, "lon": 4.4228712, "tags": {"alt_name:fr": "Vilvorde-lez-Bruxelles", "alt_name:la": "Filfurdo;Filfordia;Bilefurte", "name": "Vilvoorde", "name:fr": "Vilvorde", "name:la": "Vilvordia", "name:nl": "Vilvoorde", "name:ru": "\u0412\u0438\u043b\u0432\u043e\u0440\u0434\u0435", "name:wa": "Vilv\u00f4r", "old_name:en": "Filford", "place": "town", "population": "40558", "postal_code": "1800", "website": "https://www.vilvoorde.be/", "wikidata": "Q318418", "wikipedia": "nl:Vilvoorde"}}, {"type": "node", "id": 60166656, "lat": 50.8858727, "lon": 4.5390678, "tags": {"name": "Kortenberg", "name:fr": "Cortenbergh", "name:nl": "Kortenberg", "name:ru": "\u041a\u043e\u0440\u0442\u0435\u043d\u0431\u0435\u0440\u0433", "place": "town", "website": "https://www.kortenberg.be/"}}, {"type": "node", "id": 320349813, "lat": 50.9093488, "lon": 4.5110471, "tags": {"name": "Steenokkerzeel", "name:fr": "Steenockerzeel", "name:nl": "Steenokkerzeel", "name:ru": "\u0421\u0442\u0435\u043d\u043e\u043a\u043a\u0435\u0440\u0437\u0435\u043b", "place": "town", "population": "12092", "postal_code": "1820", "website": "https://www.steenokkerzeel.be/", "wikidata": "Q984888", "wikipedia": "nl:Steenokkerzeel"}}, {"type": "node", "id": 320357115, "lat": 50.9413315, "lon": 4.5495668, "tags": {"name": "Kampenhout", "name:ru": "\u041a\u0430\u043c\u043f\u0435\u043d\u0445\u0430\u0443\u0442", "place": "town", "population": "11252", "postal_code": "1910", "website": "https://www.kampenhout.be/", "wikidata": "Q492453", "wikipedia": "nl:Kampenhout"}}, {"type": "node", "id": 290954618, "lat": 51.0152271, "lon": 4.2022689, "tags": {"name": "Buggenhout", "name:ru": "\u0411\u044e\u0433\u0433\u0435\u043d\u0445\u0430\u0443\u0442", "place": "town", "population": "13973", "postal_code": "9255", "website": "https://www.buggenhout.be/", "wikidata": "Q202309", "wikipedia": "nl:Buggenhout"}}, {"type": "node", "id": 6182051606, "lat": 51.066411, "lon": 4.2812346, "tags": {"name": "Puurs-Sint-Amands", "name:fr": "Puers-Saint-Amand", "name:nl": "Puurs-Sint-Amands", "place": "town", "population": "26142", "population:date": "2020-01-01", "source:population": "https://statbel.fgov.be/nl/gemeente/puurs-sint-amands#dashboard2", "wikidata": "Q45202943", "wikipedia": "nl:Puurs-Sint-Amands"}}, {"type": "node", "id": 469835865, "lat": 51.0021194, "lon": 4.3028049, "tags": {"name": "Londerzeel", "name:ru": "\u041b\u043e\u043d\u0434\u0435\u0440\u0437\u0435\u043b", "place": "town", "population": "17525", "postal_code": "1840", "website": "https://www.londerzeel.be/", "wikidata": "Q587819", "wikipedia": "nl:Londerzeel"}}, {"type": "node", "id": 32033243, "lat": 51.0131904, "lon": 4.3599725, "tags": {"name": "Kapelle-op-den-Bos", "name:fr": "Capelle-au-Bois", "name:nl": "Kapelle-op-den-Bos", "name:ru": "\u041a\u0430\u043f\u0435\u043b\u043b\u0435-\u043e\u043f-\u0434\u0435\u043d-\u0411\u043e\u0441", "place": "town", "postal_code": "1880", "website": "http://www.kapelle-op-den-bos.be", "wikidata": "Q911995", "wikipedia": "nl:Kapelle-op-den-Bos"}}, {"type": "node", "id": 262484540, "lat": 51.0606816, "lon": 4.3588917, "tags": {"name": "Willebroek", "name:fr": "Willebroeck", "name:nl": "Willebroek", "name:ru": "\u0412\u0438\u043b\u043b\u0435\u0431\u0440\u0443\u043a", "place": "town", "population": "25327", "population:date": "2014-01-01", "postal_code": "2830", "source:population": "wikipedia", "website": "http://www.willebroek.be/", "wikidata": "Q695278", "wikipedia": "nl:Willebroek"}}, {"type": "node", "id": 333719870, "lat": 51.0953014, "lon": 4.2341308, "tags": {"name": "Bornem", "name:ru": "\u0411\u043e\u0440\u043d\u0435\u043c", "place": "town", "population": "20347", "postal_code": "2880", "website": "https://www.bornem.be/", "wikidata": "Q724025", "wikipedia": "nl:Bornem"}}, {"type": "node", "id": 73771130, "lat": 51.1253635, "lon": 4.2133313, "tags": {"name": "Temse", "name:fr": "Tamise", "name:nl": "Temse", "name:ru": "\u0422\u0435\u043c\u0441\u0435", "place": "town", "population": "29892", "population:date": "2014-01-01", "postal_code": "9140", "source:population": "wikipedia", "wikidata": "Q823623", "wikipedia": "nl:Temse"}}, {"type": "node", "id": 173252843, "lat": 51.0873789, "lon": 4.3667216, "tags": {"name": "Boom", "name:lt": "Bomas", "name:nl": "Boom", "name:ru": "\u0411\u043e\u043c", "place": "town", "population": "17231", "population:date": "2014-01-01", "postal_code": "2850", "source:population": "wikipedia", "website": "https://www.boom.be/", "wikidata": "Q723972", "wikipedia": "nl:Boom (Belgi\u00eb)"}}, {"type": "node", "id": 263410618, "lat": 51.133297, "lon": 4.3870241, "tags": {"name": "Aartselaar", "name:fr": "Aertselaer", "name:nl": "Aartselaar", "name:ru": "\u0410\u0440\u0442\u0441\u0435\u043b\u0430\u0440", "old_name": "Aertselaer", "place": "town", "population": "14267", "postal_code": "2630", "website": "https://www.aartselaar.be/", "wikidata": "Q303246", "wikipedia": "nl:Aartselaar"}}, {"type": "node", "id": 262504833, "lat": 51.1430192, "lon": 4.3409826, "tags": {"name": "Hemiksem", "name:nl": "Hemiksem", "name:ru": "\u0425\u0435\u043c\u0438\u043a\u0441\u0435\u043c", "old_name": "Hemixem", "place": "town", "population": "10866", "postal_code": "2620", "website": "http://www.hemiksem.be", "wikidata": "Q724448", "wikipedia": "nl:Hemiksem"}}, {"type": "node", "id": 262971445, "lat": 51.1712275, "lon": 4.3091107, "tags": {"name": "Kruibeke", "name:ru": "\u041a\u0440\u0451\u0439\u0431\u0435\u043a\u0435", "place": "town", "population": "15489", "postal_code": "9150", "wikidata": "Q916980", "wikipedia": "nl:Kruibeke"}}, {"type": "node", "id": 63713445, "lat": 51.1794946, "lon": 4.3617847, "tags": {"name": "Hoboken", "name:la": "Alto fageti", "name:ru": "\u0425\u043e\u0431\u043e\u043a\u0435\u043d", "place": "town", "postal_code": "2660", "website": "http://www.hoboken.be/", "wikidata": "Q267663", "wikipedia": "nl:Hoboken (Antwerpen)"}}, {"type": "node", "id": 27505043, "lat": 51.1700864, "lon": 4.3942577, "tags": {"name": "Wilrijk", "name:la": "Wilrica", "name:ru": "\u0412\u0438\u043b\u0440\u0435\u0439\u043a", "place": "town", "postal_code": "2610", "website": "http://www.wilrijk.be/", "wikidata": "Q2687417", "wikipedia": "nl:Wilrijk"}}, {"type": "node", "id": 270762769, "lat": 50.9842166, "lon": 4.4650814, "tags": {"name": "Zemst", "name:ru": "\u0417\u0435\u043c\u0441\u0442", "place": "town", "population": "22587", "population:date": "2014-01-01", "source:population": "wikipedia", "wikidata": "Q179249"}}, {"type": "node", "id": 2573424360, "lat": 51.0281381, "lon": 4.4803453, "tags": {"alt_name:la": "Mechlinia", "name": "Mechelen", "name:de": "Mecheln", "name:en": "Mechelen", "name:es": "Malinas", "name:fr": "Malines", "name:it": "Malines", "name:la": "Maclinia", "name:lt": "Mechelenas", "name:nl": "Mechelen", "name:ru": "\u041c\u0435\u0445\u0435\u043b\u0435\u043d", "place": "town", "population": "80000", "website": "https://www.mechelen.be/", "wikidata": "Q162022", "wikipedia": "nl:Mechelen (stad)"}}, {"type": "node", "id": 262482619, "lat": 51.0792853, "lon": 4.4240472, "tags": {"name": "Rumst", "name:la": "Rumesta", "name:nl": "Rumst", "name:ru": "\u0420\u044e\u043c\u0441\u0442", "old_name": "Rumpst", "place": "town", "population": "14693", "postal_code": "2840", "website": "https://www.rumst.be/", "wikidata": "Q943446", "wikipedia": "nl:Rumst"}}, {"type": "node", "id": 33139877, "lat": 51.0253242, "lon": 4.5483885, "tags": {"name": "Bonheiden", "name:ru": "\u0411\u043e\u043d\u0445\u0435\u0439\u0434\u0435\u043d", "place": "town", "postal_code": "2820", "website": "https://www.bonheiden.be/", "wikidata": "Q528222", "wikipedia": "nl:Bonheiden"}}, {"type": "node", "id": 290007159, "lat": 50.9815937, "lon": 4.5729262, "tags": {"name": "Boortmeerbeek", "name:ru": "\u0411\u043e\u0440\u0442\u043c\u0435\u0440\u0431\u0435\u043a", "place": "town", "population": "11929", "postal_code": "3190", "website": "https://www.boortmeerbeek.be/", "wikidata": "Q746078", "wikipedia": "nl:Boortmeerbeek"}}, {"type": "node", "id": 33509358, "lat": 51.0699542, "lon": 4.532238, "tags": {"name": "Sint-Katelijne-Waver", "name:fr": "Wavre-Sainte-Catherine", "name:nl": "Sint-Katelijne-Waver", "name:ru": "\u0421\u0438\u043d\u0442-\u041a\u0430\u0442\u0435\u043b\u0435\u0439\u043d\u0435-\u0412\u0430\u0432\u0435\u0440", "place": "town", "website": "http://www.sint-katelijne-waver.be/", "wikidata": "Q696578", "wikipedia": "nl:Sint-Katelijne-Waver"}}, {"type": "node", "id": 2576229505, "lat": 51.134377, "lon": 4.4456359, "tags": {"alt_name:la": "Contiacum", "name": "Kontich", "name:la": "Condacum", "name:nl": "Kontich", "name:ru": "\u041a\u043e\u043d\u0442\u0438\u0445", "old_name": "Contich", "place": "town", "population": "20290", "postal_code": "2550", "website": "https://www.kontich.be/", "wikidata": "Q725074", "wikipedia": "nl:Kontich"}}, {"type": "node", "id": 85635996, "lat": 51.0957176, "lon": 4.5061988, "tags": {"name": "Duffel", "name:la": "Dufflia", "name:ru": "\u0414\u044e\u0444\u0444\u0435\u043b", "place": "town", "population": "17119", "population:date": "2014-01-01", "postal_code": "2570", "source:population": "wikipedia", "website": "https://www.duffel.be/", "wikidata": "Q615109", "wikipedia": "nl:Duffel"}}, {"type": "node", "id": 75720678, "lat": 51.1548066, "lon": 4.4458312, "tags": {"name": "Edegem", "name:nl": "Edegem", "name:ru": "\u042d\u0434\u0435\u0433\u0435\u043c", "name:uk": "\u0415\u0434\u0435\u0433\u0435\u043c", "old_name": "Edeghem", "place": "town", "postal_code": "2650", "website": "https://www.edegem.be/", "wikidata": "Q724238", "wikipedia": "nl:Edegem"}}, {"type": "node", "id": 27505095, "lat": 51.1704119, "lon": 4.4566996, "tags": {"name": "Mortsel", "name:nl": "Mortsel", "name:ru": "\u041c\u043e\u0440\u0442\u0441\u0435\u043b", "place": "town", "postal_code": "2640", "website": "https://www.mortsel.be/", "wikidata": "Q688781", "wikipedia": "nl:Mortsel"}}, {"type": "node", "id": 249485014, "lat": 51.1635604, "lon": 4.4963921, "tags": {"name": "Boechout", "name:nl": "Boechout", "name:ru": "\u0411\u0443\u043a\u0445\u0430\u0443\u0442", "old_name": "Boeckhout", "place": "town", "population": "12335", "postal_code": "2530", "website": "https://www.boechout.be/", "wikidata": "Q723822", "wikipedia": "nl:Boechout"}}, {"type": "node", "id": 30997655, "lat": 51.131069, "lon": 4.5696516, "tags": {"ele": "6", "name": "Lier", "name:fr": "Lierre", "name:lt": "Lyras", "name:nl": "Lier", "name:ru": "\u041b\u0438\u0440", "name:uk": "\u041b\u0456\u0440", "note": "100600000", "place": "town", "population": "34368", "population:date": "2014-01-01", "postal_code": "2500", "source:population": "wikipedia", "website": "https://www.lier.be/", "wikidata": "Q12460", "wikipedia": "nl:Lier (Belgi\u00eb)"}}, {"type": "node", "id": 21306258, "lat": 50.8376275, "lon": 4.6629253, "tags": {"alt_name:fr": "Vieux-H\u00e9verl\u00e9", "name": "Oud-Heverlee", "place": "town", "postal_code": "3050", "website": "https://www.oud-heverlee.be/", "wikidata": "Q746641", "wikipedia": "nl:Oud-Heverlee"}}, {"type": "node", "id": 20935666, "lat": 50.8645908, "lon": 4.6937736, "tags": {"alt_name:fr": "H\u00e9verl\u00e9", "name": "Heverlee", "name:la": "Heverlea", "place": "town", "population": "21000", "wikidata": "Q764369", "wikipedia": "nl:Heverlee"}}, {"type": "node", "id": 1448497912, "lat": 50.879202, "lon": 4.7011675, "tags": {"capital": "6", "name": "Leuven", "name:ar": "\u0644\u0648\u0641\u0627\u0646", "name:bg": "\u041b\u044c\u043e\u0432\u0435\u043d", "name:ca": "Lovaina", "name:cs": "Lova\u0148", "name:de": "L\u00f6wen", "name:el": "\u039b\u03ad\u03bf\u03c5\u03b2\u03b5\u03bd", "name:en": "Leuven", "name:eo": "Loveno", "name:es": "Lovaina", "name:eu": "Lovaina", "name:fr": "Louvain", "name:he": "\u05dc\u05d5\u05d5\u05df", "name:it": "Lovanio", "name:ja": "\u30eb\u30fc\u30f4\u30a7\u30f3", "name:la": "Lovanium", "name:lb": "L\u00e9iwen", "name:lt": "Leuvenas", "name:mk": "\u041b\u0435\u0432\u0435\u043d", "name:nl": "Leuven", "name:pt": "Lovaina", "name:ro": "Louvain", "name:ru": "\u041b\u0451\u0432\u0435\u043d", "name:sk": "Leuven", "name:sr": "\u041b\u0435\u0432\u0435\u043d", "name:sr-Latn": "Luven", "name:zh": "\u9c81\u6c76", "place": "city", "population": "102275", "population:date": "2020-01-01", "source:population": "wikipedia", "website": "https://www.leuven.be", "wikidata": "Q118958", "wikipedia": "nl:Leuven"}}, {"type": "node", "id": 83795795, "lat": 50.9029514, "lon": 4.6728253, "tags": {"name": "Herent", "name:ru": "\u0425\u0435\u0440\u0435\u043d\u0442", "operator": "Toerisme Vlaams-Brabant", "place": "town", "population": "20442", "postal_code": "3020", "website": "https://www.herent.be/"}}, {"type": "node", "id": 256992229, "lat": 50.9769286, "lon": 4.6386824, "tags": {"name": "Haacht", "name:fr": "Haecht", "name:nl": "Haacht", "name:ru": "\u0425\u0430\u0445\u0442", "old_name": "Haeght;Haecht", "place": "town", "postal_code": "3150", "website": "https://www.haacht.be/", "wikidata": "Q950129", "wikipedia": "nl:Haacht"}}, {"type": "node", "id": 266381535, "lat": 50.9514713, "lon": 4.7094054, "tags": {"name": "Rotselaar", "name:fr": "Rotselaer", "name:ru": "\u0420\u043e\u0442\u0441\u0435\u043b\u0430\u0440", "place": "town", "postal_code": "3110", "website": "https://www.rotselaar.be/", "wikidata": "Q926139", "wikipedia": "nl:Rotselaar"}}, {"type": "node", "id": 626758622, "lat": 50.9215896, "lon": 4.7570606, "tags": {"name": "Holsbeek", "name:ru": "\u0425\u043e\u043b\u0441\u0431\u0435\u043a", "place": "town", "postal_code": "3320", "wikidata": "Q676893", "wikipedia": "nl:Holsbeek"}}, {"type": "node", "id": 1650714389, "lat": 50.8074825, "lon": 4.9371775, "tags": {"name": "Tienen", "name:fr": "Tirlemont", "name:la": "Thuinas", "name:nl": "Tienen", "name:ru": "\u0422\u0438\u043d\u0435\u043d", "place": "town", "population": "32000", "postal_code": "3300", "website": "https://www.tienen.be/", "wikidata": "Q456550", "wikipedia": "nl:Tienen"}}, {"type": "node", "id": 352688814, "lat": 50.8815702, "lon": 4.8416048, "tags": {"name": "Lubbeek", "name:ru": "\u041b\u044e\u0431\u0431\u0435\u043a", "place": "town", "postal_code": "3210", "website": "https://www.lubbeek.be/"}}, {"type": "node", "id": 421872694, "lat": 50.9352867, "lon": 4.9100433, "tags": {"name": "Tielt-Winge", "name:ru": "\u0422\u0438\u043b\u0442-\u0412\u0438\u043d\u0433\u0435", "place": "town", "population": "10674", "website": "https://www.tielt-winge.be/", "wikidata": "Q984892", "wikipedia": "nl:Tielt-Winge"}}, {"type": "node", "id": 164286485, "lat": 51.0049242, "lon": 4.6265551, "tags": {"name": "Keerbergen", "name:ru": "\u041a\u0435\u0440\u0431\u0435\u0440\u0433\u0435\u043d", "operator": "Toerisme Vlaams-Brabant", "place": "town", "website": "https://www.keerbergen.be/", "wikidata": "Q984894", "wikipedia": "nl:Keerbergen"}}, {"type": "node", "id": 291710723, "lat": 50.9919047, "lon": 4.7040582, "tags": {"name": "Tremelo", "name:ru": "\u0422\u0440\u0435\u043c\u0435\u043b\u043e", "place": "town", "population": "14606", "postal_code": "3120", "source": "https://nl.wikipedia.org/wiki/Lijst_van_gemeenten_in_het_Vlaams_Gewest", "website": "https://www.tremelo.be/", "wikidata": "Q926110", "wikipedia": "nl:Tremelo"}}, {"type": "node", "id": 98286064, "lat": 51.0570823, "lon": 4.6310473, "tags": {"name": "Putte", "name:la": "Putta", "name:ru": "\u041f\u044e\u0442\u0442\u0435", "old_name": "Sint-Niklaas-Waver;Sint-Niklaas-Putte", "place": "town", "population": "17374", "website": "https://www.putte.be/", "wikidata": "Q929397", "wikipedia": "nl:Putte (Belgische gemeente)"}}, {"type": "node", "id": 410424225, "lat": 51.0194098, "lon": 4.782145, "tags": {"name": "Begijnendijk", "name:ru": "\u0411\u0435\u0433\u0435\u0439\u043d\u0435\u043d\u0434\u0435\u0439\u043a", "place": "town", "population": "10000", "postal_code": "3130", "website": "https://www.begijnendijk.be/", "wikidata": "Q432610", "wikipedia": "nl:Begijnendijk"}}, {"type": "node", "id": 31024030, "lat": 51.0759905, "lon": 4.7286753, "tags": {"name": "Heist-op-den-Berg", "name:ru": "\u0425\u0435\u0439\u0441\u0442-\u043e\u043f-\u0434\u0435\u043d-\u0411\u0435\u0440\u0433", "place": "town", "website": "https://www.heist-op-den-berg.be/", "wikidata": "Q257979", "wikipedia": "nl:Heist-op-den-Berg"}}, {"type": "node", "id": 2971717555, "lat": 51.0753923, "lon": 4.7885461, "tags": {"name": "Hulshout", "name:ru": "\u0425\u044e\u043b\u0441\u0445\u0430\u0443\u0442", "note": "http://www.hulshout.be/index.php?pageID=39007596", "place": "town", "postal_code": "2235", "website": "http://www.hulshout.be/", "wikidata": "Q518758", "wikipedia": "nl:Hulshout"}}, {"type": "node", "id": 31768004, "lat": 51.1179047, "lon": 4.6575109, "tags": {"alt_name": "Balder", "name": "Berlaar", "name:ru": "\u0411\u0435\u0440\u043b\u0430\u0440", "old_name": "Berlaer", "place": "town", "postal_code": "2590", "source": "http://www.berlaar.be", "website": "https://www.berlaar.be/", "wikidata": "Q723774", "wikipedia": "nl:Berlaar"}}, {"type": "node", "id": 30997907, "lat": 51.1610023, "lon": 4.6702859, "tags": {"name": "Nijlen", "name:ru": "\u041d\u0435\u0439\u043b\u0435\u043d", "place": "town", "postal_code": "2560", "website": "https://www.nijlen.be/", "wikidata": "Q912084", "wikipedia": "nl:Nijlen"}}, {"type": "node", "id": 31385538, "lat": 51.1392427, "lon": 4.7543972, "tags": {"name": "Herenthout", "name:ru": "\u0425\u0435\u0440\u0435\u043d\u0442\u0445\u0430\u0443\u0442", "place": "town", "postal_code": "2270", "website": "https://www.herenthout.be/", "wikidata": "Q724534", "wikipedia": "nl:Herenthout"}}, {"type": "node", "id": 64601280, "lat": 50.9842743, "lon": 4.836429, "tags": {"name": "Aarschot", "name:fr": "Aerschot", "name:la": "Arschotium", "name:nl": "Aarschot", "name:ru": "\u0410\u0440\u0441\u0445\u043e\u0442", "place": "town", "website": "https://www.aarschot.be/", "wikidata": "Q273442", "wikipedia": "nl:Aarschot"}}, {"type": "node", "id": 411503110, "lat": 51.0535029, "lon": 4.883265, "tags": {"name": "Herselt", "name:ru": "\u0425\u0435\u0440\u0441\u0435\u043b\u0442", "place": "town", "postal_code": "2230", "website": "https://www.herselt.be/", "wikidata": "Q280182", "wikipedia": "nl:Herselt"}}, {"type": "node", "id": 1644606210, "lat": 50.9801033, "lon": 4.9740173, "tags": {"name": "Scherpenheuvel-Zichem", "name:fr": "Montaigu-Zichem", "name:la": "Collis Asper-Sichemium", "name:nl": "Scherpenheuvel-Zichem", "name:ru": "\u0421\u0445\u0435\u0440\u043f\u0435\u043d\u0445\u0451\u0432\u0435\u043b-\u0417\u0438\u0445\u0435\u043c", "place": "town", "website": "https://www.scherpenheuvel-zichem.be/", "wikidata": "Q932020", "wikipedia": "nl:Scherpenheuvel-Zichem"}}, {"type": "node", "id": 2573463835, "lat": 51.0690138, "lon": 4.986472, "tags": {"name": "Veerle", "name:ru": "\u0412\u0435\u0440\u043b\u0435", "place": "town", "postal_code": "2431", "wikidata": "Q2150821", "wikipedia": "nl:Veerle (Laakdal)"}}, {"type": "node", "id": 677320997, "lat": 51.0802695, "lon": 5.0073022, "tags": {"name": "Laakdal", "name:ru": "\u041b\u0430\u043a\u0434\u0430\u043b", "place": "town", "website": "https://www.laakdal.be/", "wikidata": "Q725122", "wikipedia": "nl:Laakdal"}}, {"type": "node", "id": 290757266, "lat": 51.086694, "lon": 4.9168675, "tags": {"name": "Westerlo", "name:ru": "\u0412\u0435\u0441\u0442\u0435\u0440\u043b\u043e", "place": "town", "postal_code": "2260", "website": "https://www.westerlo.be/", "wikidata": "Q475931", "wikipedia": "nl:Westerlo"}}, {"type": "node", "id": 1391584752, "lat": 51.1438611, "lon": 4.8597257, "tags": {"name": "Olen", "name:ru": "\u041e\u043b\u0435\u043d", "place": "town", "postal_code": "2250", "website": "https://www.olen.be/", "wikidata": "Q839044", "wikipedia": "nl:Olen (Belgi\u00eb)"}}, {"type": "node", "id": 64827284, "lat": 51.1765426, "lon": 4.8362595, "tags": {"name": "Herentals", "name:ru": "\u0425\u0435\u0440\u0435\u043d\u0442\u0430\u043b\u0441", "place": "town", "website": "https://www.herentals.be/", "wikidata": "Q383723", "wikipedia": "nl:Herentals"}}, {"type": "node", "id": 1647087469, "lat": 51.1610826, "lon": 4.9903187, "tags": {"name": "Geel", "name:lt": "Gelis", "name:ru": "\u0413\u0435\u043b", "place": "town", "population": "40353", "postal_code": "2440", "website": "https://www.geel.be/", "wikidata": "Q464454", "wikipedia": "nl:Geel (stad)"}}, {"type": "node", "id": 59661098, "lat": 51.212611, "lon": 4.2577808, "tags": {"name": "Beveren", "name:lt": "Beverenas", "name:ru": "\u0411\u0435\u0432\u0435\u0440\u0435\u043d", "place": "town", "wikidata": "Q270644", "wikipedia": "nl:Beveren (Oost-Vlaanderen)"}}, {"type": "node", "id": 70837321, "lat": 51.2185443, "lon": 4.3302898, "tags": {"name": "Zwijndrecht", "name:ru": "\u0417\u0432\u0435\u0439\u043d\u0434\u0440\u0435\u0445\u0442", "name:uk": "\u0417\u0432\u0435\u0439\u043d\u0434\u0440\u0435\u0445\u0442", "old_name": "Swyndrecht; Zwyndrecht", "place": "town", "postal_code": "2070", "website": "https://www.zwijndrecht.be/", "wikidata": "Q244690", "wikipedia": "nl:Zwijndrecht (Belgi\u00eb)"}}, {"type": "node", "id": 1765433658, "lat": 51.2211097, "lon": 4.3997081, "tags": {"alt_name:ar": "\u0623\u0646\u062a\u0641\u064a\u0631\u0628", "alt_name:es": "Antuerpia", "alt_name:mk": "\u0410\u043d\u0442\u0432\u0435\u0440\u043f", "capital": "6", "name": "Antwerpen", "name:ar": "\u0623\u0646\u062a\u0648\u064a\u0631\u0628", "name:ca": "Anvers", "name:cs": "Antverpy", "name:de": "Antwerpen", "name:el": "\u0391\u03bc\u03b2\u03ad\u03c1\u03c3\u03b1", "name:en": "Antwerp", "name:eo": "Antverpeno", "name:es": "Amberes", "name:fi": "Antwerpen", "name:fr": "Anvers", "name:he": "\u05d0\u05e0\u05d8\u05d5\u05d5\u05e8\u05e4\u05df", "name:hr": "Antwerpen", "name:hy": "\u0531\u0576\u057f\u057e\u0565\u0580\u057a\u0565\u0576", "name:it": "Anversa", "name:ja": "\u30a2\u30f3\u30c8\u30ef\u30fc\u30d7", "name:ka": "\u10d0\u10dc\u10e2\u10d5\u10d4\u10e0\u10de\u10d4\u10dc\u10d8", "name:kn": "\u0c86\u0c82\u0c9f\u0ccd\u0cb5\u0cc6\u0cb0\u0ccd\u0caa\u0ccd", "name:la": "Antverpia", "name:lt": "Antverpenas", "name:lv": "Antverpene", "name:mk": "\u0410\u043d\u0442\u0432\u0435\u0440\u043f\u0435\u043d", "name:nds": "Antwarp", "name:nl": "Antwerpen", "name:pl": "Antwerpia", "name:pt": "Antu\u00e9rpia", "name:ru": "\u0410\u043d\u0442\u0432\u0435\u0440\u043f\u0435\u043d", "name:sk": "Antverpy", "name:sr": "\u0410\u043d\u0442\u0432\u0435\u0440\u043f\u0435\u043d", "name:uk": "\u0410\u043d\u0442\u0432\u0435\u0440\u043f\u0435\u043d", "name:wa": "Anverse", "name:zh": "\u5b89\u7279\u536b\u666e", "old_name:de": "Antorf", "place": "city", "population": "506922", "population:date": "2012", "postal_code": "2000;2018;2020;2030;2050;2060", "ref:LOCODE": "BEANDR", "website": "https://www.antwerpen.be/", "wikidata": "Q12892", "wikipedia": "nl:Antwerpen (stad)"}}, {"type": "node", "id": 255286066, "lat": 51.3326535, "lon": 4.3680664, "tags": {"name": "Stabroek", "name:nl": "Stabroek", "name:ru": "\u0421\u0442\u0430\u0431\u0440\u0443\u043a", "old_name": "Stabroeck;Staebroeck;Stakebroek", "place": "town", "population": "17737", "postal_code": "2940", "website": "http://www.stabroek.be", "wikidata": "Q595654", "wikipedia": "nl:Stabroek (Belgi\u00eb)"}}, {"type": "node", "id": 26355164, "lat": 51.1943524, "lon": 4.4329972, "tags": {"name": "Berchem", "name:ru": "\u0411\u0435\u0440\u0445\u0435\u043c", "place": "town", "postal_code": "2600", "website": "http://www.berchem.be/", "wikidata": "Q818804", "wikipedia": "nl:Berchem (Antwerpen)"}}, {"type": "node", "id": 193872743, "lat": 51.2128453, "lon": 4.4462406, "tags": {"admin_level": "9", "name": "Borgerhout", "name:ru": "\u0411\u043e\u0440\u0433\u0435\u0440\u0445\u0430\u0443\u0442", "place": "town", "postal_code": "2140", "website": "http://www.borgerhout.be", "wikidata": "Q834850", "wikipedia": "nl:Borgerhout"}}, {"type": "node", "id": 193875248, "lat": 51.20849, "lon": 4.4719297, "tags": {"name": "Deurne", "name:la": "Turninum", "note": "100600000", "place": "town", "population": "75123", "population:date": "2012-01-01", "postal_code": "2100", "source:population": "wikipedia", "website": "http://www.deurne.be/", "wikidata": "Q1201672", "wikipedia": "nl:Deurne (Antwerpen)"}}, {"type": "node", "id": 27505237, "lat": 51.1928907, "lon": 4.488953, "tags": {"name": "Borsbeek", "name:nl": "Borsbeek", "name:ru": "\u0411\u043e\u0440\u0441\u0431\u0435\u043a", "old_name": "Borsbeeck", "place": "town", "postal_code": "2150", "website": "https://www.borsbeek.be/", "wikidata": "Q724055", "wikipedia": "nl:Borsbeek"}}, {"type": "node", "id": 253247990, "lat": 51.2438894, "lon": 4.4397179, "tags": {"name": "Merksem", "old_name": "Mercksem;Mercxem;Merxem", "place": "town", "population": "41000", "postal_code": "2170", "website": "http://www.merksem.be/", "wikidata": "Q2543761", "wikipedia": "nl:Merksem"}}, {"type": "node", "id": 253184811, "lat": 51.2781955, "lon": 4.4209857, "tags": {"name": "Ekeren", "old_name": "Hecerna;Eeckeren", "place": "town", "population": "22623", "postal_code": "2180", "website": "http://www.ekeren.be/", "wikidata": "Q1797837", "wikipedia": "nl:Ekeren"}}, {"type": "node", "id": 249596013, "lat": 51.2516344, "lon": 4.4980446, "tags": {"name": "Schoten", "name:ru": "\u0421\u0445\u043e\u0442\u0435\u043d", "place": "town", "population": "33256", "postal_code": "2900", "website": "https://www.schoten.be/", "wikidata": "Q655203", "wikipedia": "nl:Schoten (Belgi\u00eb)"}}, {"type": "node", "id": 249698703, "lat": 51.2900693, "lon": 4.4917295, "tags": {"name": "Brasschaat", "name:ru": "\u0411\u0440\u0430\u0441\u0445\u0430\u0442", "old_name": "Breesgata;Brasschaet", "place": "town", "population": "37190", "postal_code": "2930", "website": "https://www.brasschaat.be/", "wikidata": "Q693513", "wikipedia": "nl:Brasschaat"}}, {"type": "node", "id": 282495242, "lat": 51.2031044, "lon": 4.5238022, "tags": {"name": "Wommelgem", "name:fr": "Wommelghem", "name:nl": "Wommelgem", "name:ru": "\u0412\u043e\u043c\u043c\u0435\u043b\u0433\u0435\u043c", "old_name": "Wommelghem", "place": "town", "population": "12187", "postal_code": "2160", "website": "https://www.wommelgem.be/", "wikidata": "Q839037", "wikipedia": "nl:Wommelgem"}}, {"type": "node", "id": 282492996, "lat": 51.1897015, "lon": 4.5633, "tags": {"name": "Ranst", "name:ru": "\u0420\u0430\u043d\u0441\u0442", "place": "town", "population": "18061", "postal_code": "2520", "website": "https://www.ranst.be/", "wikidata": "Q501748", "wikipedia": "nl:Ranst (gemeente)"}}, {"type": "node", "id": 418771216, "lat": 51.2388703, "lon": 4.5814855, "tags": {"name": "Schilde", "name:ru": "\u0421\u0445\u0438\u043b\u0434\u0435", "place": "town", "population": "19516", "postal_code": "2970", "website": "https://www.schilde.be/", "wikidata": "Q263177", "wikipedia": "nl:Schilde"}}, {"type": "node", "id": 255279799, "lat": 51.3149455, "lon": 4.4295354, "tags": {"name": "Kapellen", "name:nl": "Kapellen", "name:ru": "\u041a\u0430\u043f\u0435\u043b\u043b\u0435\u043d", "old_name": "Hoghescote;Hoogenschoot;Capelle;Cappellen", "place": "town", "population": "26242", "postal_code": "2950", "website": "https://www.kapellen.be/", "wikidata": "Q724942", "wikipedia": "nl:Kapellen"}}, {"type": "node", "id": 63649247, "lat": 51.3832723, "lon": 4.4763255, "tags": {"name": "Kalmthout", "name:fr": "Calmpthout", "name:nl": "Kalmthout", "name:ru": "\u041a\u0430\u043b\u043c\u0442\u0445\u0430\u0443\u0442", "old_name": "Calmpthout; Calmthout", "place": "town", "postal_code": "2920", "website": "http://www.kalmthout.be", "wikidata": "Q724777", "wikipedia": "nl:Kalmthout"}}, {"type": "node", "id": 413995290, "lat": 51.3916213, "lon": 4.595292, "tags": {"name": "Wuustwezel", "name:nl": "Wuustwezel", "name:ru": "\u0412\u044e\u0441\u0442\u0432\u0435\u0437\u0435\u043b", "old_name": "Wustwesel;Wustwezel", "place": "town", "population": "18837", "postal_code": "2990", "website": "https://www.wuustwezel.be/", "wikidata": "Q912045", "wikipedia": "nl:Wuustwezel"}}, {"type": "node", "id": 288927952, "lat": 51.4677957, "lon": 4.4701309, "tags": {"name": "Essen", "name:ar": "\u0625\u064a\u0633\u0646", "name:bg": "\u0415\u0441\u0435\u043d", "name:br": "Essen", "name:fa": "\u0627\u0633\u0627\u0646", "name:fr": "Essen", "name:ko": "\uc5d0\uc120", "name:nl": "Essen", "name:ru": "\u042d\u0441\u0441\u0435\u043d", "name:zh": "\u57c3\u68ee", "old_name": "Esschen", "place": "town", "population": "18256", "postal_code": "2910", "website": "https://www.essen.be/", "wikidata": "Q724283", "wikipedia": "nl:Essen (Belgi\u00eb)"}}, {"type": "node", "id": 414195467, "lat": 51.2147918, "lon": 4.6595103, "tags": {"name": "Zandhoven", "name:nl": "Zandhoven", "name:ru": "\u0417\u0430\u043d\u0434\u0445\u043e\u0432\u0435\u043d", "old_name": "Santhoven", "place": "town", "population": "12729", "population:date": "2014-01-01", "postal_code": "2240", "source:population": "wikipedia", "website": "https://www.zandhoven.be/", "wikidata": "Q146656", "wikipedia": "nl:Zandhoven"}}, {"type": "node", "id": 370906750, "lat": 51.2716725, "lon": 4.7132557, "tags": {"name": "Zoersel", "name:ru": "\u0417\u0443\u0440\u0441\u0435\u043b", "place": "town", "postal_code": "2980", "website": "https://www.zoersel.be/", "wikidata": "Q218253", "wikipedia": "nl:Zoersel"}}, {"type": "node", "id": 488034333, "lat": 51.1919904, "lon": 4.7385027, "tags": {"name": "Grobbendonk", "name:ru": "\u0413\u0440\u043e\u0431\u0431\u0435\u043d\u0434\u043e\u043d\u043a", "place": "town", "population": "10815", "postal_code": "2280", "website": "https://www.grobbendonk.be/", "wikidata": "Q724389", "wikipedia": "nl:Grobbendonk"}}, {"type": "node", "id": 418769822, "lat": 51.2970123, "lon": 4.6933094, "tags": {"name": "Malle", "old_name": "Westmalle", "place": "town", "postal_code": "2390", "website": "https://www.malle.be/", "wikidata": "Q917591", "wikipedia": "nl:Malle"}}, {"type": "node", "id": 249262676, "lat": 51.3495582, "lon": 4.6393435, "tags": {"name": "Brecht", "name:ru": "\u0411\u0440\u0435\u0445\u0442", "place": "town", "population": "27169", "postal_code": "2960", "website": "https://www.brecht.be/", "wikidata": "Q724131", "wikipedia": "nl:Brecht (Belgi\u00eb)"}}, {"type": "node", "id": 249262260, "lat": 51.3495046, "lon": 4.760708, "tags": {"name": "Rijkevorsel", "name:ru": "\u0420\u0435\u0439\u043a\u0435\u0432\u043e\u0440\u0441\u0435\u043b", "place": "town", "population": "12040", "postal_code": "2310", "website": "https://www.rijkevorsel.be/", "wikidata": "Q929459", "wikipedia": "nl:Rijkevorsel"}}, {"type": "node", "id": 754195147, "lat": 51.238218, "lon": 4.8242404, "tags": {"name": "Lille", "name:ru": "\u041b\u0438\u043b\u043b\u0435", "place": "town", "postal_code": "2275", "website": "https://www.lille.be/", "wikidata": "Q725235", "wikipedia": "nl:Lille (Belgi\u00eb)"}}, {"type": "node", "id": 1631776989, "lat": 51.2407915, "lon": 4.967812, "tags": {"name": "Kasterlee", "name:ru": "\u041a\u0430\u0441\u0442\u0435\u0440\u043b\u0435", "place": "town", "postal_code": "2460", "website": "https://www.kasterlee.be/", "wikidata": "Q725029", "wikipedia": "nl:Kasterlee"}}, {"type": "node", "id": 255865991, "lat": 51.3191388, "lon": 4.8564494, "tags": {"name": "Beerse", "name:ru": "\u0411\u0435\u0440\u0441\u0435", "place": "town", "population": "17167", "postal_code": "2340", "website": "https://www.beerse.be/", "wikidata": "Q723728", "wikipedia": "nl:Beerse"}}, {"type": "node", "id": 1221298519, "lat": 51.3129153, "lon": 4.8878026, "tags": {"name": "Vosselaar", "name:mk": "\u0412\u043e\u0441\u0435\u043b\u0430\u0440", "name:nl": "Vosselaar", "name:ru": "\u0412\u043e\u0441\u0441\u0435\u043b\u0430\u0440", "place": "town", "population": "10300", "postal_code": "2350", "website": "http://www.vosselaar.be/", "wikidata": "Q929485", "wikipedia": "nl:Vosselaar"}}, {"type": "node", "id": 249262485, "lat": 51.3580597, "lon": 4.8627541, "tags": {"name": "Merksplas", "name:ru": "\u041c\u0435\u0440\u043a\u0441\u043f\u043b\u0430\u0441", "place": "town", "population": "8321", "postal_code": "2330", "website": "https://www.merksplas.be/", "wikidata": "Q532277", "wikipedia": "nl:Merksplas"}}, {"type": "node", "id": 31492741, "lat": 51.3233812, "lon": 4.948461, "tags": {"name": "Turnhout", "name:nl": "Turnhout", "note": "town as population < 100000", "place": "town", "population": "42008", "postal_code": "2300", "website": "https://www.turnhout.be/", "wikidata": "Q271783", "wikipedia": "nl:Turnhout"}}, {"type": "node", "id": 2573024523, "lat": 51.3178319, "lon": 4.9817086, "tags": {"name": "Oud-Turnhout", "name:fr": "Vieux-Turnhout", "name:nl": "Oud-Turnhout", "name:ru": "\u0410\u0443\u0434-\u0422\u044e\u0440\u043d\u0445\u0430\u0443\u0442", "place": "town", "postal_code": "2360", "website": "http://www.oud-turnhout.be/", "wikidata": "Q943555", "wikipedia": "nl:Oud-Turnhout"}}, {"type": "node", "id": 2573128887, "lat": 51.3717045, "lon": 4.9955625, "tags": {"name": "Ravels", "name:ru": "\u0420\u0430\u0432\u0435\u043b\u0441", "place": "town", "website": "https://www.ravels.be/", "wikidata": "Q839119", "wikipedia": "nl:Ravels"}}, {"type": "node", "id": 64832109, "lat": 51.4009107, "lon": 4.7610549, "tags": {"name": "Hoogstraten", "name:ru": "\u0425\u043e\u0433\u0441\u0442\u0440\u0430\u0442\u0435\u043d", "place": "town", "website": "https://www.hoogstraten.be/", "wikidata": "Q724638", "wikipedia": "nl:Hoogstraten"}}, {"type": "node", "id": 79432598, "lat": 50.1588503, "lon": 5.2233447, "tags": {"name": "Rochefort", "name:fr": "Rochefort", "name:nl": "Rochefort", "name:ru": "\u0420\u043e\u0448\u0444\u043e\u0440", "name:wa": "Rotchfoirt", "place": "town", "population": "12515", "population:date": "2012", "postal_code": "5580", "ref:INS": "91114", "website": "https://www.rochefort.be/", "wikidata": "Q497764", "wikipedia": "fr:Rochefort (Belgique)"}}, {"type": "node", "id": 64666967, "lat": 50.2964911, "lon": 5.1008664, "tags": {"name": "Ciney", "name:fr": "Ciney", "name:nl": "Ciney", "name:ru": "\u0421\u0438\u043d\u0435", "name:wa": "C\u00een\u00e8", "place": "town", "population": "15670", "population:date": "2012", "postal_code": "5590", "ref:INS": "91030", "wikidata": "Q456490", "wikipedia": "fr:Ciney"}}, {"type": "node", "id": 30103479, "lat": 50.2265147, "lon": 5.3407365, "tags": {"name": "Marche-en-Famenne", "name:fr": "Marche-en-Famenne", "name:la": "Marca in Falmana", "name:ru": "\u041c\u0430\u0440\u0448-\u0430\u043d-\u0424\u0430\u043c\u0435\u043d", "name:wa": "M\u00e5tche-el-Famene", "place": "town", "population": "17454", "population:date": "2012", "ref:INS": "83034", "website": "https://www.marche.be/", "wikidata": "Q269908", "wikipedia": "fr:Marche-en-Famenne"}}, {"type": "node", "id": 1217847345, "lat": 50.0023102, "lon": 5.7173386, "tags": {"name": "Bastogne", "name:be": "\u0411\u0430\u0441\u0442\u043e\u043d\u044c", "name:bg": "\u0411\u0430\u0441\u0442\u043e\u043d", "name:de": "Bastnach", "name:es": "Basto\u00f1a", "name:fa": "\u0628\u0633\u062a\u0648\u0646\u06cc", "name:fr": "Bastogne", "name:ja": "\u30d0\u30b9\u30c8\u30fc\u30cb\u30e5", "name:la": "Bastonacum", "name:lb": "Baaschtnech", "name:nl": "Bastenaken", "name:ru": "\u0411\u0430\u0441\u0442\u043e\u043d\u044c", "name:zh": "\u5df4\u65af\u6258\u6d85", "place": "town", "population": "15127", "population:date": "2012", "postal_code": "6600", "ref:INS": "82003", "website": "https://www.bastogne.be/", "wikidata": "Q34021", "wikipedia": "fr:Bastogne"}}, {"type": "node", "id": 29827642, "lat": 50.4893981, "lon": 5.0965468, "tags": {"name": "Andenne", "name:fr": "Andenne", "name:la": "Andenna", "name:nl": "Andenne", "name:ru": "\u0410\u043d\u0434\u0435\u043d", "name:wa": "Andene", "nat_name": "La cit\u00e9 des ours", "place": "town", "population": "25795", "postal_code": "5300", "wikidata": "Q333466", "wikipedia": "fr:Andenne"}}, {"type": "node", "id": 60287767, "lat": 50.5180856, "lon": 5.2408138, "tags": {"name": "Huy", "name:ar": "\u0647\u0648\u064a", "name:bg": "\u042e\u0438", "name:fa": "\u0627\u0648\u06cc\u06cc", "name:fr": "Huy", "name:ja": "\u30e6\u30a4", "name:la": "Hoium", "name:li": "Hoei", "name:nl": "Hoei", "name:ru": "\u042e\u0438", "name:uk": "\u042e\u0457", "name:wa": "Hu", "name:zh": "\u4e8e\u4f0a", "nat_name": "La cit\u00e9 des postainiers", "place": "town", "population": "21354", "population:date": "2012", "ref:INS": "61031", "website": "http://www.huy.be/", "wikidata": "Q207095", "wikipedia": "fr:Huy"}}, {"type": "node", "id": 353175792, "lat": 50.5368559, "lon": 5.2143865, "tags": {"name": "Wanze", "name:fr": "Wanze", "name:ru": "\u0412\u0430\u043d\u0437", "name:wa": "W\u00f4nse", "place": "town", "population": "13363", "population:date": "2013", "postal_code": "4520", "ref:INS": "61072", "website": "http://www.wanze.be/", "wikidata": "Q711443", "wikipedia": "fr:Wanze"}}, {"type": "node", "id": 258880948, "lat": 50.5497761, "lon": 5.3240992, "tags": {"name": "Amay", "name:fr": "Amay", "name:ru": "\u0410\u043c\u0435", "name:wa": "Ama", "place": "town", "population": "13863", "population:date": "2012", "ref:INS": "61003", "website": "http://www.amay.be/", "wikidata": "Q455969", "wikipedia": "fr:Amay"}}, {"type": "node", "id": 64817311, "lat": 50.6724649, "lon": 5.0779916, "tags": {"name": "Hannut", "name:fr": "Hannut", "name:nl": "Hannuit", "name:ru": "\u0410\u043d\u043d\u044e", "name:wa": "Hane\u00f9", "place": "town", "population": "15587", "population:date": "2012", "ref:INS": "64034", "website": "https://www.hannut.be/", "wikidata": "Q683141", "wikipedia": "fr:Hannut"}}, {"type": "node", "id": 77802451, "lat": 50.7530146, "lon": 5.0813154, "tags": {"name": "Landen", "name:ru": "\u041b\u0430\u043d\u0434\u0435\u043d", "place": "town", "population": "15000", "website": "https://www.landen.be/", "wikidata": "Q943502", "wikipedia": "nl:Landen (Belgi\u00eb)"}}, {"type": "node", "id": 79454553, "lat": 50.6976875, "lon": 5.2546191, "tags": {"name": "Waremme", "name:fr": "Waremme", "name:la": "Waremia", "name:nl": "Borgworm", "name:ru": "\u0412\u0430\u0440\u0435\u043c", "name:wa": "Wareme", "place": "town", "population": "14789", "population:date": "2012", "ref:INS": "64074", "website": "https://www.waremme.be/", "wikidata": "Q711474", "wikipedia": "fr:Waremme"}}, {"type": "node", "id": 258591194, "lat": 50.3524116, "lon": 5.456248, "tags": {"name": "Durbuy", "name:fr": "Durbuy", "name:la": "Durbetum", "name:ru": "\u0414\u044e\u0440\u0431\u044e\u0438", "name:wa": "Derbu", "nat_name": "La plus petite ville du Monde", "place": "town", "population": "11326", "population:date": "2012", "ref:INS": "83012", "website": "http://www.durbuy.be/", "wikidata": "Q497697", "wikipedia": "fr:Durbuy"}}, {"type": "node", "id": 736012833, "lat": 50.4001995, "lon": 5.6063928, "tags": {"name": "Ferri\u00e8res", "name:fr": "Ferri\u00e8res", "name:ru": "\u0424\u0435\u0440\u044c\u0435\u0440", "name:wa": "Ferire", "place": "town", "population": "4724", "population:date": "2012", "postal_code": "4190", "ref:INS": "61019", "website": "https://www.ferrieres.be/", "wikipedia": "fr:Ferrri\u00e8res (Li\u00e8ge)"}}, {"type": "node", "id": 259976100, "lat": 50.533588, "lon": 5.5686219, "tags": {"name": "Esneux", "name:fr": "Esneux", "name:ru": "\u042d\u043d\u0451", "name:wa": "Esneu", "place": "town", "population": "13240", "population:date": "2012", "ref:INS": "62032", "website": "http://www.esneux.be/", "wikidata": "Q682271", "wikipedia": "fr:Esneux"}}, {"type": "node", "id": 327240746, "lat": 50.5055291, "lon": 5.6617176, "tags": {"name": "Sprimont", "name:fr": "Sprimont", "name:ru": "\u0421\u043f\u0440\u0438\u043c\u043e\u043d", "place": "town", "population": "14147", "population:date": "2012", "ref:INS": "62100", "website": "http://www.sprimont.be/", "wikidata": "Q696110", "wikipedia": "fr:Sprimont"}}, {"type": "node", "id": 258592340, "lat": 50.4758998, "lon": 5.6763249, "tags": {"name": "Aywaille", "name:fr": "Aywaille", "name:la": "Aqualia", "name:ru": "\u042d\u0432\u0430\u0439", "name:wa": "Aiw\u00eaye", "place": "town", "population": "11938", "population:date": "2012", "ref:INS": "62009", "website": "http://www.aywaille.be/", "wikidata": "Q793396", "wikipedia": "fr:Aywaille"}}, {"type": "node", "id": 79444910, "lat": 50.4920654, "lon": 5.8627569, "tags": {"name": "Spa", "name:ar": "\u0633\u067e\u0647", "name:be": "\u0421\u043f\u0430", "name:bg": "\u0421\u043f\u0430", "name:el": "\u03a3\u03c0\u03b1", "name:fr": "Spa", "name:he": "\u05e1\u05e4\u05d0", "name:ja": "\u30b9\u30d1", "name:la": "Aquae Spadanae", "name:ru": "\u0421\u043f\u0430", "name:uk": "\u0421\u043f\u0430", "name:wa": "Sp\u00e5", "name:zh": "\u65af\u5e15", "nat_name": "La perle de l'Ardenne, La perle des Ardennes", "place": "town", "population": "10591", "population:date": "2012", "ref:INS": "63072", "website": "http://www.spa-info.be/", "wikidata": "Q39865", "wikipedia": "fr:Spa (ville)"}}, {"type": "node", "id": 96041841, "lat": 50.5354064, "lon": 5.8121697, "tags": {"name": "Theux", "name:fr": "Theux", "name:ru": "\u0422\u0451", "name:wa": "Teu", "place": "town", "population": "12015", "population:date": "2012", "ref:INS": "63076", "website": "http://www.theux.be/", "wikidata": "Q711079", "wikipedia": "fr:Theux"}}, {"type": "node", "id": 746110293, "lat": 50.5994478, "lon": 5.4699616, "tags": {"name": "Fl\u00e9malle", "name:fr": "Fl\u00e9malle", "name:ru": "\u0424\u043b\u0435\u043c\u0430\u043b\u044c", "name:wa": "Fl\u00e9m\u00e5le", "place": "town", "population": "25612", "population:date": "2012", "ref:INS": "62120", "website": "http://www.flemalle.be/", "wikidata": "Q175322", "wikipedia": "fr:Fl\u00e9malle"}}, {"type": "node", "id": 79443055, "lat": 50.6152381, "lon": 5.5089437, "tags": {"alt_name:fr": "Seraing-sur-Meuse", "name": "Seraing", "name:fr": "Seraing", "name:lt": "Serenas", "name:ru": "\u0421\u0435\u0440\u0435\u043d", "name:wa": "Ser\u00e8", "nat_name": "La cit\u00e9 du fer", "note": "100600000", "place": "town", "population": "63732", "population:date": "2013", "postal_code": "4100", "ref:INS": "62096", "website": "https://www.seraing.be/", "wikidata": "Q194037", "wikipedia": "fr:Seraing"}}, {"type": "node", "id": 469371619, "lat": 50.6316662, "lon": 5.5376342, "tags": {"name": "Saint-Nicolas", "name:fr": "Saint-Nicolas", "name:ru": "\u0421\u0435\u043d-\u041d\u0438\u043a\u043e\u043b\u0430", "name:wa": "Sint-Nicol\u00eaye", "place": "town", "population": "23414", "population:date": "2012", "postal_code": "4420", "ref:INS": "62093", "website": "http://www.saint-nicolas.be/", "wikidata": "Q65062", "wikipedia": "fr:Saint-Nicolas (Li\u00e8ge)"}}, {"type": "node", "id": 746136317, "lat": 50.6393049, "lon": 5.5057631, "tags": {"name": "Gr\u00e2ce-Hollogne", "name:fr": "Gr\u00e2ce-Hollogne", "name:ru": "\u0413\u0440\u0430\u0441-\u041e\u043b\u043e\u043d\u044c", "name:wa": "Gr\u00e5ce-Hologne", "place": "town", "population": "22297", "population:date": "2012", "ref:INS": "62118", "website": "http://www.grace-hollogne.be/", "wikidata": "Q683034", "wikipedia": "fr:Gr\u00e2ce-Hollogne"}}, {"type": "node", "id": 360038808, "lat": 50.5847922, "lon": 5.6469688, "tags": {"name": "Chaudfontaine", "name:fr": "Chaudfontaine", "name:ru": "\u0428\u043e\u0444\u043e\u043d\u0442\u0435\u043d", "name:wa": "Tch\u00f4fontinne", "place": "town", "population": "21003", "population:date": "2012", "website": "https://www.chaudfontaine.be/", "wikidata": "Q503363", "wikipedia": "fr:Chaudfontaine"}}, {"type": "node", "id": 469836626, "lat": 50.6128164, "lon": 5.5954054, "tags": {"admin_level": "9", "name": "Angleur", "place": "town", "population": "10270"}}, {"type": "node", "id": 469835036, "lat": 50.6192957, "lon": 5.6047622, "tags": {"admin_level": "9", "name": "Grivegn\u00e9e", "name:ru": "\u0413\u0440\u0438\u0432\u0435\u043d\u044c\u0435", "place": "town", "population": "19767"}}, {"type": "node", "id": 1689207163, "lat": 50.6451381, "lon": 5.5734203, "tags": {"alt_name": "La cit\u00e9 ardente", "alt_name:la": "Legia", "capital": "6", "name": "Li\u00e8ge", "name:ar": "\u0644\u064a\u064a\u062c", "name:ast": "Liex", "name:bg": "\u041b\u044c\u0435\u0436", "name:ca": "Lieja", "name:cs": "Lutych", "name:de": "L\u00fcttich", "name:el": "\u039b\u03b9\u03ad\u03b3\u03b7", "name:eo": "Lie\u011do", "name:es": "Lieja", "name:eu": "Lieja", "name:fa": "\u0644\u06cc\u0698", "name:fr": "Li\u00e8ge", "name:fy": "Luik", "name:gl": "Liexa", "name:he": "\u05dc\u05d9\u05d9\u05d6'", "name:it": "Liegi", "name:ja": "\u30ea\u30a8\u30fc\u30b8\u30e5", "name:kk": "\u041b\u044c\u0435\u0436", "name:ko": "\ub9ac\uc5d0\uc8fc", "name:la": "Leodium", "name:lb": "L\u00e9ck", "name:li": "Luuk", "name:lt": "Lje\u017eas", "name:lv": "Lje\u017ea", "name:mk": "\u041b\u0438\u0435\u0436", "name:mr": "\u0932\u0940\u091c", "name:nds": "L\u00fcttich", "name:nl": "Luik", "name:oc": "Li\u00e8ja", "name:pnb": "\u0644\u06cc\u062c", "name:ru": "\u041b\u044c\u0435\u0436", "name:sr": "\u041b\u0438\u0458\u0435\u0436", "name:th": "\u0e25\u0e35\u0e41\u0e22\u0e0c", "name:uk": "\u041b\u044c\u0454\u0436", "name:vls": "Luuk", "name:wa": "L\u00eedje", "name:zh": "\u5217\u65e5", "old_name:fr": "Li\u00e9ge", "old_name:la": "Leodicum", "place": "city", "population": "197013", "population:date": "2012", "ref:INS": "62063", "website": "https://www.liege.be/", "wikidata": "Q3992", "wikipedia": "fr:Li\u00e8ge"}}, {"type": "node", "id": 746916916, "lat": 50.6220566, "lon": 5.6534141, "tags": {"name": "Beyne-Heusay", "name:fr": "Beyne-Heusay", "name:ru": "\u0411\u0435\u043d-\u042d\u0437\u0435", "name:wa": "Binne-Heuzea", "place": "town", "population": "12017", "population:date": "2012", "ref:INS": "62015", "website": "http://www.beyne-heusay.be/", "wikidata": "Q681039", "wikipedia": "fr:Beyne-Heusay"}}, {"type": "node", "id": 391498013, "lat": 50.6431909, "lon": 5.6301266, "tags": {"admin_level": "9", "name": "Jupille-sur-Meuse", "name:fr": "Jupille-sur-Meuse", "name:wa": "Djoup\u00e8ye", "place": "town"}}, {"type": "node", "id": 481371644, "lat": 50.6679862, "lon": 5.5077543, "tags": {"name": "Ans", "name:ru": "\u0410\u043d\u0441", "place": "town", "population": "27813", "population:date": "2012", "ref:INS": "62003", "website": "http://www.ans-commune.be/", "wikidata": "Q499594", "wikipedia": "fr:Ans"}}, {"type": "node", "id": 1933469358, "lat": 50.6650412, "lon": 5.629981, "tags": {"name": "Herstal", "name:fr": "Herstal", "name:la": "Heristalium", "name:ru": "\u042d\u0440\u0441\u0442\u0430\u043b\u044c", "name:wa": "H\u00e8sta", "old_name:fr": "H\u00e9ristal", "place": "town", "population": "39242", "population:date": "2012", "ref:INS": "62051", "website": "https://www.herstal.be/", "wikidata": "Q211033", "wikipedia": "fr:Herstal"}}, {"type": "node", "id": 1690252401, "lat": 50.7091889, "lon": 5.6450671, "tags": {"name": "Oupeye", "name:fr": "Oupeye", "name:ru": "\u0423\u043f\u0435\u0439", "name:wa": "O\u00fbp\u00eaye", "place": "town", "population": "6467", "population:date": "2012", "ref:INS": "62079", "website": "http://www.oupeye.be/", "wikidata": "Q286215", "wikipedia": "fr:Oupeye"}}, {"type": "node", "id": 358184078, "lat": 50.6168354, "lon": 5.6832219, "tags": {"name": "Fl\u00e9ron", "name:fr": "Fl\u00e9ron", "name:ru": "\u0424\u043b\u0435\u0440\u043e\u043d", "name:wa": "Fl\u00e9ron", "place": "town", "population": "16227", "population:date": "2012", "ref:INS": "62038", "website": "http://www.fleron.be/", "wikidata": "Q682811", "wikipedia": "fr:Fl\u00e9ron"}}, {"type": "node", "id": 457067470, "lat": 50.6147718, "lon": 5.739941, "tags": {"name": "Soumagne", "name:fr": "Soumagne", "name:ru": "\u0421\u0443\u043c\u0430\u043d\u044c", "name:wa": "So\u00fbmagne", "place": "town", "population": "16348", "population:date": "2012", "ref:INS": "62099", "website": "http://www.soumagne.be/", "wikidata": "Q696099", "wikipedia": "fr:Soumagne"}}, {"type": "node", "id": 79451344, "lat": 50.59324, "lon": 5.867828, "tags": {"name": "Verviers", "name:fr": "Verviers", "name:la": "Vervia", "name:lt": "Vervj\u0117", "name:ru": "\u0412\u0435\u0440\u0432\u044c\u0435", "name:wa": "Verv\u00ee", "nat_name": "La cit\u00e9 de la laine", "note": "100600000", "place": "town", "population": "55733", "population:date": "2013", "postal_code": "4800", "ref:INS": "63079", "website": "http://www.verviers.be/", "wikidata": "Q202954", "wikipedia": "fr:Verviers"}}, {"type": "node", "id": 64829956, "lat": 50.63916, "lon": 5.7931012, "tags": {"alt_name:wa": "H\u00e9f", "name": "Herve", "name:fr": "Herve", "name:la": "Harvia", "name:li": "Herf", "name:ru": "\u042d\u0440\u0432", "name:wa": "Heve", "old_name:de": "Gro\u00df-Richheim", "place": "town", "population": "17213", "population:date": "2012", "ref:INS": "63035", "website": "http://www.herve.be/", "wikidata": "Q683465", "wikipedia": "fr:Herve"}}, {"type": "node", "id": 740372162, "lat": 50.611374, "lon": 5.854735, "tags": {"name": "Dison", "name:fr": "Dison", "name:ru": "\u0414\u0438\u0437\u043e\u043d", "name:wa": "Dizon", "place": "town", "population": "15289", "population:date": "2012", "ref:INS": "63020", "website": "http://www.dison.be/", "wikidata": "Q682105", "wikipedia": "fr:Dison"}}, {"type": "node", "id": 743005402, "lat": 50.6727185, "lon": 5.7252372, "tags": {"name": "Blegny", "name:fr": "Blegny", "name:ru": "\u0411\u043b\u0435\u043d\u044c\u0438", "name:wa": "Blegneye", "place": "town", "population": "13136", "population:date": "2012", "ref:INS": "62119", "website": "http://www.blegny.be/", "wikidata": "Q681109", "wikipedia": "fr:Blegny"}}, {"type": "node", "id": 79453332, "lat": 50.7347797, "lon": 5.6936397, "tags": {"name": "Vis\u00e9", "name:de": "Weset", "name:fr": "Vis\u00e9", "name:la": "Visetum", "name:nl": "Wezet", "name:ru": "\u0412\u0438\u0437\u0435", "name:wa": "Viz\u00e9", "nat_name": "La cit\u00e9 des oies", "place": "town", "population": "17341", "population:date": "2012", "ref:INS": "62108", "website": "http://www.vise.be/", "wikidata": "Q49743", "wikipedia": "fr:Vis\u00e9"}}, {"type": "node", "id": 721081807, "lat": 50.2803881, "lon": 6.1258953, "tags": {"name": "Sankt Vith", "name:de": "Sankt Vith", "name:fr": "Saint-Vith", "name:la": "Fanum Sancti Viti", "name:lb": "Sankt V\u00e4it", "name:ru": "\u0421\u0430\u043d\u043a\u0442-\u0412\u0438\u0442", "name:wa": "Sint-Vi", "place": "town", "population": "9481", "population:date": "2012", "postal_code": "4780", "ref:INS": "63067", "website": "http://www.st.vith.be/", "wikidata": "Q152748", "wikipedia": "de:Sankt Vith"}}, {"type": "node", "id": 79445596, "lat": 50.3940846, "lon": 5.9308362, "tags": {"name": "Stavelot", "name:de": "Stablo", "name:fr": "Stavelot", "name:ru": "\u0421\u0442\u0430\u0432\u043b\u043e", "name:wa": "St\u00e5vleu", "place": "town", "population": "6919", "population:date": "2012", "postal_code": "4970", "ref:INS": "63073", "website": "http://www.stavelot.be/", "wikidata": "Q468920", "wikipedia": "fr:Stavelot"}}, {"type": "node", "id": 79348077, "lat": 50.4265348, "lon": 6.0276059, "tags": {"alt_name:la": "Malmundarium;Malmundinenses", "name": "Malmedy", "name:bg": "\u041c\u0430\u043b\u043c\u0435\u0434\u0438", "name:fr": "Malmedy", "name:ja": "\u30de\u30eb\u30e1\u30c7\u30a3", "name:ksh": "Malemder", "name:la": "Malmunderium", "name:ru": "\u041c\u0430\u043b\u044c\u043c\u0435\u0434\u0438", "name:wa": "M\u00e5mdey", "name:zh": "\u9a6c\u5c14\u6885\u8fea", "place": "town", "population": "12345", "population:date": "2012", "ref:INS": "63049", "website": "http://www.malmedy.be/", "wikidata": "Q159838", "wikipedia": "fr:Malmedy"}}, {"type": "node", "id": 64801957, "lat": 50.6305665, "lon": 6.0312717, "tags": {"name": "Eupen", "name:de": "Eupen", "name:lt": "Epenas", "name:ru": "\u042d\u0439\u043f\u0435\u043d", "name:wa": "N\u00e8y\u00e5w", "old_name:fr": "N\u00e9au", "place": "town", "population": "19254", "population:date": "2012", "website": "https://www.eupen.be/", "wikidata": "Q151831", "wikipedia": "de:Eupen"}}, {"type": "node", "id": 240061758, "lat": 50.7154957, "lon": 6.013341, "tags": {"alt_name": "La Calamine", "name": "Kelmis", "name:de": "Kelmis", "name:fr": "La Calamine", "name:ksh": "Kelmes", "name:la": "Calmis", "name:nl": "Kelmis", "name:ru": "\u041a\u0435\u043b\u044c\u043c\u0438\u0441", "name:wa": "Calm\u00e8ne", "place": "town", "population": "10943", "population:date": "2012", "ref:INS": "63040", "wikidata": "Q159864", "wikipedia": "de:Kelmis"}}, {"type": "node", "id": 240097474, "lat": 50.6761305, "lon": 6.1108404, "tags": {"name": "Raeren", "name:bg": "\u0420\u0430\u0440\u0435\u043d", "name:de": "Raeren", "name:li": "Raore", "name:ru": "\u0420\u0430\u0440\u0435\u043d", "place": "town", "population": "10651", "population:date": "2012", "ref:INS": "63061", "website": "http://www.raeren.be/", "wikidata": "Q152734", "wikipedia": "de:Raeren"}}, {"type": "node", "id": 1671153486, "lat": 50.8331973, "lon": 5.1030991, "tags": {"name": "Zoutleeuw", "name:fr": "L\u00e9au", "name:la": "Leevia", "name:nl": "Zoutleeuw", "name:ru": "\u0417\u0443\u0442\u043b\u0435\u0443\u0432", "place": "town", "population": "8000", "website": "http://www.zoutleeuw.be", "wikidata": "Q227070", "wikipedia": "nl:Zoutleeuw"}}, {"type": "node", "id": 1671150787, "lat": 50.8152784, "lon": 5.1858896, "tags": {"name": "Sint-Truiden", "name:fr": "Saint-Trond", "name:la": "Oppidum Sancti Trudonis", "name:li": "Sintruin", "name:lt": "Sint Treidenas", "name:nl": "Sint-Truiden", "name:ru": "\u0421\u0438\u043d\u0442-\u0422\u0440\u0451\u0439\u0434\u0435\u043d", "place": "town", "population": "40357", "population:date": "2012", "ref:INS": "71053", "website": "https://www.sint-truiden.be/", "wikidata": "Q37792", "wikipedia": "nl:Sint-Truiden"}}, {"type": "node", "id": 64813638, "lat": 50.9479352, "lon": 5.1142517, "tags": {"alt_name:fr": "Haelen", "name": "Halen", "name:fr": "Halen", "name:li": "H\u00f4le", "name:nl": "Halen", "place": "town", "population": "9361", "population:date": "2012", "postal_code": "3545", "ref:INS": "71020", "website": "https://www.halen.be/", "wikidata": "Q461436", "wikipedia": "nl:Halen (Belgi\u00eb)"}}, {"type": "node", "id": 1677283418, "lat": 50.9406957, "lon": 5.1659696, "tags": {"name": "Herk-de-Stad", "name:fr": "Herck-la-Ville", "name:la": "Herka", "name:nl": "Herk-de-Stad", "name:ru": "\u0425\u0435\u0440\u043a-\u0434\u0435-\u0421\u0442\u0430\u0434", "place": "town", "population": "12240", "population:date": "2012", "postal_code": "3540", "ref:INS": "71024", "website": "http://www.herk-de-stad.be/", "wikidata": "Q696585", "wikipedia": "nl:Herk-de-Stad"}}, {"type": "node", "id": 1671152235, "lat": 50.8024529, "lon": 5.3435704, "tags": {"name": "Borgloon", "name:fr": "Looz", "name:la": "Borchlonium", "name:li": "Loe\u00ebn", "name:nl": "Borgloon", "name:ru": "\u0411\u043e\u0440\u0433\u043b\u043e\u043d", "name:wa": "L\u00f4", "place": "town", "population": "10539", "population:date": "2012", "postal_code": "3840", "ref:INS": "73009", "website": "https://www.borgloon.be/", "wikidata": "Q499609", "wikipedia": "nl:Borgloon"}}, {"type": "node", "id": 318263253, "lat": 50.8754731, "lon": 5.3079873, "tags": {"name": "Alken", "name:ru": "\u0410\u043b\u043a\u0435\u043d", "place": "town", "population": "11335", "population:date": "2012", "postal_code": "3570", "ref:INS": "73001", "website": "https://www.alken.be/", "wikidata": "Q499604", "wikipedia": "nl:Alken (Belgi\u00eb)"}}, {"type": "node", "id": 60564126, "lat": 50.9303735, "lon": 5.3378043, "tags": {"capital": "6", "name": "Hasselt", "name:la": "Hasseletum", "name:nl": "Hasselt", "name:ru": "\u0425\u0430\u0441\u0441\u0435\u043b\u0442", "place": "town", "population": "75991", "population:date": "2014", "postal_code": "3500", "ref:INS": "71022", "website": "https://www.hasselt.be/", "wikidata": "Q58780", "wikipedia": "nl:Hasselt (Belgi\u00eb)"}}, {"type": "node", "id": 178902558, "lat": 50.9078485, "lon": 5.4200307, "tags": {"name": "Diepenbeek", "name:li": "Diepenbik", "name:nl": "Diepenbeek", "name:ru": "\u0414\u0438\u043f\u0435\u043d\u0431\u0435\u043a", "place": "town", "population": "18403", "population:date": "2012", "postal_code": "3590", "ref:INS": "71011", "website": "https://www.diepenbeek.be/", "wikidata": "Q651826", "wikipedia": "nl:Diepenbeek"}}, {"type": "node", "id": 64670063, "lat": 50.9844318, "lon": 5.0504341, "tags": {"name": "Diest", "name:la": "Distha", "name:ru": "\u0414\u0438\u0441\u0442", "place": "town", "website": "https://www.diest.be/", "wikidata": "Q743236", "wikipedia": "nl:Diest"}}, {"type": "node", "id": 662962032, "lat": 51.0681628, "lon": 5.0893974, "tags": {"name": "Tessenderlo", "name:li": "Loei", "name:nl": "Tessenderlo", "name:ru": "\u0422\u0435\u0441\u0441\u0435\u043d\u0434\u0435\u0440\u043b\u043e", "place": "town", "population": "18516", "population:date": "2012", "postal_code": "3980", "ref:INS": "71057", "website": "https://www.tessenderlo.be/", "wikidata": "Q740852", "wikipedia": "nl:Tessenderlo"}}, {"type": "node", "id": 889048212, "lat": 50.9862157, "lon": 5.1918579, "tags": {"name": "Lummen", "name:li": "Leume", "name:nl": "Lummen", "name:ru": "\u041b\u044e\u043c\u043c\u0435\u043d", "place": "town", "population": "14386", "population:date": "2012", "postal_code": "3560", "ref:INS": "71037", "website": "https://www.lummen.be/", "wikidata": "Q329628", "wikipedia": "nl:Lummen"}}, {"type": "node", "id": 64613575, "lat": 51.0489641, "lon": 5.2266869, "tags": {"name": "Beringen", "name:la": "Beringa", "name:li": "Berringe", "name:lt": "Beringenas", "name:ru": "\u0411\u0435\u0440\u0438\u043d\u0433\u0435\u043d", "place": "town", "population": "43975", "population:date": "2013", "postal_code": "3580", "ref:INS": "71004", "website": "https://www.beringen.be/", "wikidata": "Q242407", "wikipedia": "nl:Beringen (stad)"}}, {"type": "node", "id": 1492727395, "lat": 51.1317433, "lon": 5.0772388, "tags": {"name": "Meerhout", "name:ru": "\u041c\u0435\u0440\u0445\u0430\u0443\u0442", "place": "town", "postal_code": "2450", "website": "https://www.meerhout.be/", "wikidata": "Q846207", "wikipedia": "nl:Meerhout"}}, {"type": "node", "id": 1468993933, "lat": 51.1840421, "lon": 5.1155267, "tags": {"name": "Mol", "place": "town", "population": "35382", "population:date": "2014-01-01", "postal_code": "2400", "source:population": "wikipedia", "website": "https://www.mol.be/", "wikidata": "Q465710", "wikipedia": "nl:Mol (Belgi\u00eb)"}}, {"type": "node", "id": 957902621, "lat": 51.1054908, "lon": 5.1609815, "tags": {"name": "Ham", "place": "town", "population": "10716", "population:date": "2012", "postal_code": "3945", "ref:INS": "71069", "website": "https://www.ham.be/", "wikidata": "Q695354", "wikipedia": "nl:Ham (Belgi\u00eb)"}}, {"type": "node", "id": 2573491654, "lat": 51.1707551, "lon": 5.1696859, "tags": {"name": "Balen", "place": "town", "population": "20643", "postal_code": "2490", "website": "https://www.balen.be/", "wikidata": "Q723651", "wikipedia": "nl:Balen (Vlaanderen)"}}, {"type": "node", "id": 2095716099, "lat": 51.0233485, "lon": 5.2750485, "tags": {"name": "Heusden-Zolder", "name:ru": "\u0425\u0451\u0441\u0434\u0435\u043d-\u0417\u043e\u043b\u0434\u0435\u0440", "place": "town", "population": "32381", "population:date": "2014", "postal_code": "3550", "ref:INS": "71070", "website": "https://www.heusden-zolder.be/", "wikidata": "Q319792", "wikipedia": "nl:Heusden-Zolder"}}, {"type": "node", "id": 86025218, "lat": 50.9909835, "lon": 5.3677683, "tags": {"name": "Zonhoven", "name:li": "Zoneve", "name:nl": "Zonhoven", "name:ru": "\u0417\u043e\u043d\u0445\u043e\u0432\u0435\u043d", "name:wa": "Zon\u00f4f", "place": "town", "population": "21139", "population:date": "2014", "postal_code": "3520", "ref:INS": "71066", "website": "https://www.zonhoven.be/", "wikidata": "Q133769", "wikipedia": "nl:Zonhoven"}}, {"type": "node", "id": 3369164693, "lat": 51.0467933, "lon": 5.3780416, "tags": {"name": "Houthalen-Helchteren", "name:ru": "\u0425\u0430\u0443\u0442\u0445\u0430\u043b\u0435\u043d-\u0425\u0435\u043b\u0445\u0442\u0435\u0440\u0435\u043d", "place": "town", "postal_code": "3530", "website": "https://www.houthalen-helchteren.be/", "wikidata": "Q478795", "wikipedia": "nl:Houthalen-Helchteren"}}, {"type": "node", "id": 178912780, "lat": 51.1193017, "lon": 5.2627046, "tags": {"name": "Leopoldsburg", "name:fr": "Bourg-L\u00e9opold", "name:la": "Burgum Leopoldi", "name:li": "Leopolsb\u00f6rch", "name:nl": "Leopoldsburg", "name:ru": "\u041b\u0435\u043e\u043f\u043e\u043b\u044c\u0434\u0441\u0431\u0443\u0440\u0433", "place": "town", "population": "15215", "population:date": "2012", "postal_code": "3970", "ref:INS": "71034", "website": "https://www.leopoldsburg.be/", "wikidata": "Q736120", "wikipedia": "nl:Leopoldsburg"}}, {"type": "node", "id": 2992629676, "lat": 51.1340192, "lon": 5.3780119, "tags": {"name": "Hechtel-Eksel", "name:ru": "\u0425\u0435\u0445\u0442\u0435\u043b-\u042d\u043a\u0441\u0435\u043b", "place": "town", "population": "12166", "website": "https://www.hechtel-eksel.be/", "wikidata": "Q819164", "wikipedia": "nl:Hechtel-Eksel"}}, {"type": "node", "id": 1677291073, "lat": 50.7806267, "lon": 5.4639172, "tags": {"alt_name:la": "Atuaca", "name": "Tongeren", "name:de": "Tongern", "name:fr": "Tongres", "name:la": "Atuatuca Tungrorum", "name:nl": "Tongeren", "name:ru": "\u0422\u043e\u043d\u0433\u0435\u0440\u0435\u043d", "name:wa": "Tongres", "place": "town", "population": "30650", "population:date": "2012", "ref:INS": "73083", "website": "https://www.tongeren.be/", "wikidata": "Q190113", "wikipedia": "nl:Tongeren (stad)"}}, {"type": "node", "id": 322909261, "lat": 50.8500788, "lon": 5.4865309, "tags": {"name": "Hoeselt", "name:nl": "Hoeselt", "name:ru": "\u0425\u0443\u0441\u0435\u043b\u0442", "place": "town", "population": "9000", "wikidata": "Q819152"}}, {"type": "node", "id": 64614689, "lat": 50.8707787, "lon": 5.5181089, "tags": {"name": "Bilzen", "name:la": "Blisia", "name:ru": "\u0411\u0438\u043b\u0437\u0435\u043d", "place": "town", "population": "31460", "wikidata": "Q241898"}}, {"type": "node", "id": 467515730, "lat": 50.8115825, "lon": 5.5978716, "tags": {"name": "Riemst", "name:de": "Riemst", "name:li": "Riems", "name:ru": "\u0420\u0438\u043c\u0441\u0442", "place": "town", "population": "16284", "population:date": "2012", "ref:INS": "73066", "website": "https://www.riemst.be/", "wikidata": "Q736097", "wikipedia": "nl:Riemst"}}, {"type": "node", "id": 2146027714, "lat": 50.9771632, "lon": 5.4858516, "tags": {"name": "Winterslag", "name:ru": "\u0412\u0438\u043d\u0442\u0435\u0440\u0441\u043b\u0430\u0433", "place": "town"}}, {"type": "node", "id": 1637602959, "lat": 50.9654864, "lon": 5.5001456, "tags": {"name": "Genk", "name:ru": "\u0413\u0435\u043d\u043a", "place": "town", "population": "65000", "wikidata": "Q189692"}}, {"type": "node", "id": 1156028522, "lat": 50.8892784, "lon": 5.6513208, "tags": {"name": "Lanaken", "name:ru": "\u041b\u0430\u043d\u0430\u043a\u0435\u043d", "place": "town", "population": "25000", "wikidata": "Q695315"}}, {"type": "node", "id": 25232784, "lat": 50.9635024, "lon": 5.696445, "tags": {"name": "Maasmechelen", "name:ru": "\u041c\u0430\u0430\u0441\u043c\u0435\u0445\u0435\u043b\u0435\u043d", "place": "town", "postal_code": "3630", "wikidata": "Q329633", "wikipedia": "nl:Maasmechelen"}}, {"type": "node", "id": 2146027713, "lat": 50.9958545, "lon": 5.5223907, "tags": {"name": "Waterschei", "name:ru": "\u0412\u0430\u0442\u0435\u0440\u0441\u0445\u0435\u0439", "place": "town"}}, {"type": "node", "id": 2146027715, "lat": 51.0080695, "lon": 5.5082283, "tags": {"name": "Zwartberg", "name:ru": "\u0417\u0432\u0430\u0440\u0442\u0431\u0435\u0440\u0433", "place": "town", "wikidata": "Q1810876"}}, {"type": "node", "id": 472977214, "lat": 51.0680799, "lon": 5.557165, "tags": {"name": "Oudsbergen", "place": "town", "wikidata": "Q41795471"}}, {"type": "node", "id": 79424813, "lat": 51.1319137, "lon": 5.4546268, "tags": {"name": "Peer", "name:ru": "\u041f\u0435\u0440", "place": "town", "population": "16000", "website": "https://www.peer.be/", "wikidata": "Q736085"}}, {"type": "node", "id": 64617945, "lat": 51.1417984, "lon": 5.5985009, "tags": {"name": "Bree", "name:fr": "Br\u00e9e", "name:la": "Brea", "name:nl": "Bree", "name:ru": "\u0411\u0440\u0435", "place": "town", "population": "14774", "postal_code": "3960", "website": "https://www.bree.be/", "wikidata": "Q275863", "wikipedia": "nl:Bree (stad)"}}, {"type": "node", "id": 310786828, "lat": 51.172979, "lon": 5.577577, "tags": {"name": "Bocholt", "name:ru": "\u0411\u043e\u0445\u043e\u043b\u0442", "place": "town", "population": "12561", "postal_code": "3950", "website": "https://www.bocholt.be/", "wikidata": "Q889044", "wikipedia": "nl:Bocholt (Belgi\u00eb)"}}, {"type": "node", "id": 3664961495, "lat": 51.0284779, "lon": 5.7311405, "tags": {"name": "Dilsen-Stokkem", "place": "town"}}, {"type": "node", "id": 497708821, "lat": 51.1449692, "lon": 5.7414008, "tags": {"alt_name": "Kinder", "name": "Kinrooi", "name:ru": "\u041a\u0438\u043d\u0440\u043e\u0439", "place": "town", "population": "3637", "postal_code": "3640", "website": "https://www.kinrooi.be/", "wikidata": "Q819133", "wikipedia": "nl:Kinrooi"}}, {"type": "node", "id": 1155976743, "lat": 51.0947181, "lon": 5.791733, "tags": {"name": "Maaseik", "name:li": "Mezeik", "name:nl": "Maaseik", "name:ru": "\u041c\u0430\u0430\u0441\u0435\u0439\u043a", "old_name:nl": "Maeseyck", "place": "town", "population": "24865", "population:date": "2012", "postal_code": "3680", "ref:INS": "72021", "website": "https://www.maaseik.be/", "wikidata": "Q110989", "wikipedia": "nl:Maaseik"}}, {"type": "node", "id": 1646223361, "lat": 51.2675862, "lon": 5.0843883, "tags": {"name": "Retie", "name:fr": "R\u00e9thy", "name:nl": "Retie", "name:ru": "\u0420\u0435\u0442\u0438", "old_name:fr": "R\u00e9thy", "place": "town", "population": "11000", "postal_code": "2470", "website": "https://www.retie.be/", "wikidata": "Q912062", "wikipedia": "nl:Retie"}}, {"type": "node", "id": 1583836223, "lat": 51.2395713, "lon": 5.113243, "tags": {"name": "Dessel", "name:ru": "\u0414\u0435\u0441\u0441\u0435\u043b", "place": "town", "population": "9000", "postal_code": "2480", "website": "http://www.dessel.be/", "wikidata": "Q386732", "wikipedia": "nl:Dessel"}}, {"type": "node", "id": 36885537, "lat": 51.3202315, "lon": 5.0864557, "tags": {"name": "Arendonk", "name:ru": "\u0410\u0440\u0435\u043d\u0434\u043e\u043d\u043a", "place": "town", "postal_code": "2370", "website": "https://www.arendonk.be/", "wikidata": "Q641905", "wikipedia": "nl:Arendonk"}}, {"type": "node", "id": 77830397, "lat": 51.2305657, "lon": 5.3076895, "tags": {"name": "Lommel", "name:lt": "Lomelis", "name:ru": "\u041b\u043e\u043c\u043c\u0435\u043b", "place": "town", "population": "33744", "postal_code": "3920", "website": "https://www.lommel.be/", "wikidata": "Q194366", "wikipedia": "nl:Lommel"}}, {"type": "node", "id": 6182051604, "lat": 51.2197672, "lon": 5.4299496, "tags": {"name": "Pelt", "place": "town", "wikidata": "Q42878311", "wikipedia": "nl:Pelt (gemeente)"}}, {"type": "node", "id": 2785366524, "lat": 51.2547636, "lon": 5.5128696, "tags": {"name": "Hamont-Achel", "name:ru": "\u0425\u0430\u043c\u043e\u043d\u0442-\u0410\u0445\u0435\u043b", "place": "town", "population": "14000", "website": "https://www.hamont-achel.be/", "wikidata": "Q499599", "wikipedia": "en:Hamont-Achel"}}]}