{"type": "FeatureCollection", "features": [{"type": "Feature", "properties": {"type": "node", "id": 623922742, "tags": {"alt_name:sq": "Sharr", "ele": "1182", "name": "Draga\u0161 - Dragash", "name:mk": "\u0414\u0440\u0430\u0433\u0430\u0448", "name:sq": "Dragash", "name:sr": "\u0414\u0440\u0430\u0433\u0430\u0448", "name:sr-Latn": "Draga\u0161", "place": "town", "population": "1098", "wikidata": "Q59074"}}, "geometry": {"type": "Point", "coordinates": [20.6533669, 42.0615806]}}, {"type": "Feature", "properties": {"type": "node", "id": 150906142, "tags": {"alt_name:sq": "Prizreni;Prizrend", "ele": "450", "is_in:continent": "Europe", "is_in:country": "Kosovo", "is_in:country_code": "XK", "name": "Prizren", "name:ar": "\u0628\u0631\u064a\u0632\u0631\u0646", "name:de": "Prizren", "name:el": "\u03a0\u03c1\u03af\u03b6\u03c1\u03b5\u03bd", "name:en": "Prizren", "name:es": "Prizren", "name:fr": "Prizren", "name:hr": "Prizren", "name:lt": "Prizrenas", "name:lv": "Prizrena", "name:mk": "\u041f\u0440\u0438\u0437\u0440\u0435\u043d", "name:pt": "Prizren", "name:ru": "\u041f\u0440\u0438\u0437\u0440\u0435\u043d", "name:sl": "Prizren", "name:sq": "Prizren", "name:sr": "\u041f\u0440\u0438\u0437\u0440\u0435\u043d", "name:sr-Latn": "Prizren", "place": "city", "population": "85119", "website": "https://kk.rks-gov.net/prizren/", "wikidata": "Q200061", "wikipedia": "en:Prizren"}}, "geometry": {"type": "Point", "coordinates": [20.7363339, 42.2130151]}}, {"type": "Feature", "properties": {"type": "node", "id": 1836571291, "tags": {"alt_name:sq": "Therand\u00eb", "name": "Suharek\u00eb", "name:de": "Suhareka", "name:en": "Suva Reka", "name:mk": "\u0421\u0443\u0432\u0430 \u0420\u0435\u043a\u0430", "name:sq": "Suharek\u00eb", "name:sr": "\u0421\u0443\u0432\u0430 \u0420\u0435\u043a\u0430", "name:sr-Latn": "Suva Reka", "old_name": "Suhareka", "place": "town", "population": "10422", "wikidata": "Q59086", "wikipedia": "sq:Theranda"}}, "geometry": {"type": "Point", "coordinates": [20.8315238, 42.3621996]}}, {"type": "Feature", "properties": {"type": "node", "id": 2381741659, "tags": {"name": "\u0160trpce", "name:mk": "\u0428\u0442\u0440\u043f\u0446\u0435", "name:sq": "Sht\u00ebrpc\u00eb", "name:sr": "\u0428\u0442\u0440\u043f\u0446\u0435", "name:sr-Latn": "\u0160trpce", "place": "town", "population": "1265", "wikidata": "Q392505"}}, "geometry": {"type": "Point", "coordinates": [21.0253337, 42.2401249]}}, {"type": "Feature", "properties": {"type": "node", "id": 1905560456, "tags": {"is_in:continent": "Europe", "is_in:country": "Kosovo", "is_in:country_code": "XK", "name": "Ferizaj", "name:ar": "\u0641\u0631\u064a\u0632\u0627\u064a", "name:de": "Ferizaj", "name:en": "Ferizaj", "name:es": "Ferizaj", "name:fr": "Ferizaj", "name:hu": "Ferizaj", "name:mk": "\u0423\u0440\u043e\u0448\u0435\u0432\u0430\u0446", "name:sq": "Ferizaj", "name:sr": "\u0423\u0440\u043e\u0448\u0435\u0432\u0430\u0446", "name:sr-Latn": "Uro\u0161evac", "place": "city", "population": "42628", "source": "GNS", "wikidata": "Q738901", "wikipedia": "sq:Ferizaji"}}, "geometry": {"type": "Point", "coordinates": [21.1532848, 42.3682168]}}, {"type": "Feature", "properties": {"type": "node", "id": 3962446463, "tags": {"alt_name:sq": "Ka\u00e7aniku", "name": "Ka\u00e7anik", "name:de": "Ka\u00e7anik", "name:en": "Ka\u00e7anik", "name:mk": "\u041a\u0430\u0447\u0430\u043d\u0438\u043a", "name:sq": "Ka\u00e7anik", "name:sr": "\u041a\u0430\u0447\u0430\u043d\u0438\u043a", "name:sr-Latn": "Ka\u010danik", "place": "town", "population": "10393", "wikidata": "Q248378"}}, "geometry": {"type": "Point", "coordinates": [21.2579777, 42.2280602]}}, {"type": "Feature", "properties": {"type": "node", "id": 3195851291, "tags": {"ele": "500", "name": "Viti", "name:de": "Viti", "name:en": "Viti", "name:mk": "\u0412\u0438\u0442\u0438\u043d\u0430", "name:sq": "Viti", "name:sr": "\u0412\u0438\u0442\u0438\u043d\u0430", "name:sr-Latn": "Vitina", "place": "town", "population": "46987"}}, "geometry": {"type": "Point", "coordinates": [21.3571665, 42.320283]}}, {"type": "Feature", "properties": {"type": "node", "id": 1599387506, "tags": {"is_in": "Serbia", "name": "\u041f\u0440\u0435\u0448\u0435\u0432\u043e", "name:de": "Pre\u0161evo", "name:en": "Presevo", "name:ru": "\u041f\u0440\u0435\u0448\u0435\u0432\u043e", "name:sq": "Presheva", "name:sr": "\u041f\u0440\u0435\u0448\u0435\u0432\u043e", "name:sr-Latn": "Pre\u0161evo", "place": "town", "population": "13426", "source": "GNS", "wikidata": "Q145871", "wikipedia": "sr:\u041f\u0440\u0435\u0448\u0435\u0432\u043e"}}, "geometry": {"type": "Point", "coordinates": [21.6490102, 42.3095217]}}, {"type": "Feature", "properties": {"type": "node", "id": 1839805748, "tags": {"alt_name:sr": "\u0414\u0435\u0447\u0430\u043d\u0438", "alt_name:sr-Latn": "De\u010dani", "name": "De\u00e7an", "name:de": "De\u00e7an", "name:en": "De\u00e7an", "name:mk": "\u0414\u0435\u0447\u0430\u043d\u0438", "name:ru": "\u0414\u0435\u0447\u0430\u043d\u0435", "name:sq": "De\u00e7an", "name:sr": "\u0414\u0435\u0447\u0430\u043d\u0435", "name:sr-Latn": "De\u010dane", "name:zh": "\u4ee3\u67e5\u5c3c", "place": "town", "population": "3803", "wikidata": "Q939112", "wikipedia": "sq:De\u00e7ani"}}, "geometry": {"type": "Point", "coordinates": [20.2882204, 42.5402236]}}, {"type": "Feature", "properties": {"type": "node", "id": 1530391541, "tags": {"alt_name": "Gjakova", "int_name": "Djakovica", "is_in:continent": "Europe", "is_in:country": "Kosovo", "is_in:country_code": "XK", "name": "Gjakov\u00eb", "name:ar": "\u062c\u0627\u0643\u0648\u0641\u0627", "name:de": "Gjakova", "name:en": "Gjakova", "name:es": "Gjakova", "name:fr": "\u0110akovica", "name:mk": "\u0403\u0430\u043a\u043e\u0432\u0438\u0446\u0430", "name:pl": "Djakowica", "name:sq": "Gjakov\u00eb", "name:sr": "\u0402\u0430\u043a\u043e\u0432\u0438\u0446\u0430", "name:sr-Latn": "\u0110akovica", "place": "city", "population": "40827", "wikidata": "Q474651", "wikipedia": "en:Gjakova"}}, "geometry": {"type": "Point", "coordinates": [20.4316226, 42.3798793]}}, {"type": "Feature", "properties": {"type": "node", "id": 3075195901, "tags": {"alt_name": "Peja", "ele": "550", "is_in:continent": "Europe", "is_in:country": "Kosovo", "is_in:country_code": "XK", "name": "Pej\u00eb", "name:ar": "\u0628\u064a\u062e\u0627", "name:de": "Peja", "name:el": "\u03a0\u03b5\u03c4\u03c2", "name:en": "Pej\u00eb", "name:es": "Pe\u0107", "name:fr": "Pe\u0107", "name:mk": "\u041f\u0435\u045c", "name:sq": "Pej\u00eb", "name:sr": "\u041f\u0435\u045b", "name:sr-Latn": "Pe\u0107", "place": "city", "population": "48962", "website": "https://kk.rks-gov.net/peje/", "wikidata": "Q112657"}}, "geometry": {"type": "Point", "coordinates": [20.288468, 42.6594354]}}, {"type": "Feature", "properties": {"type": "node", "id": 3031511862, "tags": {"alt_name": "Burim", "ele": "480", "is_in:country": "Republika e Kosov\u00ebs", "name": "Istog", "name:de": "Istog", "name:el": "\u038a\u03c3\u03c4\u03bf\u03ba", "name:en": "Istog", "name:mk": "\u0418\u0441\u0442\u043e\u043a", "name:sq": "Istog", "name:sr": "\u0418\u0441\u0442\u043e\u043a", "name:sr-Latn": "Istok", "place": "town", "population": "5115", "website": "https://kk.rks-gov.net/istog/", "wikidata": "Q991332", "wikipedia": "sq:Burimi (qytet)"}}, "geometry": {"type": "Point", "coordinates": [20.4883102, 42.781695]}}, {"type": "Feature", "properties": {"type": "node", "id": 1379511730, "tags": {"geonameid": "787456", "gnadmin": "00", "gnfeature": "P", "gnfeaturec": "PPL", "name": "Rahovec", "name:de": "Rahovec", "name:en": "Rahovec", "name:fa": "\u0631\u0627\u0647\u0648\u0648\u0633", "name:fr": "Rahovec", "name:hr": "Orahovac", "name:it": "Rahovec", "name:mk": "\u041e\u0440\u0430\u0445\u043e\u0432\u0430\u0446", "name:no": "Rahovec", "name:pl": "Orahovac", "name:ru": "\u041e\u0440\u0430\u0445\u043e\u0432\u0430\u0446", "name:sq": "Rahovec", "name:sr": "\u041e\u0440\u0430\u0445\u043e\u0432\u0430\u0446", "name:sr-Latn": "Orahovac", "name:tr": "Rahof\u00e7a", "name_full_nd": "Orahovac", "name_full_nd:sq": "Rahovec", "name_full_nd:sr": "Orahovac", "place": "town", "population": "56208", "wikidata": "Q733155", "wikipedia": "sq:Rahoveci"}}, "geometry": {"type": "Point", "coordinates": [20.6528313, 42.399182]}}, {"type": "Feature", "properties": {"type": "node", "id": 6139380125, "tags": {"name": "Malishev\u00eb", "name:de": "Malisheva", "name:mk": "\u041c\u0430\u043b\u0438\u0448\u0435\u0432\u043e", "name:sq": "Malishev\u00eb", "name:sr": "\u041c\u0430\u043b\u0438\u0448\u0435\u0432\u043e", "name:sr-Latn": "Mali\u0161evo", "place": "town", "population": "3395", "postal_code": "24000", "wikidata": "Q59089", "wikipedia": "sq:Malisheva"}}, "geometry": {"type": "Point", "coordinates": [20.7430294, 42.4838388]}}, {"type": "Feature", "properties": {"type": "node", "id": 430705589, "tags": {"alt_name": "Klina", "is_in:country": "Kosova", "name": "Klin\u00eb", "name:de": "Klina", "name:en": "Klin\u00eb", "name:mk": "\u041a\u043b\u0438\u043d\u0430", "name:sq": "Klin\u00eb", "name:sr": "\u041a\u043b\u0438\u043d\u0430", "name:sr-Latn": "Klina", "place": "town", "population": "38496", "source": "Wikipedia"}}, "geometry": {"type": "Point", "coordinates": [20.576096, 42.6177812]}}, {"type": "Feature", "properties": {"type": "node", "id": 1957422741, "tags": {"name": "Drenas", "name:de": "Drenas", "name:en": "Drenas", "name:mk": "\u0413\u043b\u043e\u0433\u043e\u0432\u0430\u0446", "name:sq": "Drenas", "name:sr": "\u0413\u043b\u043e\u0433\u043e\u0432\u0430\u0446", "name:sr-Latn": "Glogovac", "old_name:sq": "Gllogoc", "place": "town", "population": "6129", "wikidata": "Q1008042", "wikipedia": "sq:Drenasi"}}, "geometry": {"type": "Point", "coordinates": [20.8957543, 42.6252526]}}, {"type": "Feature", "properties": {"type": "node", "id": 1957453084, "tags": {"alt_name": "Sk\u00ebnderaj", "name": "Sk\u00ebnderaj", "name:de": "Sk\u00ebnderaj", "name:mk": "\u0421\u0440\u0431\u0438\u0446\u0430", "name:sq": "Sk\u00ebnderaj", "name:sr": "\u0421\u0440\u0431\u0438\u0446\u0430", "name:sr-Latn": "Srbica", "place": "town", "population": "6612", "wikidata": "Q991291", "wikipedia": "en:Skenderaj"}}, "geometry": {"type": "Point", "coordinates": [20.7892186, 42.7475332]}}, {"type": "Feature", "properties": {"type": "node", "id": 292556852, "tags": {"is_in": "Serbia", "name": "\u0422\u0443\u0442\u0438\u043d", "name:en": "Tutin", "name:ru": "\u0422\u0443\u0442\u0438\u043d", "name:sr": "\u0422\u0443\u0442\u0438\u043d", "name:sr-Latn": "Tutin", "place": "town", "population": "9111", "wikidata": "Q835000", "wikipedia": "sr:\u0422\u0443\u0442\u0438\u043d"}}, "geometry": {"type": "Point", "coordinates": [20.336704, 42.9903418]}}, {"type": "Feature", "properties": {"type": "node", "id": 338659082, "tags": {"is_in:continent": "Europe", "is_in:country": "Serbia", "is_in:country_code": "RS", "name": "\u041d\u043e\u0432\u0438 \u041f\u0430\u0437\u0430\u0440", "name:ar": "\u0646\u0648\u0641\u064a \u0628\u0627\u0632\u0627\u0631", "name:de": "Novi Pazar", "name:el": "\u039d\u03cc\u03b2\u03b9 \u03a0\u03b1\u03b6\u03ac\u03c1", "name:en": "Novi Pazar", "name:es": "Novi Pazar", "name:et": "Novi Pazar", "name:fr": "Novi Pazar", "name:hr": "Novi Pazar", "name:lt": "Novi Pazaras", "name:ru": "\u041d\u043e\u0432\u0438-\u041f\u0430\u0437\u0430\u0440", "name:sl": "Novi Pazar", "name:sq": "Pazari i Ri", "name:sr": "\u041d\u043e\u0432\u0438 \u041f\u0430\u0437\u0430\u0440", "name:sr-Latn": "Novi Pazar", "name:tr": "Yeni Pazar", "place": "city", "population": "66527", "wikidata": "Q202453", "wikipedia": "sr:\u041d\u043e\u0432\u0438 \u041f\u0430\u0437\u0430\u0440"}}, "geometry": {"type": "Point", "coordinates": [20.5112273, 43.1363535]}}, {"type": "Feature", "properties": {"type": "node", "id": 2183422140, "tags": {"addr:postcode": "40650", "alt_name": "Zubin Potoku", "name": "Zubin Potok", "name:el": "\u0396\u03bf\u03cd\u03bc\u03c0\u03b9\u03bd \u03a0\u03cc\u03c4\u03bf\u03ba", "name:mk": "\u0417\u0443\u0431\u0438\u043d \u041f\u043e\u0442\u043e\u043a", "name:sq": "Zubin Potoku", "name:sr": "\u0417\u0443\u0431\u0438\u043d \u041f\u043e\u0442\u043e\u043a", "name:sr-Latn": "Zubin Potok", "place": "town", "population": "1724", "wikidata": "Q227569", "wikipedia": "sq:Zubin Potoku"}}, "geometry": {"type": "Point", "coordinates": [20.6918496, 42.9134822]}}, {"type": "Feature", "properties": {"type": "node", "id": 1640485042, "tags": {"alt_name": "Mitrovica", "alt_name:mk": "\u041c\u0438\u0442\u0440\u043e\u0432\u0438\u0446\u0430", "alt_name:sq": "Mitrovica", "alt_name:sr": "\u041c\u0438\u0442\u0440\u043e\u0432\u0438\u0446\u0430", "alt_name:sr-Latn": "Mitrovica", "name": "Mitrovic\u00eb", "name:ar": "\u0645\u064a\u062a\u0631\u0648\u0641\u064a\u062a\u0633\u0627", "name:de": "Mitrovic\u00eb", "name:el": "\u039c\u03b9\u03c4\u03c1\u03cc\u03b2\u03b9\u03c4\u03c3\u03b1", "name:en": "Mitrovica", "name:es": "Mitrovica", "name:fr": "Mitrovica", "name:mk": "\u041a\u043e\u0441\u043e\u0432\u0441\u043a\u0430 \u041c\u0438\u0442\u0440\u043e\u0432\u0438\u0446\u0430", "name:sq": "Mitrovic\u00eb", "name:sr": "\u041a\u043e\u0441\u043e\u0432\u0441\u043a\u0430 \u041c\u0438\u0442\u0440\u043e\u0432\u0438\u0446\u0430", "name:sr-Latn": "Kosovska Mitrovica", "old_name:1981-1991": "Titova Mitrovica", "place": "city", "population": "46132", "website": "https://kk.rks-gov.net/mitrovice/", "wikidata": "Q178168", "wikipedia": "en:Mitrovica, Kosovo"}}, "geometry": {"type": "Point", "coordinates": [20.8657862, 42.8790424]}}, {"type": "Feature", "properties": {"type": "node", "id": 5830684024, "tags": {"alt_name:sq": "Mitrovica e Veriut", "alt_name:sr": "\u0421\u0435\u0432\u0435\u0440\u043d\u0430 \u041c\u0438\u0442\u0440\u043e\u0432\u0438\u0446\u0430", "alt_name:sr-Latn": "Severna Mitrovica", "name": "Severna Kosovska Mitrovica / Mitrovic\u00eb Veriore", "name:de": "Nord-Mitrovica", "name:el": "\u0392\u03cc\u03c1\u03b5\u03b9\u03b1 \u039c\u03b9\u03c4\u03c1\u03cc\u03b2\u03b9\u03c4\u03c3\u03b1", "name:en": "North Mitrovica", "name:sq": "Mitrovica e Veriut", "name:sr": "\u0421\u0435\u0432\u0435\u0440\u043d\u0430 \u041a\u043e\u0441\u043e\u0432\u0441\u043a\u0430 \u041c\u0438\u0442\u0440\u043e\u0432\u0438\u0446\u0430", "name:sr-Latn": "Severna Kosovska Mitrovica", "place": "town", "population": "12326", "website": "https://kk.rks-gov.net/mitroviceeveriut/", "wikidata": "Q42328687", "wikipedia": "sr:\u0421\u0435\u0432\u0435\u0440\u043d\u0430 \u041a\u043e\u0441\u043e\u0432\u0441\u043a\u0430 \u041c\u0438\u0442\u0440\u043e\u0432\u0438\u0446\u0430"}}, "geometry": {"type": "Point", "coordinates": [20.865765, 42.8963331]}}, {"type": "Feature", "properties": {"type": "node", "id": 448726882, "tags": {"name": "Vushtrri", "name:de": "Vushtrria", "name:hr": "Vu\u010ditrn", "name:mk": "\u0412\u0443\u0447\u0438\u0442\u0440\u043d", "name:ru": "\u0412\u0443\u0447\u0438\u0442\u0440\u043d", "name:sl": "Vu\u010ditrn", "name:sq": "Vushtrri", "name:sr": "\u0412\u0443\u0447\u0438\u0442\u0440\u043d", "name:sr-Latn": "Vu\u010ditrn", "place": "town", "population": "27272", "wikidata": "Q911241"}}, "geometry": {"type": "Point", "coordinates": [20.9659955, 42.8223701]}}, {"type": "Feature", "properties": {"type": "node", "id": 1907401314, "tags": {"alt_name": "Zve\u00e7an", "name": "Zve\u010dan", "name:mk": "\u0417\u0432\u0435\u0447\u0430\u043d", "name:sq": "Zve\u00e7an", "name:sr": "\u0417\u0432\u0435\u0447\u0430\u043d", "name:sr-Latn": "Zve\u010dan", "place": "town", "population": "7481", "postal_code": "38227", "wikidata": "Q62172", "wikipedia": "en:Zve\u010dan"}}, "geometry": {"type": "Point", "coordinates": [20.8402873, 42.9089942]}}, {"type": "Feature", "properties": {"type": "node", "id": 448739405, "tags": {"alt_name": "Albanik", "name": "Leposavi\u0107", "name:mk": "\u041b\u0435\u043f\u043e\u0441\u0430\u0432\u0438\u045c", "name:sq": "Leposaviq / Albanik", "name:sr": "\u041b\u0435\u043f\u043e\u0441\u0430\u0432\u0438\u045b", "name:sr-Latn": "Leposavi\u0107", "place": "town", "population": "3105", "postal_code": "38218", "telephone_area_code": "028", "wikidata": "Q991313"}}, "geometry": {"type": "Point", "coordinates": [20.80112, 43.101939]}}, {"type": "Feature", "properties": {"type": "node", "id": 282425103, "tags": {"alt_name:sq": "Shtimja", "name": "Shtime", "name:en": "\u0160timlje", "name:mk": "\u0428\u0442\u0438\u043c\u0459\u0435", "name:sq": "Shtime", "name:sr": "\u0428\u0442\u0438\u043c\u0459\u0435", "name:sr-Latn": "\u0160timlje", "place": "town", "population": "7255", "wikidata": "Q994737", "wikipedia": "sq:Shtimja"}}, "geometry": {"type": "Point", "coordinates": [21.0363448, 42.4341803]}}, {"type": "Feature", "properties": {"type": "node", "id": 371547322, "tags": {"name": "Lipjan", "name:de": "Lipjan", "name:en": "Lipjan", "name:sq": "Lipjan", "name:sr": "\u041b\u0438\u043f\u0459\u0430\u043d", "name:sr-Latn": "Lipljan", "place": "town", "population": "6870", "postal_code": "14000", "wikidata": "Q994730"}}, "geometry": {"type": "Point", "coordinates": [21.122598, 42.5213395]}}, {"type": "Feature", "properties": {"type": "node", "id": 430796564, "tags": {"alt_name": "Kastriot", "name": "Obiliq", "name:mk": "\u041e\u0431\u0438\u043b\u0438\u045c", "name:sq": "Obiliq", "name:sr": "\u041e\u0431\u0438\u043b\u0438\u045b", "name:sr-Latn": "Obili\u0107", "place": "town", "population": "6864", "wikidata": "Q608274", "wikipedia": "sq:Kastrioti"}}, "geometry": {"type": "Point", "coordinates": [21.0694943, 42.6861684]}}, {"type": "Feature", "properties": {"type": "node", "id": 448554221, "tags": {"alt_name": "Fush\u00eb Kosova", "ele": "543", "level": "1", "name": "Fush\u00eb Kosov\u00eb", "name:de": "Fush\u00eb Kosov\u00eb", "name:en": "Fush\u00eb Kosov\u00eb", "name:sq": "Fush\u00eb Kosov\u00eb", "name:sr": "\u041a\u043e\u0441\u043e\u0432\u043e \u041f\u043e\u0459\u0435", "name:sr-Latn": "Kosovo Polje", "place": "town", "population": "12919", "website": "https://kk.rks-gov.net/fushekosove/", "wikidata": "Q786124", "wikipedia": "en:Kosovo Polje"}}, "geometry": {"type": "Point", "coordinates": [21.093132, 42.6374117]}}, {"type": "Feature", "properties": {"type": "node", "id": 2885136501, "tags": {"admin_level": "2", "alt_name": "Pristina", "alt_name:sq": "Prishtina", "capital": "yes", "capital_ISO3166-1": "yes", "ele": "650", "name": "Prishtin\u00eb", "name:ar": "\u0628\u0631\u064a\u0634\u062a\u064a\u0646\u0627", "name:be": "\u041f\u0440\u044b\u0448\u0446\u0456\u043d\u0430", "name:be-tarask": "\u041f\u0440\u044b\u0448\u0446\u0456\u043d\u0430", "name:cs": "Pri\u0161tina", "name:de": "Pristina", "name:el": "\u03a0\u03c1\u03af\u03c3\u03c4\u03b9\u03bd\u03b1", "name:en": "Pristina", "name:es": "Pristina", "name:et": "Pri\u0161tina", "name:fr": "Pristina", "name:hr": "Pri\u0161tina", "name:hu": "Pristina", "name:it": "Pristina", "name:ja": "\u30d7\u30ea\u30b7\u30e5\u30c6\u30a3\u30ca", "name:mk": "\u041f\u0440\u0438\u0448\u0442\u0438\u043d\u0430", "name:pl": "Prisztina", "name:pt": "Pristina", "name:ru": "\u041f\u0440\u0438\u0448\u0442\u0438\u043d\u0430", "name:sk": "Pri\u0161tina", "name:sl": "Pri\u0161tina", "name:sq": "Prishtin\u00eb", "name:sr": "\u041f\u0440\u0438\u0448\u0442\u0438\u043d\u0430", "name:sr-Latn": "Pri\u0161tina", "name:sv": "Pristina", "name:ta": "\u0baa\u0bbf\u0bb0\u0bbf\u0bb8\u0bcd\u0b9f\u0bbf\u0ba9\u0bbe", "name:tr": "Pri\u015ftine", "name:zh": "\u666e\u91cc\u4ec0\u8482\u7eb3", "place": "city", "population": "145149", "postal_code": "10000", "website": "https://kk.rks-gov.net/prishtina/", "wikidata": "Q25270", "wikipedia": "sq:Prishtina"}}, "geometry": {"type": "Point", "coordinates": [21.1640849, 42.6638771]}}, {"type": "Feature", "properties": {"type": "node", "id": 6352912023, "tags": {"ele": "508", "name": "Gjilan", "name:de": "Gjilan", "name:en": "Gjilan", "name:es": "Gnjilane", "name:fr": "Gjilane", "name:hr": "Gnjilane", "name:mk": "\u0413\u043d\u0438\u043b\u0430\u043d\u0435", "name:ru": "\u0413\u043d\u0438\u043b\u0430\u043d\u0435", "name:sl": "Gnjilane", "name:sq": "\u062c\u064a\u0644\u0627\u0646", "name:sr": "\u0413\u045a\u0438\u043b\u0430\u043d\u0435", "name:sr-Latn": "Gnjilane", "place": "city", "population": "54239", "website": "https://kk.rks-gov.net/gjilan/", "wikidata": "Q739808", "wikipedia": "en:Gjilan"}}, "geometry": {"type": "Point", "coordinates": [21.4693599, 42.463515]}}, {"type": "Feature", "properties": {"type": "node", "id": 3195863009, "tags": {"alt_name": "Ranilug", "name": "Ranilug", "name:de": "Ranillug", "name:en": "Ranillug", "name:mk": "\u0420\u0430\u043d\u0438\u043b\u0443\u0433", "name:sq": "Ranillug", "name:sr": "\u0420\u0430\u043d\u0438\u043b\u0443\u0433", "name:sr-Latn": "Ranilug", "note": "Serbian majority municipality, therefore name: Ranilug/Ranillug, do NOT change!", "place": "town", "population": "3866"}}, "geometry": {"type": "Point", "coordinates": [21.5970462, 42.4902621]}}, {"type": "Feature", "properties": {"type": "node", "id": 369559187, "tags": {"alt_name": "Kamenica", "alt_name_1": "Dardan\u00eb", "is_in:country": "Kosovo", "name": "Kamenic\u00eb", "name:de": "Kamenica", "name:mk": "\u041a\u043e\u0441\u043e\u0432\u0441\u043a\u0430 \u041a\u0430\u043c\u0435\u043d\u0438\u0446\u0430", "name:sq": "Kamenic\u00eb / Dardan\u00eb", "name:sr": "\u041a\u043e\u0441\u043e\u0432\u0441\u043a\u0430 \u041a\u0430\u043c\u0435\u043d\u0438\u0446\u0430", "name:sr-Latn": "Kosovska Kamenica", "place": "town", "population": "36085"}}, "geometry": {"type": "Point", "coordinates": [21.5811607, 42.5812894]}}, {"type": "Feature", "properties": {"type": "node", "id": 1599387493, "tags": {"name": "\u0411\u0443\u0458\u0430\u043d\u043e\u0432\u0430\u0446", "name:de": "Bujanovac", "name:en": "Bujanovac", "name:ru": "\u0411\u0443\u044f\u043d\u043e\u0432\u0430\u0446", "name:sq": "Bujanoc", "name:sr": "\u0411\u0443\u0458\u0430\u043d\u043e\u0432\u0430\u0446", "name:sr-Latn": "Bujanovac", "place": "town", "population": "12011", "wikidata": "Q834989", "wikipedia": "sr:\u0411\u0443\u0458\u0430\u043d\u043e\u0432\u0430\u0446"}}, "geometry": {"type": "Point", "coordinates": [21.7669854, 42.4597703]}}, {"type": "Feature", "properties": {"type": "node", "id": 299447753, "tags": {"alt_name": "Besian\u00eb", "alt_name:mk": "\u041f\u043e\u0434\u0443\u0458\u0435\u0432\u043e", "name": "Podujev\u00eb", "name:de": "Podujeva", "name:mk": "\u041f\u043e\u0434\u0443\u0435\u0432\u043e", "name:sq": "Podujev\u00eb", "name:sr": "\u041f\u043e\u0434\u0443\u0458\u0435\u0432\u043e", "name:sr-Latn": "Podujevo", "place": "town", "population": "23453", "postal_code": "11000", "wikidata": "Q994245", "wikipedia": "sq:Besiana"}}, "geometry": {"type": "Point", "coordinates": [21.1917809, 42.9107009]}}, {"type": "Feature", "properties": {"type": "node", "id": 449750290, "tags": {"geonameid": "788852", "gnadmin": "YU", "gnfeature": "P", "gnfeaturec": "PPL", "is_in": "Serbia", "name": "\u041a\u0443\u0440\u0448\u0443\u043c\u043b\u0438\u0458\u0430", "name:el": "\u039a\u03bf\u03c5\u03c1\u03c3\u03bf\u03cd\u03bc\u03bb\u03b9\u03b1", "name:en": "Kursumlija", "name:hr": "Kur\u0161umlija", "name:ru": "\u041a\u0443\u0440\u0448\u0443\u043c\u043b\u0438\u044f", "name:sl": "Kur\u0161umlija", "name:sr": "\u041a\u0443\u0440\u0448\u0443\u043c\u043b\u0438\u0458\u0430", "name:sr-Latn": "Kur\u0161umlija", "place": "town", "population": "12866", "wikidata": "Q995031", "wikipedia": "sr:\u041a\u0443\u0440\u0448\u0443\u043c\u043b\u0438\u0458\u0430"}}, "geometry": {"type": "Point", "coordinates": [21.2719964, 43.1379262]}}, {"type": "Feature", "properties": {"type": "node", "id": 2218758841, "tags": {"int_name": "Medvedja", "is_in": "Serbia", "name": "\u041c\u0435\u0434\u0432\u0435\u0452\u0430", "name:en": "Medvedja", "name:mk": "\u041c\u0435\u0434\u0432\u0435\u0453\u0430", "name:ru": "\u041c\u0435\u0434\u0432\u0435\u0434\u0436\u044f", "name:sr": "\u041c\u0435\u0434\u0432\u0435\u0452\u0430", "name:sr-Latn": "Medve\u0111a", "place": "town", "population": "2810", "source": "GNS", "wikidata": "Q846082", "wikipedia": "sr:\u041c\u0435\u0434\u0432\u0435\u0452\u0430"}}, "geometry": {"type": "Point", "coordinates": [21.5847305, 42.842459]}}, {"type": "Feature", "properties": {"type": "node", "id": 1655844203, "tags": {"is_in": "Serbia", "name": "\u041b\u0435\u0431\u0430\u043d\u0435", "name:en": "Lebane", "name:ru": "\u041b\u0435\u0431\u0430\u043d\u0435", "name:sr": "\u041b\u0435\u0431\u0430\u043d\u0435", "name:sr-Latn": "Lebane", "place": "town", "population": "10004", "wikidata": "Q856318", "wikipedia": "sr:\u041b\u0435\u0431\u0430\u043d\u0435"}}, "geometry": {"type": "Point", "coordinates": [21.7369521, 42.9220453]}}, {"type": "Feature", "properties": {"type": "node", "id": 1165809314, "tags": {"is_in": "Serbia", "name": "\u0411\u043e\u0458\u043d\u0438\u043a", "name:en": "Bojnik", "name:ru": "\u0411\u043e\u0439\u043d\u0438\u043a", "name:sr": "\u0411\u043e\u0458\u043d\u0438\u043a", "name:sr-Latn": "Bojnik", "place": "town", "population": "3159", "wikidata": "Q595248", "wikipedia": "sr:\u0411\u043e\u0458\u043d\u0438\u043a"}}, "geometry": {"type": "Point", "coordinates": [21.7211339, 43.0140837]}}, {"type": "Feature", "properties": {"type": "node", "id": 2251131729, "tags": {"int_name": "Zitoradja", "is_in": "Serbia", "name": "\u0416\u0438\u0442\u043e\u0440\u0430\u0452\u0430", "name:en": "Zitoradja", "name:mk": "\u0416\u0438\u0442\u043e\u0440\u0430\u0453\u0430", "name:ru": "\u0416\u0438\u0442\u043e\u0440\u0430\u0434\u0436\u044f", "name:sr": "\u0416\u0438\u0442\u043e\u0440\u0430\u0452\u0430", "name:sr-Latn": "\u017ditora\u0111a", "place": "town", "population": "3543", "source": "GNS", "wikidata": "Q2292617", "wikipedia": "sr:\u0416\u0438\u0442\u043e\u0440\u0430\u0452\u0430"}}, "geometry": {"type": "Point", "coordinates": [21.7111439, 43.1889653]}}, {"type": "Feature", "properties": {"type": "node", "id": 1758554920, "tags": {"addr:postcode": "17525", "is_in": "Serbia", "name": "\u0422\u0440\u0433\u043e\u0432\u0438\u0448\u0442\u0435", "name:en": "Trgoviste", "name:ru": "\u0422\u0440\u0433\u043e\u0432\u0438\u0448\u0442\u0435", "name:sr": "\u0422\u0440\u0433\u043e\u0432\u0438\u0448\u0442\u0435", "name:sr-Latn": "Trgovi\u0161te", "place": "town", "population": "1866", "source": "GNS", "wikidata": "Q20437914", "wikipedia": "sr:\u0422\u0440\u0433\u043e\u0432\u0438\u0448\u0442\u0435 (\u0422\u0440\u0433\u043e\u0432\u0438\u0448\u0442\u0435)"}}, "geometry": {"type": "Point", "coordinates": [22.0825, 42.3641667]}}, {"type": "Feature", "properties": {"type": "node", "id": 185549608, "tags": {"addr:postcode": "17501", "geonameid": "784227", "gnadmin": "YU", "gnfeature": "P", "gnfeaturec": "PPL", "name": "\u0412\u0440\u0430\u045a\u0435", "name:bg": "\u0412\u0440\u0430\u043d\u044f", "name:de": "Vranje", "name:el": "\u0392\u03c1\u03ac\u03bd\u03b9\u03b5", "name:en": "Vranje", "name:gr": "\u0392\u03b1\u03c1\u03b1\u03bd\u03b5\u03b9\u03b1", "name:hr": "Vranje", "name:ru": "\u0412\u0440\u0430\u043d\u0435", "name:sr": "\u0412\u0440\u0430\u045a\u0435", "name:sr-Latn": "Vranje", "name:tr": "Vranya", "old_name:de": "Wragl", "place": "city", "population": "55138", "wikidata": "Q211645", "wikipedia": "sr:\u0412\u0440\u0430\u045a\u0435"}}, "geometry": {"type": "Point", "coordinates": [21.8976673, 42.5558337]}}, {"type": "Feature", "properties": {"type": "node", "id": 2713205900, "tags": {"name": "\u0412\u0440\u0430\u045a\u0441\u043a\u0430 \u0411\u0430\u045a\u0430", "name:en": "Vranjska Banja", "name:ru": "\u0412\u0440\u0430\u043d\u0441\u043a\u0430-\u0411\u0430\u043d\u044f", "name:sr": "\u0412\u0440\u0430\u045a\u0441\u043a\u0430 \u0411\u0430\u045a\u0430", "name:sr-Latn": "Vranjska Banja", "place": "town", "population": "5347", "postal_code": "17542", "wikidata": "Q2590658", "wikipedia": "sr:\u0412\u0440\u0430\u045a\u0441\u043a\u0430 \u0411\u0430\u045a\u0430"}}, "geometry": {"type": "Point", "coordinates": [22.0016973, 42.5469074]}}, {"type": "Feature", "properties": {"type": "node", "id": 1386145708, "tags": {"addr:postcode": "17530", "is_in": "Serbia", "name": "\u0421\u0443\u0440\u0434\u0443\u043b\u0438\u0446\u0430", "name:de": "Surdulica", "name:en": "Surdulica", "name:ru": "\u0421\u0443\u0440\u0434\u0443\u043b\u0438\u0446\u0430", "name:sr": "\u0421\u0443\u0440\u0434\u0443\u043b\u0438\u0446\u0430", "name:sr-Latn": "Surdulica", "place": "town", "population": "10914", "wikidata": "Q431317", "wikipedia": "sr:\u0421\u0443\u0440\u0434\u0443\u043b\u0438\u0446\u0430"}}, "geometry": {"type": "Point", "coordinates": [22.1701473, 42.6919329]}}, {"type": "Feature", "properties": {"type": "node", "id": 1599253813, "tags": {"is_in": "Serbia", "name": "\u0412\u043b\u0430\u0434\u0438\u0447\u0438\u043d \u0425\u0430\u043d", "name:de": "Vladi\u010din Han", "name:en": "Vladicin Han", "name:ru": "\u0412\u043b\u0430\u0434\u0438\u0447\u0438\u043d-\u0425\u0430\u043d", "name:sr": "\u0412\u043b\u0430\u0434\u0438\u0447\u0438\u043d \u0425\u0430\u043d", "name:sr-Latn": "Vladi\u010din Han", "place": "town", "population": "8338", "source": "GNS", "wikidata": "Q856306", "wikipedia": "sr:\u0412\u043b\u0430\u0434\u0438\u0447\u0438\u043d \u0425\u0430\u043d"}}, "geometry": {"type": "Point", "coordinates": [22.0586214, 42.7058676]}}, {"type": "Feature", "properties": {"type": "node", "id": 1600101444, "tags": {"addr:postcode": "17540", "is_in": "Serbia", "name": "\u0411\u043e\u0441\u0438\u043b\u0435\u0433\u0440\u0430\u0434", "name:bg": "\u0411\u043e\u0441\u0438\u043b\u0435\u0433\u0440\u0430\u0434", "name:el": "\u039c\u03c0\u03bf\u03c3\u03af\u03bb\u03b5\u03b3\u03ba\u03c1\u03b1\u03bd\u03c4", "name:en": "Bosilegrad", "name:ru": "\u0411\u043e\u0441\u0438\u043b\u0435\u0433\u0440\u0430\u0434", "name:sr": "\u0411\u043e\u0441\u0438\u043b\u0435\u0433\u0440\u0430\u0434", "name:sr-Latn": "Bosilegrad", "place": "town", "population": "2530", "source": "GNS", "wikidata": "Q239124", "wikipedia": "sr:\u0411\u043e\u0441\u0438\u043b\u0435\u0433\u0440\u0430\u0434"}}, "geometry": {"type": "Point", "coordinates": [22.4732689, 42.4996561]}}, {"type": "Feature", "properties": {"type": "node", "id": 2235551812, "tags": {"name": "\u0412\u0443\u0447\u0458\u0435", "name:en": "Vucje", "name:sr": "\u0412\u0443\u0447\u0458\u0435", "name:sr-Latn": "Vu\u010dje", "place": "town", "population": "2865", "source": "GNS", "wikidata": "Q3049175", "wikipedia": "sr:\u0412\u0443\u0447\u0458\u0435"}}, "geometry": {"type": "Point", "coordinates": [21.9111809, 42.8649674]}}, {"type": "Feature", "properties": {"type": "node", "id": 185538499, "tags": {"addr:postcode": "16000", "is_in": "Serbia", "is_in:continent": "Europe", "is_in:country": "Serbia", "is_in:country_code": "RS", "name": "\u041b\u0435\u0441\u043a\u043e\u0432\u0430\u0446", "name:ar": "\u0644\u064a\u0633\u0643\u0648\u0641\u0627\u062a\u0633", "name:de": "Leskovac", "name:el": "\u039b\u03ad\u03c3\u03ba\u03bf\u03b2\u03b1\u03c4\u03c2", "name:en": "Leskovac", "name:es": "Leskovac", "name:et": "Leskovac", "name:fr": "Leskovac", "name:lt": "Leskovacas", "name:ru": "\u041b\u0435\u0441\u043a\u043e\u0432\u0430\u0446", "name:sr": "\u041b\u0435\u0441\u043a\u043e\u0432\u0430\u0446", "name:sr-Latn": "Leskovac", "place": "city", "population": "78030", "wikidata": "Q192606", "wikipedia": "sr:\u041b\u0435\u0441\u043a\u043e\u0432\u0430\u0446"}}, "geometry": {"type": "Point", "coordinates": [21.9464271, 42.9951304]}}, {"type": "Feature", "properties": {"type": "node", "id": 1446626105, "tags": {"addr:postcode": "16220", "name": "\u0413\u0440\u0434\u0435\u043b\u0438\u0446\u0430", "name:en": "Grdelica", "name:ru": "\u0413\u0440\u0434\u0435\u043b\u0438\u0446\u0430", "name:sr": "\u0413\u0440\u0434\u0435\u043b\u0438\u0446\u0430", "name:sr-Latn": "Grdelica", "place": "town", "population": "2136", "wikidata": "Q3049241", "wikipedia": "sr:\u0413\u0440\u0434\u0435\u043b\u0438\u0446\u0430 (\u0432\u0430\u0440\u043e\u0448)"}}, "geometry": {"type": "Point", "coordinates": [22.0754695, 42.8904977]}}, {"type": "Feature", "properties": {"type": "node", "id": 1931265009, "tags": {"is_in": "Serbia", "name": "\u0412\u043b\u0430\u0441\u043e\u0442\u0438\u043d\u0446\u0435", "name:ar": "\u0641\u0644\u0627\u0633\u0648\u062a\u064a\u0646\u0633\u064a", "name:en": "Vlasotince", "name:ru": "\u0412\u043b\u0430\u0441\u043e\u0442\u0438\u043d\u0446\u0435", "name:sr": "\u0412\u043b\u0430\u0441\u043e\u0442\u0438\u043d\u0446\u0435", "name:sr-Latn": "Vlasotince", "place": "town", "population": "12127", "wikidata": "Q1649631", "wikipedia": "sr:\u0412\u043b\u0430\u0441\u043e\u0442\u0438\u043d\u0446\u0435"}}, "geometry": {"type": "Point", "coordinates": [22.1281077, 42.9652346]}}, {"type": "Feature", "properties": {"type": "node", "id": 1465008060, "tags": {"is_in": "Serbia", "name": "\u0426\u0440\u043d\u0430 \u0422\u0440\u0430\u0432\u0430", "name:en": "Crna Trava", "name:ru": "\u0426\u0440\u043d\u0430 \u0422\u0440\u0430\u0432\u0430", "name:sr": "\u0426\u0440\u043d\u0430 \u0422\u0440\u0430\u0432\u0430", "name:sr-Latn": "Crna Trava", "place": "town", "population": "563", "wikidata": "Q523698", "wikipedia": "sr:\u0426\u0440\u043d\u0430 \u0422\u0440\u0430\u0432\u0430"}}, "geometry": {"type": "Point", "coordinates": [22.2989955, 42.8099389]}}, {"type": "Feature", "properties": {"type": "node", "id": 2147671483, "tags": {"addr:postcode": "18330", "is_in": "Serbia", "name": "\u0411\u0430\u0431\u0443\u0448\u043d\u0438\u0446\u0430", "name:en": "Babusnica", "name:ru": "\u0411\u0430\u0431\u0443\u0448\u043d\u0438\u0446\u0430", "name:sr": "\u0411\u0430\u0431\u0443\u0448\u043d\u0438\u0446\u0430", "name:sr-Latn": "Babu\u0161nica", "place": "town", "population": "4575", "source": "GNS", "wikidata": "Q788026", "wikipedia": "sr:\u0411\u0430\u0431\u0443\u0448\u043d\u0438\u0446\u0430"}}, "geometry": {"type": "Point", "coordinates": [22.411508, 43.067962]}}, {"type": "Feature", "properties": {"type": "node", "id": 370352698, "tags": {"is_in": "Serbia", "name": "\u041f\u0438\u0440\u043e\u0442", "name:de": "Pirot", "name:en": "Pirot", "name:la": "Turres", "name:nl": "Pirot", "name:ru": "\u041f\u0438\u0440\u043e\u0442", "name:sr": "\u041f\u0438\u0440\u043e\u0442", "name:sr-Latn": "Pirot", "place": "city", "population": "38785", "wikidata": "Q309343", "wikipedia": "sr:\u041f\u0438\u0440\u043e\u0442"}}, "geometry": {"type": "Point", "coordinates": [22.5865039, 43.1547342]}}, {"type": "Feature", "properties": {"type": "node", "id": 470377833, "tags": {"name": "\u0414\u0438\u043c\u0438\u0442\u0440\u043e\u0432\u0433\u0440\u0430\u0434", "name:bg": "\u0426\u0430\u0440\u0438\u0431\u0440\u043e\u0434", "name:en": "Dimitrovgrad", "name:nl": "Dimitrovgrad", "name:ru": "\u0414\u0438\u043c\u0438\u0442\u0440\u043e\u0432\u0433\u0440\u0430\u0434", "name:sr": "\u0414\u0438\u043c\u0438\u0442\u0440\u043e\u0432\u0433\u0440\u0430\u0434", "name:sr-Latn": "Dimitrovgrad", "old_name": "\u0426\u0430\u0440\u0438\u0431\u0440\u043e\u0434", "place": "town", "population": "6968", "wikidata": "Q747470", "wikipedia": "sr:\u0414\u0438\u043c\u0438\u0442\u0440\u043e\u0432\u0433\u0440\u0430\u0434"}}, "geometry": {"type": "Point", "coordinates": [22.7781993, 43.0157433]}}, {"type": "Feature", "properties": {"type": "node", "id": 292550323, "tags": {"name": "\u041f\u0440\u0438\u0458\u0435\u043f\u043e\u0459\u0435", "name:de": "Prijepolje", "name:en": "Prijepolje", "name:ru": "\u041f\u0440\u0438\u0435\u043f\u043e\u043b\u044c\u0435", "name:sr": "\u041f\u0440\u0438\u0458\u0435\u043f\u043e\u0459\u0435", "name:sr-Latn": "Prijepolje", "place": "town", "population": "13330", "wikidata": "Q797036", "wikipedia": "sr:\u041f\u0440\u0438\u0458\u0435\u043f\u043e\u0459\u0435"}}, "geometry": {"type": "Point", "coordinates": [19.6493525, 43.389209]}}, {"type": "Feature", "properties": {"type": "node", "id": 361573409, "tags": {"name": "\u041f\u0440\u0438\u0431\u043e\u0458", "name:en": "Priboj", "name:ru": "\u041f\u0440\u0438\u0431\u043e\u0439", "name:sr": "\u041f\u0440\u0438\u0431\u043e\u0458", "name:sr-Latn": "Priboj", "place": "town", "population": "14920", "wikidata": "Q1256993", "wikipedia": "sr:\u041f\u0440\u0438\u0431\u043e\u0458"}}, "geometry": {"type": "Point", "coordinates": [19.5255249, 43.5825202]}}, {"type": "Feature", "properties": {"type": "node", "id": 292556435, "tags": {"is_in": "Serbia", "name": "\u0421\u0458\u0435\u043d\u0438\u0446\u0430", "name:en": "Sjenica", "name:ru": "\u0421\u044c\u0435\u043d\u0438\u0446\u0430", "name:sr": "\u0421\u0458\u0435\u043d\u0438\u0446\u0430", "name:sr-Latn": "Sjenica", "place": "town", "population": "14060", "wikidata": "Q994217", "wikipedia": "sr:\u0421\u0458\u0435\u043d\u0438\u0446\u0430"}}, "geometry": {"type": "Point", "coordinates": [19.9991727, 43.2729348]}}, {"type": "Feature", "properties": {"type": "node", "id": 292554643, "tags": {"ele": "1111", "is_in": "Serbia", "name": "\u041d\u043e\u0432\u0430 \u0412\u0430\u0440\u043e\u0448", "name:de": "Nova Varo\u0161", "name:en": "Nova Varo\u0161", "name:ru": "\u041d\u043e\u0432\u0430-\u0412\u0430\u0440\u043e\u0448", "name:sr": "\u041d\u043e\u0432\u0430 \u0412\u0430\u0440\u043e\u0448", "name:sr-Latn": "Nova Varo\u0161", "place": "town", "population": "19982", "wikidata": "Q367273", "wikipedia": "sr:\u041d\u043e\u0432\u0430 \u0412\u0430\u0440\u043e\u0448"}}, "geometry": {"type": "Point", "coordinates": [19.8154494, 43.4597045]}}, {"type": "Feature", "properties": {"type": "node", "id": 416382721, "tags": {"is_in": "Serbia", "name": "\u0417\u043b\u0430\u0442\u0438\u0431\u043e\u0440", "name:el": "\u0396\u03bb\u03ac\u03c4\u03b9\u03bc\u03c0\u03bf\u03c1", "name:en": "Zlatibor", "name:hr": "Zlatibor", "name:ru": "\u0417\u043b\u0430\u0442\u0438\u0431\u043e\u0440", "name:sl": "Zlatibor", "name:sr": "\u0417\u043b\u0430\u0442\u0438\u0431\u043e\u0440", "name:sr-Latn": "Zlatibor", "old_name": "Partizanske Vode", "place": "town", "wikidata": "Q2748924", "wikipedia": "sr:\u0417\u043b\u0430\u0442\u0438\u0431\u043e\u0440 (\u0427\u0430\u0458\u0435\u0442\u0438\u043d\u0430)"}}, "geometry": {"type": "Point", "coordinates": [19.7008277, 43.7256955]}}, {"type": "Feature", "properties": {"type": "node", "id": 1668987214, "tags": {"is_in": "Serbia", "name": "\u0411\u0430\u0458\u0438\u043d\u0430 \u0411\u0430\u0448\u0442\u0430", "name:de": "Bajina Basta", "name:en": "Bajina Basta", "name:ru": "\u0411\u0430\u0438\u043d\u0430-\u0411\u0430\u0448\u0442\u0430", "name:sr": "\u0411\u0430\u0458\u0438\u043d\u0430 \u0411\u0430\u0448\u0442\u0430", "name:sr-Latn": "Bajina Ba\u0161ta", "place": "town", "population": "9148", "postal_code": "31250", "wikidata": "Q804149", "wikipedia": "sr:\u0411\u0430\u0458\u0438\u043d\u0430 \u0411\u0430\u0448\u0442\u0430"}}, "geometry": {"type": "Point", "coordinates": [19.5659497, 43.9714028]}}, {"type": "Feature", "properties": {"type": "node", "id": 454622868, "tags": {"is_in": "Serbia", "name": "\u0427\u0430\u0458\u0435\u0442\u0438\u043d\u0430", "name:en": "Cajetina", "name:ru": "\u0427\u0430\u0435\u0442\u0438\u043d\u0430", "name:sr": "\u0427\u0430\u0458\u0435\u0442\u0438\u043d\u0430", "name:sr-Latn": "\u010cajetina", "place": "town", "population": "3151", "wikidata": "Q337497", "wikipedia": "sr:\u0427\u0430\u0458\u0435\u0442\u0438\u043d\u0430"}}, "geometry": {"type": "Point", "coordinates": [19.7167804, 43.7506286]}}, {"type": "Feature", "properties": {"type": "node", "id": 254037149, "tags": {"name": "\u0421\u0435\u0432\u043e\u0458\u043d\u043e", "name:en": "Sevojno", "name:sr": "\u0421\u0435\u0432\u043e\u0458\u043d\u043e", "name:sr-Latn": "Sevojno", "place": "town", "population": "7101", "wikidata": "Q1200027", "wikipedia": "sr:\u0421\u0435\u0432\u043e\u0458\u043d\u043e"}}, "geometry": {"type": "Point", "coordinates": [19.8976765, 43.8455418]}}, {"type": "Feature", "properties": {"type": "node", "id": 1607557596, "tags": {"is_in": "Serbia", "name": "\u0410\u0440\u0438\u0459\u0435", "name:de": "Arilje", "name:en": "Arilje", "name:sr": "\u0410\u0440\u0438\u0459\u0435", "name:sr-Latn": "Arilje", "place": "town", "population": "6500", "wikidata": "Q922060", "wikipedia": "sr:\u0410\u0440\u0438\u0459\u0435"}}, "geometry": {"type": "Point", "coordinates": [20.1006509, 43.7506129]}}, {"type": "Feature", "properties": {"type": "node", "id": 254037064, "tags": {"is_in": "Serbia", "name": "\u041f\u043e\u0436\u0435\u0433\u0430", "name:en": "Po\u017eega", "name:hr": "Po\u017eega", "name:ru": "\u041f\u043e\u0436\u0435\u0433\u0430", "name:sl": "Po\u017eega", "name:sr": "\u041f\u043e\u0436\u0435\u0433\u0430", "name:sr-Latn": "Po\u017eega", "place": "town", "population": "13206", "wikidata": "Q1013322", "wikipedia": "sr:\u041f\u043e\u0436\u0435\u0433\u0430"}}, "geometry": {"type": "Point", "coordinates": [20.0357222, 43.8459818]}}, {"type": "Feature", "properties": {"type": "node", "id": 848084912, "tags": {"addr:postcode": "31000", "int_name": "Uzice", "is_in": "Serbia", "is_in:continent": "Europe", "is_in:country": "Serbia", "is_in:country_code": "RS", "name": "\u0423\u0436\u0438\u0446\u0435", "name:am": "\u12a1\u12da\u12dd", "name:ar": "\u0623\u0648\u0632\u064a\u062a\u0633\u0647", "name:be": "\u0423\u0436\u044b\u0446\u043a\u0430\u0435", "name:bn": "\u0989\u099c\u09bf\u09b8", "name:de": "U\u017eice", "name:el": "\u039f\u03cd\u03b6\u03b9\u03c4\u03c3\u03b5", "name:en": "Uzice", "name:es": "U\u017eice", "name:fr": "U\u017eice", "name:lt": "U\u017eic\u0117", "name:ru": "\u0423\u0436\u0438\u0446\u0435", "name:sr": "\u0423\u0436\u0438\u0446\u0435", "name:sr-Latn": "U\u017eice", "name:zh": "\u70cf\u9f4a\u63a1", "name:zh-Hans": "\u4e4c\u5179\u91c7", "place": "city", "population": "52646", "website": "http://www.graduzice.org/", "wikidata": "Q59473", "wikipedia": "sr:\u0423\u0436\u0438\u0446\u0435"}}, "geometry": {"type": "Point", "coordinates": [19.840273, 43.8564957]}}, {"type": "Feature", "properties": {"type": "node", "id": 307650310, "tags": {"name": "\u041a\u043e\u0441\u0458\u0435\u0440\u0438\u045b", "name:de": "Kosjeri\u0107", "name:en": "Kosjeric", "name:hr": "Kosjeri\u0107", "name:nl": "Kosjeri\u0107", "name:ru": "\u041a\u043e\u0441\u044c\u0435\u0440\u0438\u0447", "name:sl": "Kosjeri\u0107", "name:sr": "\u041a\u043e\u0441\u0458\u0435\u0440\u0438\u045b", "name:sr-Latn": "Kosjeri\u0107", "place": "town", "population": "3992", "wikidata": "Q1017748", "wikipedia": "sr:\u041a\u043e\u0441\u0458\u0435\u0440\u0438\u045b"}}, "geometry": {"type": "Point", "coordinates": [19.9071184, 43.9971574]}}, {"type": "Feature", "properties": {"type": "node", "id": 1646895901, "tags": {"addr:postcode": "15318", "name": "\u041c\u0430\u043b\u0438 \u0417\u0432\u043e\u0440\u043d\u0438\u043a", "name:en": "Mali Zvornik", "name:sr": "\u041c\u0430\u043b\u0438 \u0417\u0432\u043e\u0440\u043d\u0438\u043a", "name:sr-Latn": "Mali Zvornik", "place": "town", "population": "4407", "wikidata": "Q13100341", "wikipedia": "sr:\u041c\u0430\u043b\u0438 \u0417\u0432\u043e\u0440\u043d\u0438\u043a"}}, "geometry": {"type": "Point", "coordinates": [19.1069253, 44.3736328]}}, {"type": "Feature", "properties": {"type": "node", "id": 254036981, "tags": {"addr:postcode": "15300", "is_in": "Serbia", "name": "\u041b\u043e\u0437\u043d\u0438\u0446\u0430", "name:de": "Loznica", "name:en": "Loznica", "name:ru": "\u041b\u043e\u0437\u043d\u0438\u0446\u0430", "name:sr": "\u041b\u043e\u0437\u043d\u0438\u0446\u0430", "name:sr-Latn": "Loznica", "place": "city", "population": "19863", "wikidata": "Q648489", "wikipedia": "sr:\u041b\u043e\u0437\u043d\u0438\u0446\u0430"}}, "geometry": {"type": "Point", "coordinates": [19.2220661, 44.5298264]}}, {"type": "Feature", "properties": {"type": "node", "id": 431159050, "tags": {"addr:postcode": "15320", "is_in": "Serbia", "name": "\u0409\u0443\u0431\u043e\u0432\u0438\u0458\u0430", "name:de": "Ljubovija", "name:en": "Ljubovija", "name:hr": "Ljubovija", "name:ru": "\u041b\u044e\u0431\u043e\u0432\u0438\u044f", "name:sl": "Ljubovija", "name:sr": "\u0409\u0443\u0431\u043e\u0432\u0438\u0458\u0430", "name:sr-Latn": "Ljubovija", "place": "town", "population": "4130", "wikidata": "Q7232898", "wikipedia": "sr:\u041e\u043f\u0448\u0442\u0438\u043d\u0430 \u0409\u0443\u0431\u043e\u0432\u0438\u0458\u0430"}}, "geometry": {"type": "Point", "coordinates": [19.3760086, 44.1874584]}}, {"type": "Feature", "properties": {"type": "node", "id": 1914550945, "tags": {"addr:postcode": "15314", "is_in": "Serbia", "name": "\u041a\u0440\u0443\u043f\u0430\u045a", "name:en": "Krupanj", "name:ru": "\u041a\u0440\u0443\u043f\u0430\u043d\u044c", "name:sr": "\u041a\u0440\u0443\u043f\u0430\u045a", "name:sr-Latn": "Krupanj", "place": "town", "population": "4912", "source": "GNS", "wikidata": "Q979248", "wikipedia": "sr:\u041a\u0440\u0443\u043f\u0430\u045a"}}, "geometry": {"type": "Point", "coordinates": [19.3633333, 44.3675]}}, {"type": "Feature", "properties": {"type": "node", "id": 416476184, "tags": {"name": "\u041c\u0438\u043e\u043d\u0438\u0446\u0430", "name:en": "Mionica", "name:hr": "Mionica", "name:ru": "\u041c\u0438\u043e\u043d\u0438\u0446\u0430", "name:sl": "Mionica", "name:sr": "\u041c\u0438\u043e\u043d\u0438\u0446\u0430", "name:sr-Latn": "Mionica", "place": "town", "population": "1620", "wikidata": "Q2360570", "wikipedia": "sr:\u041c\u0438\u043e\u043d\u0438\u0446\u0430"}}, "geometry": {"type": "Point", "coordinates": [20.084082, 44.252921]}}, {"type": "Feature", "properties": {"type": "node", "id": 307649772, "tags": {"ele": "186", "is_in": "Serbia", "is_in:continent": "Europe", "is_in:country": "Serbia", "is_in:country_code": "RS", "name": "\u0412\u0430\u0459\u0435\u0432\u043e", "name:ar": "\u0641\u0627\u0644\u064a\u0641\u0648", "name:de": "Valjevo", "name:el": "\u0392\u03ac\u03bb\u03b9\u03b5\u03b2\u03bf", "name:en": "Valjevo", "name:es": "Valjevo", "name:et": "Valjevo", "name:fr": "Valjevo", "name:hr": "Valjevo", "name:lt": "Valjevas", "name:ru": "\u0412\u0430\u043b\u0435\u0432\u043e", "name:sl": "Valjevo", "name:sr": "\u0412\u0430\u0459\u0435\u0432\u043e", "name:sr-Latn": "Valjevo", "place": "city", "population": "61035", "postal_code": "14000", "wikidata": "Q208015", "wikipedia": "sr:\u0412\u0430\u0459\u0435\u0432\u043e"}}, "geometry": {"type": "Point", "coordinates": [19.8865562, 44.2707993]}}, {"type": "Feature", "properties": {"type": "node", "id": 417807945, "tags": {"addr:postcode": "15220", "is_in": "Serbia", "name": "\u041a\u043e\u0446\u0435\u0459\u0435\u0432\u0430", "name:en": "Koceljeva", "name:hr": "Koceljeva", "name:ru": "\u041a\u043e\u0446\u0435\u043b\u0435\u0432\u0430", "name:sl": "Koceljeva", "name:sr": "\u041a\u043e\u0446\u0435\u0459\u0435\u0432\u0430", "name:sr-Latn": "Koceljeva", "place": "town", "population": "4645", "wikidata": "Q934515", "wikipedia": "sr:\u041a\u043e\u0446\u0435\u0459\u0435\u0432\u0430"}}, "geometry": {"type": "Point", "coordinates": [19.8155039, 44.468204]}}, {"type": "Feature", "properties": {"type": "node", "id": 417200414, "tags": {"is_in": "Serbia", "name": "\u0423\u0431", "name:en": "Ub", "name:hr": "Ub", "name:ru": "\u0423\u0431", "name:sr": "\u0423\u0431", "name:sr-Latn": "Ub", "place": "town", "population": "6018", "wikidata": "Q1273297", "wikipedia": "sr:\u0423\u0431"}}, "geometry": {"type": "Point", "coordinates": [20.0737772, 44.456203]}}, {"type": "Feature", "properties": {"type": "node", "id": 1077210932, "tags": {"addr:postcode": "15350", "is_in": "Serbia", "name": "\u0411\u043e\u0433\u0430\u0442\u0438\u045b", "name:ar": "\u0628\u0648\u063a\u0627\u062a\u064a\u062a\u0634", "name:en": "Bogatic", "name:ru": "\u0411\u043e\u0433\u0430\u0442\u0438\u0447", "name:sr": "\u0411\u043e\u0433\u0430\u0442\u0438\u045b", "name:sr-Latn": "Bogati\u0107", "place": "town", "population": "32990", "wikidata": "Q833281", "wikipedia": "sr:\u0411\u043e\u0433\u0430\u0442\u0438\u045b"}}, "geometry": {"type": "Point", "coordinates": [19.4805641, 44.8348381]}}, {"type": "Feature", "properties": {"type": "node", "id": 254036931, "tags": {"is_in": "Serbia", "is_in:continent": "Europe", "is_in:country": "Serbia", "is_in:country_code": "RS", "name": "\u0428\u0430\u0431\u0430\u0446", "name:ar": "\u0634\u0627\u0628\u0627\u062a\u0633", "name:de": "Schabatz", "name:en": "\u0160abac", "name:es": "\u0160abac", "name:et": "\u0160abac", "name:fr": "\u0160abac", "name:hr": "\u0160abac", "name:hu": "Szab\u00e1cs", "name:ru": "\u0428\u0430\u0431\u0430\u0446", "name:sl": "\u0160abac", "name:sr": "\u0428\u0430\u0431\u0430\u0446", "name:sr-Latn": "\u0160abac", "old_name:de": "Schabatz;Sabatsch", "place": "city", "population": "53919", "wikidata": "Q204472", "wikipedia": "sr:\u0428\u0430\u0431\u0430\u0446"}}, "geometry": {"type": "Point", "coordinates": [19.6953972, 44.7571535]}}, {"type": "Feature", "properties": {"type": "node", "id": 2131563205, "tags": {"addr:postcode": "15225", "is_in": "Serbia", "name": "\u0412\u043b\u0430\u0434\u0438\u043c\u0438\u0440\u0446\u0438", "name:en": "Vladimirci", "name:ru": "\u0412\u043b\u0430\u0434\u0438\u043c\u0438\u0440\u0446\u0438", "name:sr": "\u0412\u043b\u0430\u0434\u0438\u043c\u0438\u0440\u0446\u0438", "name:sr-Latn": "Vladimirci", "place": "town", "population": "1879", "source": "GNS", "wikidata": "Q676916", "wikipedia": "sr:\u0412\u043b\u0430\u0434\u0438\u043c\u0438\u0440\u0446\u0438"}}, "geometry": {"type": "Point", "coordinates": [19.7836534, 44.6159064]}}, {"type": "Feature", "properties": {"type": "node", "id": 469278751, "tags": {"addr:postcode": "22239;22240", "name": "\u0428\u0438\u0434", "name:bs": "\u0160id", "name:de": "Schid", "name:en": "\u0160id", "name:hr": "\u0160id", "name:hu": "Sid", "name:ru": "\u0428\u0438\u0434", "name:sr": "\u0428\u0438\u0434", "name:sr-Latn": "\u0160id", "place": "town", "population": "14893", "wikidata": "Q391545", "wikipedia": "sr:\u0428\u0438\u0434"}}, "geometry": {"type": "Point", "coordinates": [19.2291509, 45.126371]}}, {"type": "Feature", "properties": {"type": "node", "id": 312083066, "tags": {"name": "\u0411\u0430\u0447", "name:de": "Batsch", "name:en": "Ba\u010d", "name:hu": "B\u00e1cs", "name:sr": "\u0411\u0430\u0447", "name:sr-Latn": "Ba\u010d", "place": "town", "population": "5399", "wikidata": "Q684630", "wikipedia": "sr:\u0411\u0430\u0447"}}, "geometry": {"type": "Point", "coordinates": [19.2368045, 45.3916793]}}, {"type": "Feature", "properties": {"type": "node", "id": 312083073, "tags": {"name": "\u041e\u045f\u0430\u0446\u0438", "name:en": "Odzaci", "name:hu": "H\u00f3ds\u00e1g", "name:ru": "\u041e\u0434\u0436\u0430\u0446\u0438", "name:sr": "\u041e\u045f\u0430\u0446\u0438", "name:sr-Latn": "Od\u017eaci", "old_name:de": "Hodschag", "place": "town", "population": "9021", "wikidata": "Q261976", "wikipedia": "sr:\u041e\u045f\u0430\u0446\u0438"}}, "geometry": {"type": "Point", "coordinates": [19.2597368, 45.5058662]}}, {"type": "Feature", "properties": {"type": "node", "id": 312150016, "tags": {"name": "\u0410\u043f\u0430\u0442\u0438\u043d", "name:en": "Apatin", "name:hu": "Apatin", "name:lt": "Apatinas", "name:ru": "\u0410\u043f\u0430\u0442\u0438\u043d", "name:sr": "\u0410\u043f\u0430\u0442\u0438\u043d", "name:sr-Latn": "Apatin", "place": "town", "population": "17411", "wikidata": "Q372110", "wikipedia": "sr:\u0410\u043f\u0430\u0442\u0438\u043d"}}, "geometry": {"type": "Point", "coordinates": [18.9817862, 45.6712544]}}, {"type": "Feature", "properties": {"type": "node", "id": 1074944948, "tags": {"name": "\u041c\u0430\u0447\u0432\u0430\u043d\u0441\u043a\u0430 \u041c\u0438\u0442\u0440\u043e\u0432\u0438\u0446\u0430", "name:en": "Macvanska Mitrovica", "name:hu": "Szenterenye", "name:sr": "\u041c\u0430\u0447\u0432\u0430\u043d\u0441\u043a\u0430 \u041c\u0438\u0442\u0440\u043e\u0432\u0438\u0446\u0430", "name:sr-Latn": "Ma\u010dvanska Mitrovica", "place": "town", "population": "3873", "population:date": "2011", "wikidata": "Q1014882", "wikipedia": "sr:\u041c\u0430\u0447\u0432\u0430\u043d\u0441\u043a\u0430 \u041c\u0438\u0442\u0440\u043e\u0432\u0438\u0446\u0430"}}, "geometry": {"type": "Point", "coordinates": [19.5946213, 44.9666021]}}, {"type": "Feature", "properties": {"type": "node", "id": 254036974, "tags": {"name": "\u0421\u0440\u0435\u043c\u0441\u043a\u0430 \u041c\u0438\u0442\u0440\u043e\u0432\u0438\u0446\u0430", "name:el": "\u03a3\u03c1\u03ad\u03bc\u03c3\u03ba\u03b1 \u039c\u03b9\u03c4\u03c1\u03cc\u03b2\u03b9\u03c4\u03c3\u03b1", "name:en": "Sremska Mitrovica", "name:hr": "Srijemska Mitrovica", "name:hu": "Sz\u00e1vaszentdemeter", "name:la": "Sirmium", "name:lt": "Sremska Mitrovica", "name:pl": "Sremska Mitrovica", "name:ru": "\u0421\u0440\u0435\u043c\u0441\u043a\u0430-\u041c\u0438\u0442\u0440\u043e\u0432\u0438\u0446\u0430", "name:sr": "\u0421\u0440\u0435\u043c\u0441\u043a\u0430 \u041c\u0438\u0442\u0440\u043e\u0432\u0438\u0446\u0430", "name:sr-Latn": "Sremska Mitrovica", "old_name:de": "Syrmisch-Mitrowitz", "place": "city", "population": "37751", "wikidata": "Q242733", "wikipedia": "sr:\u0421\u0440\u0435\u043c\u0441\u043a\u0430 \u041c\u0438\u0442\u0440\u043e\u0432\u0438\u0446\u0430"}}, "geometry": {"type": "Point", "coordinates": [19.6124132, 44.9701654]}}, {"type": "Feature", "properties": {"type": "node", "id": 1647188835, "tags": {"name": "\u0411\u0430\u0447\u043a\u0430 \u041f\u0430\u043b\u0430\u043d\u043a\u0430", "name:de": "Plankenburg", "name:en": "Ba\u010dka Palanka", "name:hu": "Pal\u00e1nka", "name:ru": "\u0411\u0430\u0447\u043a\u0430-\u041f\u0430\u043b\u0430\u043d\u043a\u0430", "name:sk": "B\u00e1\u010dska Palanka", "name:sr": "\u0411\u0430\u0447\u043a\u0430 \u041f\u0430\u043b\u0430\u043d\u043a\u0430", "name:sr-Latn": "Ba\u010dka Palanka", "name:tr": "K\u00fc\u00e7\u00fck Hisar", "place": "town", "population": "28239", "wikidata": "Q477170", "wikipedia": "sr:\u0411\u0430\u0447\u043a\u0430 \u041f\u0430\u043b\u0430\u043d\u043a\u0430"}}, "geometry": {"type": "Point", "coordinates": [19.3966495, 45.2497012]}}, {"type": "Feature", "properties": {"type": "node", "id": 250045632, "tags": {"name": "\u0424\u0443\u0442\u043e\u0433", "name:en": "Futog", "name:hu": "Futak", "name:sr": "\u0424\u0443\u0442\u043e\u0433", "name:sr-Latn": "Futog", "place": "town", "population": "18641", "wikidata": "Q368374", "wikipedia": "sr:\u0424\u0443\u0442\u043e\u0433"}}, "geometry": {"type": "Point", "coordinates": [19.7064376, 45.2373534]}}, {"type": "Feature", "properties": {"type": "node", "id": 60583019, "tags": {"name": "\u0420\u0443\u043c\u0430", "name:en": "Ruma", "name:hu": "Ruma", "name:ru": "\u0420\u0443\u043c\u0430", "name:sr": "\u0420\u0443\u043c\u0430", "name:sr-Latn": "Ruma", "place": "town", "population": "30076", "population:date": "2011", "wikidata": "Q144973", "wikipedia": "sr:\u0420\u0443\u043c\u0430"}}, "geometry": {"type": "Point", "coordinates": [19.8187834, 45.0078322]}}, {"type": "Feature", "properties": {"type": "node", "id": 60583051, "tags": {"name": "\u0418\u0440\u0438\u0433", "name:en": "Irig", "name:hu": "\u00dcr\u00f6g", "name:sr": "\u0418\u0440\u0438\u0433", "name:sr-Latn": "Irig", "place": "town", "population": "4415", "wikidata": "Q856450", "wikipedia": "sr:\u0418\u0440\u0438\u0433"}}, "geometry": {"type": "Point", "coordinates": [19.8600051, 45.100691]}}, {"type": "Feature", "properties": {"type": "node", "id": 60349665, "tags": {"int_name": "Indjija", "name": "\u0418\u043d\u0452\u0438\u0458\u0430", "name:en": "Indjija", "name:hu": "Ingyia", "name:ru": "\u0418\u043d\u0434\u0436\u0438\u044f", "name:sr": "\u0418\u043d\u0452\u0438\u0458\u0430", "name:sr-Latn": "In\u0111ija", "place": "town", "population": "26025", "population:date": "2011", "postal_code": "22320", "wikidata": "Q309341", "wikipedia": "sr:\u0418\u043d\u0452\u0438\u0458\u0430"}}, "geometry": {"type": "Point", "coordinates": [20.0807338, 45.0478559]}}, {"type": "Feature", "properties": {"type": "node", "id": 1079222912, "tags": {"name": "\u0411\u0435\u043e\u0447\u0438\u043d", "name:de": "Beotschin", "name:en": "Beocin", "name:hu": "Belcs\u00e9ny", "name:nl": "Beo\u010din", "name:ru": "\u0411\u0435\u043e\u0447\u0438\u043d", "name:sr": "\u0411\u0435\u043e\u0447\u0438\u043d", "name:sr-Latn": "Beo\u010din", "place": "town", "population": "8037", "wikidata": "Q661718", "wikipedia": "sr:\u0411\u0435\u043e\u0447\u0438\u043d"}}, "geometry": {"type": "Point", "coordinates": [19.7209347, 45.2099153]}}, {"type": "Feature", "properties": {"type": "node", "id": 646984720, "tags": {"name": "\u0421\u0440\u0435\u043c\u0441\u043a\u0430 \u041a\u0430\u043c\u0435\u043d\u0438\u0446\u0430", "name:de": "Kamenitz", "name:en": "Sremska Kamenica", "name:hu": "Kamanc", "name:ru": "\u0421\u0440\u0435\u043c\u0441\u043a\u0430-\u041a\u0430\u043c\u0435\u043d\u0438\u0446\u0430", "name:sr": "\u0421\u0440\u0435\u043c\u0441\u043a\u0430 \u041a\u0430\u043c\u0435\u043d\u0438\u0446\u0430", "name:sr-Latn": "Sremska Kamenica", "place": "town", "population": "12273", "wikidata": "Q598018", "wikipedia": "sr:\u0421\u0440\u0435\u043c\u0441\u043a\u0430 \u041a\u0430\u043c\u0435\u043d\u0438\u0446\u0430"}}, "geometry": {"type": "Point", "coordinates": [19.8419217, 45.2223202]}}, {"type": "Feature", "properties": {"type": "node", "id": 59735022, "tags": {"capital": "4", "ele": "72", "is_in": "Serbia", "is_in:continent": "Europe", "is_in:country": "Serbia", "is_in:country_code": "RS", "name": "\u041d\u043e\u0432\u0438 \u0421\u0430\u0434", "name:ar": "\u0646\u0648\u0641\u064a \u0633\u0627\u062f", "name:ast": "Novi Sad", "name:bg": "\u041d\u043e\u0432\u0438 \u0421\u0430\u0434", "name:da": "Novi Sad", "name:de": "Novi Sad", "name:el": "\u039d\u03cc\u03b2\u03b9 \u03a3\u03b1\u03bd\u03c4", "name:en": "Novi Sad", "name:es": "Novi Sad", "name:et": "Novi Sad", "name:fr": "Novi Sad", "name:he": "\u05e0\u05d5\u05d1\u05d9 \u05e1\u05d0\u05d3", "name:hr": "Novi Sad", "name:hu": "\u00dajvid\u00e9k", "name:la": "Neoplanta", "name:lt": "Novi Sadas", "name:lv": "Novisada", "name:pl": "Nowy Sad", "name:ru": "\u041d\u043e\u0432\u0438-\u0421\u0430\u0434", "name:sk": "Nov\u00fd Sad", "name:sr": "\u041d\u043e\u0432\u0438 \u0421\u0430\u0434", "name:sr-Latn": "Novi Sad", "name:uk": "\u041d\u043e\u0432\u0438\u0439 \u0421\u0430\u0434", "name:zh": "\u81ea\u7531\u5ee3\u5834", "old_name": "Neoplanta", "old_name:de": "Neusatz", "place": "city", "population": "250439", "population:date": "2011", "postal_code": "21000", "wikidata": "Q55630", "wikipedia": "sr:\u041d\u043e\u0432\u0438 \u0421\u0430\u0434"}}, "geometry": {"type": "Point", "coordinates": [19.8451756, 45.2551338]}}, {"type": "Feature", "properties": {"type": "node", "id": 59735024, "tags": {"name": "\u041f\u0435\u0442\u0440\u043e\u0432\u0430\u0440\u0430\u0434\u0438\u043d", "name:de": "Peterwardein", "name:en": "Petrovaradin", "name:hr": "Petrovaradin", "name:hu": "P\u00e9terv\u00e1rad", "name:la": "Cusum", "name:ru": "\u041f\u0435\u0442\u0440\u043e\u0432\u0430\u0440\u0430\u0434\u0438\u043d", "name:sr": "\u041f\u0435\u0442\u0440\u043e\u0432\u0430\u0440\u0430\u0434\u0438\u043d", "name:sr-Latn": "Petrovaradin", "place": "town", "population": "14810", "wikidata": "Q19429", "wikipedia": "sr:\u041f\u0435\u0442\u0440\u043e\u0432\u0430\u0440\u0430\u0434\u0438\u043d"}}, "geometry": {"type": "Point", "coordinates": [19.8768737, 45.2490082]}}, {"type": "Feature", "properties": {"type": "node", "id": 1781688051, "tags": {"name": "\u0421\u0440\u0435\u043c\u0441\u043a\u0438 \u041a\u0430\u0440\u043b\u043e\u0432\u0446\u0438", "name:da": "Sremski Karlovci", "name:en": "Sremski Karlovci", "name:hr": "Srijemski Karlovci", "name:hu": "Karl\u00f3ca", "name:ru": "\u0421\u0440\u0435\u043c\u0441\u043a\u0438-\u041a\u0430\u0440\u043b\u043e\u0432\u0438\u0447\u0438", "name:sr": "\u0421\u0440\u0435\u043c\u0441\u043a\u0438 \u041a\u0430\u0440\u043b\u043e\u0432\u0446\u0438", "name:sr-Latn": "Sremski Karlovci", "old_name:de": "Syrmisch-Karlowitz;Karlowitz", "place": "town", "population": "8750", "wikidata": "Q271922", "wikipedia": "sr:\u0421\u0440\u0435\u043c\u0441\u043a\u0438 \u041a\u0430\u0440\u043b\u043e\u0432\u0446\u0438"}}, "geometry": {"type": "Point", "coordinates": [19.9338336, 45.2030463]}}, {"type": "Feature", "properties": {"type": "node", "id": 249463599, "tags": {"name": "\u0411\u0430\u0447\u043a\u0438 \u041f\u0435\u0442\u0440\u043e\u0432\u0430\u0446", "name:en": "Backi Petrovac", "name:hu": "Petr\u0151c", "name:sk": "B\u00e1\u010dsky Petrovec", "name:sr": "\u0411\u0430\u0447\u043a\u0438 \u041f\u0435\u0442\u0440\u043e\u0432\u0430\u0446", "name:sr-Latn": "Ba\u010dki Petrovac", "place": "town", "population": "6727", "wikidata": "Q248251", "wikipedia": "sr:\u0411\u0430\u0447\u043a\u0438 \u041f\u0435\u0442\u0440\u043e\u0432\u0430\u0446", "wikipedia:en": "Ba\u010dki Petrovac", "wikipedia:sr": "\u0411\u0430\u0447\u043a\u0438 \u041f\u0435\u0442\u0440\u043e\u0432\u0430\u0446"}}, "geometry": {"type": "Point", "coordinates": [19.5914331, 45.3600646]}}, {"type": "Feature", "properties": {"type": "node", "id": 1312745996, "tags": {"name": "\u0426\u0440\u0432\u0435\u043d\u043a\u0430", "name:en": "Crvenka", "name:hu": "Cservenka", "name:sr": "\u0426\u0440\u0432\u0435\u043d\u043a\u0430", "name:sr-Latn": "Crvenka", "old_name:de": "Tscherwenka;Rotweil", "place": "town", "population": "9001", "wikidata": "Q872477", "wikipedia": "sr:\u0426\u0440\u0432\u0435\u043d\u043a\u0430"}}, "geometry": {"type": "Point", "coordinates": [19.4565527, 45.6587079]}}, {"type": "Feature", "properties": {"type": "node", "id": 312166681, "tags": {"is_in": "Serbia", "name": "\u041a\u0443\u043b\u0430", "name:en": "Kula", "name:hu": "K\u00fala", "name:ru": "\u041a\u0443\u043b\u0430", "name:sr": "\u041a\u0443\u043b\u0430", "name:sr-Latn": "Kula", "place": "town", "population": "17866", "wikidata": "Q544109", "wikipedia": "sr:\u041a\u0443\u043b\u0430 (\u0433\u0440\u0430\u0434)"}}, "geometry": {"type": "Point", "coordinates": [19.5301174, 45.6101491]}}, {"type": "Feature", "properties": {"type": "node", "id": 3722369896, "tags": {"name": "\u0412\u0440\u0431\u0430\u0441", "name:en": "Vrbas", "name:hu": "Verb\u00e1sz", "name:ru": "\u0412\u0440\u0431\u0430\u0441", "name:rue": "\u0412\u0435\u0440\u0431\u0430\u0441", "name:sr": "\u0412\u0440\u0431\u0430\u0441", "name:sr-Latn": "Vrbas", "old_name:de": "Werbass", "place": "town", "population": "24112", "postal_code": "21460;21463;21464", "wikidata": "Q279613", "wikipedia": "sr:\u0412\u0440\u0431\u0430\u0441 (\u0433\u0440\u0430\u0434)"}}, "geometry": {"type": "Point", "coordinates": [19.6470089, 45.568028]}}, {"type": "Feature", "properties": {"type": "node", "id": 295392123, "tags": {"int_name": "Mali Idjos", "is_in": "Serbia", "name": "\u041c\u0430\u043b\u0438 \u0418\u0452\u043e\u0448", "name:en": "Mali Idjos", "name:hu": "Kishegyes", "name:ru": "\u041c\u0430\u043b\u0438-\u0418\u0434\u0436\u0451\u0448", "name:sr": "\u041c\u0430\u043b\u0438 \u0418\u0452\u043e\u0448", "name:sr-Latn": "Mali I\u0111o\u0161", "place": "town", "wikidata": "Q785258", "wikipedia": "sr:\u041c\u0430\u043b\u0438 \u0418\u0452\u043e\u0448"}}, "geometry": {"type": "Point", "coordinates": [19.6667436, 45.7065729]}}, {"type": "Feature", "properties": {"type": "node", "id": 249475093, "tags": {"name": "\u0411\u0430\u0447\u043a\u0438 \u0408\u0430\u0440\u0430\u043a", "name:en": "Backi Jarak", "name:hu": "Tiszaistv\u00e1nfalva", "name:sr": "\u0411\u0430\u0447\u043a\u0438 \u0408\u0430\u0440\u0430\u043a", "name:sr-Latn": "Ba\u010dki Jarak", "place": "town", "population": "5687", "wikidata": "Q430415", "wikipedia": "sr:\u0411\u0430\u0447\u043a\u0438 \u0408\u0430\u0440\u0430\u043a"}}, "geometry": {"type": "Point", "coordinates": [19.8753145, 45.3711877]}}, {"type": "Feature", "properties": {"type": "node", "id": 1547830265, "tags": {"name": "\u0422\u0435\u043c\u0435\u0440\u0438\u043d", "name:en": "Temerin", "name:hu": "Temerin", "name:sr": "\u0422\u0435\u043c\u0435\u0440\u0438\u043d", "name:sr-Latn": "Temerin", "place": "town", "population": "19661", "wikidata": "Q579984", "wikipedia": "sr:\u0422\u0435\u043c\u0435\u0440\u0438\u043d"}}, "geometry": {"type": "Point", "coordinates": [19.8901507, 45.4096587]}}, {"type": "Feature", "properties": {"type": "node", "id": 249474977, "tags": {"name": "\u0416\u0430\u0431\u0430\u0459", "name:en": "\u017dabalj", "name:hu": "Zsablya", "name:sr": "\u0416\u0430\u0431\u0430\u0459", "name:sr-Latn": "\u017dabalj", "old_name:de": "Josefdorf", "place": "town", "population": "9107", "wikidata": "Q176217", "wikipedia": "sr:\u0416\u0430\u0431\u0430\u0459"}}, "geometry": {"type": "Point", "coordinates": [20.0637917, 45.3728199]}}, {"type": "Feature", "properties": {"type": "node", "id": 60580248, "tags": {"is_in": "Serbia", "name": "\u0421\u0440\u0431\u043e\u0431\u0440\u0430\u043d", "name:de": "Thomasberg", "name:en": "Srbobran", "name:hu": "Szenttam\u00e1s", "name:ru": "\u0421\u0440\u0431\u043e\u0431\u0440\u0430\u043d", "name:sr": "\u0421\u0440\u0431\u043e\u0431\u0440\u0430\u043d", "name:sr-Latn": "Srbobran", "place": "town", "population": "12009", "wikidata": "Q259612", "wikipedia": "sr:\u0421\u0440\u0431\u043e\u0431\u0440\u0430\u043d"}}, "geometry": {"type": "Point", "coordinates": [19.7911219, 45.5484758]}}, {"type": "Feature", "properties": {"type": "node", "id": 60352987, "tags": {"name": "\u0411\u0435\u0447\u0435\u0458", "name:de": "Altbetsche", "name:en": "Becej", "name:hu": "\u00d3becse", "name:sr": "\u0411\u0435\u0447\u0435\u0458", "name:sr-Latn": "Be\u010dej", "place": "town", "population": "23895", "wikidata": "Q477142", "wikipedia": "sr:\u0411\u0435\u0447\u0435\u0458"}}, "geometry": {"type": "Point", "coordinates": [20.0490085, 45.6153745]}}, {"type": "Feature", "properties": {"type": "node", "id": 1145970042, "tags": {"is_in": "Serbia", "name": "\u0421\u043e\u043c\u0431\u043e\u0440", "name:en": "Sombor", "name:hu": "Zombor", "name:ru": "\u0421\u043e\u043c\u0431\u043e\u0440", "name:sr": "\u0421\u043e\u043c\u0431\u043e\u0440", "name:sr-Latn": "Sombor", "place": "city", "population": "51471", "wikidata": "Q204475", "wikipedia": "sr:\u0421\u043e\u043c\u0431\u043e\u0440"}}, "geometry": {"type": "Point", "coordinates": [19.1147036, 45.7727397]}}, {"type": "Feature", "properties": {"type": "node", "id": 293191488, "tags": {"is_in": "Vojvodina;Serbia", "name": "\u0411\u0430\u0447\u043a\u0430 \u0422\u043e\u043f\u043e\u043b\u0430", "name:de": "Batschka Topola", "name:en": "Ba\u010dka Topola", "name:hu": "Topolya", "name:ru": "\u0411\u0430\u0447\u043a\u0430-\u0422\u043e\u043f\u043e\u043b\u0430", "name:sr": "\u0411\u0430\u0447\u043a\u0430 \u0422\u043e\u043f\u043e\u043b\u0430", "name:sr-Latn": "Ba\u010dka Topola", "place": "town", "population": "16154", "wikidata": "Q597513", "wikipedia": "sr:\u0411\u0430\u0447\u043a\u0430 \u0422\u043e\u043f\u043e\u043b\u0430"}}, "geometry": {"type": "Point", "coordinates": [19.6304705, 45.8121657]}}, {"type": "Feature", "properties": {"type": "node", "id": 1547830258, "tags": {"name": "\u0421\u0443\u0431\u043e\u0442\u0438\u0446\u0430", "name:ar": "\u0633\u0648\u0628\u062a\u064a\u062a\u0633\u0627", "name:da": "Subotica", "name:de": "Subotica", "name:el": "\u03a3\u03bf\u03c5\u03bc\u03c0\u03cc\u03c4\u03b9\u03c4\u03c3\u03b1", "name:en": "Subotica", "name:es": "Subotica", "name:et": "Subotica", "name:fr": "Subotica", "name:hr": "Subotica", "name:hu": "Szabadka", "name:lt": "Subotica", "name:ru": "\u0421\u0443\u0431\u043e\u0442\u0438\u0446\u0430", "name:sl": "Subotica", "name:sr": "\u0421\u0443\u0431\u043e\u0442\u0438\u0446\u0430", "name:sr-Latn": "Subotica", "name:uk": "\u0421\u0443\u0431\u043e\u0442\u0438\u0446\u044f", "old_name:de": "Maria-Theresianopel", "place": "city", "population": "97910", "postal_code": "24000", "wikidata": "Q170287", "wikipedia": "sr:\u0421\u0443\u0431\u043e\u0442\u0438\u0446\u0430"}}, "geometry": {"type": "Point", "coordinates": [19.6640974, 46.1000129]}}, {"type": "Feature", "properties": {"type": "node", "id": 971106814, "tags": {"name": "\u041c\u043e\u043b", "name:en": "Mol", "name:hu": "Mohol", "name:sr": "\u041c\u043e\u043b", "name:sr-Latn": "Mol", "place": "town", "population": "6009", "wikidata": "Q731701", "wikipedia": "sr:\u041c\u043e\u043b (\u0410\u0434\u0430)"}}, "geometry": {"type": "Point", "coordinates": [20.130055, 45.7638971]}}, {"type": "Feature", "properties": {"type": "node", "id": 347730664, "tags": {"name": "\u0410\u0434\u0430", "name:en": "Ada", "name:hu": "Ada", "name:ru": "\u0410\u0434\u0430", "name:sr": "\u0410\u0434\u0430", "name:sr-Latn": "Ada", "place": "town", "population": "9564", "wikidata": "Q346006", "wikipedia": "sr:\u0410\u0434\u0430 (\u0433\u0440\u0430\u0434)"}}, "geometry": {"type": "Point", "coordinates": [20.128843, 45.8061197]}}, {"type": "Feature", "properties": {"type": "node", "id": 347730618, "tags": {"name": "\u0421\u0435\u043d\u0442\u0430", "name:de": "Zenta", "name:en": "Senta", "name:hu": "Zenta", "name:ru": "\u0421\u0435\u043d\u0442\u0430", "name:sr": "\u0421\u0435\u043d\u0442\u0430", "name:sr-Latn": "Senta", "old_name": "Zyntharew", "place": "town", "population": "20363", "source": "GNS", "wikidata": "Q571136", "wikipedia": "sr:\u0421\u0435\u043d\u0442\u0430"}}, "geometry": {"type": "Point", "coordinates": [20.0901597, 45.9312407]}}, {"type": "Feature", "properties": {"type": "node", "id": 291980402, "tags": {"name": "\u041f\u0430\u043b\u0438\u045b", "name:de": "Palitsch", "name:en": "Pali\u0107", "name:hu": "Palics", "name:sr": "\u041f\u0430\u043b\u0438\u045b", "name:sr-Latn": "Pali\u0107", "place": "town", "population": "7771", "wikidata": "Q746407", "wikipedia": "sr:\u041f\u0430\u043b\u0438\u045b"}}, "geometry": {"type": "Point", "coordinates": [19.7634537, 46.1022848]}}, {"type": "Feature", "properties": {"type": "node", "id": 292826796, "tags": {"name": "\u041d\u043e\u0432\u0438 \u041a\u043d\u0435\u0436\u0435\u0432\u0430\u0446", "name:de": "Neu-Kanischa", "name:en": "Novi Knezevac", "name:hu": "T\u00f6r\u00f6kkanizsa", "name:ru": "\u041d\u043e\u0432\u0438-\u041a\u043d\u0435\u0436\u0435\u0432\u0430\u0446", "name:sr": "\u041d\u043e\u0432\u0438 \u041a\u043d\u0435\u0436\u0435\u0432\u0430\u0446", "name:sr-Latn": "Novi Kne\u017eevac", "place": "town", "population": "6960", "population:date": "2011", "wikidata": "Q856293", "wikipedia": "sr:\u041d\u043e\u0432\u0438 \u041a\u043d\u0435\u0436\u0435\u0432\u0430\u0446"}}, "geometry": {"type": "Point", "coordinates": [20.0933532, 46.0427093]}}, {"type": "Feature", "properties": {"type": "node", "id": 291980717, "tags": {"is_in": "Vojvodina;Serbia", "name": "\u041a\u0430\u045a\u0438\u0436\u0430", "name:de": "Alt-Kanischa", "name:en": "Kanji\u017ea", "name:hu": "Magyarkanizsa", "name:ru": "\u041a\u0430\u043d\u0438\u0436\u0430", "name:sr": "\u041a\u0430\u045a\u0438\u0436\u0430", "name:sr-Latn": "Kanji\u017ea", "place": "town", "population": "10193", "wikidata": "Q856309", "wikipedia": "sr:\u041a\u0430\u045a\u0438\u0436\u0430"}}, "geometry": {"type": "Point", "coordinates": [20.0516482, 46.0644447]}}, {"type": "Feature", "properties": {"type": "node", "id": 429180325, "tags": {"name": "\u0418\u0432\u0430\u045a\u0438\u0446\u0430", "name:en": "Ivanjica", "name:hr": "Ivanjica", "name:ru": "\u0418\u0432\u0430\u043d\u0438\u0446\u0430", "name:sl": "Ivanjica", "name:sr": "\u0418\u0432\u0430\u045a\u0438\u0446\u0430", "name:sr-Latn": "Ivanjica", "place": "town", "population": "11750", "wikidata": "Q1002841", "wikipedia": "sr:\u0418\u0432\u0430\u045a\u0438\u0446\u0430"}}, "geometry": {"type": "Point", "coordinates": [20.2304548, 43.5816675]}}, {"type": "Feature", "properties": {"type": "node", "id": 418640039, "tags": {"name": "\u0420\u0430\u0448\u043a\u0430", "name:en": "Ra\u0161ka", "name:hr": "Ra\u0161ka", "name:ru": "\u0420\u0430\u0448\u043a\u0430", "name:sl": "Ra\u0161ka", "name:sr": "\u0420\u0430\u0448\u043a\u0430", "name:sr-Latn": "Ra\u0161ka", "place": "town", "population": "6619", "wikidata": "Q856332", "wikipedia": "sr:\u0420\u0430\u0448\u043a\u0430 (\u0433\u0440\u0430\u0434)"}}, "geometry": {"type": "Point", "coordinates": [20.6147325, 43.2862179]}}, {"type": "Feature", "properties": {"type": "node", "id": 416683959, "tags": {"is_in": "Serbia", "license_plate_code": "VB", "name": "\u0412\u0440\u045a\u0430\u0447\u043a\u0430 \u0411\u0430\u045a\u0430", "name:de": "Vrnja\u010dka Banja", "name:en": "Vrnjacka Banja", "name:fr": "Vrnja\u010dka Banja", "name:hr": "Vrnja\u010dka Banja", "name:ru": "\u0412\u0440\u043d\u044f\u0447\u043a\u0430 \u0411\u0430\u043d\u044f", "name:sl": "Vrnja\u010dka Banja", "name:sr": "\u0412\u0440\u045a\u0430\u0447\u043a\u0430 \u0411\u0430\u045a\u0430", "name:sr-Latn": "Vrnja\u010dka Banja", "place": "town", "population": "9912", "postal_code": "36210", "telephone_area_code": "036", "website": "http://www.opstinavrnjackabanja.com/", "wikidata": "Q832340", "wikipedia": "sr:\u0412\u0440\u045a\u0430\u0447\u043a\u0430 \u0411\u0430\u045a\u0430"}}, "geometry": {"type": "Point", "coordinates": [20.8929353, 43.6221774]}}, {"type": "Feature", "properties": {"type": "node", "id": 868065380, "tags": {"name": "\u0413\u0443\u0447\u0430", "name:en": "Guca", "name:sr": "\u0413\u0443\u0447\u0430", "name:sr-Latn": "Gu\u010da", "place": "town", "population": "1755", "population:date": "2011", "wikidata": "Q1012774", "wikipedia": "sr:\u0413\u0443\u0447\u0430"}}, "geometry": {"type": "Point", "coordinates": [20.2269416, 43.7772932]}}, {"type": "Feature", "properties": {"type": "node", "id": 1101409087, "tags": {"name": "\u041b\u0443\u0447\u0430\u043d\u0438", "name:en": "Lucani", "name:ru": "\u041b\u0443\u0447\u0430\u043d\u0438", "name:sr": "\u041b\u0443\u0447\u0430\u043d\u0438", "name:sr-Latn": "Lu\u010dani", "place": "town", "population": "3387", "wikidata": "Q2089397", "wikipedia": "sr:\u041b\u0443\u0447\u0430\u043d\u0438"}}, "geometry": {"type": "Point", "coordinates": [20.1364397, 43.8601395]}}, {"type": "Feature", "properties": {"type": "node", "id": 254037025, "tags": {"is_in": "Serbia", "is_in:continent": "Europe", "is_in:country": "Serbia", "is_in:country_code": "RS", "name": "\u0427\u0430\u0447\u0430\u043a", "name:ar": "\u062a\u0634\u0627\u062a\u0634\u0627\u0643", "name:de": "\u010ca\u010dak", "name:el": "\u03a4\u03c3\u03ac\u03c4\u03c3\u03b1\u03ba", "name:en": "\u010ca\u010dak", "name:es": "\u010ca\u010dak", "name:et": "\u010ca\u010dak", "name:fr": "\u010ca\u010dak", "name:ru": "\u0427\u0430\u0447\u0430\u043a", "name:sl": "\u010ca\u010dak", "name:sr": "\u0427\u0430\u0447\u0430\u043a", "name:sr-Latn": "\u010ca\u010dak", "old_name": "\u0413\u0440\u0430\u0434\u0430\u0446", "old_name:de": "Zazach", "place": "city", "population": "73217", "postal_code": "32000", "wikidata": "Q208038", "wikipedia": "sr:\u0427\u0430\u0447\u0430\u043a"}}, "geometry": {"type": "Point", "coordinates": [20.3501125, 43.8913319]}}, {"type": "Feature", "properties": {"type": "node", "id": 355055009, "tags": {"is_in": "Serbia", "name": "\u0413\u043e\u0440\u045a\u0438 \u041c\u0438\u043b\u0430\u043d\u043e\u0432\u0430\u0446", "name:en": "Gornji Milanovac", "name:lt": "Gorni Milanovacas", "name:ru": "\u0413\u043e\u0440\u043d\u0438-\u041c\u0438\u043b\u0430\u043d\u043e\u0432\u0430\u0446", "name:sr": "\u0413\u043e\u0440\u045a\u0438 \u041c\u0438\u043b\u0430\u043d\u043e\u0432\u0430\u0446", "name:sr-Latn": "Gornji Milanovac", "place": "town", "population": "23982", "website": "http://www.gornjimilanovac.rs", "wikidata": "Q714668", "wikipedia": "sr:\u0413\u043e\u0440\u045a\u0438 \u041c\u0438\u043b\u0430\u043d\u043e\u0432\u0430\u0446"}}, "geometry": {"type": "Point", "coordinates": [20.4592799, 44.0241615]}}, {"type": "Feature", "properties": {"type": "node", "id": 1337493915, "tags": {"name": "\u041c\u0430\u0442\u0430\u0440\u0443\u0448\u043a\u0430 \u0411\u0430\u045a\u0430", "name:en": "Mataruska Banja", "name:ru": "\u041c\u0430\u0442\u0430\u0440\u0443\u0448\u043a\u0430 \u0411\u0430\u043d\u044f", "name:sr": "\u041c\u0430\u0442\u0430\u0440\u0443\u0448\u043a\u0430 \u0411\u0430\u045a\u0430", "name:sr-Latn": "Mataru\u0161ka Banja", "place": "town", "population": "2950", "wikidata": "Q672471", "wikipedia": "sr:\u041c\u0430\u0442\u0430\u0440\u0443\u0448\u043a\u0430 \u0411\u0430\u045a\u0430"}}, "geometry": {"type": "Point", "coordinates": [20.6093678, 43.6893066]}}, {"type": "Feature", "properties": {"type": "node", "id": 5433205300, "tags": {"name": "\u0420\u0438\u0431\u043d\u0438\u0446\u0430", "name:en": "Ribnica", "name:sr": "\u0420\u0438\u0431\u043d\u0438\u0446\u0430", "name:sr-Latn": "Ribnica", "place": "town", "population": "1624", "wikidata": "Q848900", "wikipedia": "sr:\u0420\u0438\u0431\u043d\u0438\u0446\u0430 (\u041a\u0440\u0430\u0459\u0435\u0432\u043e)"}}, "geometry": {"type": "Point", "coordinates": [20.6986927, 43.6913511]}}, {"type": "Feature", "properties": {"type": "node", "id": 353439335, "tags": {"name": "\u041a\u0440\u0430\u0459\u0435\u0432\u043e", "name:ar": "\u0643\u0631\u0627\u0644\u064a\u064a\u0641\u0648", "name:de": "Kraljevo", "name:el": "\u039a\u03c1\u03ac\u03bb\u03b9\u03b5\u03b2\u03bf", "name:en": "Kraljevo", "name:es": "Kraljevo", "name:et": "Kraljevo", "name:fr": "Kraljevo", "name:hr": "Kraljevo", "name:lt": "Kraljevas", "name:ru": "\u041a\u0440\u0430\u043b\u0435\u0432\u043e", "name:sl": "Kraljevo", "name:sr": "\u041a\u0440\u0430\u0459\u0435\u0432\u043e", "name:sr-Latn": "Kraljevo", "place": "city", "population": "64175", "url": "http://www.kraljevo.com/", "wikidata": "Q206317", "wikipedia": "sr:\u041a\u0440\u0430\u0459\u0435\u0432\u043e"}}, "geometry": {"type": "Point", "coordinates": [20.6870792, 43.7234519]}}, {"type": "Feature", "properties": {"type": "node", "id": 1001347394, "tags": {"is_in": "Serbia", "name": "\u041a\u043d\u0438\u045b", "name:en": "Knic", "name:ru": "\u041a\u043d\u0438\u0447", "name:sr": "\u041a\u043d\u0438\u045b", "name:sr-Latn": "Kni\u0107", "place": "town", "population": "2166", "wikidata": "Q1276528", "wikipedia": "sr:\u041a\u043d\u0438\u045b"}}, "geometry": {"type": "Point", "coordinates": [20.7201588, 43.9265691]}}, {"type": "Feature", "properties": {"type": "node", "id": 313853846, "tags": {"is_in": "Serbia", "is_in:continent": "Europe", "is_in:country": "Serbia", "is_in:country_code": "RS", "name": "\u041a\u0440\u0430\u0433\u0443\u0458\u0435\u0432\u0430\u0446", "name:ar": "\u0643\u0631\u0627\u063a\u0648\u064a\u064a\u0641\u0627\u062a\u0633", "name:da": "Kragujevac", "name:de": "Kragujevac", "name:el": "\u039a\u03c1\u03b1\u03b3\u03ba\u03bf\u03cd\u03b3\u03b9\u03b5\u03b2\u03b1\u03c4\u03c2", "name:en": "Kragujevac", "name:es": "Kragujevac", "name:et": "Kragujevac", "name:fr": "Kragujevac", "name:he": "\u05e7\u05e8\u05d2\u05d5\u05d9\u05d9\u05d1\u05e5", "name:hr": "Kragujevac", "name:lt": "Kragujevacas", "name:lv": "Kragujevaca", "name:nl": "Kragujevac", "name:ru": "\u041a\u0440\u0430\u0433\u0443\u0435\u0432\u0430\u0446", "name:sl": "Kragujevac", "name:sr": "\u041a\u0440\u0430\u0433\u0443\u0458\u0435\u0432\u0430\u0446", "name:sr-Latn": "Kragujevac", "name:uk": "\u041a\u0440\u0430\u0433\u0443\u0454\u0432\u0430\u0446\u044c", "place": "city", "population": "150835", "wikidata": "Q167394", "wikipedia": "sr:\u041a\u0440\u0430\u0433\u0443\u0458\u0435\u0432\u0430\u0446"}}, "geometry": {"type": "Point", "coordinates": [20.91877, 44.0125745]}}, {"type": "Feature", "properties": {"type": "node", "id": 1356177847, "tags": {"is_in": "Serbia", "license_plate_code": "K\u0160", "name": "\u0411\u0440\u0443\u0441", "name:en": "Brus", "name:ru": "\u0411\u0440\u0443\u0441", "name:sr": "\u0411\u0440\u0443\u0441", "name:sr-Latn": "Brus", "place": "town", "population": "4653", "postal_code": "37220", "telephone_area_code": "037", "wikidata": "Q919617", "wikipedia": "sr:\u0411\u0440\u0443\u0441"}}, "geometry": {"type": "Point", "coordinates": [21.031093, 43.3847375]}}, {"type": "Feature", "properties": {"type": "node", "id": 449622728, "tags": {"is_in": "Serbia", "name": "\u0411\u043b\u0430\u0446\u0435", "name:en": "Blace", "name:hr": "Blace", "name:ru": "\u0411\u043b\u0430\u0446\u0435", "name:sl": "Blace", "name:sr": "\u0411\u043b\u0430\u0446\u0435", "name:sr-Latn": "Blace", "place": "town", "population": "5465", "wikidata": "Q879935", "wikipedia": "sr:\u0411\u043b\u0430\u0446\u0435"}}, "geometry": {"type": "Point", "coordinates": [21.2865967, 43.2955155]}}, {"type": "Feature", "properties": {"type": "node", "id": 6302208836, "tags": {"name": "\u0410\u043b\u0435\u043a\u0441\u0430\u043d\u0434\u0440\u043e\u0432\u0430\u0446", "name:en": "Aleksandrovac", "name:sr": "\u0410\u043b\u0435\u043a\u0441\u0430\u043d\u0434\u0440\u043e\u0432\u0430\u0446", "name:sr-Latn": "Aleksandrovac", "place": "town", "population": "6228"}}, "geometry": {"type": "Point", "coordinates": [21.0465876, 43.4586105]}}, {"type": "Feature", "properties": {"type": "node", "id": 907047175, "tags": {"is_in": "Serbia", "license_plate_code": "TS", "name": "\u0422\u0440\u0441\u0442\u0435\u043d\u0438\u043a", "name:en": "Trstenik", "name:ru": "\u0422\u0440\u0441\u0442\u0435\u043d\u0438\u043a", "name:sr": "\u0422\u0440\u0441\u0442\u0435\u043d\u0438\u043a", "name:sr-Latn": "Trstenik", "place": "town", "population": "17180", "postal_code": "37240", "telephone_area_code": "037", "website": "http://www.trstenik.rs/", "wikidata": "Q1013189", "wikipedia": "sr:\u0422\u0440\u0441\u0442\u0435\u043d\u0438\u043a"}}, "geometry": {"type": "Point", "coordinates": [20.9984448, 43.620214]}}, {"type": "Feature", "properties": {"type": "node", "id": 3720265371, "tags": {"name": "\u041a\u0440\u0443\u0448\u0435\u0432\u0430\u0446", "name:ar": "\u0643\u0631\u0648\u0634\u064a\u0641\u0627\u062a\u0633", "name:el": "\u039a\u03c1\u03bf\u03cd\u03c3\u03b5\u03b2\u03b1\u03c4\u03c2", "name:en": "Kru\u0161evac", "name:es": "Kru\u0161evac", "name:et": "Kru\u0161evac", "name:fr": "Kru\u0161evac", "name:ru": "\u041a\u0440\u0443\u0448\u0435\u0432\u0430\u0446", "name:sr": "\u041a\u0440\u0443\u0448\u0435\u0432\u0430\u0446", "name:sr-Latn": "Kru\u0161evac", "old_name:de": "Kruschewatz", "place": "city", "population": "58745", "wikidata": "Q201442", "wikipedia": "sr:\u041a\u0440\u0443\u0448\u0435\u0432\u0430\u0446"}}, "geometry": {"type": "Point", "coordinates": [21.3264757, 43.5826583]}}, {"type": "Feature", "properties": {"type": "node", "id": 449625244, "tags": {"is_in": "Serbia", "name": "\u041f\u0440\u043e\u043a\u0443\u043f\u0459\u0435", "name:de": "Prokuplje", "name:el": "\u03a0\u03c1\u03bf\u03ba\u03bf\u03cd\u03c0\u03bb\u03b9\u03b5", "name:en": "Prokuplje", "name:hr": "Prokuplje", "name:old": "Prokuplje", "name:ru": "\u041f\u0440\u043e\u043a\u0443\u043f\u043b\u0435", "name:sl": "Prokuplje", "name:sr": "\u041f\u0440\u043e\u043a\u0443\u043f\u0459\u0435", "name:sr-Latn": "Prokuplje", "place": "city", "population": "27333", "wikidata": "Q729524", "wikipedia": "sr:\u041f\u0440\u043e\u043a\u0443\u043f\u0459\u0435"}}, "geometry": {"type": "Point", "coordinates": [21.5894831, 43.2338377]}}, {"type": "Feature", "properties": {"type": "node", "id": 1599387453, "tags": {"is_in": "Serbia", "name": "\u0410\u043b\u0435\u043a\u0441\u0438\u043d\u0430\u0446", "name:de": "Aleksinac", "name:en": "Aleksinac", "name:ru": "\u0410\u043b\u0435\u043a\u0441\u0438\u043d\u0430\u0446", "name:sr": "\u0410\u043b\u0435\u043a\u0441\u0438\u043d\u0430\u0446", "name:sr-Latn": "Aleksinac", "place": "town", "population": "17171", "postal_code": "18220", "source": "GNS", "wikidata": "Q966804", "wikipedia": "sr:\u0410\u043b\u0435\u043a\u0441\u0438\u043d\u0430\u0446"}}, "geometry": {"type": "Point", "coordinates": [21.7077778, 43.5416667]}}, {"type": "Feature", "properties": {"type": "node", "id": 958236834, "tags": {"is_in": "Serbia", "name": "\u0420\u0435\u043a\u043e\u0432\u0430\u0446", "name:en": "Rekovac", "name:ru": "\u0420\u0435\u043a\u043e\u0432\u0430\u0446", "name:sr": "\u0420\u0435\u043a\u043e\u0432\u0430\u0446", "name:sr-Latn": "Rekovac", "place": "town", "population": "1930", "wikidata": "Q3423988", "wikipedia": "sr:\u0420\u0435\u043a\u043e\u0432\u0430\u0446"}}, "geometry": {"type": "Point", "coordinates": [21.0935298, 43.8582678]}}, {"type": "Feature", "properties": {"type": "node", "id": 1599441293, "tags": {"is_in": "Serbia", "name": "\u040b\u0443\u043f\u0440\u0438\u0458\u0430", "name:en": "\u0106uprija", "name:la": "Horreum Margi", "name:ru": "\u0427\u0443\u043f\u0440\u0438\u044f", "name:sr": "\u040b\u0443\u043f\u0440\u0438\u0458\u0430", "name:sr-Latn": "\u0106uprija", "place": "town", "population": "20585", "source": "GNS", "wikidata": "Q336475", "wikipedia": "sr:\u040b\u0443\u043f\u0440\u0438\u0458\u0430 (\u0433\u0440\u0430\u0434)"}}, "geometry": {"type": "Point", "coordinates": [21.3712355, 43.9335612]}}, {"type": "Feature", "properties": {"type": "node", "id": 367764183, "tags": {"is_in": "Serbia", "is_in:continent": "Europe", "is_in:country": "Serbia", "is_in:country_code": "RS", "name": "\u0408\u0430\u0433\u043e\u0434\u0438\u043d\u0430", "name:ar": "\u064a\u0627\u063a\u0648\u062f\u064a\u0646\u0627", "name:de": "Jagodina", "name:en": "Jagodina", "name:es": "Jagodina", "name:et": "Jagodina", "name:fr": "Jagodina", "name:hr": "Jagodina", "name:ru": "\u042f\u0433\u043e\u0434\u0438\u043d\u0430", "name:sl": "Jagodina", "name:sr": "\u0408\u0430\u0433\u043e\u0434\u0438\u043d\u0430", "name:sr-Latn": "Jagodina", "place": "city", "population": "35589", "wikidata": "Q390358", "wikipedia": "sr:\u0408\u0430\u0433\u043e\u0434\u0438\u043d\u0430"}}, "geometry": {"type": "Point", "coordinates": [21.2607688, 43.9794256]}}, {"type": "Feature", "properties": {"type": "node", "id": 1599441292, "tags": {"is_in": "Serbia", "name": "\u040b\u0438\u045b\u0435\u0432\u0430\u0446", "name:en": "Cicevac", "name:ru": "\u0427\u0438\u0447\u0435\u0432\u0430\u0446", "name:sr": "\u040b\u0438\u045b\u0435\u0432\u0430\u0446", "name:sr-Latn": "\u0106i\u0107evac", "place": "town", "population": "5094", "source": "GNS", "wikidata": "Q336426", "wikipedia": "sr:\u040b\u0438\u045b\u0435\u0432\u0430\u0446"}}, "geometry": {"type": "Point", "coordinates": [21.4408636, 43.7203092]}}, {"type": "Feature", "properties": {"type": "node", "id": 1599441250, "tags": {"name": "\u041f\u0430\u0440\u0430\u045b\u0438\u043d", "name:en": "Para\u0107in", "name:mk": "\u041f\u0430\u0440\u0430\u045c\u0438\u043d", "name:ru": "\u041f\u0430\u0440\u0430\u0447\u0438\u043d", "name:sr": "\u041f\u0430\u0440\u0430\u045b\u0438\u043d", "name:sr-Latn": "Para\u0107in", "place": "town", "population": "25292", "wikidata": "Q714643", "wikipedia": "sr:\u041f\u0430\u0440\u0430\u045b\u0438\u043d"}}, "geometry": {"type": "Point", "coordinates": [21.4099615, 43.8636301]}}, {"type": "Feature", "properties": {"type": "node", "id": 1644763323, "tags": {"ele": "470", "name": "\u0420\u0435\u0441\u0430\u0432\u0438\u0446\u0430", "name:en": "Resavica", "name:sr": "\u0420\u0435\u0441\u0430\u0432\u0438\u0446\u0430", "name:sr-Latn": "Resavica", "place": "town", "population": "2035", "population:date": "2011", "postal_code": "35237", "wikidata": "Q3101136", "wikipedia": "sr:\u0420\u0435\u0441\u0430\u0432\u0438\u0446\u0430"}}, "geometry": {"type": "Point", "coordinates": [21.5812259, 44.039525]}}, {"type": "Feature", "properties": {"type": "node", "id": 372815072, "tags": {"is_in": "Serbia", "name": "\u0409\u0438\u0433", "name:en": "Ljig", "name:hr": "Ljig", "name:ru": "\u041b\u0438\u0433", "name:sl": "Ljig", "name:sr": "\u0409\u0438\u0433", "name:sr-Latn": "Ljig", "place": "town", "population": "2979", "wikidata": "Q1252490", "wikipedia": "sr:\u0409\u0438\u0433"}}, "geometry": {"type": "Point", "coordinates": [20.2399384, 44.225332]}}, {"type": "Feature", "properties": {"type": "node", "id": 417187593, "tags": {"name": "\u041b\u0430\u0458\u043a\u043e\u0432\u0430\u0446", "name:en": "Lajkovac", "name:hr": "Lajkovac", "name:ru": "\u041b\u0430\u0439\u043a\u043e\u0432\u0430\u0446", "name:sl": "Lajkovac", "name:sr": "\u041b\u0430\u0458\u043a\u043e\u0432\u0430\u0446", "name:sr-Latn": "Lajkovac", "place": "town", "population": "3249", "wikidata": "Q2360556", "wikipedia": "sr:\u041b\u0430\u0458\u043a\u043e\u0432\u0430\u0446"}}, "geometry": {"type": "Point", "coordinates": [20.1658213, 44.3698615]}}, {"type": "Feature", "properties": {"type": "node", "id": 561313083, "tags": {"name": "\u041b\u0430\u0437\u0430\u0440\u0435\u0432\u0430\u0446", "name:de": "Zenobitz", "name:en": "Lazarevac", "name:ru": "\u041b\u0430\u0437\u0430\u0440\u0435\u0432\u0430\u0446", "name:sr": "\u041b\u0430\u0437\u0430\u0440\u0435\u0432\u0430\u0446", "name:sr-Latn": "Lazarevac", "place": "town", "population": "23600", "wikidata": "Q714606", "wikipedia": "sr:\u041b\u0430\u0437\u0430\u0440\u0435\u0432\u0430\u0446"}}, "geometry": {"type": "Point", "coordinates": [20.261033, 44.3815176]}}, {"type": "Feature", "properties": {"type": "node", "id": 419136775, "tags": {"name": "\u0422\u043e\u043f\u043e\u043b\u0430", "name:en": "Topola", "name:hr": "Topola", "name:ru": "\u0422\u043e\u043f\u043e\u043b\u0430", "name:sl": "Topola", "name:sr": "\u0422\u043e\u043f\u043e\u043b\u0430", "name:sr-Latn": "Topola", "place": "town", "population": "4973", "wikidata": "Q991072", "wikipedia": "sr:\u0422\u043e\u043f\u043e\u043b\u0430 (\u0433\u0440\u0430\u0434)"}}, "geometry": {"type": "Point", "coordinates": [20.6797215, 44.2544752]}}, {"type": "Feature", "properties": {"type": "node", "id": 419138241, "tags": {"int_name": "Arandjelovac", "is_in": "Serbia", "name": "\u0410\u0440\u0430\u043d\u0452\u0435\u043b\u043e\u0432\u0430\u0446", "name:en": "Arandjelovac", "name:hr": "Aran\u0111elovac", "name:ru": "\u0410\u0440\u0430\u043d\u0434\u0436\u0435\u043b\u043e\u0432\u0430\u0446", "name:sl": "Aran\u0111elovac", "name:sr": "\u0410\u0440\u0430\u043d\u0452\u0435\u043b\u043e\u0432\u0430\u0446", "name:sr-Latn": "Aran\u0111elovac", "place": "town", "population": "24309", "wikidata": "Q583161", "wikipedia": "sr:\u0410\u0440\u0430\u043d\u0452\u0435\u043b\u043e\u0432\u0430\u0446"}}, "geometry": {"type": "Point", "coordinates": [20.5572396, 44.3074611]}}, {"type": "Feature", "properties": {"type": "node", "id": 364942011, "tags": {"name": "\u041c\u043b\u0430\u0434\u0435\u043d\u043e\u0432\u0430\u0446", "name:en": "Mladenovac", "name:ru": "\u041c\u043b\u0430\u0434\u0435\u043d\u043e\u0432\u0430\u0446", "name:sr": "\u041c\u043b\u0430\u0434\u0435\u043d\u043e\u0432\u0430\u0446", "name:sr-Latn": "Mladenovac", "place": "town", "population": "23609", "wikidata": "Q167858", "wikipedia": "sr:\u041c\u043b\u0430\u0434\u0435\u043d\u043e\u0432\u0430\u0446"}}, "geometry": {"type": "Point", "coordinates": [20.6940837, 44.4401198]}}, {"type": "Feature", "properties": {"type": "node", "id": 1599448252, "tags": {"name": "\u0421\u043c\u0435\u0434\u0435\u0440\u0435\u0432\u0441\u043a\u0430 \u041f\u0430\u043b\u0430\u043d\u043a\u0430", "name:en": "Smederevska Palanka", "name:ru": "\u0421\u043c\u0435\u0434\u0435\u0440\u0435\u0432\u0441\u043a\u0430-\u041f\u0430\u043b\u0430\u043d\u043a\u0430", "name:sr": "\u0421\u043c\u0435\u0434\u0435\u0440\u0435\u0432\u0441\u043a\u0430 \u041f\u0430\u043b\u0430\u043d\u043a\u0430", "name:sr-Latn": "Smederevska Palanka", "place": "town", "population": "25300", "wikidata": "Q715716", "wikipedia": "sr:\u0421\u043c\u0435\u0434\u0435\u0440\u0435\u0432\u0441\u043a\u0430 \u041f\u0430\u043b\u0430\u043d\u043a\u0430"}}, "geometry": {"type": "Point", "coordinates": [20.9601939, 44.3669765]}}, {"type": "Feature", "properties": {"type": "node", "id": 61721018, "tags": {"name": "\u041e\u0431\u0440\u0435\u043d\u043e\u0432\u0430\u0446", "name:de": "Obrenowatz", "name:en": "Obrenovac", "name:lt": "Obrenovacas", "name:pl": "Obrenovac", "name:ru": "\u041e\u0431\u0440\u0435\u043d\u043e\u0432\u0430\u0446", "name:sr": "\u041e\u0431\u0440\u0435\u043d\u043e\u0432\u0430\u0446", "name:sr-Latn": "Obrenovac", "name:zh": "\u5967\u5e03\u96f7\u8afe\u74e6\u8328", "place": "town", "population": "25429", "wikidata": "Q714650", "wikipedia": "sr:\u041e\u0431\u0440\u0435\u043d\u043e\u0432\u0430\u0446"}}, "geometry": {"type": "Point", "coordinates": [20.2063274, 44.6585512]}}, {"type": "Feature", "properties": {"type": "node", "id": 1437082478, "tags": {"name": "\u0423\u043c\u043a\u0430", "name:en": "Umka", "name:sr": "\u0423\u043c\u043a\u0430", "name:sr-Latn": "Umka", "place": "town", "population": "5272", "wikidata": "Q3050835", "wikipedia": "sr:\u0423\u043c\u043a\u0430"}}, "geometry": {"type": "Point", "coordinates": [20.3050863, 44.6785303]}}, {"type": "Feature", "properties": {"type": "node", "id": 1223609453, "tags": {"name": "\u0411\u0430\u0440\u0430\u0458\u0435\u0432\u043e", "name:en": "Barajevo", "name:ru": "\u0411\u0430\u0440\u0430\u0435\u0432\u043e", "name:sr": "\u0411\u0430\u0440\u0430\u0458\u0435\u0432\u043e", "name:sr-Latn": "Barajevo", "place": "town", "population": "8325", "wikidata": "Q807231", "wikipedia": "sr:\u0411\u0430\u0440\u0430\u0458\u0435\u0432\u043e"}}, "geometry": {"type": "Point", "coordinates": [20.415517, 44.5781936]}}, {"type": "Feature", "properties": {"type": "node", "id": 1461320774, "tags": {"name": "\u041e\u0441\u0442\u0440\u0443\u0436\u043d\u0438\u0446\u0430", "name:en": "Ostruznica", "name:sr": "\u041e\u0441\u0442\u0440\u0443\u0436\u043d\u0438\u0446\u0430", "name:sr-Latn": "Ostru\u017enica", "place": "town", "population": "4218", "wikidata": "Q599338", "wikipedia": "sr:\u041e\u0441\u0442\u0440\u0443\u0436\u043d\u0438\u0446\u0430"}}, "geometry": {"type": "Point", "coordinates": [20.3191998, 44.7285552]}}, {"type": "Feature", "properties": {"type": "node", "id": 2192314762, "tags": {"name": "\u0414\u043e\u0431\u0430\u043d\u043e\u0432\u0446\u0438", "name:en": "Dobanovci", "name:sr": "\u0414\u043e\u0431\u0430\u043d\u043e\u0432\u0446\u0438", "name:sr-Latn": "Dobanovci", "place": "town", "population": "8503", "wikidata": "Q2037460", "wikipedia": "sr:\u0414\u043e\u0431\u0430\u043d\u043e\u0432\u0446\u0438"}}, "geometry": {"type": "Point", "coordinates": [20.2228552, 44.8275822]}}, {"type": "Feature", "properties": {"type": "node", "id": 1531134087, "tags": {"addr:postcode": "11271", "name": "\u0421\u0443\u0440\u0447\u0438\u043d", "name:en": "Surcin", "name:sr": "\u0421\u0443\u0440\u0447\u0438\u043d", "name:sr-Latn": "Sur\u010din", "place": "town", "population": "18205", "wikidata": "Q3621686", "wikipedia": "sr:\u0421\u0443\u0440\u0447\u0438\u043d"}}, "geometry": {"type": "Point", "coordinates": [20.2701685, 44.7910362]}}, {"type": "Feature", "properties": {"type": "node", "id": 2107020830, "tags": {"name": "\u041f\u0438\u043d\u043e\u0441\u0430\u0432\u0430", "name:en": "Pinosava", "name:sr": "\u041f\u0438\u043d\u043e\u0441\u0430\u0432\u0430", "name:sr-Latn": "Pinosava", "place": "town", "population": "3151", "wikidata": "Q2986304", "wikipedia": "sr:\u041f\u0438\u043d\u043e\u0441\u0430\u0432\u0430"}}, "geometry": {"type": "Point", "coordinates": [20.48305, 44.695433]}}, {"type": "Feature", "properties": {"type": "node", "id": 1200007164, "tags": {"name": "\u0411\u0435\u043b\u0438 \u041f\u043e\u0442\u043e\u043a", "name:en": "Beli Potok", "name:sr": "\u0411\u0435\u043b\u0438 \u041f\u043e\u0442\u043e\u043a", "name:sr-Latn": "Beli Potok", "place": "town", "population": "3621", "wikidata": "Q2894438", "wikipedia": "sr:\u0411\u0435\u043b\u0438 \u041f\u043e\u0442\u043e\u043a (\u0412\u043e\u0436\u0434\u043e\u0432\u0430\u0446)"}}, "geometry": {"type": "Point", "coordinates": [20.5192479, 44.706111]}}, {"type": "Feature", "properties": {"type": "node", "id": 60571493, "tags": {"admin_level": "2", "capital": "yes", "ele": "131", "int_name": "Beograd", "name": "\u0411\u0435\u043e\u0433\u0440\u0430\u0434", "name:ace": "Belgrade", "name:af": "Belgrado", "name:am": "\u1260\u120d\u130d\u122b\u12f5", "name:an": "Belgrado", "name:ar": "\u0628\u0644\u063a\u0631\u0627\u062f", "name:ast": "Belgr\u00e1u", "name:az": "Belqrad", "name:bat-smg": "Belgrads", "name:be": "\u0411\u044f\u043b\u0433\u0440\u0430\u0434", "name:be-tarask": "\u0411\u044f\u043b\u0433\u0440\u0430\u0434", "name:bg": "\u0411\u0435\u043b\u0433\u0440\u0430\u0434", "name:bn": "\u09ac\u09c7\u09b2\u0997\u09cd\u09b0\u09c7\u09a1", "name:bo": "\u0f56\u0f7a\u0f63\u0f0b\u0f42\u0f7a\u0f0b\u0f62\u0f7a\u0f0b\u0f4c\u0f72\u0f0d", "name:br": "Beograd", "name:bs": "Beograd", "name:ca": "Belgrad", "name:ckb": "\u0628\u06ce\u0644\u06af\u0631\u0627\u062f", "name:cs": "B\u011blehrad", "name:cu": "\u0411\u0463\u043b\u044a \u0413\u0440\u0430\u0434\u044a", "name:cv": "\u0411\u0435\u043b\u0433\u0440\u0430\u0434", "name:cy": "Beograd", "name:da": "Beograd", "name:de": "Belgrad", "name:dsb": "B\u011b\u0142ogrod", "name:el": "\u0392\u03b5\u03bb\u03b9\u03b3\u03c1\u03ac\u03b4\u03b9", "name:en": "Belgrade", "name:eo": "Beogrado", "name:es": "Belgrado", "name:et": "Belgrad", "name:ext": "Belgradu", "name:fa": "\u0628\u0644\u06af\u0631\u0627\u062f", "name:fi": "Belgrad", "name:fo": "Beograd", "name:fr": "Belgrade", "name:frp": "B\u00e8lgrade", "name:fy": "Belgrado", "name:ga": "B\u00e9algr\u00e1d", "name:gd": "Belgrade", "name:gl": "Belgrado", "name:gv": "Belgraaid", "name:he": "\u05d1\u05dc\u05d2\u05e8\u05d3", "name:hi": "\u092c\u0945\u0932\u0917\u094d\u0930\u0947\u0921", "name:hif": "Belgrade", "name:hr": "Beograd", "name:hsb": "B\u011b\u0142ohr\u00f3d", "name:ht": "B\u00e8lgrad", "name:hu": "Belgr\u00e1d", "name:hy": "\u0532\u0565\u056c\u0563\u0580\u0561\u0564", "name:id": "Beograd", "name:ie": "Beograd", "name:io": "Belgrade", "name:is": "Belgrad", "name:it": "Belgrado", "name:ja": "\u30d9\u30aa\u30b0\u30e9\u30fc\u30c9", "name:jbo": "be'ograd", "name:jv": "Beograd", "name:ka": "\u10d1\u10d4\u10da\u10d2\u10e0\u10d0\u10d3\u10d8", "name:kk": "\u0411\u0435\u043b\u0433\u0440\u0430\u0434", "name:kn": "\u0cac\u0cc6\u0cb2\u0ccd\u0c97\u0ccd\u0cb0\u0cbe\u0ca6\u0ccd", "name:ko": "\ubca0\uc624\uadf8\ub77c\ub4dc", "name:ku": "Belgrad", "name:kv": "\u0411\u0435\u043b\u0433\u0440\u0430\u0434", "name:la": "Belogradum", "name:lad": "Belogrado", "name:lb": "Belgrad", "name:li": "Belgrado", "name:lij": "Belgraddo", "name:lt": "Belgradas", "name:lv": "Belgrada", "name:mi": "Belgrade", "name:mk": "\u0411\u0435\u043b\u0433\u0440\u0430\u0434", "name:ml": "\u0d2c\u0d46\u0d7d\u0d17\u0d4d\u0d30\u0d47\u0d21\u0d4d", "name:mn": "\u0411\u0435\u043b\u0433\u0440\u0430\u0434", "name:mr": "\u092c\u0947\u0932\u0917\u094d\u0930\u0947\u0921", "name:ms": "Belgrade", "name:mt": "Belgrad", "name:nan": "Belgrade", "name:nl": "Belgrado", "name:nn": "Beograd", "name:no": "Beograd", "name:nov": "Beograd", "name:oc": "Belgrad", "name:os": "\u0411\u0435\u043b\u0433\u0440\u0430\u0434", "name:pap": "Belgrado", "name:pl": "Belgrad", "name:pnb": "\u0628\u0644\u063a\u0631\u0627\u062f", "name:pt": "Belgrado", "name:qu": "Beograd", "name:ro": "Belgrad", "name:roa-rup": "Biligrad", "name:ru": "\u0411\u0435\u043b\u0433\u0440\u0430\u0434", "name:sah": "\u0411\u0435\u043b\u0433\u0440\u0430\u0434", "name:sc": "Belgrado", "name:scn": "Belgradu", "name:sco": "Belgrade", "name:sh": "Beograd", "name:sk": "Belehrad", "name:sl": "Beograd", "name:sm": "Belgrade", "name:so": "Belgaraad", "name:sr": "\u0411\u0435\u043e\u0433\u0440\u0430\u0434", "name:sr-Latn": "Beograd", "name:sv": "Belgrad", "name:ta": "\u0baa\u0bc6\u0bb2\u0bcd\u0b95\u0bbf\u0bb1\u0bc7\u0b9f\u0bcd", "name:tg": "\u0411\u0435\u043b\u0433\u0440\u0430\u0434", "name:th": "\u0e40\u0e1a\u0e25\u0e40\u0e01\u0e23\u0e14", "name:tl": "Belgrade", "name:tr": "Belgrad", "name:tt": "\u0411\u0435\u043b\u0433\u0440\u0430\u0434", "name:ty": "Beograd", "name:udm": "\u0411\u0435\u043b\u0433\u0440\u0430\u0434", "name:ug": "\u0628\u06d0\u0644\u06af\u0631\u0627\u062f", "name:uk": "\u0411\u0435\u043b\u0433\u0440\u0430\u0434", "name:ur": "\u0628\u0644\u063a\u0631\u0627\u062f", "name:vec": "Belgrado", "name:vi": "Beograd", "name:vo": "Beograd", "name:war": "Belgrade", "name:wuu": "\u8d1d\u5c14\u683c\u83b1\u5fb7", "name:yi": "\u05d1\u05e2\u05dc\u05d2\u05e8\u05d0\u05d3", "name:yo": "Belgrade", "name:yue": "\u8c9d\u723e\u683c\u840a\u5fb7", "name:zh": "\u8d1d\u5c14\u683c\u83b1\u5fb7\u5e02/\u8c9d\u723e\u683c\u52d2\u5e02/\u8c9d\u723e\u683c\u840a\u5fb7", "name:zh-Hans": "\u8d1d\u5c14\u683c\u83b1\u5fb7\u5e02", "name:zh-Hant": "\u8c9d\u723e\u683c\u52d2\u5e02/\u8c9d\u723e\u683c\u840a\u5fb7", "name:zh-Hant-HK": "\u8c9d\u723e\u683c\u840a\u5fb7", "name:zh-Hant-TW": "\u8c9d\u723e\u683c\u52d2\u5e02", "old_name:de": "Griechisch Wei\u00dfenburg", "old_name:el": "\u03a3\u03b9\u03b3\u03b3\u03b9\u03b4\u03bf\u03c5\u03bd\u03bf\u03bd", "old_name:hr": "Biograd na Dunavu", "old_name:hu": "N\u00e1ndorfeh\u00e9rv\u00e1r", "old_name:la": "Singidunum", "place": "city", "population": "1166763", "postal_code": "11000", "wikidata": "Q3711", "wikipedia": "sr:\u0411\u0435\u043e\u0433\u0440\u0430\u0434"}}, "geometry": {"type": "Point", "coordinates": [20.4568974, 44.8178131]}}, {"type": "Feature", "properties": {"type": "node", "id": 353467823, "tags": {"addr:postcode": "11211", "name": "\u0411\u043e\u0440\u0447\u0430", "name:de": "Borcsa", "name:en": "Borca", "name:hr": "Bor\u010da", "name:hu": "Borcsa", "name:ru": "\u0411\u043e\u0440\u0447\u0430", "name:sl": "Bor\u010da", "name:sr": "\u0411\u043e\u0440\u0447\u0430", "name:sr-Latn": "Bor\u010da", "place": "town", "population": "46086", "wikidata": "Q712322", "wikipedia": "sr:\u0411\u043e\u0440\u0447\u0430"}}, "geometry": {"type": "Point", "coordinates": [20.464459, 44.8820389]}}, {"type": "Feature", "properties": {"type": "node", "id": 353475811, "tags": {"name": "\u041e\u0432\u0447\u0430", "name:en": "Ovca", "name:hu": "B\u00e1r\u00e1nyos", "name:sr": "\u041e\u0432\u0447\u0430", "name:sr-Latn": "Ov\u010da", "place": "town", "population": "2742", "wikidata": "Q1008404", "wikipedia": "sr:\u041e\u0432\u0447\u0430"}}, "geometry": {"type": "Point", "coordinates": [20.5351997, 44.8883078]}}, {"type": "Feature", "properties": {"type": "node", "id": 1187056410, "tags": {"name": "\u0421\u043e\u043f\u043e\u0442", "name:en": "Sopot", "name:ru": "\u0421\u043e\u043f\u043e\u0442", "name:sr": "\u0421\u043e\u043f\u043e\u0442", "name:sr-Latn": "Sopot", "place": "town", "wikidata": "Q1013179", "wikipedia": "sr:\u0421\u043e\u043f\u043e\u0442"}}, "geometry": {"type": "Point", "coordinates": [20.573208, 44.5189699]}}, {"type": "Feature", "properties": {"type": "node", "id": 354907052, "tags": {"name": "\u0413\u0440\u043e\u0446\u043a\u0430", "name:en": "Grocka", "name:ru": "\u0413\u0440\u043e\u0446\u043a\u0430", "name:sr": "\u0413\u0440\u043e\u0446\u043a\u0430", "name:sr-Latn": "Grocka", "place": "town", "population": "8300", "wikidata": "Q691992", "wikipedia": "sr:\u0413\u0440\u043e\u0446\u043a\u0430"}}, "geometry": {"type": "Point", "coordinates": [20.7170219, 44.6709248]}}, {"type": "Feature", "properties": {"type": "node", "id": 359219458, "tags": {"name": "\u0421\u043c\u0435\u0434\u0435\u0440\u0435\u0432\u043e", "name:ar": "\u0633\u0645\u064a\u062f\u064a\u0631\u064a\u0641\u0648", "name:de": "Semendria", "name:en": "Smederevo", "name:es": "Smederevo", "name:et": "Smederevo", "name:fr": "Smederevo", "name:hr": "Smederevo", "name:hu": "Szendr\u0151", "name:la": "Semendria", "name:ru": "\u0421\u043c\u0435\u0434\u0435\u0440\u0435\u0432\u043e", "name:sr": "\u0421\u043c\u0435\u0434\u0435\u0440\u0435\u0432\u043e", "name:sr-Latn": "Smederevo", "place": "city", "population": "64175", "postal_code": "11300", "wikidata": "Q190774", "wikipedia": "sr:\u0421\u043c\u0435\u0434\u0435\u0440\u0435\u0432\u043e"}}, "geometry": {"type": "Point", "coordinates": [20.9271115, 44.6651048]}}, {"type": "Feature", "properties": {"type": "node", "id": 253736569, "tags": {"name": "\u041f\u0430\u043d\u0447\u0435\u0432\u043e", "name:ar": "\u0628\u0627\u0646\u062a\u0634\u064a\u0641\u0648", "name:da": "Pan\u010devo", "name:de": "Pantschowa", "name:en": "Pan\u010devo", "name:es": "Pan\u010devo", "name:et": "Pan\u010devo", "name:fr": "Pan\u010devo", "name:hu": "Pancsova", "name:lt": "Pan\u010devas", "name:ro": "Panciova", "name:ru": "\u041f\u0430\u043d\u0447\u0435\u0432\u043e", "name:sr": "\u041f\u0430\u043d\u0447\u0435\u0432\u043e", "name:sr-Latn": "Pan\u010devo", "place": "city", "population": "76203", "population:date": "2011", "wikidata": "Q205432", "wikipedia": "sr:\u041f\u0430\u043d\u0447\u0435\u0432\u043e"}}, "geometry": {"type": "Point", "coordinates": [20.6399643, 44.8705686]}}, {"type": "Feature", "properties": {"type": "node", "id": 1075543696, "tags": {"name": "\u0421\u0442\u0430\u0440\u0447\u0435\u0432\u043e", "name:en": "Star\u010devo", "name:hu": "T\u00e1rcs\u00f3", "name:sr": "\u0421\u0442\u0430\u0440\u0447\u0435\u0432\u043e", "name:sr-Latn": "Star\u010devo", "place": "town", "population": "7473", "population:date": "2011", "website": "http://www.starcevo.org.rs/", "wikidata": "Q1068137", "wikipedia": "sr:\u0421\u0442\u0430\u0440\u0447\u0435\u0432\u043e (\u041f\u0430\u043d\u0447\u0435\u0432\u043e)"}}, "geometry": {"type": "Point", "coordinates": [20.6998149, 44.8100472]}}, {"type": "Feature", "properties": {"type": "node", "id": 1001823871, "tags": {"name": "\u0411\u0430\u0442\u043e\u0447\u0438\u043d\u0430", "name:en": "Batocina", "name:ru": "\u0411\u0430\u0442\u043e\u0447\u0438\u043d\u0430", "name:sr": "\u0411\u0430\u0442\u043e\u0447\u0438\u043d\u0430", "name:sr-Latn": "Bato\u010dina", "place": "town", "population": "5804", "wikidata": "Q810884", "wikipedia": "sr:\u0411\u0430\u0442\u043e\u0447\u0438\u043d\u0430"}}, "geometry": {"type": "Point", "coordinates": [21.0792602, 44.1526948]}}, {"type": "Feature", "properties": {"type": "node", "id": 611866026, "tags": {"is_in": "Serbia", "name": "\u0420\u0430\u0447\u0430", "name:en": "Raca", "name:ru": "\u0420\u0430\u0447\u0430", "name:sr": "\u0420\u0430\u0447\u0430", "name:sr-Latn": "Ra\u010da", "place": "town", "population": "2744", "wikidata": "Q2693647", "wikipedia": "sr:\u0420\u0430\u0447\u0430"}}, "geometry": {"type": "Point", "coordinates": [20.9801511, 44.2253438]}}, {"type": "Feature", "properties": {"type": "node", "id": 367764418, "tags": {"name": "\u041b\u0430\u043f\u043e\u0432\u043e", "name:en": "Lapovo", "name:hr": "Lapovo", "name:ru": "\u041b\u0430\u043f\u043e\u0432\u043e", "name:sl": "Lapovo", "name:sr": "\u041b\u0430\u043f\u043e\u0432\u043e", "name:sr-Latn": "Lapovo", "place": "town", "population": "7143", "wikidata": "Q2269545", "wikipedia": "sr:\u041b\u0430\u043f\u043e\u0432\u043e"}}, "geometry": {"type": "Point", "coordinates": [21.1048388, 44.1854664]}}, {"type": "Feature", "properties": {"type": "node", "id": 4008189663, "tags": {"is_in": "Serbia", "name": "\u0421\u0432\u0438\u043b\u0430\u0458\u043d\u0430\u0446", "name:de": "Svilajnac", "name:en": "Svilajnac", "name:ru": "\u0421\u0432\u0438\u043b\u0430\u0439\u043d\u0430\u0446", "name:sr": "\u0421\u0432\u0438\u043b\u0430\u0458\u043d\u0430\u0446", "name:sr-Latn": "Svilajnac", "place": "town", "population": "9131", "wikidata": "Q670842", "wikipedia": "sr:\u0421\u0432\u0438\u043b\u0430\u0458\u043d\u0430\u0446"}}, "geometry": {"type": "Point", "coordinates": [21.1947272, 44.2333085]}}, {"type": "Feature", "properties": {"type": "node", "id": 1599448253, "tags": {"is_in": "Serbia", "name": "\u0412\u0435\u043b\u0438\u043a\u0430 \u041f\u043b\u0430\u043d\u0430", "name:en": "Velika Plana", "name:ru": "\u0412\u0435\u043b\u0438\u043a\u0430-\u041f\u043b\u0430\u043d\u0430", "name:sr": "\u0412\u0435\u043b\u0438\u043a\u0430 \u041f\u043b\u0430\u043d\u0430", "name:sr-Latn": "Velika Plana", "place": "town", "population": "16210", "source": "GNS", "wikidata": "Q995055", "wikipedia": "sr:\u0412\u0435\u043b\u0438\u043a\u0430 \u041f\u043b\u0430\u043d\u0430"}}, "geometry": {"type": "Point", "coordinates": [21.075786, 44.3324574]}}, {"type": "Feature", "properties": {"type": "node", "id": 7162443826, "tags": {"ele": "186", "name": "\u0416\u0430\u0431\u0430\u0440\u0438", "name:en": "Zabari", "name:sr-Latn": "\u017dabari", "place": "town", "population": "1163", "wikidata": "Q3436794", "wikipedia": "sr:\u0416\u0430\u0431\u0430\u0440\u0438"}}, "geometry": {"type": "Point", "coordinates": [21.2147074, 44.3566833]}}, {"type": "Feature", "properties": {"type": "node", "id": 2743400105, "tags": {"name": "\u0414\u0435\u0441\u043f\u043e\u0442\u043e\u0432\u0430\u0446", "name:en": "Despotovac", "name:ru": "\u0414\u0435\u0441\u043f\u043e\u0442\u043e\u0432\u0430\u0446", "name:sr": "\u0414\u0435\u0441\u043f\u043e\u0442\u043e\u0432\u0430\u0446", "name:sr-Latn": "Despotovac", "place": "town", "postal_code": "35213", "wikidata": "Q1006545", "wikipedia": "sr:\u0414\u0435\u0441\u043f\u043e\u0442\u043e\u0432\u0430\u0446"}}, "geometry": {"type": "Point", "coordinates": [21.4366052, 44.0954702]}}, {"type": "Feature", "properties": {"type": "node", "id": 1614834392, "tags": {"is_in": "Serbia", "name": "\u0416\u0430\u0433\u0443\u0431\u0438\u0446\u0430", "name:en": "Zagubica", "name:ru": "\u0416\u0430\u0433\u0443\u0431\u0438\u0446\u0430", "name:sr": "\u0416\u0430\u0433\u0443\u0431\u0438\u0446\u0430", "name:sr-Latn": "\u017dagubica", "place": "town", "population": "2823", "wikidata": "Q3504354", "wikipedia": "sr:\u0416\u0430\u0433\u0443\u0431\u0438\u0446\u0430"}}, "geometry": {"type": "Point", "coordinates": [21.786539, 44.1960539]}}, {"type": "Feature", "properties": {"type": "node", "id": 1582397428, "tags": {"name": "\u041f\u0435\u0442\u0440\u043e\u0432\u0430\u0446 \u043d\u0430 \u041c\u043b\u0430\u0432\u0438", "name:ru": "\u041f\u0435\u0442\u0440\u043e\u0432\u0430\u0446-\u043d\u0430-\u041c\u043b\u0430\u0432\u0438", "name:sr": "\u041f\u0435\u0442\u0440\u043e\u0432\u0430\u0446 \u043d\u0430 \u041c\u043b\u0430\u0432\u0438", "name:sr-Latn": "Petrovac na Mlavi", "old_name": "\u041f\u0435\u0442\u0440\u043e\u0432\u0430\u0446", "place": "town", "population": "7851", "wikidata": "Q1544334", "wikipedia": "sr:\u041f\u0435\u0442\u0440\u043e\u0432\u0430\u0446 \u043d\u0430 \u041c\u043b\u0430\u0432\u0438"}}, "geometry": {"type": "Point", "coordinates": [21.4170749, 44.378261]}}, {"type": "Feature", "properties": {"type": "node", "id": 1582764486, "tags": {"name": "\u041f\u043e\u0436\u0430\u0440\u0435\u0432\u0430\u0446", "name:en": "Po\u017earevac", "name:he": "\u05e4\u05d5\u05d6'\u05d0\u05e8\u05d5\u05d5\u05d0\u05e5", "name:hu": "Pozsarev\u00e1c", "name:lt": "Po\u017earevacas", "name:pl": "Po\u017carewac", "name:ru": "\u041f\u043e\u0436\u0430\u0440\u0435\u0432\u0430\u0446", "name:sr": "\u041f\u043e\u0436\u0430\u0440\u0435\u0432\u0430\u0446", "name:sr-Latn": "Po\u017earevac", "name:zh": "\u6ce2\u624e\u96f7\u74e6\u8328", "old_name:de": "Passarowitz", "place": "city", "population": "44183", "population:date": "2011", "wikidata": "Q199942", "wikipedia": "sr:\u041f\u043e\u0436\u0430\u0440\u0435\u0432\u0430\u0446"}}, "geometry": {"type": "Point", "coordinates": [21.1854, 44.6199926]}}, {"type": "Feature", "properties": {"type": "node", "id": 848393787, "tags": {"ele": "85", "name": "\u041a\u043e\u0432\u0438\u043d", "name:en": "Kovin", "name:hu": "Kevev\u00e1ra", "name:ru": "\u041a\u043e\u0432\u0438\u043d", "name:sr": "\u041a\u043e\u0432\u0438\u043d", "name:sr-Latn": "Kovin", "place": "town", "population": "13515", "population:date": "2011", "website": "http://www.kovin.org.rs/", "wikidata": "Q617416", "wikipedia": "sr:\u041a\u043e\u0432\u0438\u043d"}}, "geometry": {"type": "Point", "coordinates": [20.9781361, 44.7412405]}}, {"type": "Feature", "properties": {"type": "node", "id": 1636186997, "tags": {"name": "\u041a\u043e\u0441\u0442\u043e\u043b\u0430\u0446", "name:en": "Kostolac", "name:la": "Viminacium", "name:ru": "\u041a\u043e\u0441\u0442\u043e\u043b\u0430\u0446", "name:sr": "\u041a\u043e\u0441\u0442\u043e\u043b\u0430\u0446", "name:sr-Latn": "Kostolac", "place": "town", "population": "9313", "wikidata": "Q1006552", "wikipedia": "sr:\u041a\u043e\u0441\u0442\u043e\u043b\u0430\u0446"}}, "geometry": {"type": "Point", "coordinates": [21.1710906, 44.7149424]}}, {"type": "Feature", "properties": {"type": "node", "id": 1582514089, "tags": {"is_in": "Serbia", "name": "\u041a\u0443\u0447\u0435\u0432\u043e", "name:en": "Kucevo", "name:ru": "\u041a\u0443\u0447\u0435\u0432\u043e", "name:sr": "\u041a\u0443\u0447\u0435\u0432\u043e", "name:sr-Latn": "Ku\u010devo", "place": "town", "population": "4506", "wikidata": "Q1011263", "wikipedia": "sr:\u041a\u0443\u0447\u0435\u0432\u043e"}}, "geometry": {"type": "Point", "coordinates": [21.6693022, 44.4782165]}}, {"type": "Feature", "properties": {"type": "node", "id": 475403829, "tags": {"is_in": "Serbia", "name": "\u0413\u043e\u043b\u0443\u0431\u0430\u0446", "name:de": "Golubac", "name:en": "Golubac", "name:fr": "Golubac", "name:hu": "Galamb\u00f3c", "name:ru": "\u0413\u043e\u043b\u0443\u0431\u0430\u0446", "name:sr": "\u0413\u043e\u043b\u0443\u0431\u0430\u0446", "name:sr-Latn": "Golubac", "place": "town", "population": "1896", "wikidata": "Q845997", "wikipedia": "sr:\u0413\u043e\u043b\u0443\u0431\u0430\u0446"}}, "geometry": {"type": "Point", "coordinates": [21.6330096, 44.6519263]}}, {"type": "Feature", "properties": {"type": "node", "id": 1854673213, "tags": {"addr:postcode": "12220", "name": "\u0412\u0435\u043b\u0438\u043a\u043e \u0413\u0440\u0430\u0434\u0438\u0448\u0442\u0435", "name:en": "Veliko Gradiste", "name:ru": "\u0412\u0435\u043b\u0438\u043a\u043e-\u0413\u0440\u0430\u0434\u0438\u0448\u0442\u0435", "name:sr": "\u0412\u0435\u043b\u0438\u043a\u043e \u0413\u0440\u0430\u0434\u0438\u0448\u0442\u0435", "name:sr-Latn": "Veliko Gradi\u0161te", "name:zh": "\u5927\u683c\u62c9\u8fea\u4ec0\u6cf0", "place": "town", "population": "5658", "wikidata": "Q584670", "wikipedia": "sr:\u0412\u0435\u043b\u0438\u043a\u043e \u0413\u0440\u0430\u0434\u0438\u0448\u0442\u0435"}}, "geometry": {"type": "Point", "coordinates": [21.5161946, 44.7629166]}}, {"type": "Feature", "properties": {"type": "node", "id": 100890898, "tags": {"name": "\u041d\u0438\u0448", "name:ar": "\u0646\u064a\u0634", "name:bg": "\u041d\u0438\u0448", "name:da": "Ni\u0161", "name:de": "Ni\u0161", "name:el": "\u039d\u03b9\u03c2", "name:en": "Ni\u0161", "name:es": "Ni\u0161", "name:et": "Ni\u0161", "name:fr": "Ni\u0161", "name:he": "\u05e0\u05d9\u05e9", "name:hr": "Ni\u0161", "name:it": "Ni\u0161", "name:la": "Naissus", "name:lt": "Ni\u0161as", "name:lv": "Ni\u0161a", "name:nl": "Ni\u0161", "name:pl": "Nisz", "name:pt": "Nish", "name:ro": "Ni\u0219", "name:ru": "\u041d\u0438\u0448", "name:sl": "Ni\u0161", "name:sq": "Nishi", "name:sr": "\u041d\u0438\u0448", "name:sr-Latn": "Ni\u0161", "name:tr": "Ni\u015f", "old_name:de": "Nisch", "old_name:it": "Nissa", "place": "city", "population": "183164", "wikidata": "Q129259", "wikipedia": "sr:\u041d\u0438\u0448"}}, "geometry": {"type": "Point", "coordinates": [21.8959232, 43.3211301]}}, {"type": "Feature", "properties": {"type": "node", "id": 453820865, "tags": {"name": "\u041d\u0438\u0448\u043a\u0430 \u0411\u0430\u045a\u0430", "name:en": "Niska Banja", "name:sr": "\u041d\u0438\u0448\u043a\u0430 \u0411\u0430\u045a\u0430", "name:sr-Latn": "Ni\u0161ka Banja", "place": "town", "population": "4380", "wikidata": "Q954986", "wikipedia": "sr:\u041d\u0438\u0448\u043a\u0430 \u0411\u0430\u045a\u0430"}}, "geometry": {"type": "Point", "coordinates": [22.0072312, 43.2933122]}}, {"type": "Feature", "properties": {"type": "node", "id": 1806479680, "tags": {"name": "\u0413\u0430\u045f\u0438\u043d \u0425\u0430\u043d", "name:en": "Gadzin Han", "name:sr": "\u0413\u0430\u045f\u0438\u043d \u0425\u0430\u043d", "name:sr-Latn": "Gad\u017ein Han", "place": "town", "wikidata": "Q18811684", "wikipedia": "sr:\u0413\u0430\u045f\u0438\u043d \u0425\u0430\u043d"}}, "geometry": {"type": "Point", "coordinates": [22.0314563, 43.2231774]}}, {"type": "Feature", "properties": {"type": "node", "id": 1719514119, "tags": {"is_in": "Serbia", "name": "\u0421\u0432\u0440\u0459\u0438\u0433", "name:de": "Svrljig", "name:en": "Svrljig", "name:ru": "\u0421\u0432\u0440\u043b\u0438\u0433", "name:sr": "\u0421\u0432\u0440\u0459\u0438\u0433", "name:sr-Latn": "Svrljig", "place": "town", "population": "7553", "wikidata": "Q1027082", "wikipedia": "sr:\u0421\u0432\u0440\u0459\u0438\u0433"}}, "geometry": {"type": "Point", "coordinates": [22.1230473, 43.4140419]}}, {"type": "Feature", "properties": {"type": "node", "id": 1631764889, "tags": {"name": "\u0411\u0435\u043b\u0430 \u041f\u0430\u043b\u0430\u043d\u043a\u0430", "name:en": "Bela Palanka", "name:la": "Remesiana", "name:nl": "Bela Palanka", "name:ru": "\u0411\u0435\u043b\u0430-\u041f\u0430\u043b\u0430\u043d\u043a\u0430", "name:sr": "\u0411\u0435\u043b\u0430 \u041f\u0430\u043b\u0430\u043d\u043a\u0430", "name:sr-Latn": "Bela Palanka", "place": "town", "population": "8626", "wikidata": "Q792199", "wikipedia": "sr:\u0411\u0435\u043b\u0430 \u041f\u0430\u043b\u0430\u043d\u043a\u0430"}}, "geometry": {"type": "Point", "coordinates": [22.3119333, 43.2181536]}}, {"type": "Feature", "properties": {"type": "node", "id": 319343322, "tags": {"is_in": "Serbia", "name": "\u041a\u045a\u0430\u0436\u0435\u0432\u0430\u0446", "name:en": "Knja\u017eevac", "name:ru": "\u041a\u043d\u044f\u0437\u0435\u0432\u0430\u0446", "name:sr": "\u041a\u045a\u0430\u0436\u0435\u0432\u0430\u0446", "name:sr-Latn": "Knja\u017eevac", "place": "town", "population": "19351", "wikidata": "Q1011275", "wikipedia": "sr:\u041a\u045a\u0430\u0436\u0435\u0432\u0430\u0446"}}, "geometry": {"type": "Point", "coordinates": [22.2556547, 43.5675155]}}, {"type": "Feature", "properties": {"type": "node", "id": 1918674245, "tags": {"is_in": "Serbia", "name": "\u0421\u043e\u043a\u043e\u0431\u0430\u045a\u0430", "name:bg": "\u0421\u043e\u043a\u043e \u0431\u0430\u043d\u044f", "name:en": "Sokobanja", "name:ru": "\u0421\u043e\u043a\u043e-\u0411\u0430\u043d\u044f", "name:sr": "\u0421\u043e\u043a\u043e\u0431\u0430\u045a\u0430", "name:sr-Latn": "Sokobanja", "place": "town", "population": "7982", "wikidata": "Q772805", "wikipedia": "sr:\u0421\u043e\u043a\u043e\u0431\u0430\u045a\u0430"}}, "geometry": {"type": "Point", "coordinates": [21.8730724, 43.6440513]}}, {"type": "Feature", "properties": {"type": "node", "id": 1270099743, "tags": {"name": "\u0411\u043e\u0459\u0435\u0432\u0430\u0446", "name:en": "Boljevac", "name:ru": "\u0411\u043e\u043b\u0435\u0432\u0430\u0446", "name:sr": "\u0411\u043e\u0459\u0435\u0432\u0430\u0446", "name:sr-Latn": "Boljevac", "place": "town", "population": "3333", "wikidata": "Q2047431", "wikipedia": "sr:\u0411\u043e\u0459\u0435\u0432\u0430\u0446"}}, "geometry": {"type": "Point", "coordinates": [21.9587438, 43.8304776]}}, {"type": "Feature", "properties": {"type": "node", "id": 4260586058, "tags": {"name": "\u0411\u043e\u0433\u043e\u0432\u0438\u043d\u0430", "name:sr": "\u0411\u043e\u0433\u043e\u0432\u0438\u043d\u0430", "name:sr-Latn": "Bogovina", "place": "town", "population": "1151", "wikidata": "Q2908732", "wikipedia": "sr:\u0411\u043e\u0433\u043e\u0432\u0438\u043d\u0430"}}, "geometry": {"type": "Point", "coordinates": [21.9458063, 43.9004053]}}, {"type": "Feature", "properties": {"type": "node", "id": 281664933, "tags": {"name": "\u0417\u0430\u0458\u0435\u0447\u0430\u0440", "name:bg": "\u0417\u0430\u0439\u0447\u0430\u0440", "name:de": "Zaje\u010dar", "name:en": "Zaje\u010dar", "name:ro": "Z\u0103iceari", "name:ru": "\u0417\u0430\u0435\u0447\u0430\u0440", "name:sr": "\u0417\u0430\u0458\u0435\u0447\u0430\u0440", "name:sr-Latn": "Zaje\u010dar", "old_name:de": "Zatitscher", "place": "city", "population": "43860", "wikidata": "Q144495", "wikipedia": "sr:\u0417\u0430\u0458\u0435\u0447\u0430\u0440"}}, "geometry": {"type": "Point", "coordinates": [22.2785536, 43.9031234]}}, {"type": "Feature", "properties": {"type": "node", "id": 622323437, "tags": {"is_in": "Serbia", "name": "\u0411\u043e\u0440", "name:de": "Bor", "name:en": "Bor", "name:ru": "\u0411\u043e\u0440", "name:sr": "\u0411\u043e\u0440", "name:sr-Latn": "Bor", "place": "city", "population": "34160", "population:date": "2011", "wikidata": "Q462461", "wikipedia": "sr:\u0411\u043e\u0440 (\u0433\u0440\u0430\u0434)"}}, "geometry": {"type": "Point", "coordinates": [22.0991721, 44.0778696]}}, {"type": "Feature", "properties": {"type": "node", "id": 2874458661, "tags": {"name": "\u041c\u0430\u0458\u0434\u0430\u043d\u043f\u0435\u043a", "name:en": "Majdanpek", "name:ru": "\u041c\u0430\u0439\u0434\u0430\u043d\u043f\u0435\u043a", "name:sr": "\u041c\u0430\u0458\u0434\u0430\u043d\u043f\u0435\u043a", "name:sr-Latn": "Majdanpek", "place": "town", "population": "7699", "website": "http://www.majdanpek.rs/", "wikidata": "Q994331", "wikipedia": "sr:\u041c\u0430\u0458\u0434\u0430\u043d\u043f\u0435\u043a"}}, "geometry": {"type": "Point", "coordinates": [21.9359228, 44.4224552]}}, {"type": "Feature", "properties": {"type": "node", "id": 474498205, "tags": {"is_in": "Serbia", "name": "\u0414\u043e\u045a\u0438 \u041c\u0438\u043b\u0430\u043d\u043e\u0432\u0430\u0446", "name:en": "Donji Milanovac", "name:ru": "\u0414\u043e\u043d\u0438-\u041c\u0438\u043b\u0430\u043d\u043e\u0432\u0430\u0446", "name:sr": "\u0414\u043e\u045a\u0438 \u041c\u0438\u043b\u0430\u043d\u043e\u0432\u0430\u0446", "name:sr-Latn": "Donji Milanovac", "place": "town", "source": "GPS OSMUser:Kotoj", "wikidata": "Q1002286", "wikipedia": "sr:\u0414\u043e\u045a\u0438 \u041c\u0438\u043b\u0430\u043d\u043e\u0432\u0430\u0446"}}, "geometry": {"type": "Point", "coordinates": [22.1523003, 44.462747]}}, {"type": "Feature", "properties": {"type": "node", "id": 317236520, "tags": {"addr:postcode": "19300", "is_in": "Serbia", "name": "\u041d\u0435\u0433\u043e\u0442\u0438\u043d", "name:en": "Negotin", "name:ro": "Nigotin", "name:ru": "\u041d\u0435\u0433\u043e\u0442\u0438\u043d", "name:sr": "\u041d\u0435\u0433\u043e\u0442\u0438\u043d", "name:sr-Latn": "Negotin", "place": "town", "population": "17758", "website": "http://www.negotin.rs/", "wikidata": "Q649168", "wikipedia": "sr:\u041d\u0435\u0433\u043e\u0442\u0438\u043d"}}, "geometry": {"type": "Point", "coordinates": [22.5308545, 44.2270776]}}, {"type": "Feature", "properties": {"type": "node", "id": 827013614, "tags": {"is_in": "Serbia", "name": "\u041a\u043b\u0430\u0434\u043e\u0432\u043e", "name:en": "Kladovo", "name:ro": "Cladova", "name:ru": "\u041a\u043b\u0430\u0434\u043e\u0432\u043e", "name:sr": "\u041a\u043b\u0430\u0434\u043e\u0432\u043e", "name:sr-Latn": "Kladovo", "place": "town", "population": "8869", "source": "GPS OSMUser:Kotoj", "wikidata": "Q27163", "wikipedia": "sr:\u041a\u043b\u0430\u0434\u043e\u0432\u043e"}}, "geometry": {"type": "Point", "coordinates": [22.6136517, 44.6093983]}}, {"type": "Feature", "properties": {"type": "node", "id": 600576574, "tags": {"name": "\u0421\u0442\u0430\u0440\u0430 \u041f\u0430\u0437\u043e\u0432\u0430", "name:de": "Alt-Pasua", "name:en": "Stara Pazova", "name:hu": "\u00d3pazova", "name:ru": "\u0421\u0442\u0430\u0440\u0430-\u041f\u0430\u0437\u043e\u0432\u0430", "name:sr": "\u0421\u0442\u0430\u0440\u0430 \u041f\u0430\u0437\u043e\u0432\u0430", "name:sr-Latn": "Stara Pazova", "place": "town", "population": "18602", "population:date": "2011", "postal_code": "22300", "wikidata": "Q584694", "wikipedia": "sr:\u0421\u0442\u0430\u0440\u0430 \u041f\u0430\u0437\u043e\u0432\u0430"}}, "geometry": {"type": "Point", "coordinates": [20.1588763, 44.9846077]}}, {"type": "Feature", "properties": {"type": "node", "id": 353503238, "tags": {"name": "\u0422\u0438\u0442\u0435\u043b", "name:de": "Theissh\u00fcgel", "name:en": "Titel", "name:hu": "Titel", "name:sr": "\u0422\u0438\u0442\u0435\u043b", "name:sr-Latn": "Titel", "place": "town", "population": "5294", "wikidata": "Q913768", "wikipedia": "sr:\u0422\u0438\u0442\u0435\u043b"}}, "geometry": {"type": "Point", "coordinates": [20.3060414, 45.2043941]}}, {"type": "Feature", "properties": {"type": "node", "id": 810274491, "tags": {"name": "\u041a\u0430\u0447\u0430\u0440\u0435\u0432\u043e", "name:en": "Kacarevo", "name:hu": "Ferenchalom", "name:sr": "\u041a\u0430\u0447\u0430\u0440\u0435\u0432\u043e", "name:sr-Latn": "Ka\u010darevo", "place": "town", "population": "7100", "population:date": "2011", "wikidata": "Q1000481", "wikipedia": "sr:\u041a\u0430\u0447\u0430\u0440\u0435\u0432\u043e"}}, "geometry": {"type": "Point", "coordinates": [20.6995481, 44.9665856]}}, {"type": "Feature", "properties": {"type": "node", "id": 1019014149, "tags": {"name": "\u0410\u043b\u0438\u0431\u0443\u043d\u0430\u0440", "name:en": "Alibunar", "name:hu": "Alibun\u00e1r", "name:sr": "\u0410\u043b\u0438\u0431\u0443\u043d\u0430\u0440", "name:sr-Latn": "Alibunar", "place": "town", "population": "3007", "population:date": "2011", "wikidata": "Q648863", "wikipedia": "sr:\u0410\u043b\u0438\u0431\u0443\u043d\u0430\u0440"}}, "geometry": {"type": "Point", "coordinates": [20.966524, 45.0800389]}}, {"type": "Feature", "properties": {"type": "node", "id": 809988090, "tags": {"name": "\u041a\u043e\u0432\u0430\u0447\u0438\u0446\u0430", "name:de": "Kowatschitza", "name:en": "Kova\u010dica", "name:hu": "Antalfalva", "name:ru": "\u041a\u043e\u0432\u0430\u0447\u0438\u0446\u0430", "name:sr": "\u041a\u043e\u0432\u0430\u0447\u0438\u0446\u0430", "name:sr-Latn": "Kova\u010dica", "place": "town", "population": "6259", "population:date": "2011", "wikidata": "Q771826", "wikipedia": "sr:\u041a\u043e\u0432\u0430\u0447\u0438\u0446\u0430"}}, "geometry": {"type": "Point", "coordinates": [20.6200326, 45.1119346]}}, {"type": "Feature", "properties": {"type": "node", "id": 61721547, "tags": {"is_in": "Serbia", "is_in:continent": "Europe", "is_in:country": "Serbia", "is_in:country_code": "RS", "name": "\u0417\u0440\u0435\u045a\u0430\u043d\u0438\u043d", "name:ar": "\u0632\u0631\u0646\u064a\u0627\u0646\u064a\u0646", "name:de": "Gro\u00dfbetschkerek", "name:el": "\u0396\u03c1\u03ad\u03bd\u03b9\u03b1\u03bd\u03b9\u03bd", "name:en": "Zrenjanin", "name:es": "Zrenjanin", "name:et": "Zrenjanin", "name:fr": "Zrenjanin", "name:he": "\u05d6\u05e8\u05e0\u05d9\u05d0\u05e0\u05d9\u05df", "name:hu": "Nagybecskerek", "name:lt": "Zrenianinas", "name:ro": "Becicherecu Mare", "name:ru": "\u0417\u0440\u0435\u043d\u044f\u043d\u0438\u043d", "name:sr": "\u0417\u0440\u0435\u045a\u0430\u043d\u0438\u043d", "name:sr-Latn": "Zrenjanin", "place": "city", "population": "79773", "wikidata": "Q201125", "wikipedia": "sr:\u0417\u0440\u0435\u045a\u0430\u043d\u0438\u043d"}}, "geometry": {"type": "Point", "coordinates": [20.3907614, 45.3802683]}}, {"type": "Feature", "properties": {"type": "node", "id": 512051228, "tags": {"name": "\u0416\u0438\u0442\u0438\u0448\u0442\u0435", "name:en": "Zitiste", "name:hu": "B\u00e9gaszentgy\u00f6rgy", "name:sr": "\u0416\u0438\u0442\u0438\u0448\u0442\u0435", "name:sr-Latn": "\u017diti\u0161te", "place": "town", "population": "2903", "population:date": "2011", "wikidata": "Q394134", "wikipedia": "sr:\u0416\u0438\u0442\u0438\u0448\u0442\u0435"}}, "geometry": {"type": "Point", "coordinates": [20.5477867, 45.4824819]}}, {"type": "Feature", "properties": {"type": "node", "id": 249478464, "tags": {"name": "\u041d\u043e\u0432\u0438 \u0411\u0435\u0447\u0435\u0458", "name:de": "Neu-Betsche", "name:en": "Novi Becej", "name:hu": "T\u00f6r\u00f6kbecse", "name:pl": "Novi Beczej", "name:ru": "\u041d\u043e\u0432\u0438-\u0411\u0435\u0447\u0435\u0439", "name:sr": "\u041d\u043e\u0432\u0438 \u0411\u0435\u0447\u0435\u0458", "name:sr-Latn": "Novi Be\u010dej", "name:zh": "\u65b0\u8c9d\u5207\u4f0a", "place": "town", "population": "13133", "wikidata": "Q138474", "wikipedia": "sr:\u041d\u043e\u0432\u0438 \u0411\u0435\u0447\u0435\u0458"}}, "geometry": {"type": "Point", "coordinates": [20.1343581, 45.5952571]}}, {"type": "Feature", "properties": {"type": "node", "id": 1074945061, "tags": {"name": "\u0408\u0430\u0448\u0430 \u0422\u043e\u043c\u0438\u045b", "name:en": "Jasa Tomic", "name:hu": "M\u00f3dos", "name:ro": "Modo\u0219", "name:sr": "\u0408\u0430\u0448\u0430 \u0422\u043e\u043c\u0438\u045b", "name:sr-Latn": "Ja\u0161a Tomi\u0107", "place": "town", "population": "2373", "population:date": "2011", "wikidata": "Q785546", "wikipedia": "sr:\u0408\u0430\u0448\u0430 \u0422\u043e\u043c\u0438\u045b (\u0421\u0435\u0447\u0430\u045a)"}}, "geometry": {"type": "Point", "coordinates": [20.8564493, 45.4465892]}}, {"type": "Feature", "properties": {"type": "node", "id": 1073502821, "tags": {"name": "\u0411\u0430\u043d\u0430\u0442\u0441\u043a\u0438 \u041a\u0430\u0440\u043b\u043e\u0432\u0430\u0446", "name:en": "Banatski Karlovac", "name:hu": "Nagyk\u00e1rolyfalva", "name:sr": "\u0411\u0430\u043d\u0430\u0442\u0441\u043a\u0438 \u041a\u0430\u0440\u043b\u043e\u0432\u0430\u0446", "name:sr-Latn": "Banatski Karlovac", "place": "town", "population": "5082", "population:date": "2011", "wikidata": "Q1042129", "wikipedia": "sr:\u0411\u0430\u043d\u0430\u0442\u0441\u043a\u0438 \u041a\u0430\u0440\u043b\u043e\u0432\u0430\u0446"}}, "geometry": {"type": "Point", "coordinates": [21.0176284, 45.0500316]}}, {"type": "Feature", "properties": {"type": "node", "id": 1340352822, "tags": {"name": "\u0412\u0440\u0448\u0430\u0446", "name:en": "Vr\u0161ac", "name:he": "\u05d5\u05e8\u05e9\u05d0\u05e5", "name:hu": "Versec", "name:ro": "V\u00e2r\u0219e\u021b", "name:ru": "\u0412\u0440\u0448\u0430\u0446", "name:sr": "\u0412\u0440\u0448\u0430\u0446", "name:sr-Latn": "Vr\u0161ac", "old_name:de": "Werschetz", "place": "city", "population": "36040", "population:date": "2011", "wikidata": "Q209329", "wikipedia": "sr:\u0412\u0440\u0448\u0430\u0446"}}, "geometry": {"type": "Point", "coordinates": [21.2960485, 45.1211263]}}, {"type": "Feature", "properties": {"type": "node", "id": 988017157, "tags": {"name": "\u0411\u0435\u043b\u0430 \u0426\u0440\u043a\u0432\u0430", "name:en": "Bela Crkva", "name:hu": "Feh\u00e9rtemplom", "name:ro": "Biserica Alb\u0103", "name:ru": "\u0411\u0435\u043b\u0430-\u0426\u0440\u043a\u0432\u0430", "name:sr": "\u0411\u0435\u043b\u0430 \u0426\u0440\u043a\u0432\u0430", "name:sr-Latn": "Bela Crkva", "old_name:de": "Wei\u00dfkirchen", "place": "town", "population": "9080", "population:date": "2011", "wikidata": "Q541470", "wikipedia": "sr:\u0411\u0435\u043b\u0430 \u0426\u0440\u043a\u0432\u0430"}}, "geometry": {"type": "Point", "coordinates": [21.422117, 44.901587]}}, {"type": "Feature", "properties": {"type": "node", "id": 878610646, "tags": {"name": "\u0427\u043e\u043a\u0430", "name:de": "Tschoka", "name:en": "Coka", "name:hu": "Cs\u00f3ka", "name:ru": "\u0427\u043e\u043a\u0430", "name:sr": "\u0427\u043e\u043a\u0430", "name:sr-Latn": "\u010coka", "place": "town", "population": "4028", "population:date": "2011", "wikidata": "Q876180", "wikipedia": "sr:\u0427\u043e\u043a\u0430"}}, "geometry": {"type": "Point", "coordinates": [20.1399443, 45.9411228]}}, {"type": "Feature", "properties": {"type": "node", "id": 955603411, "tags": {"name": "\u041a\u0438\u043a\u0438\u043d\u0434\u0430", "name:de": "Gro\u00dfkikinda", "name:en": "Kikinda", "name:hu": "Nagykikinda", "name:lt": "Kikinda", "name:nl": "Kikinda", "name:ro": "Chichinda Mare", "name:ru": "\u041a\u0438\u043a\u0438\u043d\u0434\u0430", "name:sk": "Kikinda", "name:sr": "\u041a\u0438\u043a\u0438\u043d\u0434\u0430", "name:sr-Latn": "Kikinda", "place": "city", "population": "38065", "population:date": "2011", "wikidata": "Q309355", "wikipedia": "sr:\u041a\u0438\u043a\u0438\u043d\u0434\u0430"}}, "geometry": {"type": "Point", "coordinates": [20.4653942, 45.8297838]}}]}