{"type": "FeatureCollection", "features": [{"type": "Feature", "properties": {"type": "node", "id": 36650979, "tags": {"ele": "445", "is_in": "Canton de Gen\u00e8ve,Gen\u00e8ve,Gen\u00e8ve,Schweiz,Europe", "name": "Bernex", "openGeoDB:auto_update": "population,is_in", "openGeoDB:community_identification_number": "G6607", "openGeoDB:is_in": "Canton de Gen\u00e8ve,Gen\u00e8ve,Gen\u00e8ve,Schweiz,Europe", "openGeoDB:is_in_loc_id": "78693", "openGeoDB:layer": "6", "openGeoDB:loc_id": "30969", "openGeoDB:name": "Bernex,Bernex", "openGeoDB:population": "9866", "openGeoDB:postal_codes": "1233", "openGeoDB:sort_name": "BERNEX", "openGeoDB:type": "Gemeinde", "openGeoDB:version": "0.2.6.11 / 2007-12-04 / http://fa-technik.adfc.de/code/opengeodb/dump/", "opengeodb:lat": "46.1766377", "opengeodb:lon": "6.0767085", "place": "town", "population": "9866", "postal_code": "1233", "website": "http://www.bernex.ch/", "wikidata": "Q65259", "wikipedia": "fr:Bernex (Gen\u00e8ve)"}}, "geometry": {"type": "Point", "coordinates": [6.0721811, 46.1746582]}}, {"type": "Feature", "properties": {"type": "node", "id": 36650976, "tags": {"ele": "440", "is_in": "Canton de Gen\u00e8ve,Gen\u00e8ve,Gen\u00e8ve,Schweiz,Europe", "name": "Vernier", "name:be": "\u0412\u0435\u0440\u043d'\u0435", "name:ru": "\u0412\u0435\u0440\u043d\u044c\u0435", "openGeoDB:community_identification_number": "G6643", "openGeoDB:loc_id": "30999", "place": "town", "population": "34477", "postal_code": "1214", "website": "http://www.vernier.ch", "wikidata": "Q63922", "wikipedia": "fr:Vernier (Gen\u00e8ve)"}}, "geometry": {"type": "Point", "coordinates": [6.0815756, 46.2131843]}}, {"type": "Feature", "properties": {"type": "node", "id": 36650971, "tags": {"ele": "435", "is_in": "Canton de Gen\u00e8ve,Gen\u00e8ve,Gen\u00e8ve,Schweiz,Europe", "name": "Meyrin", "name:be": "\u041c\u0435\u0440\u044d\u043d", "name:ru": "\u041c\u0435\u0440\u0435\u043d", "openGeoDB:community_identification_number": "G6630", "openGeoDB:is_in_loc_id": "78693", "openGeoDB:layer": "6", "openGeoDB:loc_id": "30990", "openGeoDB:name": "Meyrin,Meyrin", "place": "town", "population": "21866", "postal_code": "1217", "website": "http://www.meyrin.ch", "wikidata": "Q68230", "wikipedia": "fr:Meyrin"}}, "geometry": {"type": "Point", "coordinates": [6.0712016, 46.2283226]}}, {"type": "Feature", "properties": {"type": "node", "id": 59955692, "tags": {"ele": "405", "name": "Plan-les-Ouates", "name:be": "\u041f\u043b\u0430\u043d-\u043b\u0435\u0437-\u0423\u0430\u0442", "name:ru": "\u041f\u043b\u0430\u043d-\u043b\u0435\u0437-\u0423\u0430\u0442", "openGeoDB:community_identification_number": "G6633", "openGeoDB:loc_id": "30992", "place": "town", "population": "10657", "postal_code": "1228", "website": "https://www.plan-les-ouates.ch/", "wikidata": "Q65273", "wikipedia": "fr:Plan-les-Ouates"}}, "geometry": {"type": "Point", "coordinates": [6.117887, 46.1683113]}}, {"type": "Feature", "properties": {"type": "node", "id": 36650988, "tags": {"ele": "427", "name": "Onex", "name:be": "\u0410\u043d\u044d", "name:ru": "\u041e\u043d\u0435", "openGeoDB:auto_update": "population,is_in", "openGeoDB:community_identification_number": "G6631", "openGeoDB:is_in": "Canton de Gen\u00e8ve,Gen\u00e8ve,Gen\u00e8ve,Schweiz,Europe", "openGeoDB:is_in_loc_id": "78693", "openGeoDB:layer": "6", "openGeoDB:loc_id": "30991", "openGeoDB:name": "Onex,Onex", "openGeoDB:population": "18074", "openGeoDB:postal_codes": "1213", "openGeoDB:sort_name": "ONEX", "openGeoDB:type": "Stadt", "openGeoDB:version": "0.2.6.11 / 2007-12-04 / http://fa-technik.adfc.de/code/opengeodb/dump/", "opengeodb:lat": "46.1833298", "opengeodb:lon": "6.0936483", "place": "town", "population": "10074", "postal_code": "1213", "website": "https://www.onex.ch/", "wikidata": "Q68240", "wikipedia": "fr:Onex (Gen\u00e8ve)"}}, "geometry": {"type": "Point", "coordinates": [6.1001084, 46.1836866]}}, {"type": "Feature", "properties": {"type": "node", "id": 36650974, "tags": {"ele": "420", "name": "Lancy", "name:be": "\u041b\u0430\u043d\u0441\u0456", "name:ru": "\u041b\u0430\u043d\u0441\u0438", "openGeoDB:community_identification_number": "G6628", "openGeoDB:license_plate_code": "GE", "openGeoDB:loc_id": "79954", "place": "town", "population": "10919", "postal_code": "1212", "website": "https://www.lancy.ch/", "wikidata": "Q64065", "wikipedia": "fr:Lancy"}}, "geometry": {"type": "Point", "coordinates": [6.1224047, 46.1839156]}}, {"type": "Feature", "properties": {"type": "node", "id": 36651959, "tags": {"ele": "425", "name": "Veyrier", "name:be": "\u0412\u0435\u0440'\u0435", "name:ru": "\u0412\u0435\u0440\u044c\u0435", "openGeoDB:community_identification_number": "G6645", "openGeoDB:is_in_loc_id": "78693", "openGeoDB:layer": "6", "openGeoDB:loc_id": "31002", "place": "town", "population": "10799", "postal_code": "1255", "website": "https://www.veyrier.ch/", "wikidata": "Q69587", "wikipedia": "fr:Veyrier"}}, "geometry": {"type": "Point", "coordinates": [6.185681, 46.1668163]}}, {"type": "Feature", "properties": {"type": "node", "id": 240046137, "tags": {"ele": "386", "name": "Carouge", "name:be": "\u041a\u0430\u0440\u0443\u0436", "name:lt": "Karu\u017eas", "name:ru": "\u041a\u0430\u0440\u0443\u0436", "official_name": "Carouge (GE)", "openGeoDB:community_identification_number": "G6608", "openGeoDB:license_plate_code": "GE", "openGeoDB:loc_id": "79947", "openGeoDB:type": "Stadt", "place": "town", "population": "20910", "postal_code": "1227", "website": "http://www.carouge.ch", "wikidata": "Q69364", "wikipedia": "fr:Carouge"}}, "geometry": {"type": "Point", "coordinates": [6.1396839, 46.1846691]}}, {"type": "Feature", "properties": {"type": "node", "id": 33622904, "tags": {"admin_centre:4": "yes", "alt_name:ku": "Jenev", "ele": "375", "int_name": "Geneva", "name": "Gen\u00e8ve", "name:an": "Chinebra", "name:ar": "\u062c\u0646\u064a\u0641", "name:az": "Cenevr\u0259", "name:azb": "\u0698\u0646\u0648", "name:be": "\u0416\u044d\u043d\u0435\u0432\u0430", "name:bg": "\u0416\u0435\u043d\u0435\u0432\u0430", "name:bo": "\u0f62\u0f72\u0f0b\u0f53\u0f7c\u0f66\u0f0b\u0f5d", "name:br": "Jeneva", "name:bs": "\u017deneva", "name:ca": "Ginebra", "name:cs": "\u017deneva", "name:cy": "Genefa", "name:da": "Geneve", "name:de": "Genf", "name:el": "\u0393\u03b5\u03bd\u03b5\u03cd\u03b7", "name:en": "Geneva", "name:eo": "\u011cenevo", "name:es": "Ginebra", "name:et": "Genf", "name:eu": "Geneva", "name:fa": "\u0698\u0646\u0648", "name:fi": "Geneve", "name:fr": "Gen\u00e8ve", "name:gl": "Xenebra", "name:gsw": "Genf", "name:he": "\u05d6'\u05e0\u05d1\u05d4", "name:hr": "\u017deneva", "name:hu": "Genf", "name:id": "Jenewa", "name:it": "Ginevra", "name:ja": "\u30b8\u30e5\u30cd\u30fc\u30f4", "name:kk-Arab": "\u062c\u06d5\u0646\u06d5\u06c6\u0627", "name:kn": "\u0c9c\u0cc6\u0ca8\u0cc7\u0cb5", "name:ku": "Cenevre", "name:lt": "\u017deneva", "name:lv": "\u017den\u0113va", "name:nl": "Gen\u00e8ve", "name:pl": "Genewa", "name:pnb": "\u062c\u0646\u06cc\u0648\u0627", "name:rm": "Genevra", "name:ru": "\u0416\u0435\u043d\u0435\u0432\u0430", "name:sd": "\u062c\u0646\u064a\u0648\u0627", "name:sk": "\u017deneva", "name:sl": "\u017deneva", "name:sr": "\u0416\u0435\u043d\u0435\u0432\u0430", "name:th": "\u0e40\u0e08\u0e19\u0e35\u0e27\u0e32", "name:tr": "Cenevre", "name:tt": "\u0416\u0435\u043d\u0435\u0432\u0430", "name:uk": "\u0416\u0435\u043d\u0435\u0432\u0430", "name:ur": "\u062c\u0646\u06cc\u0648\u0627", "name:vi": "Gi\u01a1-ne-v\u01a1", "name:zh": "\u65e5\u5167\u74e6", "name:zh_pinyin": "R\u00ecn\u00e8iw\u01ce", "note": "Dieser Punkt dient zur Platzierung der Kantonsbeschriftung - bitte nicht l\u00f6schen // This node is used to place the name of the canton - please do not delete", "old_name:vi": "Nh\u1eadt N\u1ed9i Ng\u1ecfa", "openGeoDB:community_identification_number": "G6621", "openGeoDB:is_in_loc_id": "78693", "openGeoDB:layer": "6", "openGeoDB:loc_id": "30982", "openGeoDB:postal_codes": "1240,1209,1208,1207,1206,1205,1204,1203,1202,1201,1200", "openGeoDB:type": "Stadt", "place": "city", "population": "191557", "population:date": "2013", "website": "http://www.ville-geneve.ch/", "wikidata": "Q71", "wikipedia": "fr:Gen\u00e8ve"}}, "geometry": {"type": "Point", "coordinates": [6.1466014, 46.2017559]}}, {"type": "Feature", "properties": {"type": "node", "id": 240120089, "tags": {"ele": "423", "is_in": "Canton de Gen\u00e8ve,Gen\u00e8ve,Gen\u00e8ve,Schweiz,Europe", "name": "Ch\u00eane-Bougeries", "name:be": "\u0428\u044d\u043d-\u0411\u0443\u0436\u0440\u044b", "name:ru": "\u0428\u0435\u043d-\u0411\u0443\u0436\u0440\u0438", "openGeoDB:auto_update": "population,place,name,is_in", "openGeoDB:community_identification_number": "G6612", "openGeoDB:is_in": "Canton de Gen\u00e8ve,Gen\u00e8ve,Gen\u00e8ve,Schweiz,Europe", "openGeoDB:is_in_loc_id": "78693", "openGeoDB:layer": "6", "openGeoDB:loc_id": "30975", "openGeoDB:location": "political_structure", "openGeoDB:name": "Ch\u00eane-Bougeries,Ch\u00eane-Bougeries", "openGeoDB:population": "10642", "openGeoDB:postal_codes": "1224", "openGeoDB:sort_name": "CHENE-BOUGERIES", "openGeoDB:type": "Gemeinde", "openGeoDB:version": "0.2.6.11 / 2007-12-04 / http://fa-technik.adfc.de/code/opengeodb/dump/", "place": "town", "population": "10642", "postal_code": "1224", "website": "http://www.chene-bougeries.ch/", "wikidata": "Q69530", "wikipedia": "fr:Ch\u00eane-Bougeries"}}, "geometry": {"type": "Point", "coordinates": [6.1854072, 46.1963639]}}, {"type": "Feature", "properties": {"type": "node", "id": 36650978, "tags": {"ele": "445", "is_in": "Canton de Gen\u00e8ve,Gen\u00e8ve,Gen\u00e8ve,Schweiz,Europe", "name": "Le Grand-Saconnex", "name:be": "\u041b\u0435 \u0413\u0440\u0430\u043d-\u0421\u0430\u043a\u0430\u043d\u044d", "name:ru": "\u041b\u0435 \u0413\u0440\u0430\u043d-\u0421\u0430\u043a\u043e\u043d\u043d\u0435", "openGeoDB:community_identification_number": "G6623", "openGeoDB:is_in_loc_id": "78693", "openGeoDB:layer": "6", "openGeoDB:loc_id": "30987", "place": "town", "population": "11911", "postal_code": "1218", "website": "https://www.grand-saconnex.ch/", "wikidata": "Q69714", "wikipedia": "fr:Le Grand-Saconnex"}}, "geometry": {"type": "Point", "coordinates": [6.126532, 46.2363321]}}, {"type": "Feature", "properties": {"type": "node", "id": 36650975, "tags": {"ele": "405", "is_in": "Canton de Gen\u00e8ve,Gen\u00e8ve,Gen\u00e8ve,Schweiz,Europe", "name": "Th\u00f4nex", "name:be": "\u0422\u0430\u043d\u044d", "name:lt": "Toneksas", "name:ru": "\u0422\u043e\u043d\u0435", "openGeoDB:community_identification_number": "G6640", "openGeoDB:is_in_loc_id": "78693", "openGeoDB:layer": "6", "openGeoDB:loc_id": "30998", "place": "town", "population": "13756", "postal_code": "1226", "website": "https://www.thonex.ch/", "wikidata": "Q68201", "wikipedia": "fr:Th\u00f4nex"}}, "geometry": {"type": "Point", "coordinates": [6.1983858, 46.1884304]}}, {"type": "Feature", "properties": {"type": "node", "id": 33312505, "tags": {"ele": "385", "name": "Versoix", "name:be": "\u0412\u0435\u0440\u0441\u0443\u0430", "name:ru": "\u0412\u0435\u0440\u0441\u0443\u0430", "openGeoDB:community_identification_number": "G6644", "openGeoDB:loc_id": "31000", "place": "town", "population": "13057", "postal_code": "1290", "website": "http://www.versoix.ch", "wikidata": "Q63979", "wikipedia": "fr:Versoix"}}, "geometry": {"type": "Point", "coordinates": [6.168958, 46.2767572]}}, {"type": "Feature", "properties": {"type": "node", "id": 240039598, "tags": {"ele": "403", "name": "Nyon", "name:lt": "Nionas", "openGeoDB:community_identification_number": "G5724", "openGeoDB:loc_id": "31989", "place": "town", "population": "19738", "postal_code": "1260", "website": "https://www.nyon.ch/", "wikidata": "Q64027", "wikipedia": "fr:Nyon"}}, "geometry": {"type": "Point", "coordinates": [6.2402791, 46.3820585]}}, {"type": "Feature", "properties": {"type": "node", "id": 1932397580, "tags": {"ele": "432", "name": "Gland", "place": "town", "population": "11947", "postal_code": "1196", "website": "http://www.gland.ch", "wikidata": "Q69300", "wikipedia": "fr:Gland (Vaud)"}}, "geometry": {"type": "Point", "coordinates": [6.2675845, 46.4212913]}}, {"type": "Feature", "properties": {"type": "node", "id": 281893667, "tags": {"ele": "374", "is_in": "District de Morges,Vaud;Waadt,Vaud,Schweiz,Europe", "is_in:iso_3166_2": "CH-VD", "name": "Morges", "name:ru": "\u041c\u043e\u0440\u0436", "place": "town", "population": "15228", "postal_code": "1110", "website": "https://www.morges.ch/", "wikidata": "Q69401", "wikipedia": "fr:Morges"}}, "geometry": {"type": "Point", "coordinates": [6.498317, 46.5093268]}}, {"type": "Feature", "properties": {"type": "node", "id": 240119296, "tags": {"ele": "428", "is_in": "District de l'Ouest lausannois,Vaud;Waadt,Vaud,Schweiz,Europe", "is_in:iso_3166_2": "CH-VD", "name": "Ecublens", "name:lt": "Ekublensas", "name:ru": "\u042d\u043a\u044e\u0431\u043b\u0435\u043d\u043e", "openGeoDB:community_identification_number": "G5635", "openGeoDB:license_plate_code": "VD", "openGeoDB:loc_id": "79720", "place": "town", "population": "12009", "postal_code": "1024", "website": "https://www.ecublens.ch/", "wikidata": "Q69716", "wikipedia": "fr:\u00c9cublens (Vaud)"}}, "geometry": {"type": "Point", "coordinates": [6.5620735, 46.5261672]}}, {"type": "Feature", "properties": {"type": "node", "id": 240050967, "tags": {"ele": "415", "is_in": "District de l'Ouest lausannois,Vaud;Waadt,Vaud,Schweiz,Europe", "is_in:iso_3166_2": "CH-VD", "name": "Renens", "name:ru": "\u0420\u0435\u043d\u0430\u043d", "openGeoDB:community_identification_number": "G5591", "openGeoDB:license_plate_code": "VD", "openGeoDB:loc_id": "79699", "place": "town", "population": "20131", "postal_code": "1020", "website": "http://www.renens.ch/", "wikidata": "Q69745", "wikipedia": "fr:Renens"}}, "geometry": {"type": "Point", "coordinates": [6.5928442, 46.5349093]}}, {"type": "Feature", "properties": {"type": "node", "id": 240055984, "tags": {"ele": "481", "is_in": "District de l'Ouest lausannois,Vaud;Waadt,Vaud,Schweiz,Europe", "is_in:iso_3166_2": "CH-VD", "name": "Prilly", "openGeoDB:community_identification_number": "G5589", "openGeoDB:loc_id": "32003", "place": "town", "population": "11609", "postal_code": "1008", "website": "https://www.prilly.ch/", "wikidata": "Q69757", "wikipedia": "fr:Prilly"}}, "geometry": {"type": "Point", "coordinates": [6.6055827, 46.534566]}}, {"type": "Feature", "properties": {"type": "node", "id": 240083203, "tags": {"ele": "415", "is_in": "District de l'Ouest lausannois,Vaud;Waadt,Vaud,Schweiz,Europe", "name": "Bussigny", "name:ru": "\u0411\u044e\u0441\u0441\u0438\u043d\u044c\u0438", "official_name": "Bussigny-pr\u00e8s-Lausanne", "openGeoDB:auto_update": "population,place,name,is_in", "openGeoDB:community_identification_number": "G5624", "openGeoDB:is_in": "District de l'Ouest lausannois,Vaud;Waadt,Vaud,Schweiz,Europe", "openGeoDB:is_in_loc_id": "78672", "openGeoDB:layer": "6", "openGeoDB:license_plate_code": "VD", "openGeoDB:loc_id": "79710", "openGeoDB:location": "political_structure", "openGeoDB:name": "Bussigny-pr\u00e8s-Lausanne", "openGeoDB:population": "8132", "openGeoDB:postal_codes": "1030", "openGeoDB:sort_name": "BUSSIGNY-PRES-LAUSANNE", "openGeoDB:type": "Gemeinde", "openGeoDB:version": "0.2.6.11 / 2007-12-04 / http://fa-technik.adfc.de/code/opengeodb/dump/", "place": "town", "population": "8132", "postal_code": "1030", "website": "https://www.bussigny.ch/", "wikidata": "Q52300", "wikipedia": "fr:Bussigny"}}, "geometry": {"type": "Point", "coordinates": [6.553745, 46.5512503]}}, {"type": "Feature", "properties": {"type": "node", "id": 313014268, "tags": {"ele": "467", "is_in": "District de l'Ouest lausannois,Vaud;Waadt,Vaud,Schweiz,Europe", "name": "Crissier", "place": "town", "population": "7316", "postal_code": "1023", "website": "https://www.crissier.ch/", "wikidata": "Q57121", "wikipedia": "fr:Crissier"}}, "geometry": {"type": "Point", "coordinates": [6.5772501, 46.5538658]}}, {"type": "Feature", "properties": {"type": "node", "id": 220376756, "tags": {"ele": "426", "is_in": "District de Lavaux-Oron,Vaud;Waadt,Vaud,Schweiz,Europe", "name": "Pully", "name:ru": "\u041f\u044e\u043b\u043b\u0438", "openGeoDB:community_identification_number": "G5590", "openGeoDB:loc_id": "32006", "place": "town", "population": "17624", "postal_code": "1009", "website": "https://www.pully.ch/", "wikidata": "Q69738", "wikipedia": "fr:Pully"}}, "geometry": {"type": "Point", "coordinates": [6.6617476, 46.5098019]}}, {"type": "Feature", "properties": {"type": "node", "id": 35295150, "tags": {"admin_centre:4": "yes", "ele": "495", "is_in:continent": "Europe", "is_in:country": "Switzerland", "is_in:country_code": "CH", "is_in:iso_3166_2": "CH-VD", "name": "Lausanne", "name:ar": "\u0644\u0648\u0632\u0627\u0646", "name:be": "\u041b\u0430\u0437\u0430\u043d\u0430", "name:ca": "Lausana", "name:de": "Lausanne", "name:el": "\u039b\u03c9\u03b6\u03ac\u03bd\u03b7", "name:es": "Lausana", "name:gsw": "Losan", "name:it": "Losanna", "name:lt": "Lozana", "name:pl": "Lozanna", "name:ru": "\u041b\u043e\u0437\u0430\u043d\u043d\u0430", "name:sl": "Lozana", "name:sr": "\u041b\u043e\u0437\u0430\u043d\u0430", "name:uk": "\u041b\u043e\u0437\u0430\u043d\u043d\u0430", "name:zh": "\u6d1b\u6851", "openGeoDB:community_identification_number": "G5586", "openGeoDB:is_in": "District de Lausanne,Vaud;Waadt,Vaud,Schweiz,Europe", "openGeoDB:loc_id": "31956", "openGeoDB:name": "Lausanne,Lausanne", "openGeoDB:postal_codes": "1018,1012,1011,1010,1007,1006,1005,1004,1003,1002,1001,1000,1015", "place": "city", "population": "133521", "population:date": "2014", "website": "https://www.lausanne.ch/", "wikidata": "Q807", "wikipedia": "fr:Lausanne"}}, "geometry": {"type": "Point", "coordinates": [6.6327025, 46.5218269]}}, {"type": "Feature", "properties": {"type": "node", "id": 240098122, "tags": {"ele": "435", "name": "Yverdon-les-Bains", "name:be": "\u0406\u0432\u0435\u0440\u0434\u043e\u043d-\u043b\u0435-\u0411\u044d\u043d", "name:frp": "Enverdon les B\u00e2gne", "name:lt": "Iverdonas", "openGeoDB:community_identification_number": "G5938", "openGeoDB:license_plate_code": "VD", "openGeoDB:loc_id": "79862", "openGeoDB:postal_codes": "1401,1400", "place": "town", "population": "29406", "postal_code": "1400", "short_name": "Yverdon", "source:population": "SCRIS 2013", "website": "http://www.yverdon-les-bains.ch", "wikidata": "Q63946", "wikipedia": "fr:Yverdon-les-Bains"}}, "geometry": {"type": "Point", "coordinates": [6.6409158, 46.7785711]}}, {"type": "Feature", "properties": {"type": "node", "id": 158220182, "tags": {"name": "Martigny", "name:be": "\u041c\u0430\u0440\u0446\u0456\u043d'\u0456", "old_name:de": "Martinach", "place": "town", "population": "14361", "postal_code": "1920"}}, "geometry": {"type": "Point", "coordinates": [7.0727354, 46.103115]}}, {"type": "Feature", "properties": {"type": "node", "id": 197504797, "tags": {"ele": "430", "name": "Monthey", "place": "town", "population": "17512", "postal_code": "1870", "website": "https://www.monthey.ch/", "wikidata": "Q64051", "wikipedia": "fr:Monthey"}}, "geometry": {"type": "Point", "coordinates": [6.9478171, 46.2528521]}}, {"type": "Feature", "properties": {"type": "node", "id": 197506297, "tags": {"ele": "415", "is_in": "Vaud,Suisse", "name": "Aigle", "openGeoDB:auto_update": "population", "openGeoDB:community_identification_number": "G5401", "openGeoDB:is_in": "District d'Aigle,Vaud;Waadt,Vaud,Schweiz,Europe", "openGeoDB:is_in_loc_id": "78664", "openGeoDB:layer": "6", "openGeoDB:loc_id": "31872", "openGeoDB:name": "Aigle,Aigle", "openGeoDB:population": "9699", "openGeoDB:postal_codes": "1860", "openGeoDB:sort_name": "AIGLE", "openGeoDB:type": "Stadt", "openGeoDB:version": "0.2.6.11 / 2007-12-04 / http://fa-technik.adfc.de/code/opengeodb/dump/", "opengeodb:lat": "46.3171261", "opengeodb:lon": "6.9682151", "place": "town", "population": "9757", "website": "https://www.aigle.ch/", "wikidata": "Q43195", "wikipedia": "fr:Aigle (Vaud)"}}, "geometry": {"type": "Point", "coordinates": [6.9688929, 46.3179006]}}, {"type": "Feature", "properties": {"type": "node", "id": 3738814254, "tags": {"ele": "383", "name": "Vevey", "name:be": "\u0412\u0435\u0432\u044d", "name:lt": "Vev\u0117", "name:ru": "\u0412\u0435\u0432\u0435", "openGeoDB:community_identification_number": "G5890", "openGeoDB:loc_id": "32026", "place": "town", "population": "19220", "postal_code": "1800", "source": "Orthophoto Cartoriviera 2012", "website": "http://www.vevey.ch", "wikidata": "Q68160", "wikipedia": "fr:Vevey"}}, "geometry": {"type": "Point", "coordinates": [6.8418655, 46.4602978]}}, {"type": "Feature", "properties": {"type": "node", "id": 240094341, "tags": {"ele": "385", "name": "La Tour-de-Peilz", "name:ru": "\u041b\u0430 \u0422\u0443\u0440-\u0434\u0435-\u041f\u0435\u0439", "openGeoDB:auto_update": "population,place,name,is_in", "openGeoDB:community_identification_number": "G5889", "openGeoDB:is_in": "District de la Riviera-Pays-d'Enhaut,Vaud;Waadt,Vaud,Schweiz,Europe", "openGeoDB:is_in_loc_id": "78673", "openGeoDB:layer": "6", "openGeoDB:loc_id": "31954", "openGeoDB:location": "political_structure", "openGeoDB:name": "La Tour-de-Peilz,La Tour-de-Peilz", "openGeoDB:population": "10974", "openGeoDB:postal_codes": "1814", "openGeoDB:sort_name": "LA TOUR-DE-PEILZ", "openGeoDB:type": "Stadt", "openGeoDB:version": "0.2.6.11 / 2007-12-04 / http://fa-technik.adfc.de/code/opengeodb/dump/", "place": "town", "population": "10974", "website": "http://www.la-tour-de-peilz.ch", "wikidata": "Q69721", "wikipedia": "fr:La Tour-de-Peilz"}}, "geometry": {"type": "Point", "coordinates": [6.8569063, 46.4537524]}}, {"type": "Feature", "properties": {"type": "node", "id": 197507412, "tags": {"ele": "390", "name": "Montreux", "name:be": "\u041c\u0430\u043d\u0442\u0440\u044d", "name:lt": "Montr\u0117", "name:ru": "\u041c\u043e\u043d\u0442\u0440\u0451", "openGeoDB:community_identification_number": "G5886", "openGeoDB:loc_id": "31981", "place": "town", "population": "26208", "postal_code": "1820", "website": "http://www.montreux.ch", "wikidata": "Q69354", "wikipedia": "fr:Montreux"}}, "geometry": {"type": "Point", "coordinates": [6.9129921, 46.4310831]}}, {"type": "Feature", "properties": {"type": "node", "id": 197501928, "tags": {"admin_centre:4": "yes", "ele": "515", "name": "Sion", "name:be": "\u0421\u044c\u0451\u043d", "name:de": "Sitten", "name:fr": "Sion", "name:lt": "Sionas", "name:ru": "\u0421\u044c\u043e\u043d", "note": "deutscher Name gem\u00e4ss Kantonsverfassung", "openGeoDB:community_identification_number": "G6266", "openGeoDB:is_in": "District de Sion,Valais;Wallis,Valais,Schweiz,Europe", "openGeoDB:loc_id": "32159", "openGeoDB:postal_codes": "1950, 1951, 1992", "place": "town", "population": "34599", "postal_code": "1950, 1951, 1992", "website": "http://www.sion.ch", "wikidata": "Q68136", "wikipedia": "fr:Sion (Valais)"}}, "geometry": {"type": "Point", "coordinates": [7.3588795, 46.2311749]}}, {"type": "Feature", "properties": {"type": "node", "id": 60031299, "tags": {"ele": "533", "is_in": "District de Sierre,Valais;Wallis,Valais,Schweiz,Europe", "name": "Sierre", "name:be": "\u0421\u044c\u0435\u0440", "name:de": "Siders", "name:fr": "Sierre", "name:ru": "\u0421\u044c\u0435\u0440", "openGeoDB:community_identification_number": "G6248", "openGeoDB:is_in_loc_id": "78684", "openGeoDB:layer": "6", "openGeoDB:license_plate_code": "VS", "openGeoDB:loc_id": "32157", "place": "town", "population": "16711", "postal_code": "3960", "website": "https://www.sierre.ch/", "wikidata": "Q68297", "wikipedia": "fr:Sierre"}}, "geometry": {"type": "Point", "coordinates": [7.5323195, 46.2922522]}}, {"type": "Feature", "properties": {"type": "node", "id": 80387968, "tags": {"ele": "1608", "is_in": "Wallis", "name": "Zermatt", "name:ja": "\u30c4\u30a7\u30eb\u30de\u30c3\u30c8", "old_name:fr": "Praborgne", "openGeoDB:auto_update": "population", "openGeoDB:community_identification_number": "G6300", "openGeoDB:is_in": "Bezirk Visp,Valais;Wallis,Valais,Schweiz,Europe", "openGeoDB:is_in_loc_id": "78686", "openGeoDB:layer": "6", "openGeoDB:loc_id": "32184", "openGeoDB:name": "Zermatt", "openGeoDB:population": "5786", "openGeoDB:postal_codes": "3920", "openGeoDB:sort_name": "ZERMATT", "openGeoDB:type": "Gemeinde", "openGeoDB:version": "0.2.6.11 / 2007-12-04 / http://fa-technik.adfc.de/code/opengeodb/dump/", "opengeodb:lat": "46.0221644", "opengeodb:lon": "7.7496219", "place": "town", "population": "5786", "website": "https://www.zermatt.ch/", "wikidata": "Q27494", "wikipedia": "de:Zermatt"}}, "geometry": {"type": "Point", "coordinates": [7.7494002, 46.0222273]}}, {"type": "Feature", "properties": {"type": "node", "id": 60028239, "tags": {"ele": "658", "name": "Visp", "name:de": "Visp", "name:fr": "Vi\u00e8ge", "place": "town", "population": "7281", "website": "https://www.visp.ch/", "wikidata": "Q64147", "wikipedia": "de:Visp"}}, "geometry": {"type": "Point", "coordinates": [7.8811918, 46.2913113]}}, {"type": "Feature", "properties": {"type": "node", "id": 57722283, "tags": {"ele": "691", "name": "Brig", "name:be": "\u0411\u0440\u044b\u0433", "name:de": "Brig", "name:fr": "Brigue", "name:it": "Briga", "name:ru": "\u0411\u0440\u0438\u0433", "place": "town", "population": "12823", "postal_code": "3900", "website": "https://www.brig-glis.ch/", "wikidata": "Q15582", "wikipedia": "de:Brig"}}, "geometry": {"type": "Point", "coordinates": [7.9879473, 46.3163457]}}, {"type": "Feature", "properties": {"type": "node", "id": 279773023, "tags": {"admin_centre:6": "yes", "ele": "354", "is_in": "Distretto di Mendrisio,Ticino,Ticino,Schweiz,Europe", "name": "Mendrisio", "name:ru": "\u041c\u0435\u043d\u0434\u0440\u0438\u0437\u0438\u043e", "place": "town", "population": "15562", "population:date": "2015-12-31", "website": "https://www.mendrisio.ch/", "wikidata": "Q69041", "wikipedia": "it:Mendrisio"}}, "geometry": {"type": "Point", "coordinates": [8.9873461, 45.8709902]}}, {"type": "Feature", "properties": {"type": "node", "id": 3123314352, "tags": {"ele": "230", "name": "Chiasso", "place": "town", "population": "8202", "population:date": "2015-12-31", "postal_code": "6830", "website": "https://www.chiasso.ch/", "wikidata": "Q68111", "wikipedia": "it:Chiasso"}}, "geometry": {"type": "Point", "coordinates": [9.0290169, 45.8355209]}}, {"type": "Feature", "properties": {"type": "node", "id": 1376769426, "tags": {"admin_centre:6": "yes", "ele": "273", "name": "Lugano", "name:lt": "Luganas", "name:ru": "\u041b\u0443\u0433\u0430\u043d\u043e", "old_name:de": "Lauis", "openGeoDB:community_identification_number": "G5192", "openGeoDB:is_in_loc_id": "78645", "openGeoDB:layer": "6", "openGeoDB:license_plate_code": "TI", "openGeoDB:loc_id": "31775", "openGeoDB:postal_codes": "da 6900 a 6917, 6932, 6951, 6959, da 6962 a 6968, da 6974 a 6979", "openGeoDB:type": "Stadt", "place": "town", "population": "68677", "population:date": "2015-12-31", "website": "https://www.lugano.ch/", "wikidata": "Q7024", "wikipedia": "it:Lugano"}}, "geometry": {"type": "Point", "coordinates": [8.9520281, 46.0050102]}}, {"type": "Feature", "properties": {"type": "node", "id": 1839613064, "tags": {"ele": "200", "is_in": "Distretto di Locarno,Ticino,Ticino,Schweiz,Europe", "name": "Locarno", "name:lt": "Lokarnas", "name:ru": "\u041b\u043e\u043a\u0430\u0440\u043d\u043e", "place": "town", "population": "15671", "postal_code": "6600", "website": "https://www.locarno.ch/", "wikidata": "Q11935", "wikipedia": "it:Locarno"}}, "geometry": {"type": "Point", "coordinates": [8.7954217, 46.1695112]}}, {"type": "Feature", "properties": {"type": "node", "id": 1376769424, "tags": {"admin_centre:4": "yes", "admin_centre:6": "yes", "ele": "230", "name": "Bellinzona", "name:fr": "Bellinzone", "name:lt": "Belincona", "name:ru": "\u0411\u0435\u043b\u043b\u0438\u043d\u0446\u043e\u043d\u0430", "old_name:de": "Bellenz", "place": "town", "population": "43181", "postal_code": "6500, 6503, 6512, 6513, 6514, 6515, 6518, 6523, 6524, 6525, 6528, 6582, 6583, 6702", "website": "https://www.bellinzona.ch/", "wikidata": "Q64044", "wikipedia": "it:Bellinzona"}}, "geometry": {"type": "Point", "coordinates": [9.0205888, 46.1920538]}}, {"type": "Feature", "properties": {"type": "node", "id": 203453497, "tags": {"ele": "1822", "is_in": "Bezirk Maloja;Distretto di Maloggia,Graub\u00fcnden;Grigioni,Schweiz,Europe", "name": "Sankt Moritz", "name:be": "\u0421\u0430\u043d\u043a\u0442 \u041c\u043e\u0440\u044b\u0446", "name:cs": "Svat\u00fd Mo\u0159ic", "name:de": "Sankt Moritz", "name:fr": "Saint-Moritz", "name:it": "San Maurizio", "name:ja": "\u30b5\u30f3\u30e2\u30ea\u30c3\u30c4", "name:rm": "San Murezzan", "openGeoDB:auto_update": "population,place,name,is_in", "openGeoDB:community_identification_number": "G3787", "openGeoDB:is_in": "Bezirk Maloja;Distretto di Maloggia,Graub\u00fcnden;Grigioni,Schweiz,Europe", "openGeoDB:is_in_loc_id": "78617", "openGeoDB:layer": "6", "openGeoDB:license_plate_code": "GR", "openGeoDB:loc_id": "79358", "openGeoDB:location": "political_structure", "openGeoDB:name": "Sankt Moritz", "openGeoDB:population": "5147", "openGeoDB:postal_codes": "7500", "openGeoDB:sort_name": "ST. MORITZ", "openGeoDB:type": "Gemeinde", "openGeoDB:version": "0.2.6.11 / 2007-12-04 / http://fa-technik.adfc.de/code/opengeodb/dump/", "place": "town", "population": "5147", "website": "http://www.stmoritz.ch/", "wikidata": "Q68986", "wikipedia": "de:St. Moritz"}}, "geometry": {"type": "Point", "coordinates": [9.8386578, 46.4960592]}}, {"type": "Feature", "properties": {"type": "node", "id": 1425042341, "tags": {"ele": "771", "is_in": "District de la Gruy\u00e8re,Fribourg;Freiburg,Schweiz,Europe", "name": "Bulle", "name:be": "\u0411\u044e\u043b\u044c", "name:de": "Boll", "name:fr": "Bulle", "name:lt": "Bul\u0117", "name:ru": "\u0411\u044e\u043b\u044c", "openGeoDB:community_identification_number": "G2125", "openGeoDB:loc_id": "30890", "openGeoDB:postal_codes": "1630,1631", "openGeoDB:type": "Stadt", "place": "town", "population": "21991", "postal_code": "1630", "website": "http://www.bulle.ch", "wikidata": "Q68308", "wikipedia": "fr:Bulle (Fribourg)"}}, "geometry": {"type": "Point", "coordinates": [7.0581152, 46.6190969]}}, {"type": "Feature", "properties": {"type": "node", "id": 35358360, "tags": {"name": "Payerne", "place": "town", "population": "9302"}}, "geometry": {"type": "Point", "coordinates": [6.939126, 46.8208047]}}, {"type": "Feature", "properties": {"type": "node", "id": 1419297744, "tags": {"ele": "659", "is_in": "District de la Sarine,Fribourg;Freiburg,Fribourg,Schweiz,Europe", "name": "Villars-sur-Gl\u00e2ne", "name:de": "Glanewiler", "name:fr": "Villars-sur-Gl\u00e2ne", "name:ru": "\u0412\u0438\u043b\u0430\u0440-\u0421\u044e\u0440-\u0413\u043b\u0430\u043d", "openGeoDB:auto_update": "population,place,name,is_in", "openGeoDB:community_identification_number": "G2228", "openGeoDB:is_in": "District de la Sarine,Fribourg;Freiburg,Fribourg,Schweiz,Europe", "openGeoDB:is_in_loc_id": "78573", "openGeoDB:layer": "6", "openGeoDB:loc_id": "30959", "openGeoDB:location": "political_structure", "openGeoDB:name": "Villars-sur-Gl\u00e2ne,Villars-sur-Gl\u00e2ne", "openGeoDB:population": "12057", "openGeoDB:postal_codes": "1752", "openGeoDB:sort_name": "VILLARS-SUR-GL\u00c2NE", "openGeoDB:type": "Gemeinde", "openGeoDB:version": "0.2.6.11 / 2007-12-04 / http://fa-technik.adfc.de/code/opengeodb/dump/", "place": "town", "population": "12057", "postal_code": "1752", "short_name": "Villars", "website": "https://www.villars-sur-glane.ch/", "wikidata": "Q69760", "wikipedia": "fr:Villars-sur-Gl\u00e2ne"}}, "geometry": {"type": "Point", "coordinates": [7.1161892, 46.791321]}}, {"type": "Feature", "properties": {"type": "node", "id": 3019197852, "tags": {"admin_centre:4": "yes", "ele": "430", "name": "Neuch\u00e2tel", "name:de": "Neuenburg", "name:fr": "Neuch\u00e2tel", "name:lt": "Ne\u0161atelis", "name:ru": "\u041d\u0435\u0432\u0448\u0430\u0442\u0435\u043b\u044c", "place": "town", "population": "33641", "postal_code": "2000", "website": "https://www.neuchatelville.ch/", "wikidata": "Q69345", "wikipedia": "fr:Neuch\u00e2tel"}}, "geometry": {"type": "Point", "coordinates": [6.9292641, 46.9895828]}}, {"type": "Feature", "properties": {"type": "node", "id": 1423960546, "tags": {"ele": "453", "is_in": "Schweiz", "name": "Murten", "name:de": "Murten", "name:fr": "Morat", "place": "town", "population": "8222", "postal_code": "1793, 1794, 1795, 3215, 3215. 3280", "website": "http://www.murten-morat.ch", "wikidata": "Q68283", "wikipedia": "de:Murten"}}, "geometry": {"type": "Point", "coordinates": [7.1163909, 46.9288643]}}, {"type": "Feature", "properties": {"type": "node", "id": 1685926271, "tags": {"admin_centre:4": "yes", "ele": "610", "int_name": "Freiburg im \u00dcechtland", "int_name:de": "Freiburg im \u00dcechtland", "name": "Fribourg", "name:be": "\u0424\u0440\u044b\u0431\u0443\u0440", "name:ca": "Friburg", "name:de": "Freiburg", "name:es": "Friburgo", "name:fr": "Fribourg", "name:hr": "Fribourg", "name:it": "Friburgo", "name:lt": "Frib\u016bras", "name:pl": "Fryburg", "name:ru": "\u0424\u0440\u0438\u0431\u0443\u0440", "openGeoDB:is_in": "District de la Sarine;Bezirk Saane,Fribourg;Freiburg,Fribourg,Schweiz,Europe", "openGeoDB:is_in_loc_id": "139", "openGeoDB:layer": "6", "openGeoDB:license_plate_code": "FR", "openGeoDB:loc_id": "30910", "openGeoDB:name": "Fribourg;Freiburg,Fribourg", "openGeoDB:postal_codes": "1700,1701,1702,1703,1704,1705,1706,1707,1708,1709", "place": "town", "population": "37485", "website": "https://www.ville-fribourg.ch/", "wikidata": "Q36378", "wikipedia": "fr:Fribourg (ville suisse)"}}, "geometry": {"type": "Point", "coordinates": [7.1512891, 46.8030044]}}, {"type": "Feature", "properties": {"type": "node", "id": 1567061446, "tags": {"addr:canton": "Bern", "addr:city": "K\u00f6niz", "addr:country": "CH", "addr:county": "Bern-Mittelland", "addr:postcode": "3098", "ele": "572", "image": "https://commons.wikimedia.org/wiki/Category:K%C3%B6niz", "name": "K\u00f6niz", "name:ru": "\u041a\u0451\u043d\u0438\u0446", "place": "town", "population": "39794", "website": "https://www.koeniz.ch/", "wikidata": "Q64058", "wikipedia": "de:K\u00f6niz"}}, "geometry": {"type": "Point", "coordinates": [7.4130582, 46.9222385]}}, {"type": "Feature", "properties": {"type": "node", "id": 30884242, "tags": {"ele": "558", "is_in": "Amtsbezirk Bern,Bern;Berne,Schweiz,Europe", "name": "Muri", "name:ru": "\u041c\u0443\u0440\u0438-\u0411\u0435\u0440\u043d", "official_name": "Muri bei Bern", "openGeoDB:auto_update": "population,is_in", "openGeoDB:community_identification_number": "G0356", "openGeoDB:is_in": "Amtsbezirk Bern,Bern;Berne,Schweiz,Europe", "openGeoDB:is_in_loc_id": "78530", "openGeoDB:layer": "6", "openGeoDB:license_plate_code": "BE", "openGeoDB:loc_id": "78784", "openGeoDB:name": "Muri bei Bern", "openGeoDB:population": "12901", "openGeoDB:postal_codes": "3074", "openGeoDB:sort_name": "MURI", "openGeoDB:type": "Stadt", "openGeoDB:version": "0.2.6.11 / 2007-12-04 / http://fa-technik.adfc.de/code/opengeodb/dump/", "opengeodb:lat": "46.9292634", "opengeodb:lon": "7.4869175", "place": "town", "population": "12901", "postal_code": "3074", "website": "http://www.muri-guemligen.ch/", "wikidata": "Q69765", "wikipedia": "de:Muri bei Bern"}}, "geometry": {"type": "Point", "coordinates": [7.4870909, 46.9290477]}}, {"type": "Feature", "properties": {"type": "node", "id": 240103719, "tags": {"addr:canton": "Bern", "addr:county": "Bern-Mittelland", "ele": "521", "image": "http://commons.wikimedia.org/wiki/Category:Belp", "name": "Belp", "name:ru": "\u0411\u0435\u043b\u044c\u043f", "place": "town", "population": "11548", "postal_code": "3123", "website": "http://www.belp.ch", "wikidata": "Q69678", "wikipedia": "de:Belp"}}, "geometry": {"type": "Point", "coordinates": [7.498388, 46.88978]}}, {"type": "Feature", "properties": {"type": "node", "id": 18477455, "tags": {"admin_centre:4": "yes", "admin_level": "2", "capital": "yes", "loc_name": "B\u00e4rn", "name": "Bern", "name:am": "\u1264\u122d\u1295", "name:an": "Berna", "name:ar": "\u0628\u0631\u0646", "name:arc": "\u0712\u072a\u0722", "name:arz": "\u0628\u064a\u0631\u0646", "name:ast": "Berna", "name:azb": "\u0628\u0631\u0646", "name:be": "\u0411\u0435\u0440\u043d", "name:be-tarask": "\u0411\u044d\u0440\u043d", "name:bg": "\u0411\u0435\u0440\u043d", "name:bn": "\u09ac\u09c7\u09b0\u09cd\u09a8", "name:bo": "\u0f54\u0f7a\u0f62\u0f0b\u0f53\u0f7a\u0f0d", "name:br": "Bern", "name:ca": "Berna", "name:ckb": "\u0628\u06ce\u0631\u0646", "name:cs": "Bern", "name:cv": "\u0411\u0435\u0440\u043d", "name:de": "Bern", "name:el": "\u0392\u03ad\u03c1\u03bd\u03b7", "name:en": "Bern", "name:eo": "Berno", "name:es": "Berna", "name:eu": "Berna", "name:ext": "Berna", "name:fa": "\u0628\u0631\u0646", "name:fr": "Berne", "name:frp": "B\u00e8rna", "name:fur": "Berna", "name:ga": "Beirn", "name:gd": "Berne", "name:gl": "Berna - Bern", "name:gsw": "B\u00e4rn", "name:gv": "Berne", "name:he": "\u05d1\u05e8\u05df", "name:hi": "\u092c\u0930\u094d\u0928", "name:ht": "B\u00e8n", "name:hu": "Bern", "name:hy": "\u0532\u0565\u057c\u0576", "name:ilo": "Berna", "name:is": "Bern", "name:it": "Berna", "name:ja": "\u30d9\u30eb\u30f3", "name:ka": "\u10d1\u10d4\u10e0\u10dc\u10d8", "name:kab-Arab": "\u0628\u064a\u0631\u0646", "name:kk": "\u0411\u0435\u0440\u043d", "name:kk-Arab": "\u0628\u06d5\u0631\u0646", "name:kmr": "\u0628\u06d5\u0631\u0646", "name:kn": "\u0cac\u0cc7\u0cb0\u0ccd\u0ca8\u0ccd", "name:ko": "\ubca0\ub978", "name:ks": "\u0628\u0631\u0646", "name:ku": "Bern", "name:ku-Arab": "\u0628\u06d5\u0631\u0646", "name:la": "Berna", "name:lij": "Berna", "name:lmo": "Berna", "name:lrc": "\u0628\u0631\u0646", "name:lt": "Bernas", "name:lv": "Berne", "name:lzh": "\u4f2f\u6069", "name:mk": "\u0411\u0435\u0440\u043d", "name:ml": "\u0d2c\u0d47\u0d7a", "name:mr": "\u092c\u0930\u094d\u0928", "name:nah": "Berna", "name:nds": "Bern", "name:no": "Bern", "name:oc": "B\u00e8rna", "name:os": "\u0411\u0435\u0440\u043d", "name:ota": "\u0628\u0631\u0646", "name:pdc": "Bann, Schweiz", "name:pl": "Berno", "name:pms": "Berna", "name:pnb": "\u0628\u0631\u0646", "name:ps": "\u0628\u0631\u0646", "name:pt": "Berna", "name:rm": "Berna", "name:ro": "Berna", "name:ru": "\u0411\u0435\u0440\u043d", "name:sah": "\u0411\u0435\u0440\u043d", "name:scn": "Berna", "name:sk": "Bern", "name:sl": "Berna", "name:sq": "Berna", "name:sr": "\u0411\u0435\u0440\u043d", "name:sv": "Bern", "name:ta": "\u0baa\u0bc7\u0bb0\u0bcd\u0ba9\u0bcd", "name:tg": "\u0411\u0435\u0440\u043d", "name:th": "\u0e40\u0e1a\u0e34\u0e23\u0e4c\u0e19", "name:tpi": "Berne", "name:tt": "\u0411\u0435\u0440\u043d", "name:udm": "\u0411\u0435\u0440\u043d", "name:ug": "\u0628\u06d0\u0631\u0646", "name:uk": "\u0411\u0435\u0440\u043d", "name:ur": "\u0628\u0631\u0646", "name:vec": "Berna", "name:wuu": "\u529e\u5408\u7eb3", "name:xmf": "\u10d1\u10d4\u10e0\u10dc\u10d8", "name:yi": "\u05d1\u05e2\u05e8\u05df", "name:yo": "Berne", "name:yue": "\u4f2f\u6069", "name:zh": "\u4f2f\u723e\u5c3c", "openGeoDB:community_identification_number": "G0351", "openGeoDB:loc_id": "30599", "openGeoDB:postal_codes": "3040,3030,3024,3027,3020,3019,3018,3015,3014,3013,3012,3011,3010,3008,3007,3006,3005,3004,3003,3001,3000", "place": "city", "population": "128848", "source:name:oc": "ieo-bdtopoc", "website": "https://www.bern.ch/", "wikidata": "Q70", "wikipedia": "de:Bern"}}, "geometry": {"type": "Point", "coordinates": [7.4514512, 46.9482713]}}, {"type": "Feature", "properties": {"type": "node", "id": 31517557, "tags": {"addr:canton": "Bern", "addr:city": "Ostermundigen", "addr:country": "CH", "addr:county": "Bern-Mittelland", "addr:postcode": "3072", "ele": "585", "image": "https://commons.wikimedia.org/wiki/Category:Ostermundigen", "name": "Ostermundigen", "name:ru": "\u041e\u0441\u0442\u0435\u0440\u043c\u0443\u043d\u0434\u0438\u0433\u0435\u043d", "place": "town", "population": "16185", "postal_code": "3072", "website": "http://www.ostermundigen.ch/", "wikidata": "Q69682", "wikipedia": "de:Ostermundigen"}}, "geometry": {"type": "Point", "coordinates": [7.4911242, 46.9582779]}}, {"type": "Feature", "properties": {"type": "node", "id": 31491329, "tags": {"ele": "526", "image": "https://commons.wikimedia.org/wiki/Category:Ittigen", "name": "Ittigen", "name:ru": "\u0418\u0442\u0442\u0438\u0433\u0435\u043d", "place": "town", "population": "11067", "website": "http://www.ittigen.ch", "wikidata": "Q69690", "wikipedia": "de:Ittigen"}}, "geometry": {"type": "Point", "coordinates": [7.4815213, 46.9790726]}}, {"type": "Feature", "properties": {"type": "node", "id": 240082939, "tags": {"created_by": "opengeodb2osm0.5.2", "is_in": "District du Locle,Neuch\u00e2tel,Neuch\u00e2tel,Schweiz,Europe", "name": "Le Locle", "openGeoDB:auto_update": "population,place,name,is_in", "openGeoDB:community_identification_number": "G6436", "openGeoDB:is_in": "District du Locle,Neuch\u00e2tel,Neuch\u00e2tel,Schweiz,Europe", "openGeoDB:is_in_loc_id": "78689", "openGeoDB:layer": "6", "openGeoDB:loc_id": "31359", "openGeoDB:location": "political_structure", "openGeoDB:name": "Le Locle,Le Locle", "openGeoDB:population": "10529", "openGeoDB:postal_codes": "2400", "openGeoDB:sort_name": "LE LOCLE", "openGeoDB:type": "Stadt", "openGeoDB:version": "0.2.6.11 / 2007-12-04 / http://fa-technik.adfc.de/code/opengeodb/dump/", "place": "town", "population": "10529"}}, "geometry": {"type": "Point", "coordinates": [6.745454, 47.0555907]}}, {"type": "Feature", "properties": {"type": "node", "id": 240041404, "tags": {"ele": "992", "is_in": "District de la Chaux-de-Fonds,Neuch\u00e2tel,Neuch\u00e2tel,Schweiz,Europe", "name": "La Chaux-de-Fonds", "name:be": "\u041b\u044f-\u0428\u043e-\u0434\u044d-\u0424\u043e\u043d", "name:lt": "\u0160o de Fonas", "openGeoDB:community_identification_number": "G6421", "openGeoDB:loc_id": "31356", "openGeoDB:postal_codes": "2304,2301,2306,2303,2302,2300,2305", "place": "town", "population": "39027", "postal_code": "2300", "website": "http://www.chaux-de-fonds.ch", "wikidata": "Q68124", "wikipedia": "fr:La Chaux-de-Fonds"}}, "geometry": {"type": "Point", "coordinates": [6.8325778, 47.1031321]}}, {"type": "Feature", "properties": {"type": "node", "id": 31822276, "tags": {"ele": "444", "is_in": "Verwaltungskreis Seeland,Bern;Berne,Schweiz,Europe", "name": "Lyss", "name:ru": "\u041b\u0438\u0441", "openGeoDB:auto_update": "population", "openGeoDB:community_identification_number": "G0306", "openGeoDB:is_in": "Verwaltungskreis Seeland,Bern;Berne,Schweiz,Europe", "openGeoDB:is_in_loc_id": "78528", "openGeoDB:layer": "6", "openGeoDB:loc_id": "30710", "openGeoDB:name": "Lyss", "openGeoDB:population": "14080", "openGeoDB:postal_codes": "3250", "openGeoDB:sort_name": "LYSS", "openGeoDB:type": "Stadt", "openGeoDB:version": "0.2.6.11 / 2007-12-04 / http://fa-technik.adfc.de/code/opengeodb/dump/", "opengeodb:lat": "47.0721315", "opengeodb:lon": "7.3052621", "place": "town", "population": "14080", "website": "https://www.lyss.ch/", "wikidata": "Q69512", "wikipedia": "de:Lyss"}}, "geometry": {"type": "Point", "coordinates": [7.305262, 47.0721368]}}, {"type": "Feature", "properties": {"type": "node", "id": 240097197, "tags": {"ele": "434", "is_in": "Verwaltungskreis Biel/Bienne,Bern;Berne,Schweiz,Europe", "name": "Biel/Bienne", "name:be": "\u0411\u0456\u043b\u044c", "name:de": "Biel", "name:en": "Biel/Bienne", "name:fr": "Bienne", "name:gsw": "Bieu", "name:lt": "Bylis", "name:ru": "\u0411\u0438\u043b\u044c", "official_name": "Biel/Bienne", "openGeoDB:community_identification_number": "G0371", "openGeoDB:is_in_loc_id": "78531", "openGeoDB:layer": "6", "openGeoDB:license_plate_code": "BE", "openGeoDB:loc_id": "78788", "openGeoDB:postal_codes": "2505,2504,2503,2502,2501,2500", "openGeoDB:type": "Stadt", "place": "town", "population": "55383", "website": "http://www.biel-bienne.ch", "wikidata": "Q1034", "wikipedia": "de:Biel/Bienne"}}, "geometry": {"type": "Point", "coordinates": [7.2439029, 47.1402077]}}, {"type": "Feature", "properties": {"type": "node", "id": 31518823, "tags": {"addr:canton": "Bern", "addr:city": "Zollikofen", "addr:country": "CH", "addr:county": "Bern-Mittelland", "addr:postcode": "3052", "ele": "557", "image": "https://commons.wikimedia.org/wiki/Category:Zollikofen", "name": "Zollikofen", "place": "town", "population": "10041", "postal_code": "3052", "website": "http://www.zollikofen.ch", "wikidata": "Q69675", "wikipedia": "de:Zollikofen"}}, "geometry": {"type": "Point", "coordinates": [7.4576417, 46.9959463]}}, {"type": "Feature", "properties": {"type": "node", "id": 1388472307, "tags": {"ele": "451", "image": "https://commons.wikimedia.org/wiki/Category:Grenchen", "name": "Grenchen", "name:en": "Grenchen", "name:fr": "Granges", "name:it": "Grenchen", "name:lt": "Grenchenas", "name:ru": "\u0413\u0440\u0435\u043d\u0445\u0435\u043d", "place": "town", "population": "16401", "postal_code": "2540", "website": "http://www.grenchen.ch", "wikidata": "Q68248", "wikipedia": "it:Grenchen"}}, "geometry": {"type": "Point", "coordinates": [7.3967199, 47.1911495]}}, {"type": "Feature", "properties": {"type": "node", "id": 35359671, "tags": {"ele": "535", "name": "Moutier", "old_name:de": "M\u00fcnster", "place": "town", "population": "7553", "website": "https://moutier.ch/"}}, "geometry": {"type": "Point", "coordinates": [7.3704192, 47.2796142]}}, {"type": "Feature", "properties": {"type": "node", "id": 1388360819, "tags": {"admin_centre:4": "yes", "ele": "430", "name": "Solothurn", "name:be": "\u0417\u043e\u043b\u0430\u0442\u0443\u0440\u043d", "name:de": "Solothurn", "name:es": "Soleura", "name:fr": "Soleure", "name:it": "Soletta", "name:lt": "Zoloturnas", "name:rm": "Soloturn", "name:ru": "\u0417\u043e\u043b\u043e\u0442\u0443\u0440\u043d", "place": "town", "population": "16599", "postal_code": "4500", "website": "http://www.stadt-solothurn.ch", "wikidata": "Q68965", "wikipedia": "de:Solothurn"}}, "geometry": {"type": "Point", "coordinates": [7.5384045, 47.2081355]}}, {"type": "Feature", "properties": {"type": "node", "id": 1384879294, "tags": {"admin_centre:4": "yes", "ele": "435", "name": "Del\u00e9mont", "name:de": "Delsberg", "name:fr": "Del\u00e9mont", "name:lt": "Delemonas", "name:ru": "\u0414\u0435\u043b\u0435\u043c\u043e\u043d", "place": "town", "population": "11809", "postal_code": "2800", "website": "http://www.delemont.ch/", "wikidata": "Q63896", "wikipedia": "fr:Del\u00e9mont"}}, "geometry": {"type": "Point", "coordinates": [7.354445, 47.3615882]}}, {"type": "Feature", "properties": {"type": "node", "id": 178582316, "tags": {"ele": "560", "name": "Thun", "name:fr": "Thoune", "name:lt": "Tunas", "name:ru": "\u0422\u0443\u043d", "name:uk": "\u0422\u0443\u043d", "openGeoDB:community_identification_number": "G0942", "openGeoDB:is_in_loc_id": "78551", "openGeoDB:layer": "6", "openGeoDB:license_plate_code": "BE", "openGeoDB:loc_id": "30791", "openGeoDB:postal_codes": "3600\u20133609, 3624, 3645", "place": "town", "population": "44430", "website": "http://www.thun.ch/", "wikidata": "Q68978", "wikipedia": "de:Thun"}}, "geometry": {"type": "Point", "coordinates": [7.628086, 46.7582827]}}, {"type": "Feature", "properties": {"type": "node", "id": 197266469, "tags": {"ele": "585", "image": "http://commons.wikimedia.org/wiki/Category:Steffisburg", "name": "Steffisburg", "name:en": "Steffisburg", "name:fr": "Steffisburg", "name:it": "Steffisburg", "name:rm": "Steffisburg", "name:ru": "\u0428\u0442\u0435\u0444\u0444\u0438\u0441\u0431\u0443\u0440\u0433", "name:zh": "\u65bd\u7279\u83f2\u65af\u5821", "place": "town", "population": "15816", "postal_code": "3612, 3613", "website": "https://www.steffisburg.ch/", "wikidata": "Q69668", "wikipedia": "de:Steffisburg"}}, "geometry": {"type": "Point", "coordinates": [7.6354195, 46.7774738]}}, {"type": "Feature", "properties": {"type": "node", "id": 18477599, "tags": {"name": "Spiez", "name:be": "\u0428\u043f\u0456\u0446", "name:ru": "\u0428\u043f\u0438\u0446", "place": "town", "population": "12027", "postal_code": "3700"}}, "geometry": {"type": "Point", "coordinates": [7.6774655, 46.6919473]}}, {"type": "Feature", "properties": {"type": "node", "id": 18477594, "tags": {"ele": "568", "name": "Interlaken", "name:ar": "\u0627\u0646\u062a\u0631\u0644\u0627\u0643\u0646", "name:be": "\u0406\u043d\u0442\u044d\u0440\u043b\u0430\u043a\u0435\u043d", "name:ru": "\u0418\u043d\u0442\u0435\u0440\u043b\u0430\u043a\u0435\u043d", "place": "town", "population": "5504", "postal_code": "3800", "website": "https://www.interlaken-gemeinde.ch/", "wikidata": "Q68103", "wikipedia": "de:Interlaken"}}, "geometry": {"type": "Point", "coordinates": [7.8585139, 46.6855231]}}, {"type": "Feature", "properties": {"type": "node", "id": 31506848, "tags": {"ele": "541", "is_in": "bern,switzerland,CH", "name": "M\u00fcnsingen", "place": "town", "population": "12533", "postal_code": "3083, 3110, 3111", "website": "https://www.muensingen.ch/", "wikidata": "Q69783", "wikipedia": "de:M\u00fcnsingen BE"}}, "geometry": {"type": "Point", "coordinates": [7.5631943, 46.8739775]}}, {"type": "Feature", "properties": {"type": "node", "id": 33078276, "tags": {"ele": "585", "is_in": "Amtsbezirk Konolfingen,Bern;Berne,Schweiz,Europe", "name": "Worb", "openGeoDB:auto_update": "population,is_in", "openGeoDB:community_identification_number": "G0627", "openGeoDB:is_in": "Amtsbezirk Konolfingen,Bern;Berne,Schweiz,Europe", "openGeoDB:is_in_loc_id": "78539", "openGeoDB:layer": "6", "openGeoDB:loc_id": "30821", "openGeoDB:name": "Worb", "openGeoDB:population": "11449", "openGeoDB:postal_codes": "3076", "openGeoDB:sort_name": "WORB", "openGeoDB:type": "Stadt", "openGeoDB:version": "0.2.6.11 / 2007-12-04 / http://fa-technik.adfc.de/code/opengeodb/dump/", "opengeodb:lat": "46.9320811", "opengeodb:lon": "7.5680647", "place": "town", "population": "11449", "postal_code": "3076", "website": "http://www.worb.ch", "wikidata": "Q69732", "wikipedia": "de:Worb"}}, "geometry": {"type": "Point", "coordinates": [7.5645522, 46.9308618]}}, {"type": "Feature", "properties": {"type": "node", "id": 240110029, "tags": {"admin_centre:4": "yes", "ele": "471", "name": "Sarnen", "name:lt": "Zarnenas", "name:ru": "\u0417\u0430\u0440\u043d\u0435\u043d", "place": "town", "population": "10192", "postal_code": "6056, 6060\u20136063", "website": "http://www.sarnen.ch", "wikidata": "Q63964", "wikipedia": "de:Sarnen"}}, "geometry": {"type": "Point", "coordinates": [8.2461492, 46.8956729]}}, {"type": "Feature", "properties": {"type": "node", "id": 181328750, "tags": {"admin_centre:4": "yes", "ele": "452", "name": "Stans", "name:de": "Stans", "name:lt": "\u0160tansas", "place": "town", "population": "8207", "postal_code": "6370", "website": "http://www.stans.ch", "wikidata": "Q63931", "wikipedia": "de:Stans"}}, "geometry": {"type": "Point", "coordinates": [8.3661026, 46.9570611]}}, {"type": "Feature", "properties": {"type": "node", "id": 18477010, "tags": {"ele": "557", "is_in": "Bern,Schweiz,Europe", "name": "Burgdorf", "name:fr": "Berthoud", "name:gsw": "Burdlef", "name:lt": "Burgdorfas", "name:ru": "\u0411\u0443\u0440\u0433\u0434\u043e\u0440\u0444 (\u0411\u0435\u0440\u043d)", "openGeoDB:community_identification_number": "G0404", "openGeoDB:is_in_loc_id": "78533", "openGeoDB:layer": "6", "openGeoDB:loc_id": "30614", "openGeoDB:name": "Burgdorf", "openGeoDB:postal_codes": "3402,3401,3400", "openGeoDB:type": "Stadt", "place": "town", "population": "16228", "postal_code": "3400-3402", "website": "https://www.burgdorf.ch/", "wikidata": "Q68311", "wikipedia": "de:Burgdorf BE"}}, "geometry": {"type": "Point", "coordinates": [7.6237466, 47.0571316]}}, {"type": "Feature", "properties": {"type": "node", "id": 201642856, "tags": {"ele": "481", "name": "Langenthal", "name:gsw": "Langetu", "place": "town", "population": "14000", "postal_code": "4900"}}, "geometry": {"type": "Point", "coordinates": [7.788786, 47.2116019]}}, {"type": "Feature", "properties": {"type": "node", "id": 240077296, "tags": {"ele": "437", "name": "Zofingen", "place": "town", "population": "11543", "postal_code": "4800", "website": "https://www.zofingen.ch/", "wikidata": "Q63986", "wikipedia": "de:Zofingen"}}, "geometry": {"type": "Point", "coordinates": [7.9458259, 47.288491]}}, {"type": "Feature", "properties": {"type": "node", "id": 1388479447, "tags": {"ele": "396", "name": "Olten", "name:de": "Olten", "name:gsw": "Oute", "name:ru": "\u041e\u043b\u044c\u0442\u0435\u043d", "place": "town", "population": "17280", "postal_code": "4600", "website": "http://www.olten.ch", "wikidata": "Q68129", "wikipedia": "de:Olten"}}, "geometry": {"type": "Point", "coordinates": [7.903787, 47.3496571]}}, {"type": "Feature", "properties": {"type": "node", "id": 240053363, "tags": {"ele": "422", "name": "Oftringen", "place": "town", "population": "13599", "postal_code": "4665", "website": "http://www.oftringen.ch/", "wikidata": "Q68220", "wikipedia": "de:Oftringen"}}, "geometry": {"type": "Point", "coordinates": [7.92099, 47.3126595]}}, {"type": "Feature", "properties": {"type": "node", "id": 240042113, "tags": {"ele": "504", "name": "Sursee", "name:de": "Sursee", "name:gsw": "Soorsi", "place": "town", "population": "9489", "postal_code": "6210", "website": "http://www.sursee.ch", "wikidata": "Q7123", "wikipedia": "de:Sursee"}}, "geometry": {"type": "Point", "coordinates": [8.1089654, 47.1740371]}}, {"type": "Feature", "properties": {"type": "node", "id": 240104288, "tags": {"name": "Kriens", "place": "town", "population": "25932", "wikidata": "Q14571"}}, "geometry": {"type": "Point", "coordinates": [8.2807994, 47.034146]}}, {"type": "Feature", "properties": {"type": "node", "id": 240037485, "tags": {"name": "Horw", "place": "town", "population": "12648"}}, "geometry": {"type": "Point", "coordinates": [8.3107797, 47.0185008]}}, {"type": "Feature", "properties": {"type": "node", "id": 560719199, "tags": {"admin_centre:4": "yes", "ele": "436", "name": "Luzern", "name:be": "\u041b\u044e\u0446\u044d\u0440\u043d", "name:ca": "Lucerna", "name:cs": "Lucern", "name:de": "Luzern", "name:el": "\u039b\u03bf\u03c5\u03ba\u03ad\u03c1\u03bd\u03b7", "name:en": "Lucerne", "name:eo": "Lucerno", "name:es": "Lucerna", "name:eu": "Luzerna", "name:fr": "Lucerne", "name:gsw": "Loz\u00e4rn", "name:he": "\u05dc\u05d5\u05e6\u05e8\u05df", "name:it": "Lucerna", "name:ja": "\u30eb\u30c4\u30a7\u30eb\u30f3", "name:ko": "\ub8e8\uccb4\ub978", "name:la": "Lucerna", "name:lt": "Liucerna", "name:pl": "Lucerna", "name:pt": "Lucerna", "name:rm": "Lucerna", "name:ro": "Lucerna", "name:ru": "\u041b\u044e\u0446\u0435\u0440\u043d", "name:sr": "\u041b\u0443\u0446\u0435\u0440\u043d", "name:vec": "\u0141uxerna", "name:zh": "\u5362\u585e\u6069", "openGeoDB:community_identification_number": "G1061", "openGeoDB:license_plate_code": "LU", "openGeoDB:loc_id": "31300", "openGeoDB:postal_codes": "6000\u20136009, 6014\u20136015", "place": "town", "population": "81284", "website": "https://www.stadtluzern.ch/", "wikidata": "Q4191", "wikipedia": "de:Luzern"}}, "geometry": {"type": "Point", "coordinates": [8.3054682, 47.0505452]}}, {"type": "Feature", "properties": {"type": "node", "id": 2071173900, "tags": {"ele": "429", "name": "Emmen", "name:gsw": "\u00c4mme", "place": "town", "population": "29721", "postal_code": "6032", "website": "http://www.emmen.ch", "wikidata": "Q4225", "wikipedia": "de:Emmen LU"}}, "geometry": {"type": "Point", "coordinates": [8.2839456, 47.0752429]}}, {"type": "Feature", "properties": {"type": "node", "id": 1528887196, "tags": {"name": "Ebikon", "name:gsw": "\u00c4bike", "name:ru": "\u042d\u0431\u0438\u043a\u043e\u043d", "place": "town", "population": "11322", "wikidata": "Q14566", "wikipedia": "en:Ebikon"}}, "geometry": {"type": "Point", "coordinates": [8.338521, 47.0812067]}}, {"type": "Feature", "properties": {"type": "node", "id": 29886774, "tags": {"admin_centre:4": "yes", "ele": "381", "is_in": "Bezirk Aarau,Aargau,Schweiz,Europe", "name": "Aarau", "name:lt": "Arau", "name:ru": "\u0410\u0440\u0430\u0443", "openGeoDB:community_identification_number": "G4001", "openGeoDB:loc_id": "30444", "openGeoDB:postal_codes": "5000, 5001, 5004, 5032", "openGeoDB:type": "Stadt", "place": "town", "population": "21191", "postal_code": "5000, 5001, 5004, 5032", "website": "https://www.aarau.ch/", "wikidata": "Q14274", "wikipedia": "de:Aarau"}}, "geometry": {"type": "Point", "coordinates": [8.0444448, 47.3927146]}}, {"type": "Feature", "properties": {"type": "node", "id": 240053350, "tags": {"ele": "397", "name": "Suhr", "place": "town", "population": "10130", "postal_code": "5034", "website": "http://www.suhr.ch", "wikidata": "Q65195", "wikipedia": "de:Suhr AG"}}, "geometry": {"type": "Point", "coordinates": [8.079534, 47.373166]}}, {"type": "Feature", "properties": {"type": "node", "id": 240101062, "tags": {"name": "Wohlen", "name:gsw": "Wohle", "official_name": "Wohlen (AG)", "openGeoDB:auto_update": "population,place,name,is_in", "openGeoDB:community_identification_number": "G4082", "openGeoDB:is_in": "Bezirk Bremgarten,Aargau,Schweiz,Europe", "openGeoDB:is_in_loc_id": "78624", "openGeoDB:layer": "6", "openGeoDB:license_plate_code": "AG", "openGeoDB:loc_id": "79417", "openGeoDB:location": "political_structure", "openGeoDB:name": "Wohlen (AG)", "openGeoDB:population": "14259", "openGeoDB:postal_codes": "5610", "openGeoDB:sort_name": "WOHLEN", "openGeoDB:type": "Stadt", "openGeoDB:version": "0.2.6.11 / 2007-12-04 / http://fa-technik.adfc.de/code/opengeodb/dump/", "place": "town", "population": "16407", "wikidata": "Q68244", "wikipedia": "de:Wohlen"}}, "geometry": {"type": "Point", "coordinates": [8.2786906, 47.3504945]}}, {"type": "Feature", "properties": {"type": "node", "id": 1934228457, "tags": {"ele": "407", "name": "Lenzburg", "place": "town", "population": "10179", "postal_code": "5600", "website": "https://www.lenzburg.ch", "wikidata": "Q69433", "wikipedia": "de:Lenzburg"}}, "geometry": {"type": "Point", "coordinates": [8.1821873, 47.3873136]}}, {"type": "Feature", "properties": {"type": "node", "id": 240117821, "tags": {"ele": "386", "is_in": "Bezirk Bremgarten,Aargau,Schweiz,Europe", "name": "Bremgarten", "name:gsw": "Bremgarten", "official_name": "Bremgarten (AG)", "openGeoDB:auto_update": "population,name,is_in", "openGeoDB:community_identification_number": "G4063", "openGeoDB:is_in": "Bezirk Bremgarten,Aargau,Schweiz,Europe", "openGeoDB:is_in_loc_id": "78624", "openGeoDB:layer": "6", "openGeoDB:license_plate_code": "AG", "openGeoDB:loc_id": "79406", "openGeoDB:location": "political_structure", "openGeoDB:name": "Bremgarten (AG)", "openGeoDB:population": "7769", "openGeoDB:postal_codes": "5620, 5626", "openGeoDB:sort_name": "BREMGARTEN", "openGeoDB:type": "Stadt", "openGeoDB:version": "0.2.6.11 / 2007-12-04 / http://fa-technik.adfc.de/code/opengeodb/dump/", "place": "town", "population": "7769", "postal_code": "5620, 5626", "website": "http://www.bremgarten.ch", "wikidata": "Q64139", "wikipedia": "de:Bremgarten AG"}}, "geometry": {"type": "Point", "coordinates": [8.3376446, 47.3539569]}}, {"type": "Feature", "properties": {"type": "node", "id": 1385085537, "tags": {"ele": "443", "is_in": "District de Porrentruy", "name": "Porrentruy", "name:de": "Pruntrut", "name:fr": "Porrentruy", "place": "town", "population": "6809", "postal_code": "2900", "website": "http://porrentruy.ch/", "wikidata": "Q68256", "wikipedia": "fr:Porrentruy"}}, "geometry": {"type": "Point", "coordinates": [7.0761342, 47.4171297]}}, {"type": "Feature", "properties": {"type": "node", "id": 240112605, "tags": {"ele": "287", "name": "Allschwil", "place": "town", "population": "20249", "postal_code": "4123", "website": "https://www.allschwil.ch/", "wikidata": "Q64727", "wikipedia": "de:Allschwil"}}, "geometry": {"type": "Point", "coordinates": [7.5365611, 47.5510799]}}, {"type": "Feature", "properties": {"type": "node", "id": 240089992, "tags": {"ele": "315", "name": "Aesch", "official_name": "Aesch (BL)", "openGeoDB:auto_update": "population,place,name,is_in", "openGeoDB:community_identification_number": "G2761", "openGeoDB:is_in": "Bezirk Arlesheim,Basel-Landschaft,Schweiz,Europe", "openGeoDB:is_in_loc_id": "78588", "openGeoDB:layer": "6", "openGeoDB:license_plate_code": "BL", "openGeoDB:loc_id": "79212", "openGeoDB:location": "political_structure", "openGeoDB:name": "Aesch (BL)", "openGeoDB:population": "10211", "openGeoDB:postal_codes": "4147", "openGeoDB:sort_name": "AESCH", "openGeoDB:type": "Gemeinde", "openGeoDB:version": "0.2.6.11 / 2007-12-04 / http://fa-technik.adfc.de/code/opengeodb/dump/", "place": "town", "population": "10211", "postal_code": "4147", "website": "http://www.aesch.bl.ch", "wikidata": "Q68367", "wikipedia": "de:Aesch BL"}}, "geometry": {"type": "Point", "coordinates": [7.5980395, 47.4682447]}}, {"type": "Feature", "properties": {"type": "node", "id": 240111401, "tags": {"ele": "306", "name": "Therwil", "openGeoDB:auto_update": "population,place,name,is_in", "openGeoDB:community_identification_number": "G2775", "openGeoDB:is_in": "Bezirk Arlesheim,Basel-Landschaft,Schweiz,Europe", "openGeoDB:is_in_loc_id": "78588", "openGeoDB:layer": "6", "openGeoDB:loc_id": "30873", "openGeoDB:location": "political_structure", "openGeoDB:name": "Therwil", "openGeoDB:population": "10007", "openGeoDB:postal_codes": "4106", "openGeoDB:sort_name": "THERWIL", "openGeoDB:type": "Gemeinde", "openGeoDB:version": "0.2.6.11 / 2007-12-04 / http://fa-technik.adfc.de/code/opengeodb/dump/", "place": "town", "population": "10007", "postal_code": "4106", "website": "http://www.therwil.ch", "wikidata": "Q66595", "wikipedia": "de:Therwil"}}, "geometry": {"type": "Point", "coordinates": [7.5574673, 47.4992969]}}, {"type": "Feature", "properties": {"type": "node", "id": 240114149, "tags": {"ele": "316", "name": "Oberwil", "official_name": "Oberwil (BL)", "openGeoDB:auto_update": "population,place,name,is_in", "openGeoDB:community_identification_number": "G2771", "openGeoDB:is_in": "Bezirk Arlesheim,Basel-Landschaft,Schweiz,Europe", "openGeoDB:is_in_loc_id": "78588", "openGeoDB:layer": "6", "openGeoDB:license_plate_code": "BL", "openGeoDB:loc_id": "79214", "openGeoDB:location": "political_structure", "openGeoDB:name": "Oberwil (BL)", "openGeoDB:population": "11105", "openGeoDB:postal_codes": "4104", "openGeoDB:sort_name": "OBERWIL", "openGeoDB:type": "Gemeinde", "openGeoDB:version": "0.2.6.11 / 2007-12-04 / http://fa-technik.adfc.de/code/opengeodb/dump/", "place": "town", "population": "11105", "postal_code": "4104", "website": "http://www.oberwil.ch", "wikidata": "Q69724", "wikipedia": "de:Oberwil BL"}}, "geometry": {"type": "Point", "coordinates": [7.5527853, 47.5136942]}}, {"type": "Feature", "properties": {"type": "node", "id": 240023861, "tags": {"ele": "303", "is_in": "Bezirk Arlesheim,Basel-Landschaft,Schweiz,Europe", "name": "Reinach", "name:gsw": "Riinech", "name:ru": "\u0420\u0430\u0439\u043d\u0430\u0445", "official_name": "Reinach (BL)", "openGeoDB:auto_update": "population,place,name,is_in", "openGeoDB:community_identification_number": "G2773", "openGeoDB:is_in": "Bezirk Arlesheim,Basel-Landschaft,Schweiz,Europe", "openGeoDB:is_in_loc_id": "78588", "openGeoDB:layer": "6", "openGeoDB:license_plate_code": "BL", "openGeoDB:loc_id": "79215", "openGeoDB:location": "political_structure", "openGeoDB:name": "Reinach (BL)", "openGeoDB:population": "18839", "openGeoDB:postal_codes": "4153", "openGeoDB:sort_name": "REINACH", "openGeoDB:type": "Stadt", "openGeoDB:version": "0.2.6.11 / 2007-12-04 / http://fa-technik.adfc.de/code/opengeodb/dump/", "place": "town", "population": "18839", "postal_code": "4153", "website": "https://www.reinach-bl.ch/", "wikidata": "Q69747", "wikipedia": "de:Reinach BL"}}, "geometry": {"type": "Point", "coordinates": [7.5910891, 47.4935369]}}, {"type": "Feature", "properties": {"type": "node", "id": 27386700, "tags": {"admin_centre:4": "yes", "ele": "327", "name": "Liestal", "name:lt": "Listalis", "name:ru": "\u041b\u0438\u0441\u0442\u0430\u043b\u044c", "name:uk": "\u041b\u0456\u0441\u0442\u0430\u043b\u044c", "openGeoDB:community_identification_number": "G2829", "openGeoDB:is_in_loc_id": "78590", "openGeoDB:layer": "6", "openGeoDB:loc_id": "30859", "place": "town", "population": "13807", "postal_code": "4410", "website": "https://www.liestal.ch/", "wikidata": "Q68972", "wikipedia": "de:Liestal"}}, "geometry": {"type": "Point", "coordinates": [7.7347783, 47.4839723]}}, {"type": "Feature", "properties": {"type": "node", "id": 240052258, "tags": {"ele": "292", "is_in": "Bezirk Arlesheim,Basel-Landschaft,Schweiz,Europe", "name": "Binningen", "name:lt": "Biningenas", "name:ru": "\u0411\u0438\u043d\u043d\u0438\u043d\u0433\u0435\u043d", "openGeoDB:auto_update": "population,place,name,is_in", "openGeoDB:community_identification_number": "G2765", "openGeoDB:is_in": "Bezirk Arlesheim,Basel-Landschaft,Schweiz,Europe", "openGeoDB:is_in_loc_id": "78588", "openGeoDB:layer": "6", "openGeoDB:loc_id": "30837", "openGeoDB:location": "political_structure", "openGeoDB:name": "Binningen", "openGeoDB:population": "13977", "openGeoDB:postal_codes": "4102", "openGeoDB:sort_name": "BINNINGEN", "openGeoDB:type": "Stadt", "openGeoDB:version": "0.2.6.11 / 2007-12-04 / http://fa-technik.adfc.de/code/opengeodb/dump/", "place": "town", "population": "14905", "postal_code": "4102", "website": "https://www.binningen.ch/", "wikidata": "Q69621", "wikipedia": "de:Binningen"}}, "geometry": {"type": "Point", "coordinates": [7.570077, 47.53656]}}, {"type": "Feature", "properties": {"type": "node", "id": 27284711, "tags": {"admin_centre:4": "yes", "ele": "260", "is_in:continent": "Europe", "is_in:country": "Switzerland", "is_in:country_code": "CH", "is_in:iso_3166_2": "CH-BS", "name": "Basel", "name:ar": "\u0628\u0627\u0632\u0644", "name:be": "\u0411\u0430\u0437\u044d\u043b\u044c", "name:ca": "Basilea", "name:cs": "Basilej", "name:de": "Basel", "name:en": "Basel", "name:es": "Basilea", "name:fr": "B\u00e2le", "name:gsw": "Basel", "name:hu": "B\u00e1zel", "name:it": "Basilea", "name:la": "Basilea", "name:nl": "Bazel", "name:pl": "Bazylea", "name:ru": "\u0411\u0430\u0437\u0435\u043b\u044c", "name:sk": "Bazilej", "name:sr": "\u0411\u0430\u0437\u0435\u043b", "name:uk": "\u0411\u0430\u0437\u0435\u043b\u044c", "openGeoDB:community_identification_number": "G2701", "openGeoDB:loc_id": "30836", "openGeoDB:postal_codes": "4075,4088,4087,4086,4085,4084,4083,4080,4039,4070,4091,4059,4058,4057,4056,4055,4054,4053,4052,4051,4032,4031,4030,4025,4024,4020,4019,4018,4017,4016,4015,4013,4012,4011,4010,4009,4008,4007,4005,4004,4003,4002,4001,4000,4006,4028,4040,4023,4027", "place": "city", "population": "174491", "population:date": "2015", "website": "https://www.bs.ch/", "wikidata": "Q78", "wikipedia": "de:Basel"}}, "geometry": {"type": "Point", "coordinates": [7.5878261, 47.5581077]}}, {"type": "Feature", "properties": {"type": "node", "id": 240105036, "tags": {"ele": "297", "name": "M\u00fcnchenstein", "name:lt": "Miunchen\u0161tainas", "place": "town", "population": "11688", "postal_code": "4142", "website": "http://www.muenchenstein.ch", "wikidata": "Q69030", "wikipedia": "de:M\u00fcnchenstein"}}, "geometry": {"type": "Point", "coordinates": [7.6174515, 47.5187909]}}, {"type": "Feature", "properties": {"type": "node", "id": 240043171, "tags": {"ele": "292", "name": "Muttenz", "openGeoDB:auto_update": "population,place,name,is_in", "openGeoDB:community_identification_number": "G2770", "openGeoDB:is_in": "Bezirk Arlesheim,Basel-Landschaft,Schweiz,Europe", "openGeoDB:is_in_loc_id": "78588", "openGeoDB:layer": "6", "openGeoDB:loc_id": "30862", "openGeoDB:location": "political_structure", "openGeoDB:name": "Muttenz", "openGeoDB:population": "17370", "openGeoDB:postal_codes": "4132", "openGeoDB:sort_name": "MUTTENZ", "openGeoDB:type": "Stadt", "openGeoDB:version": "0.2.6.11 / 2007-12-04 / http://fa-technik.adfc.de/code/opengeodb/dump/", "place": "town", "population": "17370", "postal_code": "4132", "website": "http://www.muttenz.ch", "wikidata": "Q66191", "wikipedia": "de:Muttenz"}}, "geometry": {"type": "Point", "coordinates": [7.6477401, 47.525113]}}, {"type": "Feature", "properties": {"type": "node", "id": 240095825, "tags": {"ele": "259", "is_in": "Bezirk Arlesheim,Basel-Landschaft,Schweiz,Europe", "name": "Birsfelden", "name:ru": "\u0411\u0438\u0440\u0441\u0444\u0435\u043b\u044c\u0434\u0435\u043d", "openGeoDB:auto_update": "population,place,name,is_in", "openGeoDB:community_identification_number": "G2766", "openGeoDB:is_in": "Bezirk Arlesheim,Basel-Landschaft,Schweiz,Europe", "openGeoDB:is_in_loc_id": "78588", "openGeoDB:layer": "6", "openGeoDB:loc_id": "30838", "openGeoDB:location": "political_structure", "openGeoDB:name": "Birsfelden", "openGeoDB:population": "10277", "openGeoDB:postal_codes": "4127", "openGeoDB:sort_name": "BIRSFELDEN", "openGeoDB:type": "Stadt", "openGeoDB:version": "0.2.6.11 / 2007-12-04 / http://fa-technik.adfc.de/code/opengeodb/dump/", "place": "town", "population": "10277", "website": "http://www.birsfelden.ch", "wikidata": "Q64665", "wikipedia": "de:Birsfelden"}}, "geometry": {"type": "Point", "coordinates": [7.6304739, 47.5542152]}}, {"type": "Feature", "properties": {"type": "node", "id": 1668873366, "tags": {"ele": "278", "is_in": "Kanton Basel-Stadt,Basel-Stadt,Schweiz,Europe", "name": "Riehen", "name:ru": "\u0420\u0438\u044d\u043d", "openGeoDB:community_identification_number": "G2703", "openGeoDB:is_in_loc_id": "78587", "openGeoDB:layer": "6", "openGeoDB:loc_id": "35773", "place": "town", "population": "20970", "postal_code": "4125", "website": "https://www.riehen.ch/", "wikidata": "Q5262", "wikipedia": "de:Riehen"}}, "geometry": {"type": "Point", "coordinates": [7.6479737, 47.5816927]}}, {"type": "Feature", "properties": {"type": "node", "id": 107200959, "tags": {"ele": "296", "is_in": "Bezirk Liestal,Basel-Landschaft,Schweiz,Europe", "name": "Pratteln", "openGeoDB:auto_update": "population,is_in", "openGeoDB:community_identification_number": "G2831", "openGeoDB:is_in": "Bezirk Liestal,Basel-Landschaft,Schweiz,Europe", "openGeoDB:is_in_loc_id": "78590", "openGeoDB:layer": "6", "openGeoDB:loc_id": "30865", "openGeoDB:name": "Pratteln", "openGeoDB:population": "15323", "openGeoDB:postal_codes": "4133", "openGeoDB:sort_name": "PRATTELN", "openGeoDB:type": "Stadt", "openGeoDB:version": "0.2.6.11 / 2007-12-04 / http://fa-technik.adfc.de/code/opengeodb/dump/", "opengeodb:lat": "47.5201777", "opengeodb:lon": "7.693098", "place": "town", "population": "15323", "postal_code": "4133", "website": "http://www.pratteln.ch", "wikidata": "Q64679", "wikipedia": "de:Pratteln"}}, "geometry": {"type": "Point", "coordinates": [7.6944741, 47.5192013]}}, {"type": "Feature", "properties": {"type": "node", "id": 240069687, "tags": {"ele": "274", "is_in": "Bezirk Rheinfelden,Aargau,Schweiz,Europe", "name": "Rheinfelden", "name:gsw": "Rhyfelde", "openGeoDB:auto_update": "population,name,is_in", "openGeoDB:community_identification_number": "G4258", "openGeoDB:is_in": "Bezirk Rheinfelden,Aargau,Schweiz,Europe", "openGeoDB:is_in_loc_id": "78630", "openGeoDB:loc_id": "30516", "openGeoDB:location": "political_structure", "openGeoDB:name": "Rheinfelden", "openGeoDB:population": "13360", "openGeoDB:postal_codes": "4310", "openGeoDB:sort_name": "RHEINFELDEN", "openGeoDB:type": "Stadt", "openGeoDB:version": "0.2.6.11%20/%202007-12-04%20/%20http://fa-technik.adfc.de/code/opengeodb/dump/", "place": "town", "population": "13360", "postal_code": "4310", "website": "http://www.rheinfelden.ch", "wikidata": "Q269667", "wikipedia": "de:Rheinfelden AG"}}, "geometry": {"type": "Point", "coordinates": [7.7922905, 47.5543859]}}, {"type": "Feature", "properties": {"type": "node", "id": 240047825, "tags": {"ele": "310", "name": "M\u00f6hlin", "name:gsw": "M\u00f6hli", "place": "town", "population": "11006", "postal_code": "4313", "website": "https://www.moehlin.ch/", "wikidata": "Q69126", "wikipedia": "de:M\u00f6hlin"}}, "geometry": {"type": "Point", "coordinates": [7.8431299, 47.560991]}}, {"type": "Feature", "properties": {"type": "node", "id": 1776602020, "tags": {"alt_name": "Gross Laufenburg", "ele": "307", "name": "Laufenburg", "name:gsw": "Laufeburg", "place": "town", "population": "3620", "postal_code": "5080, 5085", "website": "http://www.laufenburg.ch", "wikidata": "Q69191", "wikipedia": "de:Laufenburg AG"}}, "geometry": {"type": "Point", "coordinates": [8.0601696, 47.5604617]}}, {"type": "Feature", "properties": {"type": "node", "id": 240094159, "tags": {"ele": "395", "name": "Lupfig", "place": "town", "population": "3073", "postal_code": "5242, 5246", "website": "https://www.lupfig.ch/", "wikidata": "Q65336", "wikipedia": "de:Lupfig"}}, "geometry": {"type": "Point", "coordinates": [8.2013965, 47.4397165]}}, {"type": "Feature", "properties": {"type": "node", "id": 240028752, "tags": {"ele": "352", "is_in": "Bezirk Brugg,Aargau,Schweiz,Europe", "name": "Brugg", "openGeoDB:auto_update": "population,name,is_in", "openGeoDB:community_identification_number": "G4095", "openGeoDB:is_in": "Bezirk Brugg,Aargau,Schweiz,Europe", "openGeoDB:is_in_loc_id": "78625", "openGeoDB:layer": "6", "openGeoDB:license_plate_code": "AG", "openGeoDB:loc_id": "79421", "openGeoDB:location": "political_structure", "openGeoDB:name": "Brugg", "openGeoDB:population": "11092", "openGeoDB:postal_codes": "5200, 5201, 5222", "openGeoDB:sort_name": "BRUGG", "openGeoDB:type": "Stadt", "openGeoDB:version": "0.2.6.11 / 2007-12-04 / http://fa-technik.adfc.de/code/opengeodb/dump/", "place": "town", "population": "11092", "postal_code": "5200, 5201, 5222", "website": "https://www.stadt-brugg.ch", "wikidata": "Q64099", "wikipedia": "de:Brugg"}}, "geometry": {"type": "Point", "coordinates": [8.2085662, 47.4824633]}}, {"type": "Feature", "properties": {"type": "node", "id": 101790038, "tags": {"ele": "417", "name": "Spreitenbach", "place": "town", "population": "11795", "postal_code": "8957", "website": "https://www.spreitenbach.ch/", "wikidata": "Q64210", "wikipedia": "de:Spreitenbach"}}, "geometry": {"type": "Point", "coordinates": [8.3640342, 47.4182444]}}, {"type": "Feature", "properties": {"type": "node", "id": 61158271, "tags": {"ele": "381", "is_in": "Bezirk Baden,Aargau,Schweiz,Europe", "name": "Baden", "name:gsw": "Bade", "name:lt": "Badenas", "name:ru": "\u0411\u0430\u0434\u0435\u043d", "openGeoDB:auto_update": "population,is_in", "openGeoDB:community_identification_number": "G4021", "openGeoDB:is_in": "Bezirk Baden,Aargau,Schweiz,Europe", "openGeoDB:is_in_loc_id": "78623", "openGeoDB:layer": "6", "openGeoDB:loc_id": "30450", "openGeoDB:name": "Baden", "openGeoDB:population": "19168", "openGeoDB:postal_codes": "5400-5406", "openGeoDB:sort_name": "BADEN", "openGeoDB:type": "Stadt", "openGeoDB:version": "0.2.6.11 / 2007-12-04 / http://fa-technik.adfc.de/code/opengeodb/dump/", "opengeodb:lat": "47.4737136", "opengeodb:lon": "8.3087078", "place": "town", "population": "19168", "postal_code": "5400-5406", "website": "https://www.baden.ch/", "wikidata": "Q63939", "wikipedia": "de:Baden AG"}}, "geometry": {"type": "Point", "coordinates": [8.3086822, 47.4736827]}}, {"type": "Feature", "properties": {"type": "node", "id": 61168838, "tags": {"contact:phone": "+41 56 4377111", "contact:website": "https://www.wettingen.ch", "ele": "395", "is_in": "Bezirk Baden,Aargau,Schweiz,Europe", "name": "Wettingen", "name:gsw": "Wettige", "openGeoDB:is_in_loc_id": "78623", "openGeoDB:loc_id": "30551", "place": "town", "population": "21000", "postal_code": "5430", "wikidata": "Q27576", "wikipedia": "de:Wettingen"}}, "geometry": {"type": "Point", "coordinates": [8.3266114, 47.465839]}}, {"type": "Feature", "properties": {"type": "node", "id": 240093137, "tags": {"admin_centre:4": "yes", "ele": "458", "name": "Altdorf", "name:ru": "\u0410\u043b\u044c\u0442\u0434\u043e\u0440\u0444", "official_name": "Altdorf (UR)", "place": "town", "population": "8981", "postal_code": "6460", "website": "https://www.altdorf.ch/", "wikidata": "Q68150", "wikipedia": "de:Altdorf UR"}}, "geometry": {"type": "Point", "coordinates": [8.6413922, 46.8820732]}}, {"type": "Feature", "properties": {"type": "node", "id": 1533696164, "tags": {"name": "Arth", "place": "town", "population": "10794"}}, "geometry": {"type": "Point", "coordinates": [8.5238673, 47.0644551]}}, {"type": "Feature", "properties": {"type": "node", "id": 240121302, "tags": {"name": "Goldau", "place": "town", "population": "5437", "wikidata": "Q474619", "wikipedia": "de:Goldau"}}, "geometry": {"type": "Point", "coordinates": [8.5507758, 47.051219]}}, {"type": "Feature", "properties": {"type": "node", "id": 240026521, "tags": {"ele": "430", "name": "Rotkreuz", "name:gsw": "Rotchr\u00fcz", "place": "town", "population": "8518", "postal_code": "6343", "website": "http://www.rischrotkreuz.ch", "wikidata": "Q1630904", "wikipedia": "de:Rotkreuz ZG"}}, "geometry": {"type": "Point", "coordinates": [8.4308936, 47.1408931]}}, {"type": "Feature", "properties": {"type": "node", "id": 240109302, "tags": {"ele": "420", "name": "Cham", "name:gsw": "Chom", "place": "town", "postal_code": "6330"}}, "geometry": {"type": "Point", "coordinates": [8.4611036, 47.1823761]}}, {"type": "Feature", "properties": {"type": "node", "id": 240106334, "tags": {"is_in": "Zug,Zug,Schweiz,Europe", "name": "Walchwil", "openGeoDB:auto_update": "population,place,name,is_in", "openGeoDB:community_identification_number": "G1710", "openGeoDB:is_in": "Zug,Zug,Schweiz,Europe", "openGeoDB:is_in_loc_id": "78569", "openGeoDB:layer": "6", "openGeoDB:loc_id": "32198", "openGeoDB:location": "political_structure", "openGeoDB:name": "Walchwil", "openGeoDB:population": "3150", "openGeoDB:postal_codes": "6318", "openGeoDB:sort_name": "WALCHWIL", "openGeoDB:type": "Gemeinde", "openGeoDB:version": "0.2.6.11 / 2007-12-04 / http://fa-technik.adfc.de/code/opengeodb/dump/", "place": "town", "population": "3731"}}, "geometry": {"type": "Point", "coordinates": [8.5147778, 47.1005277]}}, {"type": "Feature", "properties": {"type": "node", "id": 60404417, "tags": {"admin_centre:4": "yes", "ele": "425", "name": "Zug", "name:be": "\u0426\u0443\u0433", "name:de": "Zug", "name:fr": "Zoug", "name:gsw": "Zug", "name:it": "Zugo", "name:lt": "Cugas", "name:rm": "Zug", "name:ru": "\u0426\u0443\u0433", "name:uk": "\u0426\u0443\u0433", "place": "town", "population": "29251", "postal_code": "6300\u20136305, 6310, 6317", "website": "http://www.stadtzug.ch", "wikidata": "Q68144", "wikipedia": "de:Zug (Stadt)"}}, "geometry": {"type": "Point", "coordinates": [8.5173652, 47.1679898]}}, {"type": "Feature", "properties": {"type": "node", "id": 3861018553, "tags": {"ele": "443", "name": "Baar", "name:be": "\u0411\u0430\u0440", "place": "town", "population": "23557", "postal_code": "6340-6342", "website": "http://www.baar.ch", "wikidata": "Q64087", "wikipedia": "de:Baar ZG"}}, "geometry": {"type": "Point", "coordinates": [8.5253985, 47.1951976]}}, {"type": "Feature", "properties": {"type": "node", "id": 25844325, "tags": {"admin_centre:4": "yes", "ele": "516", "name": "Schwyz", "name:de": "Schwyz", "name:fr": "Schwytz", "name:it": "Svitto", "name:lt": "\u0160vicas", "name:rm": "Sviz", "name:ru": "\u0428\u0432\u0438\u0446", "place": "town", "population": "14750", "postal_code": "6430", "website": "https://www.gemeindeschwyz.ch/", "wikidata": "Q68155", "wikipedia": "de:Schwyz (Gemeinde)"}}, "geometry": {"type": "Point", "coordinates": [8.6535598, 47.0211848]}}, {"type": "Feature", "properties": {"type": "node", "id": 240070146, "tags": {"is_in": "Bezirk Einsiedeln,Schwyz,Schweiz,Europe", "name": "Einsiedeln", "name:gsw": "Einsidl\u00e4", "openGeoDB:auto_update": "population,place,name,is_in", "openGeoDB:community_identification_number": "G1301", "openGeoDB:is_in": "Bezirk Einsiedeln,Schwyz,Schweiz,Europe", "openGeoDB:is_in_loc_id": "78560", "openGeoDB:layer": "6", "openGeoDB:loc_id": "31569", "openGeoDB:location": "political_structure", "openGeoDB:name": "Einsiedeln", "openGeoDB:population": "12622", "openGeoDB:postal_codes": "8840", "openGeoDB:sort_name": "EINSIEDELN", "openGeoDB:type": "Stadt", "openGeoDB:version": "0.2.6.11 / 2007-12-04 / http://fa-technik.adfc.de/code/opengeodb/dump/", "place": "town", "population": "12622"}}, "geometry": {"type": "Point", "coordinates": [8.7500299, 47.1286095]}}, {"type": "Feature", "properties": {"type": "node", "id": 29537334, "tags": {"ele": "416", "is_in": "Freienbach,Bezirk H\u00f6fe,Schwyz,Schweiz,Europe", "name": "Pf\u00e4ffikon", "name:gsw": "Pf\u00e4ffike", "openGeoDB:auto_update": "population,is_in", "openGeoDB:is_in": "Freienbach,Bezirk H\u00f6fe,Schwyz,Schweiz,Europe", "openGeoDB:is_in_loc_id": "31572", "openGeoDB:layer": "7", "openGeoDB:loc_id": "153589", "openGeoDB:name": "Pf\u00e4ffikon", "openGeoDB:population": "7222", "openGeoDB:postal_codes": "8808", "openGeoDB:sort_name": "PFAEFFIKON", "opengeodb:lat": "47.2022565", "opengeodb:lon": "8.7826669", "place": "town", "population": "7222", "postal_code": "8808", "website": "https://www.freienbach.ch/", "wikidata": "Q671010", "wikipedia": "de:Pf\u00e4ffikon SZ"}}, "geometry": {"type": "Point", "coordinates": [8.7780752, 47.2003055]}}, {"type": "Feature", "properties": {"type": "node", "id": 1378770776, "tags": {"ele": "494", "name": "Affoltern am Albis", "name:gsw": "Affoltere", "official_name": "Affoltern a. A.", "place": "town", "population": "11363", "postal_code": "8910", "short_name": "Affoltern", "website": "https://www.affoltern-am-albis.ch/", "wikidata": "Q68290", "wikipedia": "de:Affoltern am Albis"}}, "geometry": {"type": "Point", "coordinates": [8.4521518, 47.2782467]}}, {"type": "Feature", "properties": {"type": "node", "id": 1378788472, "tags": {"ele": "408", "name": "Horgen", "place": "town", "population": "22514", "postal_code": "8810, 8812, 8813, 8815, 8816, 8135", "website": "https://www.horgen.ch/", "wikidata": "Q68286", "wikipedia": "de:Horgen"}}, "geometry": {"type": "Point", "coordinates": [8.5976831, 47.260692]}}, {"type": "Feature", "properties": {"type": "node", "id": 30350165, "tags": {"ele": "435", "is_in": "Bezirk Horgen,Z\u00fcrich,Schweiz,Europe", "name": "Thalwil", "openGeoDB:community_identification_number": "G0141", "openGeoDB:loc_id": "32301", "place": "town", "population": "17729", "postal_code": "8800", "website": "http://www.thalwil.ch", "wikidata": "Q68959", "wikipedia": "de:Thalwil"}}, "geometry": {"type": "Point", "coordinates": [8.5635762, 47.2944325]}}, {"type": "Feature", "properties": {"type": "node", "id": 296480705, "tags": {"ele": "388", "is_in": "Bezirk Dietikon,Z\u00fcrich,Schweiz,Europe", "name": "Dietikon", "name:de": "Dietikon", "name:gsw": "Diedike", "place": "town", "population": "26633", "postal_code": "8953", "website": "https://www.dietikon.ch/", "wikidata": "Q64070", "wikipedia": "de:Dietikon"}}, "geometry": {"type": "Point", "coordinates": [8.4020894, 47.4068827]}}, {"type": "Feature", "properties": {"type": "node", "id": 30000143, "tags": {"ele": "394", "is_in": "Bezirk Dietikon,Z\u00fcrich,Schweiz,Europe", "name": "Schlieren", "name:gsw": "Schliere", "openGeoDB:auto_update": "population,is_in", "openGeoDB:community_identification_number": "G0247", "openGeoDB:is_in": "Bezirk Dietikon,Z\u00fcrich,Schweiz,Europe", "openGeoDB:is_in_loc_id": "78526", "openGeoDB:layer": "6", "openGeoDB:loc_id": "32295", "openGeoDB:name": "Schlieren", "openGeoDB:population": "18414", "openGeoDB:postal_codes": "8952", "openGeoDB:sort_name": "SCHLIEREN", "openGeoDB:type": "Stadt", "openGeoDB:version": "0.2.6.11 / 2007-12-04 / http://fa-technik.adfc.de/code/opengeodb/dump/", "opengeodb:lat": "47.3971516", "opengeodb:lon": "8.4475296", "place": "town", "population": "18414", "postal_code": "8952", "website": "http://www.schlieren.ch", "wikidata": "Q69148", "wikipedia": "de:Schlieren"}}, "geometry": {"type": "Point", "coordinates": [8.4444861, 47.3965147]}}, {"type": "Feature", "properties": {"type": "node", "id": 29973046, "tags": {"is_in": "Bezirk Horgen,Z\u00fcrich,Schweiz,Europe", "name": "Adliswil", "name:de": "Adliswil", "name:gsw": "Adlischwil", "openGeoDB:auto_update": "population,is_in", "openGeoDB:community_identification_number": "G0131", "openGeoDB:is_in": "Bezirk Horgen,Z\u00fcrich,Schweiz,Europe", "openGeoDB:is_in_loc_id": "78521", "openGeoDB:layer": "6", "openGeoDB:loc_id": "32201", "openGeoDB:name": "Adliswil", "openGeoDB:population": "15822", "openGeoDB:postal_codes": "8134", "openGeoDB:sort_name": "ADLISWIL", "openGeoDB:type": "Stadt", "openGeoDB:version": "0.2.6.11 / 2007-12-04 / http://fa-technik.adfc.de/code/opengeodb/dump/", "opengeodb:lat": "47.3115331", "opengeodb:lon": "8.5251439", "place": "town", "population": "15822", "wikidata": "Q68210"}}, "geometry": {"type": "Point", "coordinates": [8.52491, 47.3117624]}}, {"type": "Feature", "properties": {"type": "node", "id": 30757710, "tags": {"ele": "415", "is_in": "Bezirk Meilen,Z\u00fcrich,Schweiz,Europe", "name": "K\u00fcsnacht", "name:de": "K\u00fcsnacht", "name:gsw": "Ch\u00fcsnacht", "official_name": "K\u00fcsnacht (ZH)", "openGeoDB:auto_update": "population,is_in", "openGeoDB:community_identification_number": "G0154", "openGeoDB:is_in": "Bezirk Meilen,Z\u00fcrich,Schweiz,Europe", "openGeoDB:is_in_loc_id": "78522", "openGeoDB:layer": "6", "openGeoDB:license_plate_code": "ZH", "openGeoDB:loc_id": "78744", "openGeoDB:name": "K\u00fcsnacht (ZH)", "openGeoDB:population": "13796", "openGeoDB:postal_codes": "8700", "openGeoDB:sort_name": "KUESNACHT", "openGeoDB:type": "Stadt", "openGeoDB:version": "0.2.6.11 / 2007-12-04 / http://fa-technik.adfc.de/code/opengeodb/dump/", "opengeodb:lat": "47.3179941", "opengeodb:lon": "8.5808209", "place": "town", "population": "13796", "postal_code": "8700", "website": "https://www.kuesnacht.ch/", "wikidata": "Q69216", "wikipedia": "de:K\u00fcsnacht"}}, "geometry": {"type": "Point", "coordinates": [8.5830859, 47.3176276]}}, {"type": "Feature", "properties": {"type": "node", "id": 240101901, "tags": {"ele": "482", "is_in": "Bezirk Meilen,Z\u00fcrich,Schweiz,Europe", "name": "Zollikon", "name:de": "Zollikon", "name:gsw": "Zolike", "openGeoDB:auto_update": "population,place,name,is_in", "openGeoDB:community_identification_number": "G0161", "openGeoDB:is_in": "Bezirk Meilen,Z\u00fcrich,Schweiz,Europe", "openGeoDB:is_in_loc_id": "78522", "openGeoDB:layer": "6", "openGeoDB:loc_id": "32323", "openGeoDB:location": "political_structure", "openGeoDB:name": "Zollikon", "openGeoDB:population": "12744", "openGeoDB:postal_codes": "8702", "openGeoDB:sort_name": "ZOLLIKON", "openGeoDB:type": "Stadt", "openGeoDB:version": "0.2.6.11 / 2007-12-04 / http://fa-technik.adfc.de/code/opengeodb/dump/", "place": "town", "population": "12744", "postal_code": "8702", "website": "https://www.zollikon.ch/", "wikidata": "Q218691", "wikipedia": "de:Zollikon"}}, "geometry": {"type": "Point", "coordinates": [8.5761264, 47.3395679]}}, {"type": "Feature", "properties": {"type": "node", "id": 240025182, "tags": {"admin_centre:4": "yes", "ele": "408", "name": "Z\u00fcrich", "name:af": "Z\u00fcrich", "name:als": "Z\u00fcrich", "name:am": "\u12d9\u122a\u12ad", "name:an": "Z\u00farich", "name:ar": "\u0632\u064a\u0648\u0631\u062e", "name:arc": "\u072c\u0723\u071d\u072a\u071d\u071f", "name:arz": "\u0632\u0648\u0631\u064a\u062e", "name:az": "S\u00fcrix", "name:bar": "Zirich", "name:be": "\u0426\u044e\u0440\u044b\u0445", "name:be-tarask": "\u0426\u044e\u0440\u044b\u0445", "name:bg": "\u0426\u044e\u0440\u0438\u0445", "name:bn": "\u099c\u09c1\u09b0\u09bf\u0996", "name:br": "Z\u00fcrich", "name:bs": "Z\u00fcrich", "name:ca": "Zuric", "name:cs": "Curych", "name:cv": "\u0426\u044e\u0440\u0438\u0445", "name:cy": "Z\u00fcrich", "name:da": "Z\u00fcrich", "name:de": "Z\u00fcrich", "name:el": "\u0396\u03c5\u03c1\u03af\u03c7\u03b7", "name:en": "Zurich", "name:eo": "Zuriko", "name:es": "Z\u00farich", "name:et": "Z\u00fcrich", "name:eu": "Z\u00fcrich", "name:fa": "\u0632\u0648\u0631\u06cc\u062e", "name:fi": "Z\u00fcrich", "name:fr": "Zurich", "name:frp": "Tsurique", "name:frr": "Z\u00fcrich", "name:ga": "Z\u00fcrich", "name:gd": "Z\u00fcrich", "name:gl": "Z\u00faric", "name:gsw": "Z\u00fcri", "name:he": "\u05e6\u05d9\u05e8\u05d9\u05da", "name:hi": "\u091c\u093c\u094d\u092f\u0942\u0930\u093f\u0916\u093c", "name:hr": "Z\u00fcrich", "name:hsb": "Z\u00fcrich", "name:hu": "Z\u00fcrich", "name:id": "Z\u00fcrich", "name:ilo": "Z\u00fcrich", "name:io": "Z\u00fcrich", "name:is": "Z\u00fcrich", "name:it": "Zurigo", "name:ja": "\u30c1\u30e5\u30fc\u30ea\u30c3\u30d2", "name:jv": "Z\u00fcrich", "name:ka": "\u10ea\u10d8\u10e3\u10e0\u10d8\u10ee\u10d8", "name:kn": "\u0c9d\u0ccd\u0caf\u0cc2\u0cb0\u0cbf\u0c96\u0ccd", "name:ko": "\ucde8\ub9ac\ud788", "name:la": "Turicum", "name:lb": "Z\u00fcrech", "name:lmo": "Z\u00fcrigh", "name:lt": "Ciurichas", "name:lv": "C\u012brihe", "name:mk": "\u0426\u0438\u0440\u0438\u0445", "name:ml": "\u0d38\u0d42\u0d31\u0d3f\u0d1a\u0d4d\u0d1a\u0d4d", "name:mr": "\u091d\u094d\u092f\u0941\u0930\u093f\u0915", "name:ms": "Z\u00fcrich", "name:my": "\u1007\u1030\u1038\u101b\u1005\u103a\u1001\u103b\u103a\u1019\u103c\u102d\u102f\u1037", "name:na": "Z\u00fcrich", "name:nah": "Zurich", "name:nan": "Z\u00fcrich", "name:nds": "Z\u00fcrich", "name:nl": "Z\u00fcrich", "name:nn": "Z\u00fcrich", "name:no": "Z\u00fcrich", "name:oc": "Zuric", "name:os": "\u0426\u044e\u0440\u0438\u0445", "name:pdc": "Zurich", "name:pfl": "Zirich", "name:pl": "Zurych", "name:pms": "Zurigh", "name:pnb": "\u0632\u06cc\u0648\u0631\u0686", "name:pt": "Zurique", "name:qu": "Z\u00fcrich", "name:rm": "Turitg", "name:ro": "Z\u00fcrich", "name:ru": "\u0426\u044e\u0440\u0438\u0445", "name:scn": "Zur\u00eccu", "name:sh": "Z\u00fcrich", "name:sk": "Z\u00fcrich", "name:sl": "Z\u00fcrich", "name:sq": "Cyrihu", "name:sr": "\u0426\u0438\u0440\u0438\u0445", "name:sv": "Z\u00fcrich", "name:sw": "Z\u00fcrich", "name:ta": "\u0b9a\u0bc2\u0bb0\u0bbf\u0b95\u0bcd", "name:th": "\u0e0b\u0e39\u0e23\u0e34\u0e01", "name:tl": "Z\u00fcrich", "name:tr": "Z\u00fcrih", "name:ug": "\u0633\u064a\u06c7\u0631\u0649\u062e", "name:uk": "\u0426\u044e\u0440\u0438\u0445", "name:ur": "\u0632\u06cc\u0648\u0631\u062e", "name:vec": "Zurigo", "name:vi": "Z\u00fcrich", "name:vo": "Z\u00fcrich", "name:war": "Z\u00fcrich", "name:wo": "Zurich", "name:wuu": "\u82cf\u9ece\u4e16", "name:yi": "\u05e6\u05d9\u05e8\u05d9\u05da", "name:yo": "Z\u00fcrich", "name:yue": "\u8607\u9ece\u4e16", "name:zh": "\u8607\u9ece\u4e16", "openGeoDB:license_plate_code": "ZH", "openGeoDB:loc_id": "32325", "openGeoDB:postal_codes": "8000\u20138099", "place": "city", "population": "396027", "website": "http://www.stadt-zuerich.ch", "wikidata": "Q72", "wikipedia": "de:Z\u00fcrich"}}, "geometry": {"type": "Point", "coordinates": [8.5410422, 47.3744489]}}, {"type": "Feature", "properties": {"type": "node", "id": 30351172, "tags": {"ele": "408", "is_in": "Bezirk Horgen,Z\u00fcrich,Schweiz,Europe", "name": "W\u00e4denswil", "name:gsw": "W\u00e4dischwil", "openGeoDB:is_in_loc_id": "78521", "openGeoDB:layer": "6", "openGeoDB:loc_id": "32312", "place": "town", "population": "24341", "postal_code": "8820", "wikidata": "Q69718", "wikipedia": "de:W\u00e4denswil"}}, "geometry": {"type": "Point", "coordinates": [8.6701365, 47.2278988]}}, {"type": "Feature", "properties": {"type": "node", "id": 294171945, "tags": {"ele": "408", "is_in": "Bezirk Horgen,Z\u00fcrich,Schweiz,Europe", "name": "Richterswil", "name:gsw": "Richtischwil", "openGeoDB:community_identification_number": "G0138", "openGeoDB:is_in_loc_id": "78521", "openGeoDB:layer": "6", "openGeoDB:loc_id": "32288", "place": "town", "population": "13022", "postal_code": "8805", "wikidata": "Q68227", "wikipedia": "de:Richterswil"}}, "geometry": {"type": "Point", "coordinates": [8.7017051, 47.2091079]}}, {"type": "Feature", "properties": {"type": "node", "id": 30757708, "tags": {"ele": "419", "is_in": "Bezirk Meilen,Z\u00fcrich,Schweiz,Europe", "name": "M\u00e4nnedorf", "name:de": "M\u00e4nnedorf", "name:gsw": "M\u00e4nidoorf", "openGeoDB:auto_update": "population,is_in", "openGeoDB:community_identification_number": "G0155", "openGeoDB:is_in": "Bezirk Meilen,Z\u00fcrich,Schweiz,Europe", "openGeoDB:is_in_loc_id": "78522", "openGeoDB:layer": "6", "openGeoDB:loc_id": "32258", "openGeoDB:name": "M\u00e4nnedorf", "openGeoDB:population": "10588", "openGeoDB:postal_codes": "8708", "openGeoDB:sort_name": "MAENNEDORF", "openGeoDB:type": "Gemeinde", "openGeoDB:version": "0.2.6.11 / 2007-12-04 / http://fa-technik.adfc.de/code/opengeodb/dump/", "opengeodb:lat": "47.2531891", "opengeodb:lon": "8.6918114", "place": "town", "population": "10588", "postal_code": "8708", "website": "http://www.maennedorf.ch", "wikidata": "Q64627", "wikipedia": "de:M\u00e4nnedorf"}}, "geometry": {"type": "Point", "coordinates": [8.6918153, 47.253174]}}, {"type": "Feature", "properties": {"type": "node", "id": 30757709, "tags": {"ele": "420", "name": "Meilen", "name:de": "Meilen", "name:gsw": "Meile", "place": "town", "population": "13515", "postal_code": "8706", "website": "http://www.meilen.ch", "wikidata": "Q68261", "wikipedia": "de:Meilen"}}, "geometry": {"type": "Point", "coordinates": [8.6412249, 47.270428]}}, {"type": "Feature", "properties": {"type": "node", "id": 30757707, "tags": {"is_in": "Bezirk Meilen,Z\u00fcrich,Schweiz,Europe", "name": "St\u00e4fa", "name:de": "St\u00e4fa", "name:gsw": "St\u00e4fe", "openGeoDB:auto_update": "population,is_in", "openGeoDB:community_identification_number": "G0158", "openGeoDB:is_in": "Bezirk Meilen,Z\u00fcrich,Schweiz,Europe", "openGeoDB:is_in_loc_id": "78522", "openGeoDB:layer": "6", "openGeoDB:loc_id": "32297", "openGeoDB:name": "St\u00e4fa", "openGeoDB:population": "11567", "openGeoDB:postal_codes": "8712", "openGeoDB:sort_name": "STAEFA", "openGeoDB:type": "Stadt", "openGeoDB:version": "0.2.6.11 / 2007-12-04 / http://fa-technik.adfc.de/code/opengeodb/dump/", "opengeodb:lat": "47.24199", "opengeodb:lon": "8.7220249", "place": "town", "population": "11567", "postal_code": "8712"}}, "geometry": {"type": "Point", "coordinates": [8.7348747, 47.2413349]}}, {"type": "Feature", "properties": {"type": "node", "id": 26659685, "tags": {"ele": "440", "int_name": "Dubendorf", "is_in": "Z\u00fcrich,Schweiz,Europe", "name": "D\u00fcbendorf", "name:de": "D\u00fcbendorf", "name:gsw": "D\u00fcbedorf", "openGeoDB:community_identification_number": "G0191", "openGeoDB:is_in_loc_id": "78524", "openGeoDB:layer": "6", "openGeoDB:loc_id": "32220", "place": "town", "population": "26759", "postal_code": "8600", "wikidata": "Q64082", "wikipedia": "de:D\u00fcbendorf"}}, "geometry": {"type": "Point", "coordinates": [8.6183023, 47.3968244]}}, {"type": "Feature", "properties": {"type": "node", "id": 100967525, "tags": {"ele": "475", "is_in": "Z\u00fcrich", "name": "Volketswil", "name:de": "Volketswil", "name:gsw": "Voletschwil", "openGeoDB:auto_update": "population", "openGeoDB:community_identification_number": "G0199", "openGeoDB:is_in": "Bezirk Uster,Z\u00fcrich,Schweiz,Europe", "openGeoDB:is_in_loc_id": "78524", "openGeoDB:layer": "6", "openGeoDB:loc_id": "32311", "openGeoDB:name": "Volketswil", "openGeoDB:population": "18437", "openGeoDB:postal_codes": "8604", "openGeoDB:sort_name": "VOLKETSWIL", "openGeoDB:type": "Stadt", "openGeoDB:version": "0.2.6.11 / 2007-12-04 / http://fa-technik.adfc.de/code/opengeodb/dump/", "opengeodb:lat": "47.3893141", "opengeodb:lon": "8.6908127", "place": "town", "population": "18437", "postal_code": "8604", "website": "https://www.volketswil.ch/", "wikidata": "Q69754", "wikipedia": "de:Volketswil"}}, "geometry": {"type": "Point", "coordinates": [8.690503, 47.3898617]}}, {"type": "Feature", "properties": {"type": "node", "id": 1378906317, "tags": {"ele": "464", "name": "Uster", "name:de": "Uster", "name:gsw": "Uschter", "place": "town", "population": "33097", "postal_code": "8610", "website": "https://www.uster.ch/", "wikidata": "Q64032", "wikipedia": "de:Uster"}}, "geometry": {"type": "Point", "coordinates": [8.7179221, 47.3512065]}}, {"type": "Feature", "properties": {"type": "node", "id": 240076861, "tags": {"ele": "535", "is_in": "Bezirk Hinwil,Z\u00fcrich,Schweiz,Europe", "name": "Wetzikon", "name:de": "Wetzikon", "name:gsw": "Wetzike", "openGeoDB:auto_update": "population,is_in", "openGeoDB:community_identification_number": "G0121", "openGeoDB:is_in": "Bezirk Hinwil,Z\u00fcrich,Schweiz,Europe", "openGeoDB:is_in_loc_id": "78520", "openGeoDB:layer": "6", "openGeoDB:license_plate_code": "ZH", "openGeoDB:loc_id": "78739", "openGeoDB:location": "political_structure", "openGeoDB:name": "Wetzikon (ZH)", "openGeoDB:population": "24373", "openGeoDB:postal_codes": "8623,8622,8620", "openGeoDB:sort_name": "WETZIKON", "openGeoDB:type": "Stadt", "openGeoDB:version": "0.2.6.11 / 2007-12-04 / http://fa-technik.adfc.de/code/opengeodb/dump/", "place": "town", "population": "24373", "postal_code": "8620", "website": "https://www.wetzikon.ch/", "wikidata": "Q68305", "wikipedia": "de:Wetzikon"}}, "geometry": {"type": "Point", "coordinates": [8.7980939, 47.3226925]}}, {"type": "Feature", "properties": {"type": "node", "id": 330910113, "tags": {"admin_level": "9", "ele": "516", "name": "Illnau", "name:de": "Illnau", "name:gsw": "Ilau", "openGeoDB:auto_update": "population,place,name,is_in", "openGeoDB:is_in": "Illnau-Effretikon,Bezirk Pf\u00e4ffikon,Z\u00fcrich,Schweiz,Europe", "openGeoDB:is_in_loc_id": "78745", "openGeoDB:layer": "7", "openGeoDB:loc_id": "32250", "openGeoDB:location": "locality", "openGeoDB:name": "Illnau", "openGeoDB:postal_codes": "8308", "openGeoDB:sort_name": "ILLNAU", "openGeoDB:version": "0.2.6.11 / 2007-12-04 / http://fa-technik.adfc.de/code/opengeodb/dump/", "place": "town", "population": "16117", "postal_code": "8308", "website": "https://www.ilef.ch/", "wikidata": "Q64873", "wikipedia": "de:Illnau-Effretikon"}}, "geometry": {"type": "Point", "coordinates": [8.7255432, 47.4088363]}}, {"type": "Feature", "properties": {"type": "node", "id": 31367562, "tags": {"admin_centre:4": "yes", "ele": "474", "name": "Glarus", "name:de": "Glarus", "name:es": "Glaris", "name:fr": "Glaris", "name:gsw": "Glaris", "name:it": "Glarona", "name:rm": "Glaruna", "name:ru": "\u0413\u043b\u0430\u0440\u0443\u0441", "name:uk": "\u0413\u043b\u0430\u0440\u0443\u0441", "place": "town", "population": "5500", "postal_code": "8750", "wikidata": "Q63912", "wikipedia": "de:Glarus"}}, "geometry": {"type": "Point", "coordinates": [9.0674041, 47.0422116]}}, {"type": "Feature", "properties": {"type": "node", "id": 240062727, "tags": {"loc_name": "Rappi", "name": "Rapperswil", "name:de": "Rapperswil", "name:gsw": "Rapperschwil", "place": "town", "population": "26354", "website": "http://www.rapperswil-jona.ch", "wikidata": "Q688539", "wikipedia": "de:Rapperswil SG"}}, "geometry": {"type": "Point", "coordinates": [8.8245459, 47.2269198]}}, {"type": "Feature", "properties": {"type": "node", "id": 1188970764, "tags": {"ele": "420", "name": "Jona", "note": "former municipality", "place": "town", "population": "17799", "postal_code": "8645", "wikidata": "Q669350", "wikipedia": "de:Jona SG"}}, "geometry": {"type": "Point", "coordinates": [8.837658, 47.2299661]}}, {"type": "Feature", "properties": {"type": "node", "id": 240079241, "tags": {"is_in": "Bezirk Hinwil,Z\u00fcrich,Schweiz,Europe", "name": "R\u00fcti", "name:de": "R\u00fcti", "name:gsw": "R\u00fcti", "official_name": "R\u00fcti (ZH)", "openGeoDB:auto_update": "population,place,name,is_in", "openGeoDB:community_identification_number": "G0118", "openGeoDB:is_in": "Bezirk Hinwil,Z\u00fcrich,Schweiz,Europe", "openGeoDB:is_in_loc_id": "78520", "openGeoDB:layer": "6", "openGeoDB:license_plate_code": "ZH", "openGeoDB:loc_id": "78736", "openGeoDB:location": "political_structure", "openGeoDB:name": "R\u00fcti (ZH)", "openGeoDB:population": "10804", "openGeoDB:postal_codes": "8630", "openGeoDB:sort_name": "RUETI", "openGeoDB:type": "Stadt", "openGeoDB:version": "0.2.6.11 / 2007-12-04 / http://fa-technik.adfc.de/code/opengeodb/dump/", "place": "town", "population": "10804"}}, "geometry": {"type": "Point", "coordinates": [8.852696, 47.2579312]}}, {"type": "Feature", "properties": {"type": "node", "id": 31944221, "tags": {"is_in": "Wahlkreis Toggenburg,Sankt Gallen,Schweiz,Europe", "name": "Wattwil", "place": "town", "population": "8265"}}, "geometry": {"type": "Point", "coordinates": [9.0871047, 47.300445]}}, {"type": "Feature", "properties": {"type": "node", "id": 1499121802, "tags": {"ele": "720", "name": "Thusis", "name:de": "Thusis", "name:it": "Tosanna", "name:rm": "Tusaun", "place": "town", "population": "3199", "postal_code": "7430", "website": "https://thusis.ch/", "wikidata": "Q66171", "wikipedia": "de:Thusis"}}, "geometry": {"type": "Point", "coordinates": [9.4393712, 46.6974341]}}, {"type": "Feature", "properties": {"type": "node", "id": 1577255384, "tags": {"admin_centre:4": "yes", "ele": "593", "name": "Chur", "name:als": "Kh\u00fbr", "name:ar": "\u062e\u0648\u0631", "name:be": "\u041a\u0443\u0440", "name:ca": "Coira", "name:de": "Chur", "name:eo": "Koiro", "name:es": "Coira", "name:fr": "Coire", "name:frp": "Cou\u00e8re", "name:gsw": "Khur", "name:it": "Coira", "name:ja": "\u30af\u30fc\u30eb", "name:la": "Curia Raetorum", "name:lt": "K\u016bras", "name:pt": "Coira", "name:rm": "Cuira", "name:ro": "Cuira", "name:ru": "\u041a\u0443\u0440", "name:sq": "Kuri", "name:uk": "\u041a\u0443\u0440", "openGeoDB:community_identification_number": "G3901", "openGeoDB:is_in_loc_id": "78619", "openGeoDB:layer": "6", "openGeoDB:license_plate_code": "GR", "openGeoDB:loc_id": "31054", "openGeoDB:postal_codes": "7000\u20137007", "place": "town", "population": "34350", "website": "https://www.chur.ch/", "wikidata": "Q69007", "wikipedia": "de:Chur"}}, "geometry": {"type": "Point", "coordinates": [9.5254066, 46.855515]}}, {"type": "Feature", "properties": {"type": "node", "id": 26032384, "tags": {"ele": "1560", "is_in": "Landwassertal,Graub\u00fcnden,Schweiz,Europa", "name": "Davos", "name:ar": "\u062f\u0627\u0641\u0648\u0633", "name:be": "\u0414\u0430\u0432\u043e\u0441", "name:lt": "Davosas", "name:ru": "\u0414\u0430\u0432\u043e\u0441", "name:uk": "\u0414\u0430\u0432\u043e\u0441", "openGeoDB:community_identification_number": "G3851", "openGeoDB:is_in_loc_id": "78620", "openGeoDB:layer": "6", "openGeoDB:license_plate_code": "GR", "openGeoDB:loc_id": "79368", "openGeoDB:type": "Stadt", "place": "town", "population": "11211", "postal_code": "7270", "website": "http://www.gemeindedavos.ch", "wikidata": "Q68097", "wikipedia": "de:Davos"}}, "geometry": {"type": "Point", "coordinates": [9.8237266, 46.7961744]}}, {"type": "Feature", "properties": {"type": "node", "id": 240123028, "tags": {"ele": "516", "name": "Bad Ragaz", "place": "town", "population": "5705", "postal_code": "7310", "website": "http://www.badragaz.ch", "wikidata": "Q95759", "wikipedia": "de:Bad Ragaz"}}, "geometry": {"type": "Point", "coordinates": [9.5016438, 47.0025282]}}, {"type": "Feature", "properties": {"type": "node", "id": 30811583, "tags": {"ele": "480", "name": "Sargans", "place": "town", "population": "6075", "postal_code": "7320", "website": "http://www.sargans.ch", "wikidata": "Q64571", "wikipedia": "de:Sargans"}}, "geometry": {"type": "Point", "coordinates": [9.4401995, 47.0482641]}}, {"type": "Feature", "properties": {"type": "node", "id": 240077963, "tags": {"ele": "448", "name": "Buchs", "name:mk": "\u0411\u0443\u0445\u0441", "place": "town", "population": "12187", "postal_code": "9470", "website": "https://www.buchs-sg.ch/", "wikidata": "Q68277", "wikipedia": "de:Buchs SG"}}, "geometry": {"type": "Point", "coordinates": [9.4764086, 47.1627634]}}, {"type": "Feature", "properties": {"type": "node", "id": 1376423353, "tags": {"admin_centre:4": "yes", "ele": "771", "name": "Herisau", "name:hu": "b", "place": "town", "population": "15342", "postal_code": "9100", "website": "http://www.herisau.ch", "wikidata": "Q63970", "wikipedia": "de:Herisau"}}, "geometry": {"type": "Point", "coordinates": [9.2787571, 47.38555]}}, {"type": "Feature", "properties": {"type": "node", "id": 240102374, "tags": {"admin_centre:4": "yes", "ele": "778", "name": "Appenzell", "name:lt": "Apencelis", "name:ru": "\u0410\u043f\u043f\u0435\u043d\u0446\u0435\u043b\u043b\u044c", "openGeoDB:auto_update": "population,place,name,is_in", "openGeoDB:community_identification_number": "G3101", "openGeoDB:is_in": "Kanton Appenzell Innerrhoden,Appenzell Innerrhoden,Schweiz,Europe", "openGeoDB:is_in_loc_id": "78602", "openGeoDB:layer": "6", "openGeoDB:loc_id": "30562", "openGeoDB:location": "political_structure", "openGeoDB:name": "Appenzell", "openGeoDB:population": "5751", "openGeoDB:postal_codes": "9050", "openGeoDB:sort_name": "APPENZELL", "openGeoDB:type": "Markt", "openGeoDB:version": "0.2.6.11 / 2007-12-04 / http://fa-technik.adfc.de/code/opengeodb/dump/", "place": "town", "population": "5751", "postal_code": "9050", "website": "http://www.appenzell.org", "wikidata": "Q209270", "wikipedia": "de:Appenzell (Ort)"}}, "geometry": {"type": "Point", "coordinates": [9.4099556, 47.3299558]}}, {"type": "Feature", "properties": {"type": "node", "id": 240046111, "tags": {"addr:city": "Altst\u00e4tten SG", "addr:country": "CH", "addr:postcode": "9450", "name": "Altst\u00e4tten", "name:ru": "\u0410\u043b\u044c\u0442\u0448\u0442\u0435\u0442\u0442\u0435\u043d", "place": "town", "population": "8324", "wikidata": "Q68281", "wikipedia": "de:Altst\u00e4tten"}}, "geometry": {"type": "Point", "coordinates": [9.5412765, 47.3783471]}}, {"type": "Feature", "properties": {"type": "node", "id": 246629666, "tags": {"ele": "442", "is_in": "Bezirk Dielsdorf,Z\u00fcrich,Schweiz,Europe", "name": "Regensdorf", "name:de": "Regensdorf", "name:gsw": "R\u00e4gischtorf", "openGeoDB:auto_update": "population,is_in", "openGeoDB:community_identification_number": "G0096", "openGeoDB:is_in": "Bezirk Dielsdorf,Z\u00fcrich,Schweiz,Europe", "openGeoDB:is_in_loc_id": "78519", "openGeoDB:layer": "6", "openGeoDB:loc_id": "32286", "openGeoDB:name": "Regensdorf", "openGeoDB:population": "18010", "openGeoDB:postal_codes": "8105", "openGeoDB:sort_name": "REGENSDORF", "openGeoDB:type": "Stadt", "openGeoDB:version": "0.2.6.11 / 2007-12-04 / http://fa-technik.adfc.de/code/opengeodb/dump/", "opengeodb:lat": "47.4338884", "opengeodb:lon": "8.4712377", "place": "town", "population": "18010", "postal_code": "8105", "website": "https://www.regensdorf.ch/", "wikidata": "Q64205", "wikipedia": "de:Regensdorf"}}, "geometry": {"type": "Point", "coordinates": [8.4680435, 47.4317645]}}, {"type": "Feature", "properties": {"type": "node", "id": 1078304916, "tags": {"name": "Glattbrugg", "name:de": "Glattbrugg", "name:gsw": "Glaprugg", "place": "town"}}, "geometry": {"type": "Point", "coordinates": [8.5647892, 47.4326312]}}, {"type": "Feature", "properties": {"type": "node", "id": 1638836825, "tags": {"ele": "431", "is_in": "Bezirk B\u00fclach,Z\u00fcrich,Schweiz,Europe", "name": "Wallisellen", "name:de": "Wallisellen", "name:gsw": "Walisele", "place": "town", "population": "15603", "postal_code": "8304", "website": "http://www.wallisellen.ch", "wikidata": "Q69374", "wikipedia": "de:Wallisellen"}}, "geometry": {"type": "Point", "coordinates": [8.5919985, 47.4166195]}}, {"type": "Feature", "properties": {"type": "node", "id": 240112180, "tags": {"ele": "459", "name": "Opfikon", "name:de": "Opfikon", "name:gsw": "Opfike", "name:ru": "\u041e\u043f\u0444\u0438\u043a\u043e\u043d", "place": "town", "population": "18482", "postal_code": "8152", "website": "http://www.opfikon.ch", "wikidata": "Q64224", "wikipedia": "de:Opfikon"}}, "geometry": {"type": "Point", "coordinates": [8.5779983, 47.4322671]}}, {"type": "Feature", "properties": {"type": "node", "id": 240052003, "tags": {"ele": "435", "is_in": "Bezirk B\u00fclach,Z\u00fcrich,Schweiz,Europe", "name": "Kloten", "name:de": "Kloten", "name:gsw": "Chlote", "openGeoDB:auto_update": "population,place,name,is_in", "openGeoDB:community_identification_number": "G0062", "openGeoDB:is_in": "Bezirk B\u00fclach,Z\u00fcrich,Schweiz,Europe", "openGeoDB:is_in_loc_id": "78518", "openGeoDB:layer": "6", "openGeoDB:loc_id": "32253", "openGeoDB:location": "political_structure", "openGeoDB:name": "Kloten", "openGeoDB:population": "18412", "openGeoDB:postal_codes": "8302", "openGeoDB:sort_name": "KLOTEN", "openGeoDB:type": "Stadt", "openGeoDB:version": "0.2.6.11 / 2007-12-04 / http://fa-technik.adfc.de/code/opengeodb/dump/", "place": "town", "population": "18412", "postal_code": "8302", "website": "http://www.kloten.ch", "wikidata": "Q68165", "wikipedia": "de:Kloten"}}, "geometry": {"type": "Point", "coordinates": [8.5861477, 47.4525133]}}, {"type": "Feature", "properties": {"type": "node", "id": 1378978126, "tags": {"ele": "428", "is_in": "Bezirk B\u00fclach,Z\u00fcrich,Schweiz,Europe", "name": "B\u00fclach", "name:de": "B\u00fclach", "name:gsw": "B\u00fcli", "name:lt": "Biulachas", "place": "town", "population": "19342", "postal_code": "8180", "website": "https://www.buelach.ch/", "wikidata": "Q9093", "wikipedia": "de:B\u00fclach"}}, "geometry": {"type": "Point", "coordinates": [8.5407118, 47.5172321]}}, {"type": "Feature", "properties": {"type": "node", "id": 240029982, "tags": {"ele": "460", "is_in": "Bezirk B\u00fclach,Z\u00fcrich,Schweiz,Europe", "name": "Bassersdorf", "openGeoDB:auto_update": "population,place,name,is_in", "openGeoDB:community_identification_number": "G0052", "openGeoDB:is_in": "Bezirk B\u00fclach,Z\u00fcrich,Schweiz,Europe", "openGeoDB:is_in_loc_id": "78518", "openGeoDB:layer": "6", "openGeoDB:loc_id": "32208", "openGeoDB:location": "political_structure", "openGeoDB:name": "Bassersdorf", "openGeoDB:population": "11561", "openGeoDB:postal_codes": "8303", "openGeoDB:sort_name": "BASSERSDORF", "openGeoDB:type": "Gemeinde", "openGeoDB:version": "0.2.6.11 / 2007-12-04 / http://fa-technik.adfc.de/code/opengeodb/dump/", "place": "town", "population": "11561", "postal_code": "8303", "website": "https://www.bassersdorf.ch/", "wikidata": "Q69734", "wikipedia": "de:Bassersdorf"}}, "geometry": {"type": "Point", "coordinates": [8.6299131, 47.4435706]}}, {"type": "Feature", "properties": {"type": "node", "id": 240068610, "tags": {"admin_level": "9", "ele": "516", "is_in": "Illnau-Effretikon,Bezirk Pf\u00e4ffikon,Z\u00fcrich,Schweiz,Europe", "name": "Effretikon", "name:de": "Effretikon", "name:gsw": "Effretike", "openGeoDB:auto_update": "population,place,name,is_in", "openGeoDB:is_in": "Illnau-Effretikon,Bezirk Pf\u00e4ffikon,Z\u00fcrich,Schweiz,Europe", "openGeoDB:is_in_loc_id": "78745", "openGeoDB:layer": "7", "openGeoDB:loc_id": "32222", "openGeoDB:location": "locality", "openGeoDB:name": "Effretikon", "openGeoDB:postal_codes": "8307", "openGeoDB:sort_name": "EFFRETIKON", "openGeoDB:version": "0.2.6.11 / 2007-12-04 / http://fa-technik.adfc.de/code/opengeodb/dump/", "place": "town", "population": "16693", "postal_code": "8307", "website": "https://www.ilef.ch/", "wikidata": "Q64873", "wikipedia": "de:Illnau-Effretikon"}}, "geometry": {"type": "Point", "coordinates": [8.6869714, 47.4283137]}}, {"type": "Feature", "properties": {"type": "node", "id": 1378949424, "tags": {"ele": "439", "name": "Winterthur", "name:ar": "\u0641\u064a\u0646\u062a\u0631\u062a\u0648\u0631", "name:be": "\u0412\u0456\u043d\u0442\u044d\u0440\u0442\u0443\u0440", "name:de": "Winterthur", "name:eo": "Vinterturo", "name:fr": "Winterthour", "name:gsw": "Wintertur", "name:lt": "Vintert\u016bras", "name:ru": "\u0412\u0438\u043d\u0442\u0435\u0440\u0442\u0443\u0440", "name:sr": "\u0412\u0438\u043d\u0442\u0435\u0440\u0442\u0443\u0440", "openGeoDB:community_identification_number": "G0230", "openGeoDB:license_plate_code": "ZH", "openGeoDB:loc_id": "32322", "openGeoDB:postal_codes": "8400\u20138411, 8310, 8352, 8482", "place": "city", "population": "108044", "population:date": "2013", "website": "https://stadt.winterthur.ch/", "wikidata": "Q9125", "wikipedia": "de:Winterthur"}}, "geometry": {"type": "Point", "coordinates": [8.7291498, 47.4991723]}}, {"type": "Feature", "properties": {"type": "node", "id": 28902503, "tags": {"ele": "410", "is_in": "Schaffhausen,Schweiz,CH", "name": "Neuhausen", "name:ru": "\u041d\u043e\u0439\u0445\u0430\u0443\u0437\u0435\u043d-\u0430\u043c-\u0420\u0430\u0439\u043d\u0444\u0430\u043b\u043b\u044c", "official_name": "Neuhausen am Rheinfall", "openGeoDB:auto_update": "population", "openGeoDB:community_identification_number": "G2937", "openGeoDB:is_in": "Bezirk Schaffhausen,Schaffhausen,Schweiz,Europe", "openGeoDB:is_in_loc_id": "78595", "openGeoDB:layer": "6", "openGeoDB:loc_id": "31491", "openGeoDB:name": "Neuhausen am Rheinfall", "openGeoDB:population": "10220", "openGeoDB:postal_codes": "8212", "openGeoDB:sort_name": "NEUHAUSEN", "openGeoDB:type": "Stadt", "openGeoDB:version": "0.2.6.11 / 2007-12-04 / http://fa-technik.adfc.de/code/opengeodb/dump/", "opengeodb:lat": "47.6811644", "opengeodb:lon": "8.6197347", "place": "town", "population": "10220", "postal_code": "8212", "website": "https://www.neuhausen.ch/", "wikidata": "Q69372", "wikipedia": "de:Neuhausen am Rheinfall"}}, "geometry": {"type": "Point", "coordinates": [8.6197347, 47.6811644]}}, {"type": "Feature", "properties": {"type": "node", "id": 29011774, "tags": {"admin_centre:4": "yes", "ele": "403", "name": "Schaffhausen", "name:da": "Schaffhausen", "name:de": "Schaffhausen", "name:eo": "\u015cafha\u016dzo", "name:es": "Escafusa", "name:fr": "Schaffhouse", "name:gsw": "Schaffhuse", "name:he": "\u05e9\u05e4\u05d4\u05d0\u05d5\u05d6\u05df", "name:it": "Sciaffusa", "name:ja": "\u30b7\u30e3\u30d5\u30cf\u30a6\u30bc\u30f3", "name:la": "Scafusa", "name:lmo": "Sciaf\u00fcsa", "name:lt": "\u0160afhauzenas", "name:lv": "\u0160afhauzene", "name:pl": "Szafuza", "name:rm": "Schaffusa", "name:ru": "\u0428\u0430\u0444\u0444\u0445\u0430\u0443\u0437\u0435\u043d", "name:sr": "\u0428\u0430\u0444\u0445\u0430\u0443\u0437\u0435\u043d", "name:uk": "\u0428\u0430\u0444\u0444\u0433\u0430\u0443\u0437\u0435\u043d", "name:zh": "\u6c99\u592b\u8c6a\u68ee", "openGeoDB:community_identification_number": "K14", "openGeoDB:license_plate_code": "SH", "openGeoDB:loc_id": "149", "openGeoDB:type": "Kanton", "place": "town", "population": "35927", "postal_code": "8200", "website": "http://www.stadt-schaffhausen.ch", "wikidata": "Q9009", "wikipedia": "de:Schaffhausen"}}, "geometry": {"type": "Point", "coordinates": [8.634513, 47.6960491]}}, {"type": "Feature", "properties": {"type": "node", "id": 1599381299, "tags": {"admin_centre:4": "yes", "ele": "417", "name": "Frauenfeld", "name:be": "\u0424\u0440\u0430\u045e\u044d\u043d\u0444\u0435\u043b\u044c\u0434", "name:gsw": "Frau\u00e4f\u00e4ld", "name:ru": "\u0424\u0440\u0430\u0443\u044d\u043d\u0444\u0435\u043b\u044c\u0434", "place": "town", "population": "24864", "website": "https://www.frauenfeld.ch/", "wikidata": "Q68120", "wikipedia": "de:Frauenfeld"}}, "geometry": {"type": "Point", "coordinates": [8.8963347, 47.5561915]}}, {"type": "Feature", "properties": {"type": "node", "id": 240109752, "tags": {"is_in": "Wahlkreis Wil,Sankt Gallen,Schweiz,Europe", "name": "Wil", "name:gsw": "Wil", "openGeoDB:auto_update": "population,place,is_in", "openGeoDB:community_identification_number": "G3425", "openGeoDB:is_in": "Wahlkreis Wil,Sankt Gallen,Schweiz,Europe", "openGeoDB:is_in_loc_id": "78610", "openGeoDB:layer": "6", "openGeoDB:license_plate_code": "SG", "openGeoDB:loc_id": "79303", "openGeoDB:location": "political_structure", "openGeoDB:name": "Wil (SG)", "openGeoDB:population": "16392", "openGeoDB:postal_codes": "9500", "openGeoDB:sort_name": "WIL", "openGeoDB:type": "Stadt", "openGeoDB:version": "0.2.6.11 / 2007-12-04 / http://fa-technik.adfc.de/code/opengeodb/dump/", "place": "town", "population": "16392", "wikidata": "Q64077"}}, "geometry": {"type": "Point", "coordinates": [9.0423202, 47.4654409]}}, {"type": "Feature", "properties": {"type": "node", "id": 60267436, "tags": {"name": "Uzwil", "name:gsw": "Uzwil", "openGeoDB:auto_update": "population", "openGeoDB:community_identification_number": "G3408", "openGeoDB:is_in": "Wahlkreis Wil,Sankt Gallen,Schweiz,Europe", "openGeoDB:is_in_loc_id": "78610", "openGeoDB:layer": "6", "openGeoDB:loc_id": "31468", "openGeoDB:name": "Uzwil", "openGeoDB:population": "11977", "openGeoDB:postal_codes": "9240", "openGeoDB:sort_name": "UZWIL", "openGeoDB:type": "Stadt", "openGeoDB:version": "0.2.6.11 / 2007-12-04 / http://fa-technik.adfc.de/code/opengeodb/dump/", "opengeodb:lat": "47.4370506", "opengeodb:lon": "9.1333201", "place": "town", "population": "4465", "wikidata": "Q64171"}}, "geometry": {"type": "Point", "coordinates": [9.1333201, 47.4370506]}}, {"type": "Feature", "properties": {"type": "node", "id": 27583985, "tags": {"addr:postcode": "8570", "is_in": "Bezirk Weinfelden,Thurgau,Schweiz,Europe", "name": "Weinfelden", "name:gsw": "Wyf\u00e4ld\u00e4", "openGeoDB:auto_update": "population,is_in", "openGeoDB:community_identification_number": "G4946", "openGeoDB:is_in": "Bezirk Weinfelden,Thurgau,Schweiz,Europe", "openGeoDB:is_in_loc_id": "78640", "openGeoDB:layer": "6", "openGeoDB:loc_id": "31666", "openGeoDB:name": "Weinfelden", "openGeoDB:population": "10066", "openGeoDB:postal_codes": "8570", "openGeoDB:sort_name": "WEINFELDEN", "openGeoDB:type": "Gemeinde", "openGeoDB:version": "0.2.6.11 / 2007-12-04 / http://fa-technik.adfc.de/code/opengeodb/dump/", "opengeodb:lat": "47.5669187", "opengeodb:lon": "9.1097539", "place": "town", "population": "10066", "postal_code": "8570", "website": "https://www.weinfelden.ch/"}}, "geometry": {"type": "Point", "coordinates": [9.1097539, 47.5669187]}}, {"type": "Feature", "properties": {"type": "node", "id": 30606296, "tags": {"ele": "397", "is_in": "Thurgau,Schweiz,Europe", "name": "Kreuzlingen", "name:gsw": "Chr\u00fczling\u00e4", "openGeoDB:community_identification_number": "G4671", "openGeoDB:loc_id": "31635", "place": "town", "population": "20846", "postal_code": "8280", "website": "http://www.kreuzlingen.ch/", "wikidata": "Q63905", "wikipedia": "de:Kreuzlingen"}}, "geometry": {"type": "Point", "coordinates": [9.1725621, 47.6464362]}}, {"type": "Feature", "properties": {"type": "node", "id": 2580473143, "tags": {"addr:postcode": "9200", "alt_name": "Niederwil Bei Gossau", "alt_name_1": "Niederwil", "is_in": "Sankt Gallen,Switzerland,Europe", "name": "Gossau", "name:gsw": "Gossau", "name:ru": "\u0413\u043e\u0441\u0441\u0430\u0443", "official_name": "Gossau (SG)", "openGeoDB:layer": "6", "place": "town", "population": "17827", "population:date": "2013", "website": "http://www.stadtgossau.ch/de/", "wikidata": "Q69777", "wikipedia": "de:Gossau SG"}}, "geometry": {"type": "Point", "coordinates": [9.249359, 47.4155906]}}, {"type": "Feature", "properties": {"type": "node", "id": 240062840, "tags": {"admin_centre:4": "yes", "capital": "4", "ele": "675", "name": "Sankt Gallen", "name:de": "Sankt Gallen", "name:fr": "Saint-Gall", "name:gsw": "Sangall\u00e4", "name:hu": "Szentgallen", "name:it": "San Gallo", "name:lt": "Sankt Galenas", "name:ru": "\u0421\u0430\u043d\u043a\u0442-\u0413\u0430\u043b\u043b\u0435\u043d", "official_name": "St. Gallen", "openGeoDB:community_identification_number": "G3203", "openGeoDB:is_in_loc_id": "78603", "openGeoDB:layer": "6", "openGeoDB:license_plate_code": "SG", "openGeoDB:loc_id": "79275", "openGeoDB:postal_codes": "9022,9020,9016,9015,9014,9013,9012,9011,9010,9009,9008,9007,9006,9004,9001,9000", "openGeoDB:type": "Stadt", "place": "town", "population": "74581", "population:date": "2013", "website": "https://www.stadt.sg.ch/", "wikidata": "Q25607", "wikipedia": "de:St. Gallen"}}, "geometry": {"type": "Point", "coordinates": [9.3765878, 47.4250593]}}, {"type": "Feature", "properties": {"type": "node", "id": 1492836146, "tags": {"name": "Arbon", "name:gsw": "Arbon", "name:ru": "\u0410\u0440\u0431\u043e\u043d", "openGeoDB:auto_update": "population,is_in", "openGeoDB:community_identification_number": "G4401", "openGeoDB:is_in": "Bezirk Arbon,Thurgau,Schweiz,Europe", "openGeoDB:is_in_loc_id": "78633", "openGeoDB:layer": "6", "openGeoDB:loc_id": "31605", "openGeoDB:name": "Arbon", "openGeoDB:population": "12906", "openGeoDB:postal_codes": "9320", "openGeoDB:sort_name": "ARBON", "openGeoDB:type": "Stadt", "openGeoDB:version": "0.2.6.11 / 2007-12-04 / http://fa-technik.adfc.de/code/opengeodb/dump/", "opengeodb:lat": "47.5112238", "opengeodb:lon": "9.4287526", "place": "town", "population": "14100"}}, "geometry": {"type": "Point", "coordinates": [9.4304026, 47.5149257]}}, {"type": "Feature", "properties": {"type": "node", "id": 29055165, "tags": {"is_in": "Thurgau,Schweiz", "name": "Amriswil", "name:gsw": "Amriswil", "openGeoDB:auto_update": "population,place", "openGeoDB:community_identification_number": "G4461", "openGeoDB:is_in": "Bezirk Bischofszell,Thurgau,Schweiz,Europe", "openGeoDB:is_in_loc_id": "78634", "openGeoDB:layer": "6", "openGeoDB:loc_id": "31604", "openGeoDB:name": "Amriswil", "openGeoDB:population": "11357", "openGeoDB:postal_codes": "8580", "openGeoDB:sort_name": "AMRISWIL", "openGeoDB:type": "Stadt", "openGeoDB:version": "0.2.6.11 / 2007-12-04 / http://fa-technik.adfc.de/code/opengeodb/dump/", "opengeodb:lat": "47.5455758", "opengeodb:lon": "9.2842959", "place": "town", "population": "11357", "wikidata": "Q22407536"}}, "geometry": {"type": "Point", "coordinates": [9.2981219, 47.5500227]}}, {"type": "Feature", "properties": {"type": "node", "id": 100193272, "tags": {"is_in": "Bezirk Arbon,Thurgau,Schweiz,Europe", "name": "Romanshorn", "name:gsw": "Romanshorn", "openGeoDB:auto_update": "population,is_in", "openGeoDB:community_identification_number": "G4436", "openGeoDB:is_in": "Bezirk Arbon,Thurgau,Schweiz,Europe", "openGeoDB:is_in_loc_id": "78633", "openGeoDB:layer": "6", "openGeoDB:loc_id": "31647", "openGeoDB:name": "Romanshorn", "openGeoDB:population": "9076", "openGeoDB:postal_codes": "8590", "openGeoDB:sort_name": "ROMANSHORN", "openGeoDB:type": "Gemeinde", "openGeoDB:version": "0.2.6.11 / 2007-12-04 / http://fa-technik.adfc.de/code/opengeodb/dump/", "opengeodb:lat": "47.5666267", "opengeodb:lon": "9.3728665", "place": "town", "population": "9076", "wikidata": "Q22460440"}}, "geometry": {"type": "Point", "coordinates": [9.3776036, 47.5654452]}}, {"type": "Feature", "properties": {"type": "node", "id": 60647022, "tags": {"is_in": "SG, CH", "name": "Rorschach", "name:gsw": "Rorschach", "openGeoDB:auto_update": "population", "openGeoDB:community_identification_number": "G3215", "openGeoDB:is_in": "Wahlkreis Rorschach,Sankt Gallen,Schweiz,Europe", "openGeoDB:is_in_loc_id": "78604", "openGeoDB:layer": "6", "openGeoDB:license_plate_code": "SG", "openGeoDB:loc_id": "79277", "openGeoDB:name": "Rorschach", "openGeoDB:population": "8647", "openGeoDB:postal_codes": "9401,9400", "openGeoDB:sort_name": "RORSCHACH", "openGeoDB:type": "Markt", "openGeoDB:version": "0.2.6.11 / 2007-12-04 / http://fa-technik.adfc.de/code/opengeodb/dump/", "opengeodb:lat": "47.4776304", "opengeodb:lon": "9.5019983", "place": "town", "population": "8647", "wikidata": "Q68250", "wikipedia": "de:Rorschach"}}, "geometry": {"type": "Point", "coordinates": [9.4914025, 47.4779686]}}, {"type": "Feature", "properties": {"type": "node", "id": 321521585, "tags": {"ele": "1250", "name": "Scuol", "name:de": "Scuol", "name:gsw": "Schguol", "name:rm": "Scuol", "place": "town", "population": "4591", "postal_code": "7550", "website": "http://www.scuol.net", "wikidata": "Q69079", "wikipedia": "de:Scuol"}}, "geometry": {"type": "Point", "coordinates": [10.2976297, 46.7962805]}}]}