{"type": "FeatureCollection", "features": [{"type": "Feature", "properties": {"type": "node", "id": 530544368, "tags": {"city_id": "529401", "name": "Dev\u00edn", "name:de": "Theben", "name:hr": "Tibanj", "name:hu": "D\u00e9v\u00e9ny", "name:pl": "Dev\u00edn", "place": "town", "population": "1040", "postal_code": "841 10", "reg_name": "Bratislava - Dev\u00edn", "region_id": "104", "source:name": "www.statistics.sk", "wikidata": "Q661046", "wikipedia": "sk:Bratislava \u2013 mestsk\u00e1 \u010das\u0165 Dev\u00edn"}}, "geometry": {"type": "Point", "coordinates": [16.9826096, 48.1745864]}}, {"type": "Feature", "properties": {"type": "node", "id": 530544353, "tags": {"city_id": "529371", "name": "Dev\u00ednska Nov\u00e1 Ves", "name:de": "Theben-Neudorf", "name:hr": "Devinsko Novo Selo", "name:hu": "D\u00e9v\u00e9ny\u00fajfalu", "name:pl": "Dev\u00ednska Nov\u00e1 Ves", "place": "town", "population": "15948", "reg_name": "Bratislava - Dev\u00ednska Nov\u00e1 Ves", "region_id": "104", "source:name": "www.statistics.sk", "wikidata": "Q970325", "wikipedia": "sk:Bratislava \u2013 mestsk\u00e1 \u010das\u0165 Dev\u00ednska Nov\u00e1 Ves"}}, "geometry": {"type": "Point", "coordinates": [16.973894, 48.2091751]}}, {"type": "Feature", "properties": {"type": "node", "id": 530544351, "tags": {"alt_name:de": "Audorf", "city_id": "529460", "contact:facebook": "https://www.facebook.com/BratislavaPetrzalka/", "contact:instagram": "https://www.instagram.com/mestskacastpetrzalka/", "contact:rss": "https://www.petrzalka.sk/rss-zivot-v-samosprave", "name": "Petr\u017ealka", "name:de": "Engerau", "name:hr": "Nijebrod", "name:hu": "Pozsonyligetfalu", "name:pl": "Petr\u017ealka", "old_name:hu": "Ligetfalu", "place": "town", "population": "113443", "reg_name": "Bratislava - Petr\u017ealka", "region_id": "105", "source:name": "www.statistics.sk", "website": "https://www.petrzalka.sk/", "wikidata": "Q1013328", "wikipedia": "sk:Bratislava \u2013 mestsk\u00e1 \u010das\u0165 Petr\u017ealka"}}, "geometry": {"type": "Point", "coordinates": [17.1112897, 48.110972]}}, {"type": "Feature", "properties": {"type": "node", "id": 530544350, "tags": {"city_id": "528595", "contact:facebook": "https://www.facebook.com/staremesto.sk/", "contact:instagram": "https://www.instagram.com/staremestosrdcebratislavy/", "contact:rss": "https://www.staremesto.sk/sk/news/rss", "contact:twitter": "https://twitter.com/staremestoba", "name": "Star\u00e9 Mesto", "name:de": "Altstadt", "name:hu": "Pozsony-\u00d3v\u00e1ros", "name:pl": "Stare Miasto", "name:uk": "\u0421\u0442\u0430\u0440\u0435 \u041c\u0456\u0441\u0442\u043e", "place": "town", "population": "41255", "reg_name": "Bratislava - Star\u00e9 Mesto", "region_id": "101", "source:name": "www.statistics.sk", "website": "https://www.staremesto.sk/", "wikidata": "Q1898406", "wikipedia": "sk:Bratislava \u2013 mestsk\u00e1 \u010das\u0165 Star\u00e9 Mesto"}}, "geometry": {"type": "Point", "coordinates": [17.1123274, 48.1405887]}}, {"type": "Feature", "properties": {"type": "node", "id": 530544367, "tags": {"city_id": "529389", "name": "D\u00fabravka", "name:de": "Kaltenbrunn", "name:hu": "Pozsonyhidegk\u00fat", "name:pl": "D\u00fabravka", "old_name:hu": "Hidegk\u00fat", "place": "town", "population": "34405", "reg_name": "Bratislava - D\u00fabravka", "region_id": "104", "source:name": "www.statistics.sk", "wikidata": "Q616170", "wikipedia": "sk:Bratislava \u2013 mestsk\u00e1 \u010das\u0165 D\u00fabravka"}}, "geometry": {"type": "Point", "coordinates": [17.0375032, 48.1870886]}}, {"type": "Feature", "properties": {"type": "node", "id": 530544346, "tags": {"city_id": "529397", "name": "Karlova Ves", "name:de": "Karlsdorf", "name:hu": "K\u00e1rolyfalu", "name:pl": "Karlova Ves", "place": "town", "population": "33876", "reg_name": "Bratislava - Karlova Ves", "region_id": "104", "source:name": "www.statistics.sk", "website": "https://www.karlovaves.sk/", "wikidata": "Q1012707", "wikipedia": "sk:Bratislava \u2013 mestsk\u00e1 \u010das\u0165 Karlova Ves"}}, "geometry": {"type": "Point", "coordinates": [17.0526768, 48.1592404]}}, {"type": "Feature", "properties": {"type": "node", "id": 530544354, "tags": {"alt_name:de": "Lamatsch", "city_id": "529419", "name": "Lama\u010d", "name:de": "Blumenau", "name:hu": "Lamacs", "name:pl": "Lama\u010d", "old_name:hu": "Lam\u00e1cs", "place": "town", "population": "6580", "postal_code": "841 03", "reg_name": "Bratislava - Lama\u010d", "region_id": "104", "source:name": "www.statistics.sk", "wikidata": "Q787303", "wikipedia": "sk:Bratislava \u2013 mestsk\u00e1 \u010das\u0165 Lama\u010d"}}, "geometry": {"type": "Point", "coordinates": [17.0542794, 48.1911965]}}, {"type": "Feature", "properties": {"type": "node", "id": 530544365, "tags": {"city_id": "529427", "name": "Z\u00e1horsk\u00e1 Bystrica", "name:de": "Bisternitz", "name:hr": "Bistrica", "name:hu": "Pozsonybeszterce", "name:pl": "Zahorska Bystrzyca", "old_name:hu": "Beszterce", "place": "town", "population": "2852", "postal_code": "841 06", "reg_name": "Bratislava - Z\u00e1horsk\u00e1 Bystrica", "region_id": "104", "source:name": "www.statistics.sk", "wikidata": "Q246755", "wikipedia": "sk:Bratislava \u2013 mestsk\u00e1 \u010das\u0165 Z\u00e1horsk\u00e1 Bystrica"}}, "geometry": {"type": "Point", "coordinates": [17.0383357, 48.2392876]}}, {"type": "Feature", "properties": {"type": "node", "id": 530544342, "tags": {"admin_level": "2", "capital": "yes", "capital_ISO3166-1": "yes", "city_id": "582000", "contact:instagram": "https://www.instagram.com/bratislava.sk/", "int_name": "Bratislava", "loc_name": "Blava", "name": "Bratislava", "name:ar": "\u0628\u0631\u0627\u062a\u064a\u0633\u0644\u0627\u0641\u0627", "name:be": "\u0411\u0440\u0430\u0446\u0456\u0441\u043b\u0430\u0432\u0430", "name:ckb": "\u0628\u0631\u0627\u062a\u0633\u06cc\u0644\u0627\u06a4\u0627", "name:cu": "\u0411\u0440\u0430\u0442\u0438\u0441\u043b\u0430\u0432\u0430", "name:cv": "\u0411\u0440\u0430\u0442\u0438\u0441\u043b\u0430\u0432\u0430", "name:de": "Pressburg", "name:diq": "Bratislawa", "name:el": "\u039c\u03c0\u03c1\u03b1\u03c4\u03b9\u03c3\u03bb\u03ac\u03b2\u03b1", "name:en": "Bratislava", "name:eo": "Bratislavo", "name:es": "Bratislava", "name:fr": "Bratislava", "name:hr": "Bratislava", "name:hu": "Pozsony", "name:it": "Bratislava", "name:ja": "\u30d6\u30e9\u30c1\u30b9\u30e9\u30f4\u30a1", "name:ka": "\u10d1\u10e0\u10d0\u10e2\u10d8\u10e1\u10da\u10d0\u10d5\u10d0", "name:kk": "\u0411\u0440\u0430\u0442\u0438\u0441\u043b\u0430\u0432\u0430", "name:kn": "\u0cac\u0ccd\u0cb0\u0cbe\u0c9f\u0cbf\u0cb8\u0ccd\u0cb2\u0cbe\u0cb5\u0cbe", "name:ko": "\ube0c\ub77c\ud2f0\uc2ac\ub77c\ubc14", "name:koi": "\u0411\u0440\u0430\u0442\u0438\u0441\u043b\u0430\u0432\u0430", "name:ku": "Brat\u00eeslava", "name:kv": "\u0411\u0440\u0430\u0442\u0438\u0441\u043b\u0430\u0432\u0430", "name:la": "Posonium", "name:lt": "Bratislava", "name:mk": "\u0411\u0440\u0430\u0442\u0438\u0441\u043b\u0430\u0432\u0430", "name:ml": "\u0d2c\u0d4d\u0d30\u0d3e\u0d1f\u0d4d\u0d1f\u0d3f\u0d38\u0d4d\u0d32\u0d3e\u0d35", "name:mn": "\u0411\u0440\u0430\u0442\u0438\u0441\u043b\u0430\u0432", "name:mr": "\u092c\u094d\u0930\u093e\u0924\u093f\u0938\u094d\u0932\u093e\u0935\u094d\u0939\u093e", "name:nds": "Pressburg", "name:nl": "Bratislava", "name:no": "Bratislava", "name:oc": "Bratislava", "name:os": "\u0411\u0440\u0430\u0442\u0438\u0441\u043b\u0430\u0432\u00e6", "name:pl": "Bratys\u0142awa", "name:pnb": "\u0628\u0631\u0627\u062a\u0633\u0644\u0627\u0648\u0627", "name:pt": "Bratislava", "name:ru": "\u0411\u0440\u0430\u0442\u0438\u0441\u043b\u0430\u0432\u0430", "name:rue": "\u0411\u0440\u0430\u0442\u0457\u0441\u043b\u0430\u0432\u0430", "name:sah": "\u0411\u0440\u0430\u0442\u0438\u0441\u043b\u0430\u0432\u0430", "name:sk": "Bratislava", "name:sq": "Bratisllava", "name:sr": "\u0411\u0440\u0430\u0442\u0438\u0441\u043b\u0430\u0432\u0430", "name:sv": "Bratislava", "name:ta": "\u0baa\u0bbf\u0bb0\u0bbe\u0ba4\u0bcd\u0ba4\u0bbf\u0bb8\u0bcd\u0bb2\u0bbe\u0bb5\u0bbe", "name:tg": "\u0411\u0440\u0430\u0442\u0438\u0441\u043b\u0430\u0432\u0430", "name:th": "\u0e1a\u0e23\u0e32\u0e15\u0e34\u0e2a\u0e25\u0e32\u0e27\u0e32", "name:tt": "\u0411\u0440\u0430\u0442\u0438\u0441\u043b\u0430\u0432\u0430", "name:udm": "\u0411\u0440\u0430\u0442\u0438\u0441\u043b\u0430\u0432\u0430", "name:ug": "\u0628\u0631\u0627\u062a\u0649\u0633\u0644\u0627\u06cb\u0627", "name:uk": "\u0411\u0440\u0430\u0442\u0438\u0441\u043b\u0430\u0432\u0430", "name:ur": "\u0628\u0631\u0627\u0679\u06cc\u0633\u0644\u0627\u0648\u0627", "name:vep": "Bratislav", "name:yi": "\u05d1\u05e8\u05d0\u05d8\u05d9\u05e1\u05dc\u05d0\u05d5\u05d5\u05d0", "name:yue": "\u5e03\u62c9\u8fea\u65af\u62c9\u767c", "name:zh": "\u5e03\u62c9\u8fea\u65af\u62c9\u767c", "old_name:cs": "Pre\u0161purk", "old_name:de": "Pre\u00dfburg", "old_name:es": "Presburgo", "old_name:gr": "Istropolis", "old_name:hr": "Po\u017eun", "old_name:hu": "Pozsony", "old_name:la": "Posonium", "old_name:nds": "Pre\u00dfburg", "old_name:sk": "Pre\u0161porok", "place": "city", "population": "432801", "ref": "BA", "source:name": "http://www.statistics.sk", "source:name:oc": "Lo Congr\u00e8s", "website": "https://bratislava.sk/", "wikidata": "Q1780", "wikipedia": "sk:Bratislava"}}, "geometry": {"type": "Point", "coordinates": [17.1093063, 48.1516988]}}, {"type": "Feature", "properties": {"type": "node", "id": 530544360, "tags": {"city_id": "529346", "name": "Nov\u00e9 Mesto", "name:de": "Neustadt", "name:hu": "Pozsony-\u00dajv\u00e1ros", "name:pl": "Nowe Miasto", "name:sk": "Nov\u00e9 Mesto", "name:uk": "\u041d\u043e\u0432\u0435 \u041c\u0456\u0441\u0442\u043e", "place": "town", "population": "37048", "reg_name": "Bratislava - Nov\u00e9 Mesto", "region_id": "103", "source:name": "www.statistics.sk", "wikidata": "Q740351", "wikipedia": "sk:Bratislava \u2013 mestsk\u00e1 \u010das\u0165 Nov\u00e9 Mesto"}}, "geometry": {"type": "Point", "coordinates": [17.1383524, 48.1671622]}}, {"type": "Feature", "properties": {"type": "node", "id": 530544338, "tags": {"city_id": "529320", "contact:rss": "https://www.ruzinov.sk/sk/aktuality/rss", "name": "Ru\u017einov", "name:de": "Rosenheim", "name:hu": "F\u0151r\u00e9v", "name:pl": "Ru\u017einov", "place": "town", "population": "70692", "reg_name": "Bratislava - Ru\u017einov", "region_id": "102", "source:name": "http://www.statistics.sk", "website": "https://www.ruzinov.sk", "wikidata": "Q934473", "wikipedia": "sk:Bratislava \u2013 mestsk\u00e1 \u010das\u0165 Ru\u017einov"}}, "geometry": {"type": "Point", "coordinates": [17.1645049, 48.1493142]}}, {"type": "Feature", "properties": {"type": "node", "id": 25938759, "tags": {"city_id": "529354", "contact:facebook": "https://www.facebook.com/mestskacastRACA/", "contact:instagram": "https://www.instagram.com/mestska_cast_raca/", "name": "Ra\u010da", "name:de": "Ratzersdorf", "name:hu": "R\u00e9cse", "name:pl": "Ra\u010da", "name:sk": "Ra\u010da", "old_name": "Ra\u010di\u0161torf", "place": "town", "population": "20438", "reg_name": "Bratislava - Ra\u010da", "region_id": "103", "source:name": "http://www.statistics.sk", "website": "https://www.raca.sk/", "wikidata": "Q1025249", "wikipedia": "sk:Bratislava \u2013 mestsk\u00e1 \u010das\u0165 Ra\u010da"}}, "geometry": {"type": "Point", "coordinates": [17.1534331, 48.2117887]}}, {"type": "Feature", "properties": {"type": "node", "id": 26036421, "tags": {"city_id": "501905", "ele": "128", "import_ref": "city_import_sk_1", "loc_name": "Somorja", "name": "\u0160amor\u00edn", "name:de": "Sommerein", "name:hu": "Somorja", "name:pl": "\u0160amor\u00edn", "name:sk": "\u0160amor\u00edn", "place": "town", "population": "12736", "postal_code": "931 01", "region_id": "201", "source:name": "http://earth-info.nga.mil/gns/html/cntry_files.html,www.statistics.sk", "website": "http://samorin.sk", "wikidata": "Q391068", "wikipedia": "sk:\u0160amor\u00edn"}}, "geometry": {"type": "Point", "coordinates": [17.3115709, 48.0275832]}}, {"type": "Feature", "properties": {"type": "node", "id": 26036176, "tags": {"city_id": "501573", "ele": "113", "import_ref": "city_import_sk_1", "loc_name": "Bes,Be\u0161,Bos,B\u00f6s", "name": "Gab\u010d\u00edkovo", "name:de": "B\u00f6sch", "name:hu": "B\u0151s", "name:pl": "Gab\u010d\u00edkovo", "old_name": "Be\u0161", "place": "town", "population": "5212", "postal_code": "930 05", "region_id": "201", "source:name": "http://earth-info.nga.mil/gns/html/cntry_files.html,www.statistics.sk", "website": "http://www.gabcikovo.sk", "wikidata": "Q389397", "wikipedia": "sk:Gab\u010d\u00edkovo (okres Dunajsk\u00e1 Streda)"}}, "geometry": {"type": "Point", "coordinates": [17.5781248, 47.8951059]}}, {"type": "Feature", "properties": {"type": "node", "id": 530544335, "tags": {"city_id": "529311", "name": "Podunajsk\u00e9 Biskupice", "name:de": "Bischdorf", "name:hu": "Pozsonyp\u00fcsp\u00f6ki", "name:pl": "Podunajsk\u00e9 Biskupice", "old_name": "Biskupice (pri Dunaji)", "old_name:hu": "P\u00fcsp\u00f6ki", "place": "town", "population": "20717", "postal_code": "821 06", "reg_name": "Bratislava - Podunajsk\u00e9 Biskupice", "region_id": "102", "source:name": "http://www.statistics.sk", "wikidata": "Q683983", "wikipedia": "sk:Bratislava \u2013 mestsk\u00e1 \u010das\u0165 Podunajsk\u00e9 Biskupice"}}, "geometry": {"type": "Point", "coordinates": [17.2074215, 48.130042]}}, {"type": "Feature", "properties": {"type": "node", "id": 530544340, "tags": {"city_id": "529338", "name": "Vraku\u0148a", "name:de": "Fragendorf", "name:hu": "Vereknye", "name:pl": "Vraku\u0148a", "place": "town", "population": "19320", "postal_code": "821 07", "reg_name": "Bratislava - Vraku\u0148a", "region_id": "102", "source:name": "www.statistics.sk", "wikidata": "Q1020906", "wikipedia": "sk:Bratislava \u2013 mestsk\u00e1 \u010das\u0165 Vraku\u0148a"}}, "geometry": {"type": "Point", "coordinates": [17.2004942, 48.145195]}}, {"type": "Feature", "properties": {"type": "node", "id": 530544369, "tags": {"city_id": "529362", "name": "Vajnory", "name:de": "Weinern", "name:hu": "Pozsonysz\u0151l\u0151s", "name:pl": "Vajnory", "place": "town", "population": "4659", "postal_code": "831 07", "reg_name": "Bratislava - Vajnory", "source:name": "http://www.statistics.sk", "wikidata": "Q1091778", "wikipedia": "sk:Bratislava \u2013 mestsk\u00e1 \u010das\u0165 Vajnory"}}, "geometry": {"type": "Point", "coordinates": [17.2065787, 48.2049103]}}, {"type": "Feature", "properties": {"type": "node", "id": 26037969, "tags": {"city_id": "508217", "city_type": "county_city", "ele": "126", "import_ref": "city_import_sk_1", "loc_name": "Senec,Szenc", "name": "Senec", "name:de": "Wartberg", "name:hu": "Szenc", "name:pl": "Senec", "old_name:hu": "Szempc", "place": "town", "population": "15750", "postal_code": "903 01", "region_id": "108", "source:name": "http://earth-info.nga.mil/gns/html/cntry_files.html,www.statistics.sk", "wikidata": "Q754790", "wikipedia": "sk:Senec"}}, "geometry": {"type": "Point", "coordinates": [17.3969901, 48.2199473]}}, {"type": "Feature", "properties": {"type": "node", "id": 26037382, "tags": {"city_id": "501026", "city_type": "county_city", "ele": "168", "import_ref": "city_import_sk_1", "name": "Kom\u00e1rno", "name:de": "Komorn", "name:hu": "Kom\u00e1rom", "name:pl": "Kom\u00e1rno", "name:sk": "Kom\u00e1rno", "place": "town", "population": "36066", "region_id": "401", "source:name": "http://earth-info.nga.mil/gns/html/cntry_files.html,www.statistics.sk", "wikidata": "Q210796", "wikipedia": "sk:Kom\u00e1rno"}}, "geometry": {"type": "Point", "coordinates": [18.1298249, 47.7574079]}}, {"type": "Feature", "properties": {"type": "node", "id": 26036901, "tags": {"city_id": "501522", "ele": "96", "import_ref": "city_import_sk_1", "loc_name": "Calovo,Nagy Meder,Nagy Megyer,\u010calovo", "name": "Ve\u013ek\u00fd Meder", "name:de": "Gro\u00df-Magendorf", "name:hu": "Nagymegyer", "name:pl": "Wielki Meder", "place": "town", "population": "8888", "postal_code": "932 01", "region_id": "201", "source:name": "http://earth-info.nga.mil/gns/html/cntry_files.html,www.statistics.sk", "wikidata": "Q740469", "wikipedia": "sk:Ve\u013ek\u00fd Meder"}}, "geometry": {"type": "Point", "coordinates": [17.7693671, 47.8557806]}}, {"type": "Feature", "properties": {"type": "node", "id": 26037592, "tags": {"alt_name:pl": "Dunajsk\u00e1 Streda", "city_id": "501433", "city_type": "county_city", "ele": "116", "import_ref": "city_import_sk_1", "loc_name": "Duna-Szerdahely,Dunajska Streda,Dunajsk\u00e1 Streda,Dunaszerdahely", "name": "Dunajsk\u00e1 Streda", "name:de": "Niedermarkt", "name:hu": "Dunaszerdahely", "name:pl": "Dunajsk\u00e1 Streda", "name:ru": "\u0414\u0443\u043d\u0430\u0439\u0441\u043a\u0430 \u0421\u0442\u0440\u0435\u0434\u0430", "place": "town", "population": "23419", "postal_code": "929 01", "region_id": "201", "source:name": "http://earth-info.nga.mil/gns/html/cntry_files.html,www.statistics.sk", "wikidata": "Q646393", "wikipedia": "pl:Dunajsk\u00e1 Streda"}}, "geometry": {"type": "Point", "coordinates": [17.6202595, 47.9893751]}}, {"type": "Feature", "properties": {"type": "node", "id": 26036979, "tags": {"city_id": "501204", "ele": "109", "import_ref": "city_import_sk_1", "is_in": "Kom\u00e1rno,Nitriansky kraj,Z\u00e1padn\u00e9 Slovensko,Slovensko", "loc_name": "Guta", "name": "Kol\u00e1rovo", "name:hu": "G\u00fata", "name:pl": "Kol\u00e1rovo", "name:ru": "\u041a\u043e\u043b\u0430\u0440\u043e\u0432\u043e", "name:sk": "Kol\u00e1rovo", "place": "town", "population": "10765", "postal_code": "946 03", "region_id": "401", "source:name": "http://earth-info.nga.mil/gns/html/cntry_files.html,www.statistics.sk", "website": "http://old.kolarovo.sk", "wikidata": "Q374095", "wikipedia": "sk:Kol\u00e1rovo", "wrong_name": "Koll\u00e1rovo"}}, "geometry": {"type": "Point", "coordinates": [17.9966591, 47.9182347]}}, {"type": "Feature", "properties": {"type": "node", "id": 26037170, "tags": {"city_id": "504017", "ele": "113", "import_ref": "city_import_sk_1", "is_in": "Galanta,Trnavsk\u00fd kraj,Z\u00e1padn\u00e9 Slovensko,Slovensko", "loc_name": "Diosek,Kis-Dioszeg,Kis-Di\u00f3szeg,Maly Diosek,Mal\u00fd Diosek,Nagy-Dioszeg,Nagy-Di\u00f3szeg,Ve\u013eky Diosek,Veldiosek,Ve\u013ek\u00fd Diosek", "name": "Sl\u00e1dkovi\u010dovo", "name:de": "Diosek", "name:hu": "Di\u00f3szeg", "name:ru": "\u0421\u043b\u0430\u0434\u043a\u043e\u0432\u0438\u0447\u043e\u0432\u043e", "place": "town", "population": "5741", "postal_code": "925 21", "region_id": "202", "source:name": "http://earth-info.nga.mil/gns/html/cntry_files.html,www.statistics.sk", "website": "https://www.sladkovicovo.sk/", "wikidata": "Q568249", "wikipedia": "sk:Sl\u00e1dkovi\u010dovo"}}, "geometry": {"type": "Point", "coordinates": [17.6441038, 48.2053536]}}, {"type": "Feature", "properties": {"type": "node", "id": 26035885, "tags": {"city_id": "503665", "city_type": "county_city", "ele": "117", "import_ref": "city_import_sk_1", "is_in": "Galanta,Trnavsk\u00fd kraj,Z\u00e1padn\u00e9 Slovensko,Slovensko", "name": "Galanta", "name:de": "Gallandau", "name:hu": "Gal\u00e1nta", "name:pl": "Galanta", "old_name": "Galantha", "place": "town", "population": "15886", "postal_code": "924 01", "region_id": "202", "source:name": "http://earth-info.nga.mil/gns/html/cntry_files.html,www.statistics.sk", "website": "https://www.galanta.sk/", "wikidata": "Q460767", "wikipedia": "sk:Galanta"}}, "geometry": {"type": "Point", "coordinates": [17.7270629, 48.1910498]}}, {"type": "Feature", "properties": {"type": "node", "id": 555326196, "tags": {"city_id": "504025", "city_type": "county_city", "is_in": "\u0160a\u013ea,Nitriansky kraj,Z\u00e1padn\u00e9 Slovensko,Slovensko", "name": "\u0160a\u013ea", "name:de": "Schala", "name:hu": "V\u00e1gsellye", "name:pl": "\u0160a\u013ea", "place": "town", "population": "24099", "source:name": "http://www.statistics.sk", "website": "https://sala.sk/", "wikidata": "Q391361", "wikipedia": "sk:\u0160a\u013ea"}}, "geometry": {"type": "Point", "coordinates": [17.8748587, 48.151379]}}, {"type": "Feature", "properties": {"type": "node", "id": 26036847, "tags": {"city_id": "501280", "ele": "114", "import_ref": "city_import_sk_1", "is_in": "Kom\u00e1rno,Nitriansky kraj,Z\u00e1padn\u00e9 Slovensko,Slovensko", "loc_name": "Nasvad", "name": "Nesvady", "name:hu": "Naszvad", "place": "town", "population": "5034", "postal_code": "946 51", "region_id": "401", "source:name": "http://earth-info.nga.mil/gns/html/cntry_files.html,www.statistics.sk", "website": "https://www.nesvady.sk/", "wikidata": "Q629313", "wikipedia": "sk:Nesvady"}}, "geometry": {"type": "Point", "coordinates": [18.1285528, 47.9285197]}}, {"type": "Feature", "properties": {"type": "node", "id": 26037934, "tags": {"city_id": "501140", "ele": "143", "import_ref": "city_import_sk_1", "is_in": "Kom\u00e1rno,Nitriansky kraj,Z\u00e1padn\u00e9 Slovensko,Slovensko", "loc_name": "Ogyalla,Stara \u010fala,Star\u00e1 \u010fala,\u00d3gyalla", "name": "Hurbanovo", "name:de": "Altdala", "name:hu": "\u00d3gyalla", "name:pl": "Hurbanovo", "name:sk": "Hurbanovo", "old_name": "Star\u00e1 \u010eala", "place": "town", "population": "8118", "region_id": "401", "source:name": "http://earth-info.nga.mil/gns/html/cntry_files.html,www.statistics.sk", "wikidata": "Q856402", "wikipedia": "sk:Hurbanovo"}}, "geometry": {"type": "Point", "coordinates": [18.198313, 47.8761227]}}, {"type": "Feature", "properties": {"type": "node", "id": 26038282, "tags": {"city_id": "503011", "city_type": "county_city", "ele": "122", "import_ref": "city_import_sk_1", "is_in": "Nov\u00e9 Z\u00e1mky,Nitriansky kraj,Z\u00e1padn\u00e9 Slovensko,Slovensko", "loc_name": "Ersekujvar,Neuhaeusel,Neuhaus,Neuhausel,Neuh\u00e4usel,Nove Zamky,Nov\u00e9 Z\u00e1mky,nove zamki,\u00c9rsek\u00fajv\u00e1r", "name": "Nov\u00e9 Z\u00e1mky", "name:de": "Neuh\u00e4usel", "name:hu": "\u00c9rsek\u00fajv\u00e1r", "name:la": "Novum Castrum", "name:pl": "Nowe Zamki", "name:ru": "\u041d\u043e\u0432\u0435 \u0417\u0430\u043c\u043a\u0438", "name:sk": "Nov\u00e9 Z\u00e1mky", "name:tr": "Uyvar", "place": "town", "population": "40840", "postal_code": "940 02", "region_id": "404", "source:name": "http://earth-info.nga.mil/gns/html/cntry_files.html,www.statistics.sk", "wikidata": "Q276362", "wikipedia": "sk:Nov\u00e9 Z\u00e1mky"}}, "geometry": {"type": "Point", "coordinates": [18.1631415, 47.9861843]}}, {"type": "Feature", "properties": {"type": "node", "id": 26035833, "tags": {"city_id": "503592", "ele": "129", "import_ref": "city_import_sk_1", "is_in": "Nov\u00e9 Z\u00e1mky,Nitriansky kraj,Z\u00e1padn\u00e9 Slovensko,Slovensko", "name": "\u0160urany", "name:de": "Schuran", "name:hu": "Nagysur\u00e1ny", "name:pl": "\u0160urany", "place": "town", "population": "10445", "postal_code": "942 01", "region_id": "404", "source:name": "http://earth-info.nga.mil/gns/html/cntry_files.html,www.statistics.sk", "wikidata": "Q392704", "wikipedia": "sk:\u0160urany"}}, "geometry": {"type": "Point", "coordinates": [18.1868344, 48.0861055]}}, {"type": "Feature", "properties": {"type": "node", "id": 26036308, "tags": {"city_id": "500933", "ele": "172", "import_ref": "city_import_sk_1", "loc_name": "Verebely,Vereb\u00e9ly", "name": "Vr\u00e1ble", "name:hu": "Vereb\u00e9ly", "name:pl": "Vr\u00e1ble", "place": "town", "population": "9381", "postal_code": "952 01", "region_id": "403", "source:name": "http://earth-info.nga.mil/gns/html/cntry_files.html,www.statistics.sk", "wikidata": "Q264708", "wikipedia": "sk:Vr\u00e1ble"}}, "geometry": {"type": "Point", "coordinates": [18.3061153, 48.2442845]}}, {"type": "Feature", "properties": {"type": "node", "id": 26037523, "tags": {"city_id": "503584", "ele": "130", "import_ref": "city_import_sk_1", "is_in": "Nov\u00e9 Z\u00e1mky,Nitriansky kraj,Z\u00e1padn\u00e9 Slovensko,Slovensko", "loc_name": "Parkan,Parkany,P\u00e1rk\u00e1ny,Shturovo,Sturovo", "name": "\u0160t\u00farovo", "name:de": "Gockern", "name:hu": "P\u00e1rk\u00e1ny", "name:pl": "Sturovo", "name:sk": "\u0160t\u00farovo", "old_name:pl": "Parkany", "place": "town", "population": "10901", "postal_code": "943 01", "region_id": "404", "source:name": "http://earth-info.nga.mil/gns/html/cntry_files.html,www.statistics.sk", "wikidata": "Q60038", "wikipedia": "sk:\u0160t\u00farovo"}}, "geometry": {"type": "Point", "coordinates": [18.7158785, 47.7978002]}}, {"type": "Feature", "properties": {"type": "node", "id": 26037308, "tags": {"city_id": "502987", "ele": "142", "import_ref": "city_import_sk_1", "loc_name": "Zseliz", "name": "\u017deliezovce", "name:de": "Zelis", "name:hu": "Zseliz", "name:pl": "\u017deliezovce", "place": "town", "population": "7471", "postal_code": "937 01", "region_id": "402", "source:name": "http://earth-info.nga.mil/gns/html/cntry_files.html,www.statistics.sk", "wikidata": "Q393609", "wikipedia": "sk:\u017deliezovce"}}, "geometry": {"type": "Point", "coordinates": [18.6583548, 48.0492258]}}, {"type": "Feature", "properties": {"type": "node", "id": 530544378, "tags": {"city_id": "502031", "city_type": "county_city", "ele": "172", "import_ref": "city_import_sk_1", "is_in": "Levice,Nitriansky kraj,Z\u00e1padn\u00e9 Slovensko,Slovensko", "loc_name": "Leva,Levice,L\u00e9va", "name": "Levice", "name:de": "Lewenz", "name:hu": "L\u00e9va", "name:pl": "Levice", "name:ru": "\u041b\u0435\u0432\u0438\u0446\u0435", "place": "town", "population": "35830", "region_id": "402", "source:name": "http://earth-info.nga.mil/gns/html/cntry_files.html,www.statistics.sk", "wikidata": "Q506693", "wikipedia": "sk:Levice (Slovensko)"}}, "geometry": {"type": "Point", "coordinates": [18.6000869, 48.2163194]}}, {"type": "Feature", "properties": {"type": "node", "id": 26037053, "tags": {"city_id": "502782", "ele": "118", "import_ref": "city_import_sk_1", "loc_name": "\u0160ahy,Ipolysag,Ipolys\u00e1g,Sag,Sahy,Shagi,S\u00e1g", "name": "\u0160ahy", "name:de": "Eipelschlag", "name:hu": "Ipolys\u00e1g", "name:pl": "\u0160ahy", "place": "town", "population": "7949", "postal_code": "936 01", "region_id": "402", "source:name": "http://earth-info.nga.mil/gns/html/cntry_files.html,www.statistics.sk", "wikidata": "Q390946", "wikipedia": "sk:\u0160ahy"}}, "geometry": {"type": "Point", "coordinates": [18.9493378, 48.0694559]}}, {"type": "Feature", "properties": {"type": "node", "id": 26037541, "tags": {"city_id": "518387", "ele": "129", "import_ref": "city_import_sk_1", "name": "Dudince", "name:de": "Dudintze", "name:hu": "Gy\u0171gy", "name:pl": "Dudince", "name:sk": "Dudince", "place": "town", "population": "1520", "postal_code": "962 71", "region_id": "605", "source:name": "http://earth-info.nga.mil/gns/html/cntry_files.html,www.statistics.sk", "wikidata": "Q531445", "wikipedia": "sk:Dudince"}}, "geometry": {"type": "Point", "coordinates": [18.8823161, 48.1691898]}}, {"type": "Feature", "properties": {"type": "node", "id": 26037335, "tags": {"city_id": "516210", "ele": "335", "import_ref": "city_import_sk_1", "loc_name": "Kekko,K\u00e9kk\u0151", "name": "Modr\u00fd Kame\u0148", "name:de": "Blauenstein", "name:hu": "K\u00e9kk\u0151", "name:pl": "Niebieski Kamie\u0144", "place": "town", "population": "1522", "postal_code": "992 01", "region_id": "610", "source:name": "http://earth-info.nga.mil/gns/html/cntry_files.html,www.statistics.sk", "wikidata": "Q901050", "wikipedia": "sk:Modr\u00fd Kame\u0148"}}, "geometry": {"type": "Point", "coordinates": [19.3341711, 48.2409223]}}, {"type": "Feature", "properties": {"type": "node", "id": 26037466, "tags": {"city_id": "515850", "city_type": "county_city", "ele": "189", "import_ref": "city_import_sk_1", "loc_name": "Krtis,Krt\u00ed\u0161", "name": "Ve\u013ek\u00fd Krt\u00ed\u0161", "name:hu": "Nagyk\u00fcrt\u00f6s", "name:pl": "Ve\u013ek\u00fd Krt\u00ed\u0161", "name:ru": "\u0412\u0435\u043b\u044c\u043a\u0438-\u041a\u0440\u0442\u0438\u0448", "place": "town", "population": "13649", "postal_code": "990 01", "region_id": "610", "source:name": "http://earth-info.nga.mil/gns/html/cntry_files.html,www.statistics.sk", "wikidata": "Q673741", "wikipedia": "sk:Ve\u013ek\u00fd Krt\u00ed\u0161"}}, "geometry": {"type": "Point", "coordinates": [19.3490365, 48.2093428]}}, {"type": "Feature", "properties": {"type": "node", "id": 26036885, "tags": {"city_id": "508233", "ele": "185", "import_ref": "city_import_sk_1", "name": "Stupava", "name:de": "Stampfen", "name:hu": "Stomfa", "name:pl": "Stupava", "place": "town", "population": "8745", "postal_code": "900 31", "region_id": "106", "source:name": "http://earth-info.nga.mil/gns/html/cntry_files.html,www.statistics.sk", "wikidata": "Q782928", "wikipedia": "sk:Stupava"}}, "geometry": {"type": "Point", "coordinates": [17.0327458, 48.2731324]}}, {"type": "Feature", "properties": {"type": "node", "id": 26036837, "tags": {"city_id": "508063", "city_type": "county_city", "ele": "167", "import_ref": "city_import_sk_1", "name": "Malacky", "name:de": "Malatzka", "name:hu": "Malacka", "name:pl": "Malacky", "name:ru": "\u041c\u0430\u043b\u0430\u0446\u043a\u0438", "old_name:de": "Kirchlee;Kyrchle", "place": "town", "population": "17887", "postal_code": "901 01", "region_id": "106", "source:name": "http://earth-info.nga.mil/gns/html/cntry_files.html,www.statistics.sk", "wikidata": "Q837464", "wikipedia": "sk:Malacky"}}, "geometry": {"type": "Point", "coordinates": [17.020348, 48.4347503]}}, {"type": "Feature", "properties": {"type": "node", "id": 26035953, "tags": {"city_id": "504891", "ele": "181", "import_ref": "city_import_sk_1", "is_in": "Senica,Trnavsk\u00fd kraj,Z\u00e1padn\u00e9 Slovensko,Slovensko", "loc_name": "Sastin", "name": "\u0160a\u0161t\u00edn-Str\u00e1\u017ee", "name:de": "Scho\u00dfberg-Strascha", "name:hu": "Sasv\u00e1r-Morva\u0151r", "name:pl": "\u0160a\u0161t\u00edn-Str\u00e1\u017ee", "place": "town", "population": "5061", "postal_code": "908 41", "region_id": "205", "source:name": "http://earth-info.nga.mil/gns/html/cntry_files.html,www.statistics.sk", "wikidata": "Q135649", "wikipedia": "sk:\u0160a\u0161t\u00edn-Str\u00e1\u017ee"}}, "geometry": {"type": "Point", "coordinates": [17.148493, 48.6369924]}}, {"type": "Feature", "properties": {"type": "node", "id": 530544357, "tags": {"city_id": "507989", "ele": "117", "import_ref": "city_import_sk_1", "name": "Sv\u00e4t\u00fd Jur", "name:de": "Sankt Georgen", "name:hu": "Szentgy\u00f6rgy", "name:pl": "Sv\u00e4t\u00fd Jur", "old_name": "Jur pri Bratislave", "place": "town", "population": "4972", "postal_code": "900 21", "region_id": "107", "source:name": "http://earth-info.nga.mil/gns/html/cntry_files.html,www.statistics.sk", "wikidata": "Q247240", "wikipedia": "sk:Sv\u00e4t\u00fd Jur"}}, "geometry": {"type": "Point", "coordinates": [17.2127253, 48.2541879]}}, {"type": "Feature", "properties": {"type": "node", "id": 26037619, "tags": {"city_id": "508179", "city_type": "county_city", "ele": "132", "import_ref": "city_import_sk_1", "name": "Pezinok", "name:de": "B\u00f6sing", "name:hu": "Bazin", "name:la": "Bazinium", "name:pl": "Pezinok", "name:ru": "\u041f\u0435\u0437\u0438\u043d\u043e\u043a", "place": "town", "population": "21656", "region_id": "107", "source:name": "http://earth-info.nga.mil/gns/html/cntry_files.html,www.statistics.sk", "website": "https://www.pezinok.sk/", "wikidata": "Q659424", "wikipedia": "sk:Pezinok"}}, "geometry": {"type": "Point", "coordinates": [17.270194, 48.2854539]}}, {"type": "Feature", "properties": {"type": "node", "id": 26901997, "tags": {"city_id": "508101", "name": "Modra", "name:de": "Modern", "name:hu": "Modor", "name:la": "Modorinum", "name:pl": "Modra", "name:ru": "\u041c\u043e\u0434\u0440\u0430", "place": "town", "population": "8804", "postal_code": "900 01", "source:name": "http://www.statistics.sk", "wikidata": "Q596044", "wikipedia": "sk:Modra"}}, "geometry": {"type": "Point", "coordinates": [17.3087863, 48.3357255]}}, {"type": "Feature", "properties": {"type": "node", "id": 26037632, "tags": {"city_id": "506745", "city_type": "region_city", "ele": "163", "import_ref": "city_import_sk_1", "is_in:continent": "Europe", "is_in:country": "Slovakia", "is_in:country_code": "SK", "name": "Trnava", "name:ar": "\u062a\u0631\u0646\u0627\u0641\u0627", "name:de": "Tyrnau", "name:en": "Trnava", "name:es": "Trnava", "name:fr": "Trnava", "name:hu": "Nagyszombat", "name:la": "Tyrnavia", "name:pl": "Trnawa", "name:ru": "\u0422\u0440\u043d\u0430\u0432\u0430", "name:sr": "\u0422\u0440\u043d\u0430\u0432\u0430", "name:uk": "\u0422\u0440\u043d\u0430\u0432\u0430", "place": "city", "population": "68038", "region_id": "207", "source:name": "http://earth-info.nga.mil/gns/html/cntry_files.html,www.statistics.sk", "wikidata": "Q26175", "wikipedia": "sk:Trnava"}}, "geometry": {"type": "Point", "coordinates": [17.5858175, 48.3767652]}}, {"type": "Feature", "properties": {"type": "node", "id": 26038091, "tags": {"city_id": "504262", "ele": "264", "import_ref": "city_import_sk_1", "is_in": "Myjava,Tren\u010diansky kraj,Z\u00e1padn\u00e9 Slovensko,Slovensko", "loc_name": "Berezo,Berez\u00f3", "name": "Brezov\u00e1 pod Bradlom", "name:de": "Birkenhain", "name:hu": "Berez\u00f3", "name:pl": "Brezov\u00e1 pod Bradlom", "place": "town", "population": "5419", "postal_code": "906 13", "region_id": "303", "source:name": "http://earth-info.nga.mil/gns/html/cntry_files.html,www.statistics.sk", "wikidata": "Q135818", "wikipedia": "sk:Brezov\u00e1 pod Bradlom"}}, "geometry": {"type": "Point", "coordinates": [17.5370299, 48.6616437]}}, {"type": "Feature", "properties": {"type": "node", "id": 26037696, "tags": {"city_id": "504351", "ele": "199", "import_ref": "city_import_sk_1", "is_in": "Skalica,Trnavsk\u00fd kraj,Z\u00e1padn\u00e9 Slovensko,Slovensko", "loc_name": "Egbell", "name": "Gbely", "name:de": "Egbell", "name:hu": "Egbell", "name:pl": "Gbely", "place": "town", "population": "5153", "postal_code": "908 45", "region_id": "206", "source:name": "http://earth-info.nga.mil/gns/html/cntry_files.html,www.statistics.sk", "wikidata": "Q846424", "wikipedia": "sk:Gbely"}}, "geometry": {"type": "Point", "coordinates": [17.1177133, 48.7176973]}}, {"type": "Feature", "properties": {"type": "node", "id": 26037066, "tags": {"city_id": "504378", "ele": "189", "import_ref": "city_import_sk_1", "is_in": "Skalica,Trnavsk\u00fd kraj,Z\u00e1padn\u00e9 Slovensko,Slovensko", "name": "Hol\u00ed\u010d", "name:de": "Holitsch", "name:hu": "Holics", "name:pl": "Hol\u00ed\u010d", "old_name": "Holi\u010d", "old_name:de": "Wei\u00dfkirchen", "place": "town", "population": "11688", "postal_code": "908 51", "region_id": "206", "source:name": "http://earth-info.nga.mil/gns/html/cntry_files.html,www.statistics.sk", "wikidata": "Q653326", "wikipedia": "sk:Hol\u00ed\u010d"}}, "geometry": {"type": "Point", "coordinates": [17.1628162, 48.808256]}}, {"type": "Feature", "properties": {"type": "node", "id": 1828995697, "tags": {"city_id": "504203", "city_type": "county_city", "ele": "383", "import_ref": "city_import_sk_1", "name": "Senica", "name:de": "Senitz", "name:hu": "Szenice", "name:pl": "Senica", "old_name:hu": "Szenic", "place": "town", "population": "20723", "postal_code": "905 01", "region_id": "205", "source:name": "http://earth-info.nga.mil/gns/html/cntry_files.html,www.statistics.sk", "wikidata": "Q750407", "wikipedia": "sk:Senica"}}, "geometry": {"type": "Point", "coordinates": [17.3661529, 48.6787557]}}, {"type": "Feature", "properties": {"type": "node", "id": 26037417, "tags": {"city_id": "504815", "city_type": "county_city", "ele": "173", "import_ref": "city_import_sk_1", "name": "Skalica", "name:de": "Skalitz", "name:hu": "Szakolca", "name:la": "Sakolcium", "name:pl": "Skalica", "name:ru": "\u0421\u043a\u0430\u043b\u0438\u0446\u0430", "place": "town", "population": "14948", "postal_code": "909 01", "region_id": "206", "source:name": "http://earth-info.nga.mil/gns/html/cntry_files.html,www.statistics.sk", "wikidata": "Q649076", "wikipedia": "sk:Skalica (mesto)"}}, "geometry": {"type": "Point", "coordinates": [17.2279127, 48.8452079]}}, {"type": "Feature", "properties": {"type": "node", "id": 26036359, "tags": {"city_id": "504581", "city_type": "county_city", "ele": "352", "import_ref": "city_import_sk_1", "is_in": "Myjava,Tren\u010diansky kraj,Z\u00e1padn\u00e9 Slovensko,Slovensko", "loc_name": "Miava", "name": "Myjava", "name:de": "Miawa", "name:hu": "Miava", "name:pl": "Myjava", "name:sk": "Myjava", "place": "town", "population": "12652", "postal_code": "907 03", "region_id": "303", "source:name": "http://earth-info.nga.mil/gns/html/cntry_files.html,www.statistics.sk", "wikidata": "Q837460", "wikipedia": "sk:Myjava (mesto)"}}, "geometry": {"type": "Point", "coordinates": [17.5650224, 48.7540345]}}, {"type": "Feature", "properties": {"type": "node", "id": 26038401, "tags": {"alt_name:pl": "Sered", "city_id": "504009", "ele": "127", "import_ref": "city_import_sk_1", "name": "Sere\u010f", "name:de": "Sereth", "name:hu": "Szered", "name:pl": "Sere\u010f", "place": "town", "population": "17045", "postal_code": "926 01", "region_id": "202", "source:name": "http://earth-info.nga.mil/gns/html/cntry_files.html,www.statistics.sk", "wikidata": "Q429676"}}, "geometry": {"type": "Point", "coordinates": [17.7308808, 48.2889032]}}, {"type": "Feature", "properties": {"type": "node", "id": 26037598, "tags": {"alt_name:de": "Leopoldstadt", "city_id": "507253", "ele": "144", "import_ref": "city_import_sk_1", "loc_name": "Leopoldov,Mestecko,Meste\u010dko,Ujvaroska,\u00dajv\u00e1roska", "name": "Leopoldov", "name:de": "Leopold-Neustadtl", "name:hu": "\u00dajv\u00e1roska", "name:pl": "Leopoldov", "place": "town", "population": "4102", "postal_code": "920 41", "region_id": "203", "source:name": "http://earth-info.nga.mil/gns/html/cntry_files.html,www.statistics.sk", "wikidata": "Q690807", "wikipedia": "sk:Leopoldov"}}, "geometry": {"type": "Point", "coordinates": [17.7654426, 48.4441776]}}, {"type": "Feature", "properties": {"type": "node", "id": 26036344, "tags": {"alt_name": "Fra\u0161t\u00e1k", "alt_name:de": "Freistadt an der Waag", "city_id": "507032", "city_type": "county_city", "ele": "451", "import_ref": "city_import_sk_1", "name": "Hlohovec", "name:de": "Freistad", "name:hu": "Galg\u00f3c", "name:pl": "Hlohovec", "place": "town", "population": "22575", "region_id": "203", "source:name": "http://earth-info.nga.mil/gns/html/cntry_files.html,www.statistics.sk", "wikidata": "Q754773", "wikipedia": "sk:Hlohovec"}}, "geometry": {"type": "Point", "coordinates": [17.798782, 48.4278838]}}, {"type": "Feature", "properties": {"type": "node", "id": 26037507, "tags": {"alt_name:de": "Pistian", "city_id": "507440", "city_type": "county_city", "ele": "158", "import_ref": "city_import_sk_1", "loc_name": "Pies\u0165anoch,Piestany,Pieszczany,Pie\u0161\u0165anoch,Pie\u0161\u0165any,Poestyen,P\u00f6sty\u00e9n,peshtjany", "name": "Pie\u0161\u0165any", "name:de": "Pistyan", "name:hu": "P\u00f6sty\u00e9n", "name:pl": "Pieszczany", "name:ru": "\u041f\u044c\u0435\u0448\u0442\u044f\u043d\u044b", "place": "town", "population": "29587", "postal_code": "921 01", "region_id": "204", "source:name": "http://earth-info.nga.mil/gns/html/cntry_files.html,www.statistics.sk", "wikidata": "Q321074", "wikipedia": "sk:Pie\u0161\u0165any"}}, "geometry": {"type": "Point", "coordinates": [17.8213848, 48.5895247]}}, {"type": "Feature", "properties": {"type": "node", "id": 26037254, "tags": {"alt_name:de": "Werbau", "city_id": "507750", "ele": "178", "import_ref": "city_import_sk_1", "is_in": "Pie\u0161\u0165any,Trnavsk\u00fd kraj,Z\u00e1padn\u00e9 Slovensko,Slovensko", "loc_name": "Verbo,Verb\u00f3,Vrbove,Vrbov\u00e9", "name": "Vrbov\u00e9", "name:de": "Vrbau", "name:hu": "Verb\u00f3", "name:pl": "Vrbov\u00e9", "place": "town", "population": "6272", "postal_code": "922 03", "region_id": "204", "source:name": "http://earth-info.nga.mil/gns/html/cntry_files.html,www.statistics.sk", "wikidata": "Q846444", "wikipedia": "sk:Vrbov\u00e9"}}, "geometry": {"type": "Point", "coordinates": [17.7238763, 48.6195312]}}, {"type": "Feature", "properties": {"type": "node", "id": 530544371, "tags": {"city_id": "500011", "city_type": "region_city", "ele": "140", "import_ref": "city_import_sk_1", "is_in": "Nitra,Nitriansky kraj,Z\u00e1padn\u00e9 Slovensko,Slovensko", "is_in:continent": "Europe", "is_in:country": "Slovakia", "is_in:country_code": "SK", "loc_name": "Neutra,Nyitra", "name": "Nitra", "name:ar": "\u0646\u064a\u062a\u0631\u0627", "name:de": "Neutra", "name:en": "Nitra", "name:eo": "Nitro", "name:es": "Nitra", "name:fr": "Nitra", "name:hu": "Nyitra", "name:ka": "\u10dc\u10d8\u10e2\u10e0\u10d0", "name:pl": "Nitra", "name:ru": "\u041d\u0438\u0442\u0440\u0430", "name:sr": "\u040a\u0438\u0442\u0440\u0430", "name:uk": "\u041d\u0456\u0442\u0440\u0430", "place": "city", "population": "84444", "region_id": "403", "source:name": "http://earth-info.nga.mil/gns/html/cntry_files.html,www.statistics.sk", "wikidata": "Q26397", "wikipedia": "sk:Nitra"}}, "geometry": {"type": "Point", "coordinates": [18.0894593, 48.31295]}}, {"type": "Feature", "properties": {"type": "node", "id": 26037381, "tags": {"city_id": "500968", "city_type": "county_city", "ele": "196", "import_ref": "city_import_sk_1", "name": "Zlat\u00e9 Moravce", "name:de": "Goldmorawitz", "name:hu": "Aranyosmar\u00f3t", "name:pl": "Z\u0142ote Moravce", "name:ru": "\u0417\u043b\u0430\u0442\u0435 \u041c\u043e\u0440\u0430\u0432\u0446\u0435", "place": "town", "population": "13289", "region_id": "407", "source:name": "http://earth-info.nga.mil/gns/html/cntry_files.html,www.statistics.sk", "wikidata": "Q207226", "wikipedia": "sk:Zlat\u00e9 Moravce"}}, "geometry": {"type": "Point", "coordinates": [18.4, 48.3833333]}}, {"type": "Feature", "properties": {"type": "node", "id": 26036111, "tags": {"city_id": "504998", "city_type": "county_city", "ele": "167", "import_ref": "city_import_sk_1", "loc_name": "Nagytapolcsany,Nagytapolcs\u00e1ny,Topo\u013echany,Topolcany,Topo\u013e\u010dany", "name": "Topo\u013e\u010dany", "name:de": "Topoltschan", "name:hu": "Nagytapolcs\u00e1ny", "name:pl": "Topolczany", "name:ru": "\u0422\u043e\u043f\u043e\u043b\u044c\u0447\u0430\u043d\u044b", "place": "town", "population": "28673", "region_id": "406", "source:name": "http://earth-info.nga.mil/gns/html/cntry_files.html,www.statistics.sk", "wikidata": "Q750423", "wikipedia": "sk:Topo\u013e\u010dany"}}, "geometry": {"type": "Point", "coordinates": [18.1754394, 48.5594345]}}, {"type": "Feature", "properties": {"type": "node", "id": 26036300, "tags": {"city_id": "505315", "city_type": "county_city", "ele": "180", "import_ref": "city_import_sk_1", "loc_name": "Ba\u0165ovany,Ba\u0165ovany,Partizanske,Partiz\u00e1nske,Simonovany,Simony,\u0160imonovany", "name": "Partiz\u00e1nske", "name:hu": "Simony", "name:pl": "Partiz\u00e1nske", "place": "town", "population": "24335", "region_id": "305", "source:name": "http://earth-info.nga.mil/gns/html/cntry_files.html,www.statistics.sk", "wikidata": "Q754768", "wikipedia": "pl:Partiz\u00e1nske"}}, "geometry": {"type": "Point", "coordinates": [18.3730067, 48.6264092]}}, {"type": "Feature", "properties": {"type": "node", "id": 26036269, "tags": {"city_id": "506524", "ele": "311", "import_ref": "city_import_sk_1", "is_in": "Nov\u00e9 Mesto nad V\u00e1hom,Tren\u010diansky kraj,Z\u00e1padn\u00e9 Slovensko,Slovensko", "loc_name": "Otura,\u00d3tura", "name": "Star\u00e1 Tur\u00e1", "name:de": "Alt-Turn", "name:hu": "\u00d3tura", "name:pl": "Star\u00e1 Tur\u00e1", "place": "town", "population": "9842", "postal_code": "916 01", "region_id": "304", "source:name": "http://earth-info.nga.mil/gns/html/cntry_files.html,www.statistics.sk", "wikidata": "Q512771", "wikipedia": "sk:Star\u00e1 Tur\u00e1"}}, "geometry": {"type": "Point", "coordinates": [17.6941177, 48.7792477]}}, {"type": "Feature", "properties": {"type": "node", "id": 26037614, "tags": {"city_id": "506338", "city_type": "county_city", "ele": "167", "import_ref": "city_import_sk_1", "loc_name": "Nove Mesto nad Vagom,Nove Mesto nad Vahom,Nov\u00e9 Mesto nad V\u00e1hom,Otura,Vagujhely,V\u00e1g\u00fajhely,\u00d3tura", "name": "Nov\u00e9 Mesto nad V\u00e1hom", "name:de": "Neustadt an der Waag", "name:hu": "V\u00e1g\u00fajhely", "name:pl": "Nowe Miasto nad Wagiem", "name:ru": "\u041d\u043e\u0432\u0435-\u041c\u0435\u0441\u0442\u043e-\u043d\u0430\u0434-\u0412\u0430\u0433\u043e\u043c", "name:sk": "Nov\u00e9 Mesto nad V\u00e1hom", "name:uk": "\u041d\u043e\u0432\u0435 \u041c\u0435\u0441\u0442\u043e-\u043d\u0430\u0434-\u0412\u0430\u0433\u043e\u043c", "place": "town", "population": "20505", "postal_code": "915 01", "region_id": "304", "source:name": "http://earth-info.nga.mil/gns/html/cntry_files.html,www.statistics.sk", "website": "https://www.nove-mesto.sk/", "wikidata": "Q376987", "wikipedia": "sk:Nov\u00e9 Mesto nad V\u00e1hom"}}, "geometry": {"type": "Point", "coordinates": [17.8303857, 48.7633248]}}, {"type": "Feature", "properties": {"type": "node", "id": 26037344, "tags": {"city_id": "542652", "city_type": "county_city", "ele": "219", "import_ref": "city_import_sk_1", "loc_name": "Banovce", "name": "B\u00e1novce nad Bebravou", "name:de": "Banowitz", "name:hu": "B\u00e1n", "name:pl": "B\u00e1novce nad Bebravou", "place": "town", "population": "20592", "region_id": "301", "source:name": "http://earth-info.nga.mil/gns/html/cntry_files.html,www.statistics.sk", "wikidata": "Q549849", "wikipedia": "sk:B\u00e1novce nad Bebravou"}}, "geometry": {"type": "Point", "coordinates": [18.2598263, 48.7216671]}}, {"type": "Feature", "properties": {"type": "node", "id": 26037142, "tags": {"city_id": "505820", "city_type": "region_city", "ele": "211", "import_ref": "city_import_sk_1", "is_in:country": "Slovakia", "loc_name": "Trencin,Trencsen,Trencs\u00e9n,Trenczyn,Trentschin,Trentsen,Tren\u010din,Tren\u010d\u00edn", "name": "Tren\u010d\u00edn", "name:ar": "\u062a\u0631\u0646\u062a\u0634\u064a\u0646", "name:de": "Trentschin", "name:en": "Tren\u010d\u00edn", "name:es": "Tren\u010d\u00edn", "name:fr": "Tren\u010d\u00edn", "name:hu": "Trencs\u00e9n", "name:la": "Trentsinium;Laugaricio", "name:pl": "Trenczyn", "name:ru": "\u0422\u0440\u0435\u043d\u0447\u0438\u043d", "name:sr": "\u0422\u0440\u0435\u043d\u0447\u0438\u043d", "name:uk": "\u0422\u0440\u0435\u043d\u0447\u0438\u043d", "old_name:de": "Trencsin", "place": "city", "population": "56759", "region_id": "309", "source:name": "http://earth-info.nga.mil/gns/html/cntry_files.html,www.statistics.sk", "wikidata": "Q145002", "wikipedia": "sk:Tren\u010d\u00edn"}}, "geometry": {"type": "Point", "coordinates": [18.0393715, 48.8923583]}}, {"type": "Feature", "properties": {"type": "node", "id": 26037093, "tags": {"city_id": "506281", "ele": "222", "import_ref": "city_import_sk_1", "name": "Nem\u0161ov\u00e1", "name:hu": "Nems\u00f3", "name:pl": "Nem\u0161ov\u00e1", "old_name:hu": "Nemsova", "place": "town", "population": "6328", "postal_code": "914 41", "region_id": "309", "source": "statistics.sk", "source:name": "http://earth-info.nga.mil/gns/html/cntry_files.html,www.statistics.sk", "wikidata": "Q389942", "wikipedia": "sk:Nem\u0161ov\u00e1"}}, "geometry": {"type": "Point", "coordinates": [18.1175713, 48.9646151]}}, {"type": "Feature", "properties": {"type": "node", "id": 26036884, "tags": {"alt_name:de": "Trentschiner Bad", "city_id": "506613", "ele": "444", "import_ref": "city_import_sk_1", "name": "Tren\u010dianske Teplice", "name:de": "Trentschin-Teplitz", "name:hu": "Trencs\u00e9nteplic", "name:pl": "Trenczy\u0144skie Cieplice", "place": "town", "population": "4125", "postal_code": "914 51", "region_id": "309", "source": "statistics.sk", "source:name": "http://earth-info.nga.mil/gns/html/cntry_files.html,www.statistics.sk", "wikidata": "Q532555", "wikipedia": "sk:Tren\u010dianske Teplice"}}, "geometry": {"type": "Point", "coordinates": [18.1702976, 48.9094451]}}, {"type": "Feature", "properties": {"type": "node", "id": 26037896, "tags": {"city_id": "513440", "ele": "239", "import_ref": "city_import_sk_1", "name": "Nov\u00e1 Dubnica", "name:de": "Neudubnitz", "name:hu": "\u00dajt\u00f6lgyes", "name:pl": "Nov\u00e1 Dubnica", "place": "town", "population": "11932", "postal_code": "018 51", "region_id": "302", "source:name": "http://earth-info.nga.mil/gns/html/cntry_files.html,www.statistics.sk", "wikidata": "Q249935", "wikipedia": "sk:Nov\u00e1 Dubnica"}}, "geometry": {"type": "Point", "coordinates": [18.1457351, 48.9358736]}}, {"type": "Feature", "properties": {"type": "node", "id": 26036522, "tags": {"city_id": "513016", "ele": "243", "import_ref": "city_import_sk_1", "loc_name": "Dubnica nad Vahom,Dubnica nad V\u00e1hom,Dubnica-nad-Vagom,Mariatoelgyes,M\u00e1riat\u00f6lgyes", "name": "Dubnica nad V\u00e1hom", "name:de": "Dubnitz an der Waag", "name:hu": "M\u00e1riat\u00f6lgyes", "name:pl": "Dubnica nad V\u00e1hom", "old_name:hu": "Dubnic", "place": "town", "population": "25263", "postal_code": "018 41", "region_id": "302", "source:name": "http://earth-info.nga.mil/gns/html/cntry_files.html,www.statistics.sk", "wikidata": "Q481528", "wikipedia": "sk:Dubnica nad V\u00e1hom"}}, "geometry": {"type": "Point", "coordinates": [18.1662967, 48.9574049]}}, {"type": "Feature", "properties": {"type": "node", "id": 26036262, "tags": {"city_id": "513156", "city_type": "county_city", "ele": "253", "import_ref": "city_import_sk_1", "loc_name": "Hava,Ilava,Illava", "name": "Ilava", "name:de": "Illau", "name:hu": "Illava", "name:pl": "Ilava", "name:uk": "\u0406\u043b\u0430\u0432\u0430", "place": "town", "population": "5503", "postal_code": "019 01", "region_id": "302", "source:name": "http://earth-info.nga.mil/gns/html/cntry_files.html,www.statistics.sk", "wikidata": "Q481564", "wikipedia": "sk:Ilava"}}, "geometry": {"type": "Point", "coordinates": [18.2307598, 48.9985674]}}, {"type": "Feature", "properties": {"type": "node", "id": 26035777, "tags": {"city_id": "513610", "city_type": "county_city", "ele": "264", "import_ref": "city_import_sk_1", "is_in": "P\u00fachov,Tren\u010diansky kraj,Z\u00e1padn\u00e9 Slovensko,Slovensko", "loc_name": "Pucho,Puchov,Puho,Puh\u00f3,Pukhov,P\u00fachov", "name": "P\u00fachov", "name:de": "Puchau", "name:hu": "Puh\u00f3", "name:pl": "P\u00fachov", "name:ru": "\u041f\u0443\u0445\u043e\u0432", "old_name:hu": "Puch\u00f3", "place": "town", "population": "18592", "postal_code": "020 01", "region_id": "308", "source:name": "http://earth-info.nga.mil/gns/html/cntry_files.html,www.statistics.sk", "wikidata": "Q258481", "wikipedia": "sk:P\u00fachov"}}, "geometry": {"type": "Point", "coordinates": [18.3239559, 49.123928]}}, {"type": "Feature", "properties": {"type": "node", "id": 26035956, "tags": {"city_id": "512842", "city_type": "county_city", "ele": "322", "import_ref": "city_import_sk_1", "int_name": "Pova\u017esk\u00e1 Bystrica", "is_in": "Pova\u017esk\u00e1 Bystrica,Tren\u010diansky kraj,Z\u00e1padn\u00e9 Slovensko,Slovensko", "loc_name": "Bystrica,Povazhska Bistrica,Povazska Bystrica,Povazske Bystraica,Pova\u017esk\u00e1 Bystrica,Vagbeszterce", "name": "Pova\u017esk\u00e1 Bystrica", "name:de": "Waagbistritz", "name:hu": "V\u00e1gbeszterce", "name:pl": "Powaska Bystrzyca", "name:ru": "\u041f\u043e\u0432\u0430\u0436\u0441\u043a\u0430 \u0411\u0438\u0441\u0442\u0440\u0438\u0446\u0430", "place": "town", "population": "41936", "region_id": "306", "source:name": "http://earth-info.nga.mil/gns/html/cntry_files.html,www.statistics.sk", "wikidata": "Q319787", "wikipedia": "sk:Pova\u017esk\u00e1 Bystrica"}}, "geometry": {"type": "Point", "coordinates": [18.4469936, 49.1159316]}}, {"type": "Feature", "properties": {"type": "node", "id": 26037285, "tags": {"city_id": "502863", "ele": "186", "import_ref": "city_import_sk_1", "loc_name": "Garamtolmacs,Garamtolm\u00e1cs,Timac,Timace,Tima\u010d,Tima\u010de", "name": "Tlma\u010de", "name:hu": "Garamtolm\u00e1cs", "name:pl": "Tlma\u010de", "place": "town", "population": "4095", "postal_code": "935 21", "region_id": "402", "source:name": "http://earth-info.nga.mil/gns/html/cntry_files.html,www.statistics.sk", "wikidata": "Q239637", "wikipedia": "sk:Tlma\u010de"}}, "geometry": {"type": "Point", "coordinates": [18.5318545, 48.2887778]}}, {"type": "Feature", "properties": {"type": "node", "id": 26035889, "tags": {"city_id": "517097", "ele": "509", "import_ref": "city_import_sk_1", "name": "Nov\u00e1 Ba\u0148a", "name:de": "K\u00f6nigsberg", "name:hu": "\u00dajb\u00e1nya", "name:pl": "Nov\u00e1 Ba\u0148a", "place": "town", "population": "7422", "postal_code": "968 01", "region_id": "612", "source:name": "http://earth-info.nga.mil/gns/html/cntry_files.html,www.statistics.sk", "wikidata": "Q268463", "wikipedia": "sk:Nov\u00e1 Ba\u0148a"}}, "geometry": {"type": "Point", "coordinates": [18.6413651, 48.4245994]}}, {"type": "Feature", "properties": {"type": "node", "id": 26035810, "tags": {"city_id": "517381", "city_type": "county_city", "ele": "288", "import_ref": "city_import_sk_1", "loc_name": "Zarovnica,\u017darovnica", "name": "\u017darnovica", "name:de": "Scharnowitz", "name:hu": "Zsarn\u00f3ca", "name:pl": "\u017darnovica", "name:ru": "\u0416\u0430\u0440\u043d\u043e\u0432\u0438\u0446\u0430", "name:sk": "\u017darnovica", "place": "town", "population": "6393", "postal_code": "966 81", "region_id": "612", "source:name": "http://earth-info.nga.mil/gns/html/cntry_files.html,www.statistics.sk", "wikidata": "Q393421", "wikipedia": "sk:\u017darnovica"}}, "geometry": {"type": "Point", "coordinates": [18.7215497, 48.4833983]}}, {"type": "Feature", "properties": {"type": "node", "id": 26038430, "tags": {"city_id": "516589", "city_type": "county_city", "ele": "253", "import_ref": "city_import_sk_1", "loc_name": "Svaty Kriz nad Hronom,Sv\u00e4t\u00fd Kr\u00ed\u017e nad Hronom", "name": "\u017diar nad Hronom", "name:de": "Heiligenkreuz an der Gran", "name:hu": "Garamszentkereszt", "name:pl": "\u017bar nad Hronem", "place": "town", "population": "19782", "postal_code": "965 01", "region_id": "613", "source:name": "http://earth-info.nga.mil/gns/html/cntry_files.html,www.statistics.sk", "wikidata": "Q393925", "wikipedia": "sk:\u017diar nad Hronom"}}, "geometry": {"type": "Point", "coordinates": [18.8500892, 48.5910183]}}, {"type": "Feature", "properties": {"type": "node", "id": 26036792, "tags": {"city_id": "518557", "city_type": "county_city", "ele": "314", "import_ref": "city_import_sk_1", "name": "Krupina", "name:de": "Karpfen", "name:hu": "Korpona", "name:pl": "Krupina", "name:ru": "\u041a\u0440\u0443\u043f\u0438\u043d\u0430", "place": "town", "population": "7797", "postal_code": "963 01", "region_id": "605", "source:name": "http://earth-info.nga.mil/gns/html/cntry_files.html,www.statistics.sk", "wikidata": "Q756667", "wikipedia": "sk:Krupina"}}, "geometry": {"type": "Point", "coordinates": [19.069182, 48.3527285]}}, {"type": "Feature", "properties": {"type": "node", "id": 26036174, "tags": {"alt_name:de": "Schebnitz", "city_id": "516643", "city_type": "county_city", "ele": "494", "heritage": "1", "heritage:operator": "whc", "import_ref": "city_import_sk_1", "loc_name": "Banska Stiavnica,Banska Stiavnica a Banska Bela,Bansk\u00e1 \u0160tiavnica,Bansk\u00e1 \u0160tiavnica a Bansk\u00e1 Bel\u00e1,Schemnitz,Selmecbanya,Selmecb\u00e1nya,Selmeczbanya,Selmeczb\u00e1nya", "name": "Bansk\u00e1 \u0160tiavnica", "name:de": "Schemnitz", "name:hu": "Selmecb\u00e1nya", "name:pl": "Ba\u0144ska Szczawnica", "name:ru": "\u0411\u0430\u043d\u0441\u043a\u0430 \u0428\u0442\u044c\u044f\u0432\u043d\u0438\u0446\u0430", "place": "town", "population": "10640", "postal_code": "969 01", "region_id": "602", "source:name": "http://earth-info.nga.mil/gns/html/cntry_files.html,www.statistics.sk", "wikidata": "Q208110", "wikipedia": "sk:Bansk\u00e1 \u0160tiavnica"}}, "geometry": {"type": "Point", "coordinates": [18.8988414, 48.4580926]}}, {"type": "Feature", "properties": {"type": "node", "id": 26035729, "tags": {"city_id": "518158", "city_type": "county_city", "ele": "297", "import_ref": "city_import_sk_1", "loc_name": "Zolyom;Zwolen;Zwole\u0144", "name": "Zvolen", "name:de": "Altsohl", "name:hu": "Z\u00f3lyom", "name:la": "Veterosolium", "name:pl": "Zwole\u0144", "name:ru": "\u0417\u0432\u043e\u043b\u0435\u043d", "place": "town", "population": "42778", "region_id": "611", "source:name": "http://earth-info.nga.mil/gns/html/cntry_files.html,www.statistics.sk", "wikidata": "Q11874", "wikipedia": "sk:Zvolen"}}, "geometry": {"type": "Point", "coordinates": [19.1247135, 48.5782517]}}, {"type": "Feature", "properties": {"type": "node", "id": 26037643, "tags": {"city_id": "518808", "ele": "438", "import_ref": "city_import_sk_1", "loc_name": "Sliacske Kupele,Slia\u010dsk\u00e9 K\u00fapele", "name": "Slia\u010d", "name:hu": "Szil\u00e1cs", "name:pl": "Slia\u010d", "place": "town", "population": "4845", "postal_code": "962 31", "region_id": "611", "source:name": "http://earth-info.nga.mil/gns/html/cntry_files.html,www.statistics.sk", "wikidata": "Q258439", "wikipedia": "sk:Slia\u010d"}}, "geometry": {"type": "Point", "coordinates": [19.1423663, 48.6131806]}}, {"type": "Feature", "properties": {"type": "node", "id": 26037204, "tags": {"city_id": "514268", "ele": "251", "import_ref": "city_import_sk_1", "loc_name": "Navaky", "name": "Nov\u00e1ky", "name:hu": "Nyitranov\u00e1k", "name:pl": "Nov\u00e1ky", "place": "town", "population": "4427", "postal_code": "972 71", "region_id": "307", "source:name": "http://earth-info.nga.mil/gns/html/cntry_files.html,www.statistics.sk", "wikidata": "Q909301", "wikipedia": "sk:Nov\u00e1ky"}}, "geometry": {"type": "Point", "coordinates": [18.5408304, 48.7164472]}}, {"type": "Feature", "properties": {"type": "node", "id": 26038145, "tags": {"city_id": "513881", "city_type": "county_city", "ele": "266", "import_ref": "city_import_sk_1", "loc_name": "Previdza,Prievidza,Privigye", "name": "Prievidza", "name:de": "Priwitz", "name:hu": "Privigye", "name:pl": "Prievidza", "name:uk": "\u041f\u0440\u0454\u0432\u0456\u0434\u0437\u0430", "place": "town", "population": "50919", "postal_code": "971 01", "region_id": "307", "source:name": "http://earth-info.nga.mil/gns/html/cntry_files.html,www.statistics.sk", "wikidata": "Q208750", "wikipedia": "sk:Prievidza"}}, "geometry": {"type": "Point", "coordinates": [18.6234916, 48.7718361]}}, {"type": "Feature", "properties": {"type": "node", "id": 26036701, "tags": {"city_id": "513903", "ele": "257", "import_ref": "city_import_sk_1", "name": "Bojnice", "name:de": "Weinitz", "name:hu": "Bajm\u00f3c", "name:pl": "Bojnice", "name:uk": "\u0411\u043e\u0439\u043d\u0456\u0446\u0435", "place": "town", "population": "4951", "postal_code": "972 01", "region_id": "307", "source:name": "http://earth-info.nga.mil/gns/html/cntry_files.html,www.statistics.sk", "wikidata": "Q788753", "wikipedia": "sk:Bojnice"}}, "geometry": {"type": "Point", "coordinates": [18.5821986, 48.7799591]}}, {"type": "Feature", "properties": {"type": "node", "id": 26035755, "tags": {"city_id": "513997", "ele": "489", "import_ref": "city_import_sk_1", "name": "Handlov\u00e1", "name:de": "Krickerhau", "name:hu": "Nyitrab\u00e1nya", "name:pl": "Handlov\u00e1", "name:uk": "\u0413\u0430\u043d\u0434\u043b\u043e\u0432\u0430", "old_name": "Krickerhau", "place": "town", "population": "17688", "postal_code": "972 51", "region_id": "307", "source:name": "http://earth-info.nga.mil/gns/html/cntry_files.html,www.statistics.sk", "wikidata": "Q842011", "wikipedia": "sk:Handlov\u00e1"}}, "geometry": {"type": "Point", "coordinates": [18.7626944, 48.7314317]}}, {"type": "Feature", "properties": {"type": "node", "id": 26036360, "tags": {"city_id": "512729", "city_type": "county_city", "ele": "517", "import_ref": "city_import_sk_1", "loc_name": "Turcianske Teplice,Tur\u010dianske Teplice", "name": "Tur\u010dianske Teplice", "name:de": "Bad Stuben", "name:hu": "Stubnyaf\u00fcrd\u0151", "name:pl": "Turcianske Teplice", "name:ru": "\u0422\u0443\u0440\u0447\u044c\u044f\u043d\u0441\u043a\u0435 \u0422\u0435\u043f\u043b\u0438\u0446\u0435", "name:uk": "\u0422\u0443\u0440\u0447'\u044f\u043d\u0441\u044c\u043a\u0435 \u0422\u0435\u043f\u043b\u0456\u0446\u0435", "old_name": "\u0160tubnianske Teplice", "place": "town", "population": "6991", "postal_code": "039 01", "region_id": "509", "source:name": "http://earth-info.nga.mil/gns/html/cntry_files.html,www.statistics.sk", "wikidata": "Q135647", "wikipedia": "sk:Tur\u010dianske Teplice"}}, "geometry": {"type": "Point", "coordinates": [18.8608115, 48.8614083]}}, {"type": "Feature", "properties": {"type": "node", "id": 26038384, "tags": {"city_id": "517917", "ele": "468", "import_ref": "city_import_sk_1", "name": "Rajec", "name:de": "Rajetz", "name:hu": "Rajec", "name:pl": "Rajec", "name:uk": "\u0420\u0430\u0454\u0446", "place": "town", "population": "6076", "postal_code": "015 01", "region_id": "511", "source:name": "http://earth-info.nga.mil/gns/html/cntry_files.html,www.statistics.sk", "website": "http://www.rajec.info/", "wikidata": "Q909333", "wikipedia": "sk:Rajec"}}, "geometry": {"type": "Point", "coordinates": [18.6352209, 49.0886262]}}, {"type": "Feature", "properties": {"type": "node", "id": 26036937, "tags": {"city_id": "516970", "ele": "649", "import_ref": "city_import_sk_1", "loc_name": "Koermoecbanya,Kormoczbanya,Kremnica,Kremnitz,K\u00f6rm\u00f6cb\u00e1nya,K\u00f6rm\u00f6czb\u00e1nya", "name": "Kremnica", "name:de": "Kremnitz", "name:hu": "K\u00f6rm\u00f6cb\u00e1nya", "name:la": "Cremnicium", "name:pl": "Kremnica", "name:ru": "\u041a\u0440\u0435\u043c\u043d\u0438\u0446\u0430", "place": "town", "population": "5558", "postal_code": "967 01", "region_id": "613", "source:name": "http://earth-info.nga.mil/gns/html/cntry_files.html,www.statistics.sk", "wikidata": "Q754776", "wikipedia": "sk:Kremnica"}}, "geometry": {"type": "Point", "coordinates": [18.9165968, 48.7065765]}}, {"type": "Feature", "properties": {"type": "node", "id": 26037873, "tags": {"capital": "4", "city_id": "508438", "city_type": "region_city", "ele": "332", "import_ref": "city_import_sk_1", "is_in:country": "Slovakia", "loc_name": "Banska Bystrica,Bansk\u00e1 Bystrica,Ba\u0144ska Bystrzyca,Besztercebanya", "name": "Bansk\u00e1 Bystrica", "name:ar": "\u0628\u0627\u0646\u0633\u0643\u0627 \u0628\u064a\u0633\u062a\u0631\u064a\u062a\u0633\u0627", "name:de": "Neusohl", "name:en": "Bansk\u00e1 Bystrica", "name:es": "Bansk\u00e1 Bystrica", "name:fr": "Bansk\u00e1 Bystrica", "name:hu": "Beszterceb\u00e1nya", "name:it": "Bansk\u00e1 Bystrica", "name:la": "Neosolium", "name:pl": "Ba\u0144ska Bystrzyca", "name:ru": "\u0411\u0430\u043d\u0441\u043a\u0430-\u0411\u0438\u0441\u0442\u0440\u0438\u0446\u0430", "name:sk": "Bansk\u00e1 Bystrica", "name:sr": "\u0411\u0430\u043d\u0441\u043a\u0430 \u0411\u0438\u0441\u0442\u0440\u0438\u0446\u0430", "name:uk": "\u0411\u0430\u043d\u0441\u044c\u043a\u0430 \u0411\u0438\u0441\u0442\u0440\u0438\u0446\u044f", "old_name": "Ba\u0148sk\u00e1 Bystrica", "place": "city", "population": "80466", "region_id": "601", "source:name": "http://earth-info.nga.mil/gns/html/cntry_files.html,www.statistics.sk", "wikidata": "Q144983", "wikipedia": "en:Bansk\u00e1 Bystrica"}}, "geometry": {"type": "Point", "coordinates": [19.1573494, 48.7384028]}}, {"type": "Feature", "properties": {"type": "node", "id": 26036064, "tags": {"city_id": "512036", "city_type": "county_city", "ele": "411", "import_ref": "city_import_sk_1", "loc_name": "Turciansky Svaty Martin,Tur\u010diansky Sv\u00e4t\u00fd Martin", "name": "Martin", "name:de": "Sankt Martin", "name:hu": "Tur\u00f3cszentm\u00e1rton", "name:pl": "Martin", "name:ru": "\u041c\u0430\u0440\u0442\u0438\u043d", "name:uk": "M\u0430\u0440\u0442\u0456\u043d", "place": "town", "population": "58794", "postal_code": "036 01", "region_id": "506", "source:name": "http://earth-info.nga.mil/gns/html/cntry_files.html,www.statistics.sk", "website": "http://martin.sk/", "wikidata": "Q27001", "wikipedia": "sk:Martin (mesto na Slovensku)"}}, "geometry": {"type": "Point", "coordinates": [18.929193, 49.0724921]}}, {"type": "Feature", "properties": {"type": "node", "id": 26037388, "tags": {"city_id": "511218", "city_type": "county_city", "ele": "168", "import_ref": "city_import_sk_1", "loc_name": "Losonc,Losoncz,Lucenec,Luchenec,Lu\u010denec", "name": "Lu\u010denec", "name:de": "Lizenz", "name:hu": "Losonc", "name:pl": "\u0141uczeniec", "name:ru": "\u041b\u0443\u0447\u0435\u043d\u0435\u0446", "place": "town", "population": "27690", "region_id": "606", "source:name": "http://earth-info.nga.mil/gns/html/cntry_files.html,www.statistics.sk", "wikidata": "Q728965", "wikipedia": "sk:Lu\u010denec"}}, "geometry": {"type": "Point", "coordinates": [19.6637435, 48.3300774]}}, {"type": "Feature", "properties": {"type": "node", "id": 26038066, "tags": {"city_id": "518263", "city_type": "county_city", "ele": "457", "import_ref": "city_import_sk_1", "name": "Detva", "name:hu": "Gyetva", "name:pl": "Detva", "place": "town", "population": "14977", "postal_code": "962 12", "region_id": "604", "source:name": "http://earth-info.nga.mil/gns/html/cntry_files.html,www.statistics.sk", "wikidata": "Q11857", "wikipedia": "sk:Detva"}}, "geometry": {"type": "Point", "coordinates": [19.4152478, 48.5449223]}}, {"type": "Feature", "properties": {"type": "node", "id": 26037655, "tags": {"city_id": "518468", "ele": "521", "import_ref": "city_import_sk_1", "name": "Hri\u0148ov\u00e1", "name:de": "Hrinau", "name:hu": "Herencsv\u00f6lgy", "name:pl": "Hrinova", "old_name:hu": "Hrinyov\u00e1", "place": "town", "population": "7923", "postal_code": "962 05", "region_id": "604", "source:name": "http://earth-info.nga.mil/gns/html/cntry_files.html,www.statistics.sk", "wikidata": "Q846431", "wikipedia": "sk:Hri\u0148ov\u00e1"}}, "geometry": {"type": "Point", "coordinates": [19.525865, 48.5764603]}}, {"type": "Feature", "properties": {"type": "node", "id": 26037578, "tags": {"city_id": "511391", "ele": "178", "import_ref": "city_import_sk_1", "loc_name": "Fulek,F\u00fclek", "name": "Fi\u013eakovo", "name:de": "Fileck", "name:hu": "F\u00fclek", "name:pl": "Filakovo", "name:ru": "\u0424\u0438\u043b\u044f\u043a\u043e\u0432\u043e", "place": "town", "population": "10342", "postal_code": "986 01", "region_id": "606", "source:name": "http://earth-info.nga.mil/gns/html/cntry_files.html,www.statistics.sk", "wikidata": "Q247620", "wikipedia": "sk:Fi\u013eakovo"}}, "geometry": {"type": "Point", "coordinates": [19.8222938, 48.2701641]}}, {"type": "Feature", "properties": {"type": "node", "id": 26036195, "tags": {"city_id": "511765", "city_type": "county_city", "ele": "240", "import_ref": "city_import_sk_1", "name": "Polt\u00e1r", "name:hu": "Polt\u00e1r", "name:pl": "Polt\u00e1r", "place": "town", "population": "5836", "postal_code": "987 01", "region_id": "607", "source:name": "http://earth-info.nga.mil/gns/html/cntry_files.html,www.statistics.sk", "wikidata": "Q259694", "wikipedia": "sk:Polt\u00e1r"}}, "geometry": {"type": "Point", "coordinates": [19.7923921, 48.4308293]}}, {"type": "Feature", "properties": {"type": "node", "id": 26036617, "tags": {"city_id": "514462", "city_type": "county_city", "ele": "193", "import_ref": "city_import_sk_1", "is_in": "Rimavsk\u00e1 Sobota,Banskobystrick\u00fd kraj,Stredn\u00e9 Slovensko,Slovensko", "loc_name": "Rima-Szombat,Rimaszombat,Rimavska Sobota,Rimavsk\u00e1 Sobota,Sobota Rimavska,Sobota Rimavsk\u00e1", "name": "Rimavsk\u00e1 Sobota", "name:de": "Gro\u00dfsteffelsdorf", "name:hu": "Rimaszombat", "name:pl": "Rymawska Sobota", "name:ru": "\u0420\u0438\u043c\u0430\u0432\u0441\u043a\u0430 \u0421\u043e\u0431\u043e\u0442\u0430", "place": "town", "population": "24309", "postal_code": "979 01", "region_id": "609", "source:name": "http://earth-info.nga.mil/gns/html/cntry_files.html,www.statistics.sk", "wikidata": "Q829812", "wikipedia": "sk:Rimavsk\u00e1 Sobota"}}, "geometry": {"type": "Point", "coordinates": [20.0180584, 48.3833603]}}, {"type": "Feature", "properties": {"type": "node", "id": 26036127, "tags": {"city_id": "514829", "ele": "452", "import_ref": "city_import_sk_1", "is_in": "Rimavsk\u00e1 Sobota,Banskobystrick\u00fd kraj,Stredn\u00e9 Slovensko,Slovensko", "name": "Hn\u00fa\u0161\u0165a", "name:de": "Nusten", "name:hu": "Nyustya", "name:pl": "Hn\u00fa\u0161\u0165a", "name:ru": "\u0413\u043d\u0443\u0448\u0442\u044f", "place": "town", "population": "7471", "postal_code": "981 01", "region_id": "609", "source:name": "http://earth-info.nga.mil/gns/html/cntry_files.html,www.statistics.sk", "wikidata": "Q828850", "wikipedia": "sk:Hn\u00fa\u0161\u0165a"}}, "geometry": {"type": "Point", "coordinates": [19.9531888, 48.5787043]}}, {"type": "Feature", "properties": {"type": "node", "id": 26037561, "tags": {"alt_name:de": "Briesen", "city_id": "508497", "city_type": "county_city", "ele": "541", "import_ref": "city_import_sk_1", "name": "Brezno", "name:de": "Bries", "name:hu": "Brezn\u00f3b\u00e1nya", "name:pl": "Brezno", "old_name": "Brezno nad Hronom", "place": "town", "population": "22116", "region_id": "603", "source:name": "http://earth-info.nga.mil/gns/html/cntry_files.html,www.statistics.sk", "website": "https://www.brezno.sk/", "wikidata": "Q465312", "wikipedia": "sk:Brezno"}}, "geometry": {"type": "Point", "coordinates": [19.6409612, 48.8053349]}}, {"type": "Feature", "properties": {"type": "node", "id": 26037771, "tags": {"city_id": "510998", "city_type": "county_city", "ele": "463", "import_ref": "city_import_sk_1", "loc_name": "Rosenberg,Rozahegy,Rozsahegy,Ro\u017aahegy,Ruzomberok,Ru\u017eomberok,R\u00f3zsahegy", "name": "Ru\u017eomberok", "name:de": "Rosenberg", "name:hu": "R\u00f3zsahegy", "name:pl": "Ru\u017comberk", "place": "town", "population": "29793", "region_id": "508", "source:name": "http://earth-info.nga.mil/gns/html/cntry_files.html,www.statistics.sk", "wikidata": "Q27541", "wikipedia": "sk:Ru\u017eomberok"}}, "geometry": {"type": "Point", "coordinates": [19.3034168, 49.0815718]}}, {"type": "Feature", "properties": {"type": "node", "id": 26037848, "tags": {"alt_name:de": "Sankt Nikolaus in der Liptau", "city_id": "510262", "city_type": "county_city", "ele": "561", "import_ref": "city_import_sk_1", "loc_name": "Liptoszentmiklos,Liptovski Mikulash,Liptovsky Mikulas,Liptovsky Svaty Mikulas,Liptovsk\u00fd Mikul\u00e1\u0161,Liptovsk\u00fd Sv\u00e4t\u00fd Mikul\u00e1\u0161,Lipt\u00f3szentmikl\u00f3s", "name": "Liptovsk\u00fd Mikul\u00e1\u0161", "name:de": "Liptau-Sankt-Nikolaus", "name:hu": "Lipt\u00f3szentmikl\u00f3s", "name:pl": "Liptowski Miku\u0142asz", "name:sk": "Liptovsk\u00fd Mikul\u00e1\u0161", "old_name:hu": "Liptovsk\u00fd Sv\u00e4t\u00fd Mikul\u00e1\u0161", "place": "town", "population": "32748", "region_id": "505", "source:name": "http://earth-info.nga.mil/gns/html/cntry_files.html,www.statistics.sk", "wikidata": "Q272040", "wikipedia": "pl:Liptowski Miku\u0142asz"}}, "geometry": {"type": "Point", "coordinates": [19.6164972, 49.0832482]}}, {"type": "Feature", "properties": {"type": "node", "id": 26036952, "tags": {"city_id": "515680", "ele": "520", "import_ref": "city_import_sk_1", "name": "Tisovec", "name:de": "Thei\u00dfholz", "name:hu": "Tiszolc", "name:la": "Taxovia", "name:pl": "Tisovec", "place": "town", "population": "4091", "postal_code": "980 61", "region_id": "609", "source:name": "http://earth-info.nga.mil/gns/html/cntry_files.html,www.statistics.sk", "wikidata": "Q370445", "wikipedia": "sk:Tisovec (okres Rimavsk\u00e1 Sobota)"}}, "geometry": {"type": "Point", "coordinates": [19.9420632, 48.6812756]}}, {"type": "Feature", "properties": {"type": "node", "id": 26037282, "tags": {"city_id": "526142", "city_type": "county_city", "ele": "297", "import_ref": "city_import_sk_1", "is_in": "Rev\u00faca,Banskobystrick\u00fd kraj,Stredn\u00e9 Slovensko,Slovensko", "loc_name": "Nagyroce,Nagyr\u0151ce,Revuca,Rev\u00face", "name": "Rev\u00faca", "name:de": "Gro\u00dfrauschenbach", "name:hu": "Nagyr\u0151ce", "name:pl": "Rev\u00faca", "name:ru": "\u0420\u0435\u0432\u0443\u0446\u0430", "place": "town", "population": "12975", "postal_code": "050 01", "region_id": "608", "source:name": "http://earth-info.nga.mil/gns/html/cntry_files.html,www.statistics.sk", "wikidata": "Q847213"}}, "geometry": {"type": "Point", "coordinates": [20.1166667, 48.6833333]}}, {"type": "Feature", "properties": {"type": "node", "id": 26036903, "tags": {"city_id": "510726", "ele": "643", "import_ref": "city_import_sk_1", "name": "Liptovsk\u00fd Hr\u00e1dok", "name:de": "Liptau-Hradek", "name:hu": "Lipt\u00f3\u00fajv\u00e1r", "name:pl": "Liptowski Gr\u00f3dek", "old_name:de": "Neuh\u00e4usel in der Liptau", "place": "town", "population": "7729", "postal_code": "033 01", "region_id": "505", "source:name": "http://earth-info.nga.mil/gns/html/cntry_files.html,www.statistics.sk", "wikidata": "Q338528", "wikipedia": "sk:Liptovsk\u00fd Hr\u00e1dok"}}, "geometry": {"type": "Point", "coordinates": [19.7217331, 49.0371787]}}, {"type": "Feature", "properties": {"type": "node", "id": 530544392, "tags": {"city_id": "517461", "city_type": "county_city", "ele": "299", "import_ref": "city_import_sk_1", "is_in": "Byt\u010da,\u017dilinsk\u00fd kraj,Stredn\u00e9 Slovensko,Slovensko", "loc_name": "Bitcha,Bytca,Byt\u010da,Nagybiccse", "name": "Byt\u010da", "name:de": "Bitsch", "name:hu": "Nagybiccse", "name:lt": "Bit\u010da", "name:pl": "Byt\u010da", "name:sk": "Byt\u010da", "name:uk": "\u0411\u0438\u0442\u0447\u0430", "place": "town", "population": "11600", "postal_code": "014 01", "region_id": "501", "source:name": "http://earth-info.nga.mil/gns/html/cntry_files.html,www.statistics.sk", "wikidata": "Q27907", "wikipedia": "sk:Byt\u010da"}}, "geometry": {"type": "Point", "coordinates": [18.5586825, 49.2235748]}}, {"type": "Feature", "properties": {"type": "node", "id": 26037683, "tags": {"city_id": "517933", "ele": "431", "import_ref": "city_import_sk_1", "is_in": "\u017dilina,\u017dilinsk\u00fd kraj,Stredn\u00e9 Slovensko,Slovensko", "name": "Rajeck\u00e9 Teplice", "name:de": "Bad Rajetz", "name:hu": "Rajecf\u00fcrd\u0151", "name:pl": "Rajeck\u00e9 Teplice", "name:uk": "\u0420\u0430\u0454\u0446\u043a\u0435 \u0422\u0435\u043f\u043b\u0456\u0446\u0435", "place": "town", "population": "2936", "postal_code": "013 13", "region_id": "511", "source:name": "http://earth-info.nga.mil/gns/html/cntry_files.html,www.statistics.sk", "wikidata": "Q135655", "wikipedia": "sk:Rajeck\u00e9 Teplice"}}, "geometry": {"type": "Point", "coordinates": [18.6828969, 49.1275286]}}, {"type": "Feature", "properties": {"type": "node", "id": 26037035, "tags": {"alt_name:de": "Silein", "city_id": "517402", "city_type": "region_city", "ele": "353", "import_ref": "city_import_sk_1", "is_in": "\u017dilina", "is_in:continent": "Europe", "is_in:country": "Slovakia", "is_in:country_code": "SK", "name": "\u017dilina", "name:ar": "\u062c\u064a\u0644\u064a\u0646\u0627", "name:be": "\u0416\u044b\u043b\u0456\u043d\u0430", "name:de": "Sillein", "name:en": "\u017dilina", "name:es": "\u017dilina", "name:fr": "\u017dilina", "name:hu": "Zsolna", "name:la": "Solna", "name:pl": "\u017bylina", "name:ru": "\u0416\u0438\u043b\u0438\u043d\u0430", "name:sr": "\u0416\u0438\u043b\u0438\u043d\u0430", "name:uk": "\u0416\u0438\u043b\u0456\u043d\u0430", "place": "city", "population": "85558", "ref": "ZA", "region_id": "511", "source:name": "http://earth-info.nga.mil/gns/html/cntry_files.html,www.statistics.sk", "wikidata": "Q25797", "wikipedia": "sk:\u017dilina"}}, "geometry": {"type": "Point", "coordinates": [18.7393139, 49.2234674]}}, {"type": "Feature", "properties": {"type": "node", "id": 26036153, "tags": {"city_id": "509507", "ele": "550", "import_ref": "city_import_sk_1", "is_in": "\u010cadca,\u017dilinsk\u00fd kraj,Stredn\u00e9 Slovensko,Slovensko", "name": "Turzovka", "name:de": "Tursowka", "name:hu": "Turz\u00f3falva", "name:pl": "Turz\u00f3wka", "place": "town", "population": "7754", "postal_code": "023 54", "region_id": "502", "source:name": "http://earth-info.nga.mil/gns/html/cntry_files.html,www.statistics.sk", "wikidata": "Q182903", "wikipedia": "sk:Turzovka"}}, "geometry": {"type": "Point", "coordinates": [18.6259805, 49.4051578]}}, {"type": "Feature", "properties": {"type": "node", "id": 26037045, "tags": {"alt_name:de": "Oberneustadel", "city_id": "509256", "city_type": "county_city", "ele": "358", "import_ref": "city_import_sk_1", "is_in": "Kysuck\u00e9 Nov\u00e9 Mesto,\u017dilinsk\u00fd kraj,Stredn\u00e9 Slovensko,Slovensko", "loc_name": "Kisucke Nove Mesto,Kiszucaujhely,Kiszuca\u00fajhely,Kysucke Nove Mesto,Kysuck\u00e9 Nov\u00e9 Mesto", "name": "Kysuck\u00e9 Nov\u00e9 Mesto", "name:de": "Kisch\u00fctzneustadt", "name:hu": "Kiszuca\u00fajhely", "name:pl": "Kysuck\u00e9 Nov\u00e9 Mesto", "old_name:hu": "Kisuca\u00fajhely", "place": "town", "population": "15132", "region_id": "504", "source:name": "http://earth-info.nga.mil/gns/html/cntry_files.html,www.statistics.sk", "wikidata": "Q516578", "wikipedia": "sk:Kysuck\u00e9 Nov\u00e9 Mesto"}}, "geometry": {"type": "Point", "coordinates": [18.7865084, 49.2999184]}}, {"type": "Feature", "properties": {"type": "node", "id": 26037521, "tags": {"city_id": "509248", "ele": "384", "import_ref": "city_import_sk_1", "is_in": "\u010cadca,\u017dilinsk\u00fd kraj,Stredn\u00e9 Slovensko,Slovensko", "loc_name": "Krasno,Kr\u00e1sno", "name": "Kr\u00e1sno nad Kysucou", "name:de": "Krasno (an der Kisch\u00fctz)", "name:hu": "Kar\u00e1szn\u00f3", "name:pl": "Kr\u00e1sno nad Kysucou", "place": "town", "population": "6790", "postal_code": "023 02", "region_id": "502", "source:name": "http://earth-info.nga.mil/gns/html/cntry_files.html,www.statistics.sk", "start_date": "1325", "website": "http://www.mestokrasno.sk/", "wikidata": "Q909281", "wikipedia": "sk:Kr\u00e1sno nad Kysucou"}}, "geometry": {"type": "Point", "coordinates": [18.8318753, 49.3897116]}}, {"type": "Feature", "properties": {"type": "node", "id": 26037616, "tags": {"city_id": "509132", "city_type": "county_city", "ele": "420", "import_ref": "city_import_sk_1", "is_in": "\u010cadca,\u017dilinsk\u00fd kraj,Stredn\u00e9 Slovensko,Slovensko", "loc_name": "Cadca,Chadca,Csaca,Csacza,Czaca,\u010cadca", "name": "\u010cadca", "name:de": "Tschadsa", "name:hu": "Csaca", "name:pl": "Czadca", "old_name": "\u010caca", "place": "town", "population": "24315", "region_id": "502", "source:name": "http://earth-info.nga.mil/gns/html/cntry_files.html,www.statistics.sk", "wikidata": "Q337478", "wikipedia": "sk:\u010cadca"}}, "geometry": {"type": "Point", "coordinates": [18.7896041, 49.4375146]}}, {"type": "Feature", "properties": {"type": "node", "id": 26038248, "tags": {"city_id": "557358", "ele": "386", "import_ref": "city_import_sk_1", "is_in": "Martin,\u017dilinsk\u00fd kraj,Stredn\u00e9 Slovensko,Slovensko", "name": "Vr\u00fatky", "name:de": "Ruttek", "name:hu": "Ruttka", "name:pl": "Vr\u00fatky", "place": "town", "population": "7347", "postal_code": "038 61", "region_id": "506", "source:name": "http://earth-info.nga.mil/gns/html/cntry_files.html,www.statistics.sk", "wikidata": "Q837456", "wikipedia": "sk:Vr\u00fatky"}}, "geometry": {"type": "Point", "coordinates": [18.9250702, 49.1088603]}}, {"type": "Feature", "properties": {"type": "node", "id": 26038294, "tags": {"city_id": "512681", "ele": "395", "import_ref": "city_import_sk_1", "is_in": "Martin,\u017dilinsk\u00fd kraj,Stredn\u00e9 Slovensko,Slovensko", "loc_name": "Turany nad Vahom", "name": "Turany", "name:hu": "Nagytur\u00e1ny", "name:pl": "Turany", "place": "town", "population": "4364", "postal_code": "038 53", "region_id": "506", "source:name": "http://earth-info.nga.mil/gns/html/cntry_files.html,www.statistics.sk", "website": "https://www.turany.sk/", "wikidata": "Q1023443", "wikipedia": "sk:Turany"}}, "geometry": {"type": "Point", "coordinates": [19.0391539, 49.1163981]}}, {"type": "Feature", "properties": {"type": "node", "id": 26036873, "tags": {"city_id": "509540", "city_type": "county_city", "ele": "596", "import_ref": "city_import_sk_1", "is_in": "Doln\u00fd Kub\u00edn,\u017dilinsk\u00fd kraj,Stredn\u00e9 Slovensko,Slovensko", "loc_name": "Alsokubin,Als\u00f3kubin,Dolni Kubin,Dolny Kubin,Doln\u00ed Kub\u00edn,Doln\u00fd Kub\u00edn", "name": "Doln\u00fd Kub\u00edn", "name:de": "Unterkubin", "name:hu": "Als\u00f3kubin", "name:pl": "Doln\u00fd Kub\u00edn", "place": "town", "population": "19747", "postal_code": "026 01", "region_id": "503", "source:name": "http://earth-info.nga.mil/gns/html/cntry_files.html,www.statistics.sk", "wikidata": "Q589309", "wikipedia": "sk:Doln\u00fd Kub\u00edn"}}, "geometry": {"type": "Point", "coordinates": [19.2953168, 49.2145239]}}, {"type": "Feature", "properties": {"type": "node", "id": 26036744, "tags": {"city_id": "509868", "city_type": "county_city", "ele": "738", "import_ref": "city_import_sk_1", "is_in": "N\u00e1mestovo,\u017dilinsk\u00fd kraj,Stredn\u00e9 Slovensko,Slovensko", "loc_name": "Namestovo,Nameszto,Namiestow,Namiest\u00f3w,N\u00e1mestovo,N\u00e1meszt\u00f3", "name": "N\u00e1mestovo", "name:hu": "N\u00e1meszt\u00f3", "name:pl": "Namiest\u00f3w", "place": "town", "population": "8123", "postal_code": "029 01", "region_id": "507", "source:name": "http://earth-info.nga.mil/gns/html/cntry_files.html,www.statistics.sk", "wikidata": "Q377650", "wikipedia": "sk:N\u00e1mestovo"}}, "geometry": {"type": "Point", "coordinates": [19.4807834, 49.4095122]}}, {"type": "Feature", "properties": {"type": "node", "id": 26037649, "tags": {"city_id": "510114", "city_type": "county_city", "ele": "650", "import_ref": "city_import_sk_1", "name": "Tvrdo\u0161\u00edn", "name:cs": "\u010eur\u010fo\u0161\u00edn", "name:de": "Turdoschin", "name:hu": "Turdossin", "name:pl": "Twardoszyn", "name:ru": "\u0422\u0432\u0440\u0434\u043e\u0448\u0438\u043d", "place": "town", "population": "9401", "postal_code": "027 44", "region_id": "510", "source:name": "http://earth-info.nga.mil/gns/html/cntry_files.html,www.statistics.sk", "wikidata": "Q509715", "wikipedia": "sk:Tvrdo\u0161\u00edn"}}, "geometry": {"type": "Point", "coordinates": [19.5541875, 49.3365743]}}, {"type": "Feature", "properties": {"type": "node", "id": 26038252, "tags": {"city_id": "510106", "ele": "606", "import_ref": "city_import_sk_1", "is_in": "Tvrdo\u0161\u00edn,\u017dilinsk\u00fd kraj,Stredn\u00e9 Slovensko,Slovensko", "loc_name": "Trstena,Trsten\u00e1,Trsztena,Trzciana", "name": "Trsten\u00e1", "name:be": "\u0422\u0440\u0441\u0446\u0435\u043d\u0430", "name:hu": "Trsztena", "name:pl": "Trzciana", "name:ru": "\u0422\u0440\u0441\u0442\u0435\u043d\u0430", "place": "town", "population": "7537", "postal_code": "028 01", "region_id": "510", "source:name": "http://earth-info.nga.mil/gns/html/cntry_files.html,www.statistics.sk", "wikidata": "Q847350", "wikipedia": "sk:Trsten\u00e1"}}, "geometry": {"type": "Point", "coordinates": [19.6078094, 49.3593197]}}, {"type": "Feature", "properties": {"type": "node", "id": 26036918, "tags": {"city_id": "515612", "ele": "172", "import_ref": "city_import_sk_1", "loc_name": "Safarikovo,\u0160af\u00e1rikovo", "name": "Torna\u013ea", "name:hu": "Tornalja", "name:pl": "Torna\u013ea", "name:ru": "\u0422\u043e\u0440\u043d\u0430\u043b\u044f", "place": "town", "population": "7920", "postal_code": "982 01", "region_id": "608", "source:name": "http://earth-info.nga.mil/gns/html/cntry_files.html,www.statistics.sk", "website": "https://www.mestotornala.sk", "wikidata": "Q909291", "wikipedia": "sk:Torna\u013ea"}}, "geometry": {"type": "Point", "coordinates": [20.3232507, 48.4221599]}}, {"type": "Feature", "properties": {"type": "node", "id": 26038012, "tags": {"city_id": "525791", "ele": "246", "import_ref": "city_import_sk_1", "is_in": "Rev\u00faca,Banskobystrick\u00fd kraj,Stredn\u00e9 Slovensko,Slovensko", "loc_name": "Elshava,Jelsava,Jel\u0161ava,Jolsva,Velsava", "name": "Jel\u0161ava", "name:de": "Eltsch", "name:hu": "Jolsva", "name:la": "Alnovia", "name:pl": "Jel\u0161ava", "place": "town", "population": "3152", "postal_code": "049 16", "region_id": "608", "source:name": "http://earth-info.nga.mil/gns/html/cntry_files.html,www.statistics.sk", "wikidata": "Q846853", "wikipedia": "sk:Jel\u0161ava (mesto)"}}, "geometry": {"type": "Point", "coordinates": [20.2402981, 48.627958]}}, {"type": "Feature", "properties": {"type": "node", "id": 26036896, "tags": {"city_id": "525529", "city_type": "county_city", "ele": "385", "import_ref": "city_import_sk_1", "loc_name": "Rozhnjava,Roznava,Rozsnyo,Rozsny\u00f3,Ro\u017e\u0148ava", "name": "Ro\u017e\u0148ava", "name:de": "Rosenau", "name:hu": "Rozsny\u00f3", "name:pl": "Ro\u017cniawa", "name:ru": "\u0420\u043e\u0436\u043d\u044f\u0432\u0430", "place": "town", "population": "17782", "population:date": "2020-12-31", "postal_code": "048 01", "region_id": "808", "source:name": "http://earth-info.nga.mil/gns/html/cntry_files.html,www.statistics.sk", "wikidata": "Q267888", "wikipedia": "sk:Ro\u017e\u0148ava"}}, "geometry": {"type": "Point", "coordinates": [20.5328607, 48.6620675]}}, {"type": "Feature", "properties": {"type": "node", "id": 26037427, "tags": {"city_id": "525634", "ele": "475", "import_ref": "city_import_sk_1", "is_in": "Ro\u017e\u0148ava,Ko\u0161ick\u00fd kraj,V\u00fdchodn\u00e9 Slovensko,Slovensko", "loc_name": "Dobshina;Dob\u0161in\u00e1", "name": "Dob\u0161in\u00e1", "name:de": "Dobschau", "name:hu": "Dobsina", "name:la": "Dobsinium", "name:pl": "Dobszyna", "name:ru": "\u0414\u043e\u0431\u0448\u0438\u043d\u0430", "place": "town", "population": "5148", "postal_code": "049 25", "region_id": "808", "source:name": "http://earth-info.nga.mil/gns/html/cntry_files.html,www.statistics.sk", "wikidata": "Q279005", "wikipedia": "sk:Dob\u0161in\u00e1"}}, "geometry": {"type": "Point", "coordinates": [20.3649119, 48.8211362]}}, {"type": "Feature", "properties": {"type": "node", "id": 26036457, "tags": {"city_id": "523925", "ele": "704", "import_ref": "city_import_sk_1", "is_in": "Poprad,Pre\u0161ovsk\u00fd kraj,V\u00fdchodn\u00e9 Slovensko,Slovensko", "loc_name": "Szvit", "name": "Svit", "name:hu": "Szvit", "name:pl": "\u015awit", "place": "town", "population": "7474", "postal_code": "059 21", "region_id": "706", "source:name": "http://earth-info.nga.mil/gns/html/cntry_files.html,www.statistics.sk", "wikidata": "Q852318", "wikipedia": "sk:Svit (mesto)"}}, "geometry": {"type": "Point", "coordinates": [20.1965291, 49.0582357]}}, {"type": "Feature", "properties": {"type": "node", "id": 203077481, "tags": {"city_id": "523381", "city_type": "county_city", "ele": "687", "is_in": "Poprad,Pre\u0161ovsk\u00fd kraj,V\u00fdchodn\u00e9 Slovensko,Slovensko", "loc_name": "Deutschendorf", "name": "Poprad", "name:de": "Deutschendorf", "name:hu": "Popr\u00e1d", "name:ru": "\u041f\u043e\u043f\u0440\u0430\u0434", "place": "town", "population": "54931", "region_id": "706", "source:name": "http://www.statistics.sk", "wikidata": "Q26393"}}, "geometry": {"type": "Point", "coordinates": [20.2976401, 49.0541521]}}, {"type": "Feature", "properties": {"type": "node", "id": 530544420, "tags": {"city_id": "521671", "ele": "312", "import_ref": "city_import_sk_1", "is_in": "Ko\u0161ice - okolie,Ko\u0161ick\u00fd kraj,V\u00fdchodn\u00e9 Slovensko,Slovensko", "loc_name": "Nizni Medzev,Nizny Medzev,Ni\u017en\u00ed Medzev,Ni\u017en\u00fd Medzev,Unter-Metzenseifen", "name": "Medzev", "name:de": "Metzenseifen", "name:hu": "Meczenz\u00e9f", "name:pl": "Medzev", "name:ru": "\u041c\u0435\u0434\u0437\u0435\u0432", "name:uk": "\u041c\u0435\u0434\u0437\u0435\u0432", "place": "town", "population": "3846", "postal_code": "044 25", "region_id": "806", "source:name": "http://earth-info.nga.mil/gns/html/cntry_files.html,www.statistics.sk", "wikidata": "Q135727", "wikipedia": "sk:Medzev"}}, "geometry": {"type": "Point", "coordinates": [20.892266, 48.7003257]}}, {"type": "Feature", "properties": {"type": "node", "id": 26038139, "tags": {"city_id": "526509", "city_type": "county_city", "ele": "545", "import_ref": "city_import_sk_1", "is_in": "Gelnica,Ko\u0161ick\u00fd kraj,V\u00fdchodn\u00e9 Slovensko,Slovensko", "loc_name": "Gelnica,Goelnicbanya,Gollnitz,G\u00f6lnicb\u00e1nya", "name": "Gelnica", "name:de": "G\u00f6llnitz", "name:hu": "G\u00f6lnicb\u00e1nya", "name:pl": "Gelnica", "name:uk": "\u0490\u0435\u043b\u043d\u0456\u0446\u0430", "place": "town", "population": "6157", "postal_code": "056 01", "region_id": "801", "source:name": "http://earth-info.nga.mil/gns/html/cntry_files.html,www.statistics.sk", "wikidata": "Q842028", "wikipedia": "sk:Gelnica", "wikipedia:pl": "Gelnica"}}, "geometry": {"type": "Point", "coordinates": [20.9369156, 48.8532052]}}, {"type": "Feature", "properties": {"type": "node", "id": 26037190, "tags": {"alt_name:pl": "Spiska Nowa Wie\u015b", "city_id": "526355", "city_type": "county_city", "ele": "452", "import_ref": "city_import_sk_1", "is_in": "Spi\u0161sk\u00e1 Nov\u00e1 Ves,Ko\u0161ick\u00fd kraj,V\u00fdchodn\u00e9 Slovensko,Slovensko", "loc_name": "Iglo,Igl\u00f3,Neudorf,Spishska Nova Ves,Spiska Nowa Wies,Spiska Nowa Wie\u015b,Spisska,Spisska Nova Ves,Spi\u0161sk\u00e1,Spi\u0161sk\u00e1 Nov\u00e1 Ves", "name": "Spi\u0161sk\u00e1 Nov\u00e1 Ves", "name:de": "Zipser Neudorf", "name:hu": "Igl\u00f3", "name:pl": "Nowa Wie\u015b Spiska", "name:ru": "\u0421\u043f\u0438\u0448\u0441\u043a\u0430 \u041d\u043e\u0432\u0430 \u0412\u0435\u0441", "place": "town", "population": "38257", "region_id": "810", "source:name": "http://earth-info.nga.mil/gns/html/cntry_files.html,www.statistics.sk", "wikidata": "Q462840", "wikipedia": "pl:Nowa Wie\u015b Spiska"}}, "geometry": {"type": "Point", "coordinates": [20.562964, 48.9435344]}}, {"type": "Feature", "properties": {"type": "node", "id": 26036345, "tags": {"city_id": "543292", "city_type": "county_city", "ele": "650", "heritage": "1", "heritage:operator": "whc", "import_ref": "city_import_sk_1", "is_in": "Levo\u010da,Pre\u0161ovsk\u00fd kraj,V\u00fdchodn\u00e9 Slovensko,Slovensko", "loc_name": "Leutschau,Levoca,Levocha,Levo\u010da,Locse,L\u00f6cse,L\u0151cse", "name": "Levo\u010da", "name:de": "Leutschau", "name:hu": "L\u0151cse", "name:la": "Leutsovia", "name:pl": "Lewocza", "place": "town", "population": "14716", "postal_code": "054 01", "region_id": "704", "source:name": "http://earth-info.nga.mil/gns/html/cntry_files.html,www.statistics.sk", "wikidata": "Q242478", "wikipedia": "sk:Levo\u010da"}}, "geometry": {"type": "Point", "coordinates": [20.587999, 49.0251116]}}, {"type": "Feature", "properties": {"type": "node", "id": 26038123, "tags": {"city_id": "543578", "ele": "468", "import_ref": "city_import_sk_1", "is_in": "Levo\u010da,Pre\u0161ovsk\u00fd kraj,V\u00fdchodn\u00e9 Slovensko,Slovensko", "loc_name": "Spishske Podgra\u010fe,Spiskie Podhradie,Spisske Podhradie,Spi\u015bkie Podhradie,Spi\u0161sk\u00e9 Podhradie,Szepesvaralja,Szepesv\u00e1ralja", "name": "Spi\u0161sk\u00e9 Podhradie", "name:de": "Kirchdrauf", "name:hu": "Szepesv\u00e1ralja", "name:pl": "Spiskie Podgrodzie", "name:uk": "\u0421\u043f\u0456\u0448\u0441\u043a\u0435 \u041f\u043e\u0434\u0433\u0440\u0430\u0434\u0456\u0454", "old_name:de": "Kirchdorf", "place": "town", "population": "3892", "postal_code": "053 04", "region_id": "704", "source:name": "http://earth-info.nga.mil/gns/html/cntry_files.html,www.statistics.sk", "wikidata": "Q537778", "wikipedia": "sk:Spi\u0161sk\u00e9 Podhradie"}}, "geometry": {"type": "Point", "coordinates": [20.7510716, 49.000035]}}, {"type": "Feature", "properties": {"type": "node", "id": 26037425, "tags": {"city_id": "543594", "ele": "382", "import_ref": "city_import_sk_1", "is_in": "Spi\u0161sk\u00e1 Nov\u00e1 Ves,Ko\u0161ick\u00fd kraj,V\u00fdchodn\u00e9 Slovensko,Slovensko", "name": "Spi\u0161sk\u00e9 Vlachy", "name:de": "Wallendorf", "name:hu": "Szepesolaszi", "name:la": "Latina villa", "name:pl": "Spiskie W\u0142ochy", "name:uk": "\u0421\u043f\u0456\u0448\u0441\u043a\u0435 \u0412\u043b\u0430\u0445\u0438", "place": "town", "population": "3635", "postal_code": "053 61", "region_id": "810", "source:name": "http://earth-info.nga.mil/gns/html/cntry_files.html,www.statistics.sk", "wikidata": "Q524405", "wikipedia": "sk:Spi\u0161sk\u00e9 Vlachy"}}, "geometry": {"type": "Point", "coordinates": [20.7974076, 48.9466482]}}, {"type": "Feature", "properties": {"type": "node", "id": 26036409, "tags": {"city_id": "543268", "ele": "387", "import_ref": "city_import_sk_1", "is_in": "Spi\u0161sk\u00e1 Nov\u00e1 Ves,Ko\u0161ick\u00fd kraj,V\u00fdchodn\u00e9 Slovensko,Slovensko", "loc_name": "Korompa,Krompachi,Krompachy,Krompakhi", "name": "Krompachy", "name:de": "Krompach", "name:hu": "Korompa", "name:pl": "Krompachy", "name:uk": "\u041a\u0440\u043e\u043c\u043f\u0430\u0445\u0438", "place": "town", "population": "8809", "postal_code": "053 42", "region_id": "810", "source:name": "http://earth-info.nga.mil/gns/html/cntry_files.html,www.statistics.sk", "wikidata": "Q842018", "wikipedia": "sk:Krompachy"}}, "geometry": {"type": "Point", "coordinates": [20.8754977, 48.9144118]}}, {"type": "Feature", "properties": {"type": "node", "id": 530544418, "tags": {"city_id": "521698", "ele": "220", "import_ref": "city_import_sk_1", "is_in": "Ko\u0161ice - okolie,Ko\u0161ick\u00fd kraj,V\u00fdchodn\u00e9 Slovensko,Slovensko", "name": "Moldava nad Bodvou", "name:de": "Moldau an der Bodwa", "name:hu": "Szepsi", "name:pl": "Moldava nad Bodvou", "name:uk": "\u041c\u043e\u043b\u0434\u0430\u0432\u0430-\u043d\u0430\u0434-\u0411\u043e\u0434\u0432\u043e\u0443", "place": "town", "population": "11000", "postal_code": "045 01", "region_id": "806", "source:name": "http://earth-info.nga.mil/gns/html/cntry_files.html,www.statistics.sk", "wikidata": "Q846440", "wikipedia": "sk:Moldava nad Bodvou"}}, "geometry": {"type": "Point", "coordinates": [20.9973314, 48.6141424]}}, {"type": "Feature", "properties": {"type": "node", "id": 26037195, "tags": {"city_id": "528099", "city_type": "county_city", "ele": "110", "import_ref": "city_import_sk_1", "is_in": "Trebi\u0161ov,Ko\u0161ick\u00fd kraj,V\u00fdchodn\u00e9 Slovensko,Slovensko", "loc_name": "Toketerebes,Trebishov,Trebisov,Trebi\u0161ov,T\u0151keterebes", "name": "Trebi\u0161ov", "name:de": "Trebischau", "name:hu": "T\u0151keterebes", "name:pl": "Trzebisz\u00f3w", "name:ru": "\u0422\u0440\u0435\u0431\u0438\u0448\u043e\u0432", "name:uk": "\u0422\u0440\u0435\u0431\u0456\u0448\u043e\u0432", "place": "town", "population": "23305", "postal_code": "075 01", "region_id": "811", "source:name": "http://earth-info.nga.mil/gns/html/cntry_files.html,www.statistics.sk", "wikidata": "Q256301", "wikipedia": "sk:Trebi\u0161ov"}}, "geometry": {"type": "Point", "coordinates": [21.7201711, 48.6286222]}}, {"type": "Feature", "properties": {"type": "node", "id": 530544488, "tags": {"city_id": "599981", "city_type": "region_city", "contact:instagram": "https://www.instagram.com/kosice_official/", "contact:rss": "https://www.kosice.sk/rss/aktuality", "ele": "208", "name": "Ko\u0161ice", "name:ar": "\u0643\u0648\u0634\u064a\u062a\u0633\u0647", "name:cs": "Ko\u0161ice", "name:de": "Kaschau", "name:en": "Ko\u0161ice", "name:es": "Ko\u0161ice", "name:fr": "Ko\u0161ice", "name:he": "\u05e7\u05d5\u05e9\u05d9\u05e6\u05d4", "name:hu": "Kassa", "name:ja": "\u30b3\u30b7\u30c4\u30a7", "name:la": "Cassovia", "name:lt": "Ko\u0161ic\u0117", "name:pl": "Koszyce", "name:ro": "Ca\u0219ovia", "name:ru": "\u041a\u043e\u0448\u0438\u0446\u0435", "name:sr": "\u041a\u043e\u0448\u0438\u0446\u0435", "name:tr": "Cana", "name:uk": "\u041a\u043e\u0448\u0438\u0446\u0456", "old_name": "Kassa", "old_name:fr": "Cassovie", "place": "city", "population": "238593", "source:name": "https://www.statistics.sk/", "website": "https://www.kosice.sk/", "wikidata": "Q25409", "wikipedia": "sk:Ko\u0161ice", "year": "1230"}}, "geometry": {"type": "Point", "coordinates": [21.2496774, 48.7172272]}}, {"type": "Feature", "properties": {"type": "node", "id": 26037569, "tags": {"city_id": "524140", "city_type": "region_city", "ele": "227", "import_ref": "city_import_sk_1", "is_in": "Pre\u0161ov,Pre\u0161ovsk\u00fd kraj,V\u00fdchodn\u00e9 Slovensko,Slovensko", "is_in:continent": "Europe", "is_in:country": "Slovakia", "is_in:country_code": "SK", "loc_name": "Eperjes,Presov,Presova,Preszow,Presz\u00f3w,Pre\u0161ov,Pre\u0161ova", "name": "Pre\u0161ov", "name:ar": "\u0628\u0631\u064a\u0634\u0648\u0641", "name:de": "Preschau", "name:en": "Pre\u0161ov", "name:es": "Pre\u0161ov", "name:fr": "Pre\u0161ov", "name:hu": "Eperjes", "name:lt": "Pre\u0161ovas", "name:pl": "Presz\u00f3w", "name:ru": "\u041f\u0440\u0435\u0448\u043e\u0432", "name:sk": "Pre\u0161ov", "name:sr": "\u041f\u0440\u0435\u0448\u043e\u0432", "name:uk": "\u041f\u0440\u044f\u0448\u0456\u0432", "place": "city", "population": "91498", "region_id": "707", "source:name": "http://earth-info.nga.mil/gns/html/cntry_files.html,www.statistics.sk", "website": "https://www.presov.sk/", "wikidata": "Q26119", "wikipedia": "sk:Pre\u0161ov"}}, "geometry": {"type": "Point", "coordinates": [21.2401811, 48.9975724]}}, {"type": "Feature", "properties": {"type": "node", "id": 26035900, "tags": {"city_id": "525405", "ele": "304", "import_ref": "city_import_sk_1", "is_in": "Pre\u0161ov,Pre\u0161ovsk\u00fd kraj,V\u00fdchodn\u00e9 Slovensko,Slovensko", "name": "Ve\u013ek\u00fd \u0160ari\u0161", "name:de": "Gro\u00df-Scharosch", "name:hu": "Nagys\u00e1ros", "name:pl": "Wielki Szarysz", "name:uk": "\u0412\u0435\u043b\u044c\u043a\u0438 \u0428\u0430\u0440\u0438\u0448", "place": "town", "population": "4941", "postal_code": "082 21", "region_id": "707", "source:name": "http://earth-info.nga.mil/gns/html/cntry_files.html,www.statistics.sk", "wikidata": "Q852313", "wikipedia": "sk:Ve\u013ek\u00fd \u0160ari\u0161"}}, "geometry": {"type": "Point", "coordinates": [21.2, 49.05]}}, {"type": "Feature", "properties": {"type": "node", "id": 26036807, "tags": {"city_id": "528722", "ele": "112", "import_ref": "city_import_sk_1", "is_in": "Trebi\u0161ov,Ko\u0161ick\u00fd kraj,V\u00fdchodn\u00e9 Slovensko,Slovensko", "name": "Se\u010dovce", "name:hu": "G\u00e1lsz\u00e9cs", "name:pl": "Seczowce", "place": "town", "population": "8116", "postal_code": "078 01", "region_id": "811", "source:name": "http://earth-info.nga.mil/gns/html/cntry_files.html,www.statistics.sk", "wikidata": "Q847336", "wikipedia": "sk:Se\u010dovce"}}, "geometry": {"type": "Point", "coordinates": [21.6555995, 48.7015059]}}, {"type": "Feature", "properties": {"type": "node", "id": 26035910, "tags": {"city_id": "544213", "ele": "184", "import_ref": "city_import_sk_1", "is_in": "Vranov nad Top\u013eou,Pre\u0161ovsk\u00fd kraj,V\u00fdchodn\u00e9 Slovensko,Slovensko", "loc_name": "Hanusovce", "name": "Hanu\u0161ovce nad Top\u013eou", "name:hu": "Tapolyhanusfalva", "name:pl": "Hanu\u0161ovce nad Top\u013eou", "place": "town", "population": "3712", "postal_code": "094 31", "region_id": "713", "source:name": "http://earth-info.nga.mil/gns/html/cntry_files.html,www.statistics.sk", "wikidata": "Q780527", "wikipedia": "sk:Hanu\u0161ovce nad Top\u013eou"}}, "geometry": {"type": "Point", "coordinates": [21.5022473, 49.0268791]}}, {"type": "Feature", "properties": {"type": "node", "id": 26038421, "tags": {"city_id": "544051", "city_type": "county_city", "ele": "188", "import_ref": "city_import_sk_1", "is_in": "Vranov nad Top\u013eou,Pre\u0161ovsk\u00fd kraj,V\u00fdchodn\u00e9 Slovensko,Slovensko", "loc_name": "Varanno,Varann\u00f3,Vranov,Vranov nad Toplou,Vranov nad Top\u013eou,Vranov", "name": "Vranov nad Top\u013eou", "name:de": "Fr\u00f6hnel", "name:hu": "Varann\u00f3", "name:pl": "Vranov nad Top\u013eou", "name:ru": "\u0412\u0440\u0430\u043d\u043e\u0432-\u043d\u0430\u0434-\u0422\u043e\u043f\u043b\u0451\u0443", "name:uk": "\u0412\u0440\u0430\u043d\u043e\u0432-\u043d\u0430\u0434-\u0422\u043e\u043f\u043b\u044c\u043e\u0443", "place": "town", "population": "23109", "region_id": "713", "source:name": "http://earth-info.nga.mil/gns/html/cntry_files.html,www.statistics.sk", "wikidata": "Q842005", "wikipedia": "sk:Vranov nad Top\u013eou"}}, "geometry": {"type": "Point", "coordinates": [21.6822318, 48.8891513]}}, {"type": "Feature", "properties": {"type": "node", "id": 26038409, "tags": {"city_id": "560103", "ele": "853", "import_ref": "city_import_sk_1", "is_in": "Poprad,Pre\u0161ovsk\u00fd kraj,V\u00fdchodn\u00e9 Slovensko,Slovensko", "loc_name": "Smokovec", "name": "Vysok\u00e9 Tatry", "name:de": "Hohe Tatra", "name:hu": "T\u00e1traf\u00fcred", "name:pl": "Wysokie Tatry", "place": "town", "population": "4593", "postal_code": "062 01", "region_id": "706", "source:name": "http://earth-info.nga.mil/gns/html/cntry_files.html,www.statistics.sk", "wikidata": "Q612516", "wikipedia": "sk:Vysok\u00e9 Tatry (mesto)"}}, "geometry": {"type": "Point", "coordinates": [20.220797, 49.1385895]}}, {"type": "Feature", "properties": {"type": "node", "id": 26036067, "tags": {"alt_name:de": "Kesmark", "city_id": "523585", "city_type": "county_city", "ele": "600", "import_ref": "city_import_sk_1", "is_in": "Ke\u017emarok,Pre\u0161ovsk\u00fd kraj,V\u00fdchodn\u00e9 Slovensko,Slovensko", "loc_name": "Kasmark,Kesmark,Kezhmarok,Kezmarok,Kezmarokas,Ke\u017emarok,Ke\u017emarokas,Kiezmark,Kie\u017cmark,K\u00e4smark,K\u00e9sm\u00e1rk", "name": "Ke\u017emarok", "name:de": "K\u00e4smark", "name:hu": "K\u00e9sm\u00e1rk", "name:la": "Kesmarkium", "name:pl": "Kie\u017cmark", "name:ru": "\u041a\u0435\u0436\u043c\u0430\u0440\u043e\u043a", "place": "town", "population": "17013", "postal_code": "060 01", "region_id": "703", "source:name": "http://earth-info.nga.mil/gns/html/cntry_files.html,www.statistics.sk", "wikidata": "Q327977", "wikipedia": "sk:Ke\u017emarok"}}, "geometry": {"type": "Point", "coordinates": [20.4308701, 49.1362088]}}, {"type": "Feature", "properties": {"type": "node", "id": 26037553, "tags": {"city_id": "523828", "ele": "583", "import_ref": "city_import_sk_1", "is_in": "Ke\u017emarok,Pre\u0161ovsk\u00fd kraj,V\u00fdchodn\u00e9 Slovensko,Slovensko", "name": "Spi\u0161sk\u00e1 Bel\u00e1", "name:de": "Zipser Bela", "name:hu": "Szepesb\u00e9la", "name:pl": "Bia\u0142a Spiska", "place": "town", "population": "6265", "postal_code": "059 01", "region_id": "703", "source:name": "http://earth-info.nga.mil/gns/html/cntry_files.html,www.statistics.sk", "wikidata": "Q605059", "wikipedia": "sk:Spi\u0161sk\u00e1 Bel\u00e1"}}, "geometry": {"type": "Point", "coordinates": [20.4553246, 49.1900051]}}, {"type": "Feature", "properties": {"type": "node", "id": 26037628, "tags": {"city_id": "526975", "ele": "632", "import_ref": "city_import_sk_1", "is_in": "Star\u00e1 \u013dubov\u0148a,Pre\u0161ovsk\u00fd kraj,V\u00fdchodn\u00e9 Slovensko,Slovensko", "name": "Podol\u00ednec", "name:de": "Pudlein", "name:hu": "Podolin", "name:pl": "Podoliniec", "name:sk": "Podol\u00ednec", "place": "town", "population": "3243", "postal_code": "065 03", "region_id": "710", "source:name": "http://earth-info.nga.mil/gns/html/cntry_files.html,www.statistics.sk", "wikidata": "Q852324", "wikipedia": "sk:Podol\u00ednec"}}, "geometry": {"type": "Point", "coordinates": [20.5351371, 49.256989]}}, {"type": "Feature", "properties": {"type": "node", "id": 26036678, "tags": {"city_id": "523836", "ele": "576", "import_ref": "city_import_sk_1", "is_in": "Ke\u017emarok,Pre\u0161ovsk\u00fd kraj,V\u00fdchodn\u00e9 Slovensko,Slovensko", "loc_name": "Altendorf,Szepesofalu,Szepes\u00f3falu", "name": "Spi\u0161sk\u00e1 Star\u00e1 Ves", "name:de": "Altdorf", "name:hu": "Szepes\u00f3falu", "name:pl": "Stara Wie\u015b Spiska", "place": "town", "population": "2329", "postal_code": "061 01", "region_id": "703", "source:name": "http://earth-info.nga.mil/gns/html/cntry_files.html,www.statistics.sk", "wikidata": "Q592301", "wikipedia": "sk:Spi\u0161sk\u00e1 Star\u00e1 Ves"}}, "geometry": {"type": "Point", "coordinates": [20.3598135, 49.383146]}}, {"type": "Feature", "properties": {"type": "node", "id": 2137762280, "tags": {"alt_name:uk": "\u041b\u0438\u043f\u0430\u043d\u0438", "city_id": "524778", "is_in": "Sabinov,Pre\u0161ovsk\u00fd kraj,V\u00fdchodn\u00e9 Slovensko,Slovensko", "name": "Lipany", "name:de": "Siebenlinden", "name:hu": "H\u00e9th\u00e1rs", "name:la": "Septemtiliae", "name:pl": "Lipany", "name:ru": "\u041b\u0438\u043f\u0430\u043d\u044b", "name:uk": "\u041b\u0456\u043f\u0430\u043d\u0438", "place": "town", "population": "6302", "postal_code": "082 71", "region_id": "708", "wikidata": "Q847118", "wikipedia": "sk:Lipany"}}, "geometry": {"type": "Point", "coordinates": [20.9630923, 49.152629]}}, {"type": "Feature", "properties": {"type": "node", "id": 26037357, "tags": {"alt_name:de": "Lublau", "alt_name:pl": "Lubowla", "city_id": "526665", "city_type": "county_city", "ele": "557", "import_ref": "city_import_sk_1", "is_in": "Star\u00e1 \u013dubov\u0148a,Pre\u0161ovsk\u00fd kraj,V\u00fdchodn\u00e9 Slovensko,Slovensko", "name": "Star\u00e1 \u013dubov\u0148a", "name:de": "Altlublau", "name:hu": "\u00d3lubl\u00f3", "name:pl": "Stara Lubowla", "name:sk": "Star\u00e1 \u013dubov\u0148a", "name:uk": "\u0421\u0442\u0430\u0440\u0430 \u041b\u044e\u0431\u043e\u0432\u043d\u044f", "old_name:pl": "Lubowla", "place": "town", "population": "16338", "postal_code": "064 01", "region_id": "710", "source:name": "http://earth-info.nga.mil/gns/html/cntry_files.html,www.statistics.sk", "wikidata": "Q605521", "wikipedia": "sk:Star\u00e1 \u013dubov\u0148a"}}, "geometry": {"type": "Point", "coordinates": [20.6889231, 49.3001533]}}, {"type": "Feature", "properties": {"type": "node", "id": 26036518, "tags": {"city_id": "525146", "city_type": "county_city", "ele": "331", "import_ref": "city_import_sk_1", "loc_name": "Kisseben,Kisszeben,Sabinov,Zeben", "name": "Sabinov", "name:de": "Zeben", "name:hu": "Kisszeben", "name:la": "Cibinium", "name:pl": "Sabinov", "place": "town", "population": "12489", "postal_code": "083 01", "region_id": "708", "source:name": "http://earth-info.nga.mil/gns/html/cntry_files.html,www.statistics.sk", "wikidata": "Q837478", "wikipedia": "sk:Sabinov"}}, "geometry": {"type": "Point", "coordinates": [21.0973337, 49.102674]}}, {"type": "Feature", "properties": {"type": "node", "id": 26037409, "tags": {"city_id": "519006", "city_type": "county_city", "ele": "353", "heritage": "1", "heritage:operator": "whc", "import_ref": "city_import_sk_1", "is_in": "Bardejov,Pre\u0161ovsk\u00fd kraj,V\u00fdchodn\u00e9 Slovensko,Slovensko", "loc_name": "Bardejov,Bartfa,Bartfeld,B\u00e1rtf", "name": "Bardejov", "name:de": "Bartfeld", "name:hu": "B\u00e1rtfa", "name:pl": "Bardej\u00f3w", "name:sk": "Bardejov", "name:uk": "\u0411\u0430\u0440\u0434\u0435\u0439\u043e\u0432", "place": "town", "population": "33405", "postal_code": "085 01", "region_id": "701", "source:name": "http://earth-info.nga.mil/gns/html/cntry_files.html,www.statistics.sk", "wikidata": "Q27007", "wikipedia": "sk:Bardejov"}}, "geometry": {"type": "Point", "coordinates": [21.2756031, 49.2926871]}}, {"type": "Feature", "properties": {"type": "node", "id": 26037902, "tags": {"city_id": "519197", "ele": "246", "import_ref": "city_import_sk_1", "is_in": "Svidn\u00edk,Pre\u0161ovsk\u00fd kraj,V\u00fdchodn\u00e9 Slovensko,Slovensko", "loc_name": "Oiraltovce", "name": "Giraltovce", "name:hu": "Gir\u00e1lt", "name:pl": "Giraltovce", "name:ru": "\u0413\u0438\u0440\u0430\u043b\u0442\u043e\u0432\u0446\u0435", "name:uk": "\u0490\u0456\u0440\u0430\u043b\u0442\u043e\u0432\u0446\u0435", "place": "town", "population": "4166", "postal_code": "087 01", "region_id": "712", "source:name": "http://earth-info.nga.mil/gns/html/cntry_files.html,www.statistics.sk", "wikidata": "Q550357", "wikipedia": "sk:Giraltovce"}}, "geometry": {"type": "Point", "coordinates": [21.5166587, 49.1135267]}}, {"type": "Feature", "properties": {"type": "node", "id": 26037584, "tags": {"city_id": "527840", "city_type": "county_city", "ele": "221", "import_ref": "city_import_sk_1", "is_in": "Stropkov,Pre\u0161ovsk\u00fd kraj,V\u00fdchodn\u00e9 Slovensko,Slovensko", "loc_name": "Stropkov,Sztropko,Sztropk\u00f3", "name": "Stropkov", "name:de": "Stroppkau", "name:hu": "Sztropk\u00f3", "name:pl": "Stropkow", "name:uk": "\u0421\u0442\u0440\u043e\u043f\u043a\u0456\u0432", "place": "town", "population": "10833", "postal_code": "091 01", "region_id": "711", "source:name": "http://earth-info.nga.mil/gns/html/cntry_files.html,www.statistics.sk", "wikidata": "Q750413", "wikipedia": "sk:Stropkov"}}, "geometry": {"type": "Point", "coordinates": [21.6521343, 49.2020091]}}, {"type": "Feature", "properties": {"type": "node", "id": 26038362, "tags": {"city_id": "527106", "city_type": "county_city", "ele": "216", "import_ref": "city_import_sk_1", "is_in": "Svidn\u00edk,Pre\u0161ovsk\u00fd kraj,V\u00fdchodn\u00e9 Slovensko,Slovensko", "loc_name": "Felsovizkoez,Fels\u0151v\u00edzk\u00f6z,Svidnik,Svidn\u00edk,Vysnyj Svidnik,Vy\u0161nyj Svidnik", "name": "Svidn\u00edk", "name:de": "Oberswidnik", "name:hu": "Fels\u0151v\u00edzk\u00f6z", "name:lt": "Svidnykas", "name:pl": "\u015awidnik", "name:ru": "\u0421\u0432\u0438\u0434\u043d\u0438\u043a", "name:rue": "\u0421\u0432\u0456\u0434\u043d\u0438\u043a", "name:sr": "\u0421\u0432\u0438\u0434\u045a\u0438\u043a", "name:uk": "\u0421\u0432\u0438\u0434\u043d\u0438\u043a", "name:zh": "\u65af\u7dad\u5fb7\u5c3c\u514b", "place": "town", "population": "12156", "postal_code": "089 01", "region_id": "712", "source:name": "http://earth-info.nga.mil/gns/html/cntry_files.html,www.statistics.sk", "wikidata": "Q833845", "wikipedia": "sk:Svidn\u00edk"}}, "geometry": {"type": "Point", "coordinates": [21.5733508, 49.3085082]}}, {"type": "Feature", "properties": {"type": "node", "id": 26036960, "tags": {"city_id": "528447", "ele": "100", "import_ref": "city_import_sk_1", "is_in": "Trebi\u0161ov,Ko\u0161ick\u00fd kraj,V\u00fdchodn\u00e9 Slovensko,Slovensko", "loc_name": "Kiraly Helmecz,Kiraly-Helmec,Kir\u00e1ly Helmecz,Kir\u00e1ly-Helmec,Kra\u013eovsky Chlumec,Krulovsky,Kr\u00e1\u013eovsk\u00fd Chlumec", "name": "Kr\u00e1\u013eovsk\u00fd Chlmec", "name:hu": "Kir\u00e1lyhelmec", "place": "town", "population": "7862", "postal_code": "077 01", "region_id": "811", "source:name": "http://earth-info.nga.mil/gns/html/cntry_files.html,www.statistics.sk", "wikidata": "Q135667", "wikipedia": "sk:Kr\u00e1\u013eovsk\u00fd Chlmec"}}, "geometry": {"type": "Point", "coordinates": [21.9804775, 48.4223618]}}, {"type": "Feature", "properties": {"type": "node", "id": 26037089, "tags": {"city_id": "528293", "ele": "102", "import_ref": "city_import_sk_1", "is_in": "Trebi\u0161ov,Ko\u0161ick\u00fd kraj,V\u00fdchodn\u00e9 Slovensko,Slovensko", "loc_name": "Agcsernyo,Cerna,Cherna,Cierna,Cserno,Csern\u0151,\u010cern\u00e1,\u010cierna", "name": "\u010cierna nad Tisou", "name:hu": "Tiszacserny\u0151", "name:pl": "Czerna nad Cis\u0105", "place": "town", "population": "4162", "postal_code": "076 43", "region_id": "811", "source:name": "http://earth-info.nga.mil/gns/html/cntry_files.html,www.statistics.sk", "wikidata": "Q212590", "wikipedia": "sk:\u010cierna nad Tisou"}}, "geometry": {"type": "Point", "coordinates": [22.0887368, 48.4166409]}}, {"type": "Feature", "properties": {"type": "node", "id": 26038399, "tags": {"city_id": "543853", "ele": "103", "import_ref": "city_import_sk_1", "is_in": "Michalovce,Ko\u0161ick\u00fd kraj,V\u00fdchodn\u00e9 Slovensko,Slovensko", "loc_name": "Kapusany,Kapu\u0161any,Nagy-Kapos", "name": "Ve\u013ek\u00e9 Kapu\u0161any", "name:hu": "Nagykapos", "name:pl": "Wielkie Kapuszany", "place": "town", "population": "9549", "postal_code": "079 01", "region_id": "807", "source:name": "http://earth-info.nga.mil/gns/html/cntry_files.html,www.statistics.sk", "wikidata": "Q842022", "wikipedia": "sk:Ve\u013ek\u00e9 Kapu\u0161any"}}, "geometry": {"type": "Point", "coordinates": [22.0773719, 48.5538814]}}, {"type": "Feature", "properties": {"type": "node", "id": 26036417, "tags": {"city_id": "522279", "city_type": "county_city", "ele": "103", "import_ref": "city_import_sk_1", "is_in": "Michalovce,Ko\u0161ick\u00fd kraj,V\u00fdchodn\u00e9 Slovensko,Slovensko", "loc_name": "Michalovce,Mikhalovce,Nagymihaly,Nagymih\u00e1ly", "name": "Michalovce", "name:de": "Gro\u00dfmichel", "name:hu": "Nagymih\u00e1ly", "name:pl": "Michalovce", "name:ru": "\u041c\u0438\u0445\u0430\u043b\u043e\u0432\u0446\u0435", "name:uk": "\u041c\u0438\u0445\u0430\u0439\u043b\u0456\u0432\u0446\u0456", "place": "town", "population": "39694", "postal_code": "071 01", "region_id": "807", "source:name": "http://earth-info.nga.mil/gns/html/cntry_files.html,www.statistics.sk", "wikidata": "Q460925", "wikipedia": "sk:Michalovce"}}, "geometry": {"type": "Point", "coordinates": [21.9211949, 48.7514383]}}, {"type": "Feature", "properties": {"type": "node", "id": 26037916, "tags": {"city_id": "523101", "ele": "123", "import_ref": "city_import_sk_1", "is_in": "Michalovce,Ko\u0161ick\u00fd kraj,V\u00fdchodn\u00e9 Slovensko,Slovensko", "name": "Str\u00e1\u017eske", "name:de": "Straschke", "name:hu": "\u0150rmez\u0151", "name:pl": "Str\u00e1\u017eske", "old_name": "Stra\u017esk\u00e9", "place": "town", "population": "4579", "postal_code": "072 22", "region_id": "807", "source:name": "http://earth-info.nga.mil/gns/html/cntry_files.html,www.statistics.sk", "wikidata": "Q846434", "wikipedia": "sk:Str\u00e1\u017eske"}}, "geometry": {"type": "Point", "coordinates": [21.8337692, 48.8746597]}}, {"type": "Feature", "properties": {"type": "node", "id": 26037153, "tags": {"alt_name:uk": "\u0421\u043e\u0431\u0440\u0430\u043d\u0446\u0435", "city_id": "523089", "city_type": "county_city", "ele": "131", "import_ref": "city_import_sk_1", "is_in": "Sobrance,Ko\u0161ick\u00fd kraj,V\u00fdchodn\u00e9 Slovensko,Slovensko", "loc_name": "Sobrance,Szobranc,Szobr\u00e1nc", "name": "Sobrance", "name:de": "Sobranz", "name:hu": "Szobr\u00e1nc", "name:pl": "Sobrance", "name:uk": "\u0421\u043e\u0431\u0440\u0430\u043d\u0446\u0456", "place": "town", "population": "6239", "postal_code": "073 01", "region_id": "809", "source:name": "http://earth-info.nga.mil/gns/html/cntry_files.html,www.statistics.sk", "wikidata": "Q241125", "wikipedia": "sk:Sobrance"}}, "geometry": {"type": "Point", "coordinates": [22.1806628, 48.7446501]}}, {"type": "Feature", "properties": {"type": "node", "id": 26036482, "tags": {"city_id": "520004", "city_type": "county_city", "ele": "139", "import_ref": "city_import_sk_1", "is_in": "Humenn\u00e9,Pre\u0161ovsk\u00fd kraj,V\u00fdchodn\u00e9 Slovensko,Slovensko", "loc_name": "Gumenne,Homonna,Humenne,Humenn\u00e9", "name": "Humenn\u00e9", "name:de": "Homenau", "name:hu": "Homonna", "name:pl": "Humenn\u00e9", "name:ru": "\u0413\u0443\u043c\u0435\u043d\u043d\u0435", "name:uk": "\u0413\u0443\u043c\u0435\u043d\u043d\u0435", "place": "town", "population": "35028", "postal_code": "066 01", "region_id": "702", "source:name": "http://earth-info.nga.mil/gns/html/cntry_files.html,www.statistics.sk", "wikidata": "Q502264", "wikipedia": "sk:Humenn\u00e9"}}, "geometry": {"type": "Point", "coordinates": [21.9020268, 48.9350033]}}, {"type": "Feature", "properties": {"type": "node", "id": 26036532, "tags": {"alt_name:uk": "\u0421\u043d\u0438\u043d\u0430", "city_id": "520802", "city_type": "county_city", "ele": "262", "import_ref": "city_import_sk_1", "is_in": "Snina,Pre\u0161ovsk\u00fd kraj,V\u00fdchodn\u00e9 Slovensko,Slovensko", "loc_name": "Snina,Szinna", "name": "Snina", "name:hu": "Szinna", "name:pl": "Snina", "name:ru": "\u0421\u043d\u0438\u043d\u0430", "name:uk": "\u0421\u043d\u0456\u043d\u0430", "place": "town", "population": "21167", "postal_code": "069 01", "region_id": "709", "source:name": "http://earth-info.nga.mil/gns/html/cntry_files.html,www.statistics.sk", "wikidata": "Q754788", "wikipedia": "sk:Snina"}}, "geometry": {"type": "Point", "coordinates": [22.1556248, 48.9900623]}}, {"type": "Feature", "properties": {"type": "node", "id": 26036489, "tags": {"city_id": "520471", "city_type": "county_city", "ele": "427", "import_ref": "city_import_sk_1", "is_in": "Medzilaborce,Pre\u0161ovsk\u00fd kraj,V\u00fdchodn\u00e9 Slovensko,Slovensko", "loc_name": "Boro,Bor\u00f3,Medzilaborce,Mezolaborcz,Mez\u0151laborcz", "name": "Medzilaborce", "name:hu": "Mez\u0151laborc", "name:pl": "Medzilaborce", "name:ru": "\u041c\u0435\u0434\u0437\u0438\u043b\u0430\u0431\u043e\u0440\u0446\u0435", "name:rue": "\u041c\u0435\u0434\u0436\u0456\u043b\u0430\u0431\u0456\u0440\u0446\u0456", "name:uk": "\u041c\u0435\u0436\u0438\u043b\u0430\u0431\u0456\u0440\u0446\u0456", "place": "town", "population": "6586", "postal_code": "068 01", "region_id": "705", "source:name": "http://earth-info.nga.mil/gns/html/cntry_files.html,www.statistics.sk", "wikidata": "Q578686", "wikipedia": "sk:Medzilaborce"}}, "geometry": {"type": "Point", "coordinates": [21.9039645, 49.2711323]}}]}