{"version": 0.6, "generator": "Overpass API 0.7.56.8 7d656e78", "osm3s": {"timestamp_osm_base": "2021-03-02T19:41:42Z", "timestamp_areas_base": "2021-03-02T19:18:11Z", "copyright": "The data included in this document is from www.openstreetmap.org. The data is made available under ODbL."}, "elements": [{"type": "node", "id": 1851487116, "lat": 41.1170203, "lon": 20.8017387, "tags": {"alt_name:sh": "Ohri;Ohra", "int_name": "Ohrid", "name": "\u041e\u0445\u0440\u0438\u0434", "name:bg": "\u041e\u0445\u0440\u0438\u0434", "name:de": "Ohrid", "name:el": "\u039f\u03c7\u03c1\u03af\u03b4\u03b1", "name:en": "Ohrid", "name:et": "Ohrid", "name:fr": "Ohrid", "name:hr": "Ohrid", "name:hu": "Ohrid", "name:it": "Ocrida", "name:lt": "Ochridas", "name:pl": "Ochryda", "name:ro": "Ohrida", "name:ru": "\u041e\u0445\u0440\u0438\u0434", "name:sh": "Oh\u00ebr", "name:sr": "\u041e\u0445\u0440\u0438\u0434", "name:sr-Latn": "Ohrid", "place": "city", "population": "38940", "wikidata": "Q1223508", "wikipedia": "mk:\u041e\u0445\u0440\u0438\u0434"}}, {"type": "node", "id": 293595929, "lat": 41.523466, "lon": 20.5269779, "tags": {"int_name": "Debar", "name": "\u0414\u0435\u0431\u0430\u0440", "name:mk": "\u0414\u0435\u0431\u0430\u0440", "name:ru": "\u0414\u0435\u0431\u0430\u0440", "name:sq": "Dibra", "name:tr": "Debre", "place": "town", "population": "20000"}}, {"type": "node", "id": 293008707, "lat": 41.1770278, "lon": 20.6790586, "tags": {"int_name": "Struga", "name": "\u0421\u0442\u0440\u0443\u0433\u0430", "name:en": "Struga", "name:ru": "\u0421\u0442\u0440\u0443\u0433\u0430", "name:sq": "Strug\u00eb", "place": "town", "population": "33000", "wikidata": "Q156858"}}, {"type": "node", "id": 299302852, "lat": 41.5089037, "lon": 20.9585155, "tags": {"int_name": "Ki\u010devo", "name": "\u041a\u0438\u0447\u0435\u0432\u043e", "name:de": "Kichevo", "name:en": "Kichevo", "name:et": "Ki\u010devo", "name:fi": "Kicevo", "name:fr": "Kitchevo", "name:pl": "Kiczewo", "name:ro": "Ki\u010devo", "name:ru": "\u041a\u0438\u0447\u0435\u0432\u043e", "name:sq": "K\u00ebr\u00e7ova", "name:tr": "K\u0131r\u00e7ova", "place": "city", "population": "31000", "wikidata": "Q158079", "wikipedia": "en:Ki\u010devo"}}, {"type": "node", "id": 412383765, "lat": 41.0852919, "lon": 21.0084605, "tags": {"ele": "885", "int_name": "Resen", "name": "\u0420\u0435\u0441\u0435\u043d", "name:en": "Resen", "name:ru": "\u0420\u0435\u0441\u0435\u043d", "name:sq": "Resnja", "name:sr": "\u0420\u0435\u0441\u0430\u043d", "name:tr": "Resne", "place": "town", "population": "8750"}}, {"type": "node", "id": 1812231434, "lat": 41.0319586, "lon": 21.3308466, "tags": {"ele": "615", "int_name": "Bitola", "name": "\u0411\u0438\u0442\u043e\u043b\u0430", "name:ar": "\u0628\u06cc\u062a\u0648\u0644\u0627", "name:bg": "\u0411\u0438\u0442\u043e\u043b\u044f", "name:de": "Bitola", "name:el": "\u039c\u03c0\u03af\u03c4\u03bf\u03bb\u03b1 (\u039c\u03bf\u03bd\u03b1\u03c3\u03c4\u03ae\u03c1\u03b9)", "name:en": "Bitola", "name:et": "Bitola", "name:fr": "Bitola", "name:hu": "Bitola", "name:la": "Monasterium", "name:mk": "\u0411\u0438\u0442\u043e\u043b\u0430", "name:pl": "Bitola", "name:ru": "\u0411\u0438\u0442\u043e\u043b\u0430", "name:sh": "Manastiri", "name:sq": "Manastir", "name:sr": "\u0411\u0438\u0442\u043e\u0459", "name:tr": "Manast\u0131r", "name:zh": "\u6bd4\u6258\u62c9", "place": "city", "population": "74550", "website": "http://www.bitola.gov.mk/", "wikidata": "Q157246"}}, {"type": "node", "id": 305729836, "lat": 41.2198967, "lon": 21.2020872, "tags": {"int_name": "Demir Hisar", "name": "\u0414\u0435\u043c\u0438\u0440 \u0425\u0438\u0441\u0430\u0440", "name:en": "Demir Hisar", "place": "town"}}, {"type": "node", "id": 8280786613, "lat": 41.3675033, "lon": 21.2482775, "tags": {"ele": "1350", "int_name": "Kru\u0161evo", "is_in": "Macedonia", "name": "\u041a\u0440\u0443\u0448\u0435\u0432\u043e", "name:en": "Krushevo", "name:lt": "Kru\u0161evas", "name:mk": "\u041a\u0440\u0443\u0448\u0435\u0432\u043e", "name:ro": "Cru\u0219ova", "name:roa-rup": "Crushuva", "name:ru": "\u041a\u0440\u0443\u0448\u0435\u0432\u043e", "place": "town", "population": "5210", "wikidata": "Q157034", "wikipedia": "ro:Cru\u0219ova"}}, {"type": "node", "id": 391281623, "lat": 41.507489, "lon": 21.2165416, "tags": {"name": "\u041c\u0430\u043a\u0435\u0434\u043e\u043d\u0441\u043a\u0438 \u0411\u0440\u043e\u0434", "name:en": "Makedonski Brod", "name:lt": "Makedonski Brodas", "name:mk": "\u041c\u0430\u043a\u0435\u0434\u043e\u043d\u0441\u043a\u0438 \u0411\u0440\u043e\u0434", "name:ru": "\u041c\u0430\u043a\u0435\u0434\u043e\u043d\u0441\u043a\u0438-\u0411\u0440\u043e\u0434", "place": "town", "website": "https://www.mbrod.gov.mk/", "wikidata": "Q162009", "wikipedia": "en:Makedonski Brod"}}, {"type": "node", "id": 388170933, "lat": 41.3444984, "lon": 21.5527115, "tags": {"ele": "655", "int_name": "Prilep", "is_in": "Macedonia", "name": "\u041f\u0440\u0438\u043b\u0435\u043f", "name:bg": "\u041f\u0440\u0438\u043b\u0435\u043f", "name:de": "Prilep", "name:en": "Prilep", "name:et": "Prilep", "name:fr": "Prilep", "name:lt": "Prilepas", "name:ru": "\u041f\u0440\u0438\u043b\u0435\u043f", "name:sq": "Prilepi", "name:tr": "Prilepe", "place": "city", "population": "66246", "website": "https://www.prilep.gov.mk/", "wikidata": "Q157032", "wikipedia": "\u041f\u0440\u0438\u043b\u0435\u043f"}}, {"type": "node", "id": 365758611, "lat": 41.4332802, "lon": 22.0122593, "tags": {"alt_name:pl": "Kawadarci", "int_name": "Kavadarci", "name": "\u041a\u0430\u0432\u0430\u0434\u0430\u0440\u0446\u0438", "name:en": "Kavadarci", "name:et": "Kavadarci", "name:lt": "Kavadarcis", "name:mk": "\u041a\u0430\u0432\u0430\u0434\u0430\u0440\u0446\u0438", "name:pl": "Kawadarce", "name:ro": "Kavadarci", "name:ru": "\u041a\u0430\u0432\u0430\u0434\u0430\u0440\u0446\u0438", "name:sq": "Kavardaci", "place": "city", "population": "29320", "wikidata": "Q158088", "wikipedia": "en:Kavadarci"}}, {"type": "node", "id": 386785913, "lat": 41.483968, "lon": 22.0889394, "tags": {"int_name": "Negotino", "name": "\u041d\u0435\u0433\u043e\u0442\u0438\u043d\u043e", "name:en": "Negotino", "name:ru": "\u041d\u0435\u0433\u043e\u0442\u0438\u043d\u043e", "name:sq": "Negotina", "name:tr": "Negotino", "place": "town", "population": "13390"}}, {"type": "node", "id": 155946734, "lat": 41.1388664, "lon": 22.5033192, "tags": {"int_name": "Gevgelija", "name": "\u0413\u0435\u0432\u0433\u0435\u043b\u0438\u0458\u0430", "name:de": "Gevgelija", "name:el": "\u0393\u03b5\u03c5\u03b3\u03b5\u03bb\u03ae", "name:en": "Gevgelija", "name:es": "Gevgelija", "name:et": "Gevgelija", "name:fr": "Guevgueliya", "name:mk": "\u0413\u0435\u0432\u0433\u0435\u043b\u0438\u0458\u0430", "name:pl": "Gewgelija", "name:ro": "Gevgelija", "name:ru": "\u0413\u0435\u0432\u0433\u0435\u043b\u0438\u044f", "name:sr": "\u0402\u0435\u0432\u0452\u0435\u043b\u0438\u0458\u0430", "place": "city", "population": "20664", "wikidata": "Q157061"}}, {"type": "node", "id": 417730262, "lat": 41.201607, "lon": 22.577652, "tags": {"int_name": "Bogdanci", "name": "\u0411\u043e\u0433\u0434\u0430\u043d\u0446\u0438", "name:el": "\u0392\u03bf\u03b3\u03b4\u03ac\u03bd\u03c4\u03c3\u03b1", "name:en": "Bogdanci", "name:ru": "\u0411\u043e\u0433\u0434\u0430\u043d\u0446\u0438", "place": "town", "population": "8707"}}, {"type": "node", "id": 412192203, "lat": 41.3173419, "lon": 22.5619765, "tags": {"int_name": "Valandovo", "name": "\u0412\u0430\u043b\u0430\u043d\u0434\u043e\u0432\u043e", "name:en": "Valandovo", "name:mk": "\u0412\u0430\u043b\u0430\u043d\u0434\u043e\u0432\u043e", "name:ru": "\u0412\u0430\u043b\u0430\u043d\u0434\u043e\u0432\u043e", "place": "town"}}, {"type": "node", "id": 420488854, "lat": 41.4087136, "lon": 22.2418571, "tags": {"int_name": "Demir Kapija", "name": "\u0414\u0435\u043c\u0438\u0440 \u041a\u0430\u043f\u0438\u0458\u0430", "name:en": "Demir Kapija", "name:mk": "\u0414\u0435\u043c\u0438\u0440 \u041a\u0430\u043f\u0438\u0458\u0430", "name:ru": "\u0414\u0435\u043c\u0438\u0440-\u041a\u0430\u043f\u0438\u044f", "place": "town"}}, {"type": "node", "id": 185561545, "lat": 41.4392045, "lon": 22.6397203, "tags": {"int_name": "Strumica", "name": "\u0421\u0442\u0440\u0443\u043c\u0438\u0446\u0430", "name:de": "Strumica", "name:el": "\u03a3\u03c4\u03c1\u03ce\u03bc\u03bd\u03b9\u03c4\u03c3\u03b1", "name:en": "Strumica", "name:et": "Strumica", "name:fr": "Stroumitsa", "name:he": "\u05e1\u05d8\u05e8\u05d5\u05de\u05d9\u05e6\u05d4", "name:lt": "Strumica", "name:pt": "Strumica", "name:ru": "\u0421\u0442\u0440\u0443\u043c\u0438\u0446\u0430", "name:uk": "\u0421\u0442\u0440\u0443\u043c\u0438\u0446\u044f", "place": "city", "population": "36000", "wikidata": "Q48814", "wikipedia": "en:Strumica"}}, {"type": "node", "id": 293655611, "lat": 41.7920222, "lon": 20.9081703, "tags": {"int_name": "Gostivar", "is_in": "Gostivar, Macedonia", "is_in:continent": "Europe", "is_in:country": "Macedonia", "is_in:country_code": "MK", "name": "\u0413\u043e\u0441\u0442\u0438\u0432\u0430\u0440", "name:ar": "\u063a\u0648\u0633\u062a\u064a\u0641\u0627\u0631", "name:de": "Gostivar", "name:en": "Gostivar", "name:es": "Gostivar", "name:et": "Gostivar", "name:fr": "Gostivar", "name:lt": "Gostivaras", "name:mk": "\u0413\u043e\u0441\u0442\u0438\u0432\u0430\u0440", "name:pl": "Gostiwar", "name:ru": "\u0413\u043e\u0441\u0442\u0438\u0432\u0430\u0440", "name:sq": "Gostivar\u00eb", "name:tr": "Gostivar", "place": "city", "population": "36000", "wikidata": "Q157058"}}, {"type": "node", "id": 324836987, "lat": 41.718869, "lon": 21.7705695, "tags": {"ele": "225", "int_name": "Veles", "is_in:continent": "Europe", "is_in:country": "Macedonia", "is_in:country_code": "MK", "name": "\u0412\u0435\u043b\u0435\u0441", "name:ar": "\u0641\u064a\u0644\u064a\u0633", "name:bg": "\u0412\u0435\u043b\u0435\u0441", "name:de": "Veles", "name:en": "Veles", "name:es": "Veles", "name:et": "Veles", "name:fr": "V\u00e9l\u00e8s", "name:mk": "\u0412\u0435\u043b\u0435\u0441", "name:ru": "\u0412\u0435\u043b\u0435\u0441", "name:sq": "Velesi", "name:sr": "\u0412\u0435\u043b\u0435\u0441", "name:sr-Latn": "Veles", "name:tr": "K\u00f6pr\u00fcl\u00fc", "place": "city", "population": "43716", "website": "http://www.veles.gov.mk/", "wikidata": "Q157050", "wikipedia": "en:Veles (city)"}}, {"type": "node", "id": 293657706, "lat": 42.0068297, "lon": 20.9728556, "tags": {"int_name": "Tetovo", "is_in:continent": "Europe", "is_in:country": "Macedonia", "is_in:country_code": "MK", "name": "\u0422\u0435\u0442\u043e\u0432\u043e", "name:ar": "\u062a\u064a\u062a\u0648\u0641\u0648", "name:bg": "\u0422\u0435\u0442\u043e\u0432\u043e", "name:de": "Tetovo", "name:el": "\u03a4\u03ad\u03c4\u03bf\u03b2\u03bf", "name:en": "Tetovo", "name:es": "Tetovo", "name:et": "Tetovo", "name:fr": "Tetovo", "name:sq": "Tetov\u00eb", "name:sr": "\u0422\u0435\u0442\u043e\u0432\u043e", "name:sr-Latn": "Tetovo", "name:tr": "Kalkandelen", "place": "city", "population": "53000", "postal_code": "1200", "wikidata": "Q157024", "wikipedia": "en:Tetovo"}}, {"type": "node", "id": 170792214, "lat": 41.9960924, "lon": 21.4316495, "tags": {"admin_level": "2", "alt_name:ar": "\u0633\u0643\u0648\u0628\u064a\u0647;\u0633\u0643\u0648\u0628\u062c\u064a", "alt_name:fa": "\u0627\u0633\u06a9\u0648\u067e\u06cc\u0627", "alt_name:vi": "Xc\u1ed1p-pi-\u00ea", "capital": "yes", "capital_ISO3166-1": "yes", "ele": "245", "int_name": "Skopje", "name": "\u0421\u043a\u043e\u043f\u0458\u0435", "name:an": "Scopia", "name:ar": "\u0625\u0633\u0643\u0648\u0628\u064a\u0629", "name:ast": "Skopie", "name:az": "Skopye", "name:be": "\u0421\u043a\u043e\u043f'\u0435", "name:be-tarask": "\u0421\u043a\u043e\u043f'\u0435", "name:bg": "\u0421\u0435\u0432\u0435\u0440\u043d\u0430 \u041c\u0430\u043a\u0435\u0434\u043e\u043d\u0438\u044f", "name:bo": "\u0f66\u0f72\u0f0b\u0f40\u0f7c\u0f54\u0f0b\u0f47\u0f72\u0f0d", "name:bs": "Skoplje", "name:crh": "\u00dcsk\u00fcp", "name:cs": "Skopje", "name:cu": "\u0421\u044a\u043a\u043e\u043f\u0438\u0465", "name:cv": "\u0421\u043a\u043e\u043f\u0439\u0435", "name:cy": "Skopje", "name:da": "Skopje", "name:de": "Skopje", "name:el": "\u03a3\u03ba\u03cc\u03c0\u03b9\u03b1", "name:en": "Skopje", "name:eo": "Skopjo", "name:es": "Skopie", "name:et": "Skopje", "name:fa": "\u0627\u0633\u06a9\u0648\u067e\u06cc\u0647", "name:fr": "Skopje", "name:he": "\u05e1\u05e7\u05d5\u05e4\u05d9\u05d4", "name:hr": "Skoplje", "name:hu": "Szkopje", "name:hy": "\u054d\u056f\u0578\u057a\u0575\u0565", "name:it": "Skopje", "name:ja": "\u30b9\u30b3\u30d4\u30a8", "name:ka": "\u10e1\u10d9\u10dd\u10de\u10d8\u10d4", "name:kk": "\u0421\u043a\u043e\u043f\u044c\u0435", "name:ko": "\uc2a4\ucf54\ud398", "name:ku": "Skopye", "name:kv": "\u0421\u043a\u043e\u043f\u044c\u0435", "name:la": "Scupi", "name:lad": "Skopia", "name:ln": "Skopye", "name:lt": "Skopj\u0117", "name:mk": "\u0421\u043a\u043e\u043f\u0458\u0435", "name:mr": "\u0938\u094d\u0915\u094b\u092a\u094d\u092f\u0947", "name:mzn": "\u0627\u0633\u06a9\u0648\u067e\u06cc\u0647", "name:nl": "Skopje", "name:no": "Skopje", "name:oc": "Skopje", "name:os": "\u0421\u043a\u043e\u043f\u044c\u0435", "name:pl": "Skopje", "name:pnb": "\u0633\u06a9\u0648\u067e \u062c\u06d2", "name:pt": "Esc\u00f3pia", "name:rmy": "Skopiye", "name:roa-rup": "Scopia", "name:ru": "\u0421\u043a\u043e\u043f\u044c\u0435", "name:sh": "Skoplje", "name:sk": "Skopje", "name:sl": "Skopje", "name:sq": "Shkup", "name:sr": "\u0421\u043a\u043e\u043f\u0459\u0435", "name:sv": "Skopje", "name:ta": "\u0bb8\u0bcd\u0b95\u0bcb\u0baa\u0bcd\u0b9c\u0bc7", "name:tg": "\u0421\u043a\u043e\u043f\u0435", "name:th": "\u0e2a\u0e42\u0e01\u0e40\u0e1b\u0e35\u0e22", "name:tr": "\u00dcsk\u00fcp", "name:udm": "\u0421\u043a\u043e\u043f\u044c\u0435", "name:ug": "\u0633\u0643\u0648\u067e\u0644\u064a\u06d0", "name:uk": "\u0421\u043a\u043e\u043f'\u0454", "name:ur": "\u0627\u0633\u06a9\u0648\u067e\u06cc\u06c1", "name:vi": "Skopje", "name:zh": "\u65af\u79d1\u666e\u91cc", "place": "city", "population": "668500", "source:name:oc": "Lo Congr\u00e8s", "website": "http://www.skopje.gov.mk/", "wikidata": "Q384", "wikipedia": "mk:\u0421\u043a\u043e\u043f\u0458\u0435"}}, {"type": "node", "id": 371046021, "lat": 42.1359459, "lon": 21.7177635, "tags": {"int_name": "Kumanovo", "is_in:continent": "Europe", "is_in:country": "Macedonia", "is_in:country_code": "MK", "name": "\u041a\u0443\u043c\u0430\u043d\u043e\u0432\u043e", "name:ar": "\u0643\u0648\u0645\u0627\u0646\u0648\u0641\u0648", "name:bg": "\u041a\u0443\u043c\u0430\u043d\u043e\u0432\u043e", "name:de": "Kumanovo", "name:en": "Kumanovo", "name:es": "Kumanovo", "name:et": "Kumanovo", "name:fr": "Koumanovo", "name:ja": "\u30af\u30de\u30ce\u30f4\u30a9", "name:lt": "Kumanovas", "name:lv": "Kumanova", "name:pl": "Kumanowo", "name:ru": "\u041a\u0443\u043c\u0430\u043d\u043e\u0432\u043e", "name:sq": "Kumanov\u00eb", "name:sr": "\u041a\u0443\u043c\u0430\u043d\u043e\u0432\u043e", "name:zh": "\u5e93\u9a6c\u8bfa\u6c83", "place": "city", "population": "105000", "wikidata": "Q54452"}}, {"type": "node", "id": 417840346, "lat": 41.7374724, "lon": 22.1935856, "tags": {"int_name": "\u0160tip", "is_in:continent": "Europe", "is_in:country": "Macedonia", "is_in:country_code": "MK", "name": "\u0428\u0442\u0438\u043f", "name:bg": "\u0429\u0438\u043f", "name:de": "\u0160tip", "name:en": "Shtip", "name:es": "\u0160tip", "name:et": "\u0160tip", "name:fr": "Chtip", "name:pl": "Sztip", "name:ro": "\u0160tip", "name:ru": "\u0428\u0442\u0438\u043f", "name:sl": "\u0160tip", "name:sq": "Shtipi", "name:sr": "\u0428\u0442\u0438\u043f", "name:sr-Latn": "\u0160tip", "place": "city", "population": "65000", "wikidata": "Q147243", "wikipedia": "mk:\u0428\u0442\u0438\u043f"}}, {"type": "node", "id": 419032198, "lat": 41.8647339, "lon": 21.9420506, "tags": {"int_name": "Sveti Nikole", "name": "\u0421\u0432\u0435\u0442\u0438 \u041d\u0438\u043a\u043e\u043b\u0435", "name:en": "Sveti Nikole", "name:mk": "\u0421\u0432\u0435\u0442\u0438 \u041d\u0438\u043a\u043e\u043b\u0435", "name:ru": "\u0421\u0432\u0435\u0442\u0438-\u041d\u0438\u043a\u043e\u043b\u0435", "place": "town", "population": "13220"}}, {"type": "node", "id": 1879675180, "lat": 41.639832, "lon": 22.4645893, "tags": {"int_name": "Radovi\u0161", "name": "\u0420\u0430\u0434\u043e\u0432\u0438\u0448", "name:en": "Radovish", "name:ru": "\u0420\u0430\u0434\u043e\u0432\u0438\u0448", "name:tr": "Radovi\u015f", "place": "town", "population": "16690"}}, {"type": "node", "id": 417839656, "lat": 41.9211332, "lon": 22.4114182, "tags": {"int_name": "Ko\u010dani", "is_in:continent": "Europe", "is_in:country": "Macedonia", "is_in:country_code": "MK", "name": "\u041a\u043e\u0447\u0430\u043d\u0438", "name:de": "Ko\u010dani", "name:en": "Kochani", "name:et": "Ko\u010dani", "name:fr": "Kotchani", "name:hu": "Ko\u010dani", "name:it": "Ko\u010dani", "name:mk": "\u041a\u043e\u0447\u0430\u043d\u0438", "name:pl": "Koczani", "name:ro": "Ko\u010dani", "name:ru": "\u041a\u043e\u0447\u0430\u043d\u0438", "name:sq": "Ko\u00e7ani", "place": "city", "population": "29000", "wikidata": "Q214344", "wikipedia": "en:Ko\u010dani"}}, {"type": "node", "id": 418352424, "lat": 41.8847356, "lon": 22.5044468, "tags": {"int_name": "Vinica", "name": "\u0412\u0438\u043d\u0438\u0446\u0430", "name:en": "Vinica", "name:ru": "\u0412\u0438\u043d\u0438\u0446\u0430", "name:tr": "Vinica", "place": "town", "population": "10590"}}, {"type": "node", "id": 418344960, "lat": 41.9998386, "lon": 22.1784767, "tags": {"fixme": "What boundaries has this?", "int_name": "Probi\u0161tip", "name": "\u041f\u0440\u043e\u0431\u0438\u0448\u0442\u0438\u043f", "name:bg": "\u041f\u0440\u043e\u0431\u0438\u0449\u0438\u043f", "name:en": "Probishtip", "name:pl": "Probisztip", "name:ru": "\u041f\u0440\u043e\u0431\u0438\u0448\u0442\u0438\u043f", "name:sh": "Probishtipi", "name:tr": "Probi\u015ftip", "place": "town", "population": "8190"}}, {"type": "node", "id": 418344961, "lat": 42.079261, "lon": 22.1802182, "tags": {"int_name": "Kratovo", "name": "\u041a\u0440\u0430\u0442\u043e\u0432\u043e", "name:en": "Kratovo", "name:pl": "Kratowo", "name:ru": "\u041a\u0440\u0430\u0442\u043e\u0432\u043e", "place": "town", "population": "6300"}}, {"type": "node", "id": 371046217, "lat": 42.1980952, "lon": 22.3316944, "tags": {"int_name": "Kriva Palanka", "name": "\u041a\u0440\u0438\u0432\u0430 \u041f\u0430\u043b\u0430\u043d\u043a\u0430", "name:en": "Kriva Palanka", "name:mk": "\u041a\u0440\u0438\u0432\u0430 \u041f\u0430\u043b\u0430\u043d\u043a\u0430", "name:ru": "\u041a\u0440\u0438\u0432\u0430-\u041f\u0430\u043b\u0430\u043d\u043a\u0430", "name:sq": "Kriva Palanka", "place": "town", "population": "14010"}}, {"type": "node", "id": 417729806, "lat": 41.706668, "lon": 22.8535559, "tags": {"int_name": "Berovo", "name": "\u0411\u0435\u0440\u043e\u0432\u043e", "name:de": "Berovo", "name:en": "Berovo", "name:fr": "Berovo", "name:pl": "Berowo", "name:ru": "\u0411\u0435\u0440\u043e\u0432\u043e", "name:sq": "Berova", "name:tr": "Berova", "place": "town", "population": "6490"}}, {"type": "node", "id": 6228439417, "lat": 41.7635729, "lon": 22.8873017, "tags": {"int_name": "Peh\u010devo", "name": "\u041f\u0435\u0445\u0447\u0435\u0432\u043e", "place": "town", "wikipedia": "en:Peh\u010devo"}}, {"type": "node", "id": 417730489, "lat": 41.9668344, "lon": 22.7767722, "tags": {"int_name": "Del\u010devo", "name": "\u0414\u0435\u043b\u0447\u0435\u0432\u043e", "name:bg": "\u0414\u0435\u043b\u0447\u0435\u0432\u043e", "name:en": "Delchevo", "name:lt": "Del\u010devas", "name:ru": "\u0414\u0435\u043b\u0447\u0435\u0432\u043e", "name:sq": "Dell\u00e7eva", "place": "town", "population": "17505", "wikidata": "Q157738", "wikipedia": "en:Del\u010devo"}}]}