{"version": 0.6, "generator": "Overpass API 0.7.56.8 7d656e78", "osm3s": {"timestamp_osm_base": "2021-03-02T19:12:55Z", "timestamp_areas_base": "2021-03-02T18:08:27Z", "copyright": "The data included in this document is from www.openstreetmap.org. The data is made available under ODbL."}, "elements": [{"type": "node", "id": 270674121, "lat": 43.044573, "lon": 16.090491, "tags": {"name": "Komi\u017ea", "name:it": "Comisa", "name:ru": "\u041a\u043e\u043c\u0438\u0436\u0430", "name:sr": "\u041a\u043e\u043c\u0438\u0436\u0430", "place": "town", "population": "1397", "population:date": "2011-03-31", "source:population": "DZS 2011", "wikidata": "Q396590", "wikipedia": "hr:Komi\u017ea"}}, {"type": "node", "id": 1145370586, "lat": 43.0599322, "lon": 16.1834976, "tags": {"name": "Vis", "name:ru": "\u0412\u0438\u0441", "name:sr": "\u0412\u0438\u0441", "place": "town", "population": "1672", "population:date": "2011-03-31", "source:population": "DZS 2011", "wikidata": "Q924442", "wikipedia": "hr:Vis (grad)"}}, {"type": "node", "id": 1769407236, "lat": 43.1723573, "lon": 16.4418127, "tags": {"addr:postcode": "21450", "name": "Hvar", "name:it": "Lesina", "name:ko": "\ud750\ubc14\ub974", "name:la": "Pharina", "name:ru": "\u0425\u0432\u0430\u0440", "name:sr": "\u0425\u0432\u0430\u0440", "place": "town", "population": "3771", "population:date": "2011-03-31", "source:population": "DZS 2011", "website": "https://www.tzhvar.hr/", "wikidata": "Q6031", "wikipedia": "en:Hvar (city)"}}, {"type": "node", "id": 285925154, "lat": 43.1841534, "lon": 16.5976553, "tags": {"loc_name": "Paiz", "name": "Stari Grad", "name:it": "Cittavecchia", "name:ru": "\u0421\u0442\u0430\u0440\u0438\u0433\u0440\u0430\u0434", "name:sl": "Stari Grad", "name:sr": "\u0421\u0442\u0430\u0440\u0438 \u0413\u0440\u0430\u0434", "name:uk": "\u0421\u0442\u0430\u0440\u0438\u0439 \u0413\u0440\u0430\u0434", "old_name": "Faros", "place": "town", "population": "1885", "population:date": "2011-03-31", "source:population": "DZS 2011", "wikidata": "Q220383", "wikipedia": "en:Stari Grad, Croatia"}}, {"type": "node", "id": 311292989, "lat": 42.9601315, "lon": 17.1349549, "tags": {"name": "Kor\u010dula", "name:it": "Curzola", "name:la": "Corcyra Nigra", "name:ru": "\u041a\u043e\u0440\u0447\u0443\u043b\u0430", "name:sr": "\u041a\u043e\u0440\u0447\u0443\u043b\u0430", "name:uk": "\u041a\u043e\u0440\u0447\u0443\u043b\u0430", "place": "town", "population": "2856", "population:date": "2011-03-31", "source:population": "DZS 2011", "wikidata": "Q13289", "wikipedia": "hr:Kor\u010dula (grad)"}}, {"type": "node", "id": 1588158639, "lat": 43.2050358, "lon": 17.3723608, "tags": {"name": "Vrgorac", "name:it": "Vergoraz", "name:lt": "Vrgoracas", "name:ru": "\u0412\u0440\u0433\u043e\u0440\u0430\u0446", "name:sr": "\u0412\u0440\u0433\u043e\u0440\u0430\u0446", "place": "town", "population": "2039", "population:date": "2011-03-31", "source:population": "DZS 2011", "wikidata": "Q398436", "wikipedia": "hr:Vrgorac"}}, {"type": "node", "id": 2352460170, "lat": 43.0524293, "lon": 17.4360676, "tags": {"loc_name": "Plo\u010da", "name": "Plo\u010de", "name:it": "Porto Tolero", "name:lt": "Plo\u010d\u0117", "name:ru": "\u041f\u043b\u043e\u0447\u0435", "name:sr": "\u041f\u043b\u043e\u0447\u0435", "old_name:1950-1954;1980-1990": "Kardeljevo", "place": "town", "population": "6013", "population:date": "2011-03-31", "source:population": "DZS 2011", "wikidata": "Q115117", "wikipedia": "hr:Plo\u010de"}}, {"type": "node", "id": 427943443, "lat": 43.0170508, "lon": 17.5636389, "tags": {"name": "Opuzen", "name:de": "Fort Opus", "name:it": "Forte Opus", "name:lt": "Opuzenas", "name:ru": "\u041e\u043f\u0443\u0437\u0435\u043d", "name:sr": "\u041e\u043f\u0443\u0437\u0435\u043d", "place": "town", "population": "2729", "population:date": "2011-03-31", "source:population": "DZS 2011", "wikidata": "Q396465", "wikipedia": "en:Opuzen"}}, {"type": "node", "id": 1583747666, "lat": 42.6502473, "lon": 18.0924947, "tags": {"alt_name:it": "Ragusa di Dalmazia", "name": "Dubrovnik", "name:be": "\u0414\u0443\u0431\u0440\u043e\u045e\u043d\u0456\u043a", "name:cs": "Dubrovn\u00edk", "name:hu": "Raguza", "name:it": "Ragusa", "name:ko": "\ub450\ube0c\ub85c\ube0c\ub2c8\ud06c", "name:la": "Ragusa", "name:lt": "Dubrovnikas", "name:pl": "Dubrownik", "name:ru": "\u0414\u0443\u0431\u0440\u043e\u0432\u043d\u0438\u043a", "name:sk": "Dubrovn\u00edk", "name:sr": "\u0414\u0443\u0431\u0440\u043e\u0432\u043d\u0438\u043a", "name:sr-Latn": "Dubrovnik", "old_name": "Ragusa", "place": "town", "population": "28434", "population:date": "2011-03-31", "source:population": "DZS 2011", "wikidata": "Q1722", "wikipedia": "hr:Dubrovnik"}}, {"type": "node", "id": 361131103, "lat": 43.0536158, "lon": 17.6519631, "tags": {"name": "Metkovi\u0107", "name:it": "Metcovich", "name:lt": "Metkovi\u010dius", "name:ru": "\u041c\u0435\u0442\u043a\u043e\u0432\u0438\u0447", "name:sr": "\u041c\u0435\u0442\u043a\u043e\u0432\u0438\u045b", "old_name:it": "Porto Narenta", "place": "town", "population": "15329", "population:date": "2011-03-31", "source:population": "DZS 2011", "wikidata": "Q390588", "wikipedia": "hr:Metkovi\u0107"}}, {"type": "node", "id": 1830216906, "lat": 44.8702281, "lon": 13.8455311, "tags": {"addr:postcode": "52100", "is_in:continent": "Europe", "is_in:country": "Croatia", "is_in:country_code": "HR", "is_in:county": "Istria", "name": "Pula", "name:ar": "\u0628\u0648\u0644\u0627", "name:de": "Pula", "name:hr": "Pula", "name:hu": "P\u00f3la", "name:it": "Pola", "name:ko": "\ud480\ub77c", "name:la": "Pietas Iulia", "name:lt": "Pola", "name:pl": "Pula", "name:ro": "Pola", "name:ru": "\u041f\u0443\u043b\u0430", "name:sl": "Pulj", "name:sr": "\u041f\u0443\u043b\u0430", "official_name": "Pula - Pola", "old_name:de": "Polei", "place": "city", "population": "57460", "population:date": "2011-03-31", "source:population": "DZS 2011", "website": "http://www.pula.hr", "wikidata": "Q4656", "wikipedia": "hr:Pula"}}, {"type": "node", "id": 1598928451, "lat": 44.4437608, "lon": 15.0545217, "tags": {"name": "Pag", "name:it": "Pago", "name:ru": "\u041f\u0430\u0433", "name:sr": "\u041f\u0430\u0433", "place": "town", "population": "2849", "population:date": "2011-03-31", "source:population": "DZS 2011", "wikidata": "Q837468", "wikipedia": "hr:Pag (grad)"}}, {"type": "node", "id": 64412522, "lat": 44.531663, "lon": 14.4694205, "tags": {"name": "Mali Lo\u0161inj", "name:de": "Mali Lo\u0161inj", "name:it": "Lussinpiccolo", "name:lt": "Mali Lo\u0161inis", "name:ru": "\u041c\u0430\u043b\u0438-\u041b\u043e\u0448\u0438\u043d\u044c", "name:sr": "\u041c\u0430\u043b\u0438 \u041b\u043e\u0448\u0438\u045a", "old_name:de": "Klein-L\u00f6tzing", "place": "town", "population": "6091", "population:date": "2011-03-31", "source:population": "DZS 2011", "wikidata": "Q397720", "wikipedia": "hr:Mali Lo\u0161inj"}}, {"type": "node", "id": 253901428, "lat": 44.5561174, "lon": 14.884472, "tags": {"name": "Novalja", "name:it": "Novaglia", "name:lt": "Novalia", "name:ru": "\u041d\u043e\u0432\u0430\u043b\u044f", "name:sr": "\u041d\u043e\u0432\u0430\u0459\u0430", "old_name:de": "Navala", "place": "town", "population": "2358", "population:date": "2011-03-31", "source:population": "DZS 2011", "wikidata": "Q396613", "wikipedia": "hr:Novalja"}}, {"type": "node", "id": 91800068, "lat": 44.7562894, "lon": 14.7607367, "tags": {"name": "Rab", "name:it": "Arbe", "name:lt": "Rabas", "name:ru": "\u0420\u0430\u0431", "name:sr": "\u0420\u0430\u0431", "name:uk": "\u0420\u0430\u0431", "place": "town", "population": "437", "population:date": "2011-03-31", "source:population": "DZS 2011", "wikidata": "Q13279", "wikipedia": "hr:Rab (grad)"}}, {"type": "node", "id": 279245687, "lat": 43.9377147, "lon": 15.4477635, "tags": {"name": "Biograd na Moru", "name:de": "Biograd na Moru", "name:hu": "Tengerfeh\u00e9rv\u00e1r", "name:it": "Zaravecchia", "name:lt": "Paj\u016brio Biogradas", "name:ru": "\u0411\u0438\u043e\u0433\u0440\u0430\u0434-\u043d\u0430-\u041c\u043e\u0440\u0443", "name:sr": "\u0411\u0438\u043e\u0433\u0440\u0430\u0434 \u043d\u0430 \u041c\u043e\u0440\u0443", "old_name:de": "Wei\u00dfenburg", "place": "town", "population": "5569", "population:date": "2011-03-31", "source:population": "DZS 2011", "wikidata": "Q399139", "wikipedia": "hr:Biograd na Moru"}}, {"type": "node", "id": 270442378, "lat": 43.7337065, "lon": 15.8964835, "tags": {"capital": "6", "name": "\u0160ibenik", "name:hu": "Sibenik", "name:it": "Sebenico", "name:lt": "\u0160ibenikas", "name:pl": "Szybenik", "name:ru": "\u0428\u0438\u0431\u0435\u043d\u0438\u043a", "name:sr": "\u0428\u0438\u0431\u0435\u043d\u0438\u043a", "old_name:de": "Sibenning", "place": "town", "population": "34302", "population:date": "2011-03-31", "source:population": "DZS 2011", "wikidata": "Q3549", "wikipedia": "hr:\u0160ibenik"}}, {"type": "node", "id": 270442392, "lat": 43.7602196, "lon": 15.7788084, "tags": {"name": "Vodice", "name:it": "Vodizze", "name:lt": "Vodic\u0117s", "name:ru": "\u0412\u043e\u0434\u0438\u0446\u0435", "name:sr": "\u0412\u043e\u0434\u0438\u0446\u0435", "place": "town", "population": "6755", "population:date": "2011-03-31", "source:population": "DZS 2011", "wikidata": "Q750427", "wikipedia": "hr:Vodice"}}, {"type": "node", "id": 1593993648, "lat": 43.8178655, "lon": 15.923372, "tags": {"name": "Skradin", "name:it": "Scardona", "name:ru": "\u0421\u043a\u0440\u0430\u0434\u0438\u043d", "name:sr": "\u0421\u043a\u0440\u0430\u0434\u0438\u043d", "name:uk": "\u0421\u043a\u0440\u0430\u0434\u0456\u043d", "place": "town", "population": "588", "population:date": "2011-03-31", "source:population": "DZS 2011", "wikidata": "Q400036", "wikipedia": "hr:Skradin"}}, {"type": "node", "id": 4076800568, "lat": 44.0333509, "lon": 15.6125528, "tags": {"name": "Benkovac", "name:it": "Bencovazzo", "name:sr": "\u0411\u0435\u043d\u043a\u043e\u0432\u0430\u0446", "place": "town", "population": "2866", "population:date": "2011-03-31", "source:population": "DZS 2011", "wikidata": "Q397443", "wikipedia": "hr:Benkovac"}}, {"type": "node", "id": 52028687, "lat": 43.5164142, "lon": 16.2497163, "tags": {"name": "Trogir", "name:cs": "Trogir", "name:de": "Trau", "name:el": "\u03a4\u03c1\u03cc\u03b3\u03ba\u03b9\u03c1", "name:grc": "\u03c4\u03c1\u03b1\u03b3\u03bf\u03cd\u03c1\u03b9\u03bf\u03bd", "name:hu": "Trau", "name:it": "Tra\u00f9", "name:la": "Tragurium", "name:lt": "Trogiras", "name:ru": "\u0422\u0440\u043e\u0433\u0438\u0440", "name:sr": "\u0422\u0440\u043e\u0433\u0438\u0440", "place": "town", "population": "10923", "population:date": "2011-03-31", "source:population": "DZS 2011", "wikidata": "Q189161", "wikipedia": "hr:Trogir"}}, {"type": "node", "id": 3016256309, "lat": 43.3825826, "lon": 16.5532114, "tags": {"name": "Supetar", "name:it": "San Pietro di Brazza", "name:ru": "\u0421\u0443\u043f\u0435\u0442\u0430\u0440", "name:sr": "\u0421\u0443\u043f\u0435\u0442\u0430\u0440", "place": "town", "population": "3213", "population:date": "2011-03-31", "postal_code": "21400", "source:population": "DZS 2011", "wikidata": "Q768", "wikipedia": "hr:Supetar"}}, {"type": "node", "id": 1467604275, "lat": 43.5116383, "lon": 16.4399659, "tags": {"admin_level": "6", "capital": "6", "is_in:continent": "Europe", "is_in:country": "Croatia", "is_in:country_code": "HR", "name": "Split", "name:ar": "\u0633\u0628\u0644\u064a\u062a", "name:de": "Split", "name:en": "Split", "name:es": "Split", "name:fr": "Split", "name:hr": "Split", "name:hu": "Spalato", "name:it": "Spalato", "name:lt": "Splitas", "name:ru": "\u0421\u043f\u043b\u0438\u0442", "name:sr": "\u0421\u043f\u043b\u0438\u0442", "name:sr-Latn": "Split", "place": "city", "population": "167121", "population:date": "2011-03-31", "postal_code": "21000", "ref:LOCODE": "HRSPU", "source:population": "DZS 2011", "website": "http://www.split.hr", "wikidata": "Q1663", "wikipedia": "hr:Split"}}, {"type": "node", "id": 558878143, "lat": 43.5581189, "lon": 16.3664202, "tags": {"name": "Ka\u0161tela", "name:hu": "Kasztela", "name:it": "Castelli", "name:ru": "\u041a\u0430\u0448\u0442\u0435\u043b\u0430", "name:sr": "\u041a\u0430\u0448\u0442\u0435\u043b\u0430", "place": "town", "population": "34103", "population:date": "2011-03-31", "source:population": "DZS 2011", "wikidata": "Q396579", "wikipedia": "en:Ka\u0161tela"}}, {"type": "node", "id": 1588135994, "lat": 43.5441591, "lon": 16.4919213, "tags": {"name": "Solin", "name:it": "Salona", "name:lt": "Solinas", "name:ru": "\u0421\u043e\u043b\u0438\u043d", "name:sr": "\u0421\u043e\u043b\u0438\u043d", "place": "town", "population": "20212", "population:date": "2011-03-31", "source:population": "DZS 2011", "wikidata": "Q642828", "wikipedia": "en:Solin, Croatia"}}, {"type": "node", "id": 1587453814, "lat": 43.4446927, "lon": 16.6912891, "tags": {"addr:postcode": "21310", "admin_level": "7", "capital": "7", "license_plate_code": "ST", "name": "Omi\u0161", "name:it": "Almissa", "name:la": "Onaeum", "name:lt": "Omi\u0161as", "name:ru": "\u041e\u043c\u0438\u0448", "name:sr": "\u041e\u043c\u0438\u0448", "place": "town", "population": "6462", "population:date": "2011-03-31", "postal_code": "21310", "source:population": "DZS 2011", "website": "http://www.omis.hr/", "wikidata": "Q397600", "wikipedia": "hr:Omi\u0161"}}, {"type": "node", "id": 1556178404, "lat": 43.617857, "lon": 16.7286894, "tags": {"admin_level": "7", "name": "Trilj", "name:it": "Treglia", "name:ru": "\u0422\u0440\u0438\u043b\u044c", "name:sr": "\u0422\u0440\u0438\u0459", "place": "town", "population": "2076", "population:date": "2011-03-31", "source:population": "DZS 2011", "wikidata": "Q396526", "wikipedia": "en:Trilj"}}, {"type": "node", "id": 556713826, "lat": 43.861211, "lon": 16.15661, "tags": {"name": "Drni\u0161", "name:hu": "Drni\u0161", "name:it": "Dernis", "name:ru": "\u0414\u0440\u043d\u0438\u0448", "name:sr": "\u0414\u0440\u043d\u0438\u0448", "name:uk": "\u0414\u0440\u043d\u0456\u0448", "place": "town", "population": "3144", "population:date": "2011-03-31", "source:population": "DZS 2011", "wikidata": "Q398131", "wikipedia": "en:Drni\u0161"}}, {"type": "node", "id": 378034649, "lat": 44.04085, "lon": 16.199433, "tags": {"name": "Knin", "name:it": "Tenin", "name:ru": "\u041a\u043d\u0438\u043d", "name:sr": "\u041a\u043d\u0438\u043d", "place": "town", "population": "10633", "population:date": "2011-03-31", "source:population": "DZS 2011", "wikidata": "Q208514", "wikipedia": "hr:Knin"}}, {"type": "node", "id": 491128983, "lat": 43.7015963, "lon": 16.6365238, "tags": {"name": "Sinj", "name:it": "Signo", "name:ru": "\u0421\u0438\u043d\u044c", "name:sr": "\u0421\u0438\u045a", "place": "town", "population": "11478", "population:date": "2011-03-31", "source:population": "DZS 2011", "wikidata": "Q216978", "wikipedia": "hr:Sinj"}}, {"type": "node", "id": 557022588, "lat": 43.9096687, "lon": 16.3977809, "tags": {"name": "Vrlika", "name:it": "Verlicca", "name:ru": "\u0412\u0440\u043b\u0438\u043a\u0430", "name:sr": "\u0412\u0440\u043b\u0438\u043a\u0430", "place": "town", "population": "828", "population:date": "2011-03-31", "source:population": "DZS 2011", "wikidata": "Q396545", "wikipedia": "hr:Vrlika"}}, {"type": "node", "id": 1832917478, "lat": 44.1186078, "lon": 15.232136, "tags": {"capital": "6", "is_in:continent": "Europe", "is_in:country": "Croatia", "name": "Zadar", "name:hu": "Z\u00e1ra", "name:it": "Zara", "name:la": "Iadera", "name:lt": "Zadaras", "name:ru": "\u0417\u0430\u0434\u0430\u0440", "name:sr": "\u0417\u0430\u0434\u0430\u0440", "old_name": "Iader", "old_name:hu": "Z\u00e1ra", "place": "city", "population": "71471", "population:date": "2011-03-31", "source:population": "DZS 2011", "wikidata": "Q3370", "wikipedia": "hr:Zadar"}}, {"type": "node", "id": 455570662, "lat": 44.2430736, "lon": 15.1840255, "tags": {"name": "Nin", "name:it": "Nona", "name:ru": "\u041d\u0438\u043d", "name:sr": "\u041d\u0438\u043d", "place": "town", "population": "1132", "population:date": "2011-03-31", "source:population": "DZS 2011", "wikidata": "Q396372", "wikipedia": "hr:Nin"}}, {"type": "node", "id": 556786962, "lat": 44.2001974, "lon": 15.6813098, "tags": {"name": "Obrovac", "name:it": "Obrovazzo", "name:ru": "\u041e\u0431\u0440\u043e\u0432\u0430\u0446", "name:sr": "\u041e\u0431\u0440\u043e\u0432\u0430\u0446", "name:uk": "\u041e\u0431\u0440\u043e\u0432\u0430\u0446", "old_name:it": "Obbrovazzo", "place": "town", "population": "996", "population:date": "2011-03-31", "source:population": "DZS 2011", "wikidata": "Q988388", "wikipedia": "hr:Obrovac"}}, {"type": "node", "id": 549267536, "lat": 44.5452704, "lon": 15.3729325, "tags": {"capital": "6", "name": "Gospi\u0107", "name:de": "Gospitsch", "name:hu": "Goszpics", "name:lt": "Gospi\u010dius", "name:mk": "\u0413\u043e\u0441\u043f\u0438\u045c", "name:ru": "\u0413\u043e\u0441\u043f\u0438\u0447", "name:sr": "\u0413\u043e\u0441\u043f\u0438\u045b", "place": "town", "population": "6575", "population:date": "2011-03-31", "source:population": "DZS 2011", "wikidata": "Q319276", "wikipedia": "hr:Gospi\u0107"}}, {"type": "node", "id": 556791080, "lat": 44.8687963, "lon": 15.2358684, "tags": {"name": "Oto\u010dac", "name:de": "Ottocan", "name:hu": "Otocs\u00e1n", "name:ru": "\u041e\u0442\u043e\u0447\u0430\u0446", "name:sr": "\u041e\u0442\u043e\u0447\u0430\u0446", "place": "town", "population": "4240", "population:date": "2011-03-31", "source:population": "DZS 2011", "wikidata": "Q399109", "wikipedia": "en:Oto\u010dac"}}, {"type": "node", "id": 29909361, "lat": 45.0809754, "lon": 13.6424024, "tags": {"addr:postcode": "52210", "alt_name:la": "Ruvinium", "long_name:it": "Rovigno d'Istria", "name": "Rovinj", "name:de": "Rovinj", "name:hr": "Rovinj", "name:hu": "Rovinj", "name:it": "Rovigno d'Istria", "name:la": "Ruginium", "name:lt": "Rovinis", "name:ru": "\u0420\u043e\u0432\u0438\u043d\u044c", "name:sr": "\u0420\u043e\u0432\u0438\u045a", "official_name": "Rovinj - Rovigno", "old_name:de": "Ruwein", "old_name:la": "Arupinum", "place": "town", "population": "13056", "population:date": "2011-03-31", "source:population": "DZS 2011", "website": "http://www.rovinj.hr/rovinj/index.php", "wikidata": "Q5316", "wikipedia": "hr:Rovinj"}}, {"type": "node", "id": 29909360, "lat": 45.2273829, "lon": 13.5956941, "tags": {"is_in": "Istria;Croatia", "name": "Pore\u010d", "name:de": "Pore\u010d", "name:hr": "Pore\u010d", "name:it": "Parenzo", "name:la": "Parentium", "name:lt": "Pore\u010das", "name:ru": "\u041f\u043e\u0440\u0435\u0447", "name:sr": "\u041f\u043e\u0440\u0435\u0447", "official_name": "Pore\u010d - Parenzo", "old_name:de": "Parenz", "place": "town", "population": "9790", "population:date": "2011-03-31", "source:population": "DZS 2011", "wikidata": "Q5323", "wikipedia": "hr:Pore\u010d"}}, {"type": "node", "id": 1572197773, "lat": 44.9589555, "lon": 13.8513371, "tags": {"addr:postcode": "52215", "name": "Vodnjan", "name:hr": "Vodnjan", "name:it": "Dignano", "name:la": "Altinisium", "name:ru": "\u0412\u043e\u0434\u043d\u044f\u043d", "name:sr": "\u0412\u043e\u0434\u045a\u0430\u043d", "official_name": "Vodnjan - Dignano", "old_name:la": "Praedium Athenianum", "place": "town", "population": "3613", "population:date": "2011-03-31", "source:population": "DZS 2011", "website": "http://www.vodnjan.hr/web/app/", "wikidata": "Q396683", "wikipedia": "hr:Vodnjan"}}, {"type": "node", "id": 290854348, "lat": 45.094851, "lon": 14.1231931, "tags": {"addr:postcode": "52220", "name": "Labin", "name:de": "Labin", "name:hr": "Labin", "name:it": "Albona", "name:la": "Albona", "name:ru": "\u041b\u0430\u0431\u0438\u043d", "name:sr": "\u041b\u0430\u0431\u0438\u043d", "old_name:de": "T\u00fcberg", "place": "town", "population": "6893", "population:date": "2011-03-31", "source:population": "DZS 2011", "website": "http://www.labin.hr/", "wikidata": "Q375582", "wikipedia": "hr:Labin"}}, {"type": "node", "id": 1837883660, "lat": 45.2387842, "lon": 13.9349664, "tags": {"addr:postcode": "52000", "capital": "6", "is_in": "Croatia, Europe", "name": "Pazin", "name:de": "Mitterburg", "name:hr": "Pazin", "name:it": "Pisino", "name:lt": "Pazinas", "name:ru": "\u041f\u0430\u0437\u0438\u043d", "name:sr": "\u041f\u0430\u0437\u0438\u043d", "place": "town", "population": "4386", "population:date": "2011-03-31", "source:population": "DZS 2011", "website": "https://www.pazin.hr/", "wikidata": "Q211968", "wikipedia": "hr:Pazin"}}, {"type": "node", "id": 29909359, "lat": 45.3168509, "lon": 13.5649454, "tags": {"alt_name:it": "Cittanova d'Istria", "name": "Novigrad", "name:de": "Novigrad", "name:hr": "Novigrad", "name:hu": "Novigrad", "name:it": "Cittanova", "name:la": "Aemonia", "name:lt": "Novigradas", "name:ru": "\u041d\u043e\u0432\u0438\u0433\u0440\u0430\u0434", "name:sr": "\u041d\u043e\u0432\u0438\u0433\u0440\u0430\u0434", "official_name": "Novigrad - Cittanova", "old_name:de": "Neuenburg", "place": "town", "population": "2622", "population:date": "2011-03-31", "source:population": "DZS 2011", "wikidata": "Q5395", "wikipedia": "hr:Novigrad"}}, {"type": "node", "id": 1569820706, "lat": 45.4323587, "lon": 13.5224098, "tags": {"name": "Umag", "name:de": "Umag", "name:hr": "Umag", "name:it": "Umago", "name:la": "Humagum", "name:pt": "Umago", "name:ru": "\u0423\u043c\u0430\u0433", "name:sr": "\u0423\u043c\u0430\u0433", "official_name": "Umag - Umago", "old_name:de": "Humag", "place": "town", "population": "7281", "population:date": "2011-03-31", "source:population": "DZS 2011", "website": "http://www.umag.hr", "wikidata": "Q221184", "wikipedia": "hr:Umag"}}, {"type": "node", "id": 2389876354, "lat": 45.4083652, "lon": 13.659136, "tags": {"alt_name:it": "Buie d'Istria", "name": "Buje", "name:hr": "Buje", "name:hu": "Buje", "name:it": "Buie", "name:la": "Bulae", "name:ru": "\u0411\u0443\u0435", "name:sr": "\u0411\u0443\u0458\u0435", "official_name": "Buje - Buie", "old_name:de": "Wege", "place": "town", "population": "2671", "website": "https://www.buje.hr", "wikidata": "Q397724", "wikipedia": "hr:Buje"}}, {"type": "node", "id": 255611715, "lat": 45.4078767, "lon": 13.9655905, "tags": {"addr:postcode": "52420", "name": "Buzet", "name:hr": "Buzet", "name:hu": "Buzet", "name:it": "Pinguente", "name:la": "Piquentum", "name:lt": "Buzetas", "name:ru": "\u0411\u0443\u0437\u0435\u0442", "name:sr": "\u0411\u0443\u0437\u0435\u0442", "old_name:de": "Pinquent", "place": "town", "population": "1679", "population:date": "2011-03-31", "source:population": "DZS 2011", "wikidata": "Q695767", "wikipedia": "hr:Buzet"}}, {"type": "node", "id": 60648272, "lat": 44.9604914, "lon": 14.4087218, "tags": {"name": "Cres", "name:hu": "Cres", "name:it": "Cherso", "name:lt": "Cresas", "name:ru": "\u0426\u0440\u0435\u0441", "name:sr": "\u0426\u0440\u0435\u0441", "name:uk": "\u0426\u0440\u0435\u0441", "place": "town", "population": "2289", "population:date": "2011-03-31", "source:population": "DZS 2011", "wikidata": "Q13282", "wikipedia": "hr:Cres (grad)"}}, {"type": "node", "id": 5903625197, "lat": 45.0272074, "lon": 14.5745737, "tags": {"name": "Krk", "name:it": "Veglia", "name:sr": "\u041a\u0440\u043a", "place": "town", "population": "3730"}}, {"type": "node", "id": 556751557, "lat": 45.2736336, "lon": 14.5702723, "tags": {"alt_name:it": "Porto Regio", "is_in:country": "Croatia", "is_in:country_code": "HR", "is_in:county": "Primorje-Gorski Kotar", "name": "Kraljevica", "name:hu": "Portor\u00e9", "name:it": "Porto Re", "name:ru": "\u041a\u0440\u0430\u043b\u0435\u0432\u0438\u0446\u0430", "name:sr": "\u041a\u0440\u0430\u0459\u0435\u0432\u0438\u0446\u0430", "place": "town", "population": "2857", "population:date": "2011-03-31", "source:population": "DZS 2011", "website": "http://www.kraljevica.hr/", "wikidata": "Q396555", "wikipedia": "en:Kraljevica"}}, {"type": "node", "id": 60706661, "lat": 45.3071461, "lon": 14.5342673, "tags": {"name": "Bakar", "name:hu": "Bakar", "name:it": "Buccari", "name:lt": "Bakaras", "name:ru": "\u0411\u0430\u043a\u0430\u0440", "name:sr": "\u0411\u0430\u043a\u0430\u0440", "place": "town", "population": "1473", "population:date": "2011-03-31", "source:population": "DZS 2011", "website": "https://www.bakar.hr/", "wikidata": "Q740324", "wikipedia": "hr:Bakar"}}, {"type": "node", "id": 341477322, "lat": 44.9897329, "lon": 14.9030557, "tags": {"is_in:country": "Croatia", "is_in:country_code": "HR", "is_in:county": "Lika-Senj", "name": "Senj", "name:de": "Zengg", "name:hu": "Zengg", "name:it": "Segna", "name:la": "Senia", "name:lt": "Senis", "name:ru": "\u0421\u0435\u043d\u044c", "name:sr": "\u0421\u0435\u045a", "place": "town", "population": "4810", "population:date": "2011-03-31", "source:population": "DZS 2011", "website": "http://www.senj.hr/", "wikidata": "Q259466", "wikipedia": "en:Senj"}}, {"type": "node", "id": 1879717722, "lat": 45.1737049, "lon": 14.6927906, "tags": {"alt_name:it": "Cerquenizza", "name": "Crikvenica", "name:hu": "Crikvenica", "name:it": "Cirquenizza", "name:ru": "\u0426\u0440\u0438\u043a\u0432\u0435\u043d\u0438\u0446\u0430", "name:sr": "\u0426\u0440\u0438\u043a\u0432\u0435\u043d\u0438\u0446\u0430", "name:uk": "\u0426\u0440\u0438\u043a\u0432\u0435\u043d\u0438\u0446\u044f", "place": "town", "population": "6860", "population:date": "2011-03-31", "source:population": "DZS 2011", "website": "http://www.crikvenica.hr/", "wikidata": "Q397626", "wikipedia": "hr:Crikvenica"}}, {"type": "node", "id": 1946800676, "lat": 45.1270044, "lon": 14.7914067, "tags": {"alt_name:it": "Novi di Vinodol", "is_in:country": "Croatia", "is_in:country_code": "HR", "is_in:county": "Primorje-Gorski Kotar", "name": "Novi Vinodolski", "name:it": "Novi", "name:lt": "Novi Vinodolskis", "name:ru": "\u041d\u043e\u0432\u0438-\u0412\u0438\u043d\u043e\u0434\u043e\u043b\u0441\u043a\u0438", "name:sr": "\u041d\u043e\u0432\u0438 \u0412\u0438\u043d\u043e\u0434\u043e\u043b\u0441\u043a\u0438", "place": "town", "population": "4005", "population:date": "2011-03-31", "source:population": "DZS 2011", "website": "https://www.novi-vinodolski.hr/", "wikidata": "Q397927", "wikipedia": "en:Novi Vinodolski"}}, {"type": "node", "id": 60706665, "lat": 45.332782, "lon": 14.3029538, "tags": {"name": "Opatija", "name:de": "Abbazia", "name:hu": "Abb\u00e1zia", "name:it": "Abbazia", "name:la": "Abbatia", "name:lt": "Opatija", "name:ru": "\u041e\u043f\u0430\u0442\u0438\u044f", "name:sr": "\u041e\u043f\u0430\u0442\u0438\u0458\u0430", "note": "bing offset -12.98;1.22", "place": "town", "population": "6657", "population:date": "2011-03-31", "source:population": "DZS 2011", "wikidata": "Q223353", "wikipedia": "en:Opatija"}}, {"type": "node", "id": 1575626358, "lat": 45.3731673, "lon": 14.3487225, "tags": {"name": "Kastav", "name:it": "Castua", "name:la": "Castra", "name:ru": "\u041a\u0430\u0441\u0442\u0430\u0432", "name:sr": "\u041a\u0430\u0441\u0442\u0430\u0432", "place": "town", "population": "10440", "population:date": "2011-03-31", "source:population": "DZS 2011", "wikidata": "Q399425", "wikipedia": "hr:Kastav"}}, {"type": "node", "id": 29098860, "lat": 45.3271752, "lon": 14.4412309, "tags": {"capital": "6", "is_in:country": "Croatia", "name": "Rijeka", "name:de": "Rijeka", "name:el": "\u03a1\u03b9\u03ad\u03ba\u03b1", "name:hu": "Fiume", "name:it": "Fiume", "name:la": "Vitopolis", "name:lt": "Rijeka", "name:ru": "\u0420\u0438\u0435\u043a\u0430", "name:sl": "Reka", "name:sr": "\u0420\u0438\u0458\u0435\u043a\u0430", "name:uk": "\u0420\u0456\u0454\u043a\u0430", "old_name:de": "Sankt Veit am Flaum", "old_name:la": "Tarsatica", "place": "city", "population": "128624", "population:date": "2011-03-31", "postal_code": "51000", "ref:LOCODE": "HRRJK", "source:population": "DZS 2011", "website": "https://www.rijeka.hr", "wikidata": "Q1647", "wikipedia": "hr:Rijeka"}}, {"type": "node", "id": 380412879, "lat": 45.5961032, "lon": 14.6469252, "tags": {"name": "\u010cabar", "name:hu": "\u010cabar", "name:ru": "\u0427\u0430\u0431\u0430\u0440", "name:sr": "\u0427\u0430\u0431\u0430\u0440", "place": "town", "population": "412", "population:date": "2011-03-31", "source:population": "DZS 2011", "website": "http://www.cabar.hr", "wikidata": "Q337394", "wikipedia": "hr:\u010cabar"}}, {"type": "node", "id": 556713829, "lat": 45.3991761, "lon": 14.8020393, "tags": {"name": "Delnice", "name:hu": "Delnice", "name:it": "Delnizza", "name:lt": "Delnic\u0117", "name:ru": "\u0414\u0435\u043b\u043d\u0438\u0446\u0435", "name:sr": "\u0414\u0435\u043b\u043d\u0438\u0446\u0435", "place": "town", "population": "4379", "population:date": "2011-03-31", "source:population": "DZS 2011", "wikidata": "Q397508", "wikipedia": "en:Delnice"}}, {"type": "node", "id": 467096090, "lat": 45.3740037, "lon": 15.0781121, "tags": {"name": "Vrbovsko", "name:it": "Verbosco", "name:lt": "Vrbovskas", "name:ru": "\u0412\u0440\u0431\u043e\u0432\u0441\u043a\u043e", "name:sr": "\u0412\u0440\u0431\u043e\u0432\u0441\u043a\u043e", "place": "town", "population": "1673", "population:date": "2011-03-31", "source:population": "DZS 2011", "wikidata": "Q396637", "wikipedia": "hr:Vrbovsko"}}, {"type": "node", "id": 87184260, "lat": 45.2668211, "lon": 15.2250286, "tags": {"name": "Ogulin", "name:lt": "Ogulinas", "name:ru": "\u041e\u0433\u0443\u043b\u0438\u043d", "name:sr": "\u041e\u0433\u0443\u043b\u0438\u043d", "place": "town", "population": "8216", "population:date": "2011-03-31", "source:population": "DZS 2011", "wikidata": "Q397372", "wikipedia": "hr:Ogulin"}}, {"type": "node", "id": 1582702134, "lat": 45.1156763, "lon": 15.5853257, "tags": {"name": "Slunj", "name:de": "Sluin", "name:hu": "Szluin", "name:ru": "\u0421\u043b\u0443\u043d\u044c", "name:sr": "\u0421\u043b\u0443\u045a", "name:sr-Latn": "Slunj", "name:uk": "\u0421\u043b\u0443\u043d\u044c", "place": "town", "population": "1674", "population:date": "2011-03-31", "source:population": "DZS 2011", "wikidata": "Q397733", "wikipedia": "hr:Slunj"}}, {"type": "node", "id": 341466732, "lat": 45.4478171, "lon": 15.4974791, "tags": {"is_in": "Croatia, Europe", "name": "Duga Resa", "name:hu": "Duga Resa", "name:ru": "\u0414\u0443\u0433\u0430-\u0420\u0435\u0441\u0430", "name:sr": "\u0414\u0443\u0433\u0430 \u0420\u0435\u0441\u0430", "place": "town", "population": "6011", "population:date": "2011-03-31", "source:population": "DZS 2011", "wikidata": "Q396482", "wikipedia": "en:Duga Resa"}}, {"type": "node", "id": 556793111, "lat": 45.6128938, "lon": 15.4777936, "tags": {"name": "Ozalj", "name:hu": "Ozaly", "name:ru": "\u041e\u0437\u0430\u043b\u044c", "name:sr": "\u041e\u0437\u0430\u0459", "place": "town", "population": "1181", "population:date": "2011-03-31", "source:population": "DZS 2011", "wikidata": "Q396518", "wikipedia": "hr:Ozalj"}}, {"type": "node", "id": 341465590, "lat": 45.4892522, "lon": 15.5486303, "tags": {"capital": "6", "name": "Karlovac", "name:de": "Karlovac", "name:hu": "K\u00e1rolyv\u00e1ros", "name:lt": "Karlovacas", "name:ru": "\u041a\u0430\u0440\u043b\u043e\u0432\u0430\u0446", "name:sr": "\u041a\u0430\u0440\u043b\u043e\u0432\u0430\u0446", "old_name:de": "Karlstadt", "place": "town", "population": "46833", "population:date": "2011-03-31", "source:population": "DZS 2011", "wikidata": "Q3617", "wikipedia": "hr:Karlovac"}}, {"type": "node", "id": 341469076, "lat": 45.6704674, "lon": 15.6509213, "tags": {"addr:postcode": "10450", "name": "Jastrebarsko", "name:hu": "Jasztrebarszka", "name:ru": "\u042f\u0441\u0442\u0440\u0435\u0431\u0430\u0440\u0441\u043a\u043e", "name:sr": "\u0408\u0430\u0441\u0442\u0440\u0435\u0431\u0430\u0440\u0441\u043a\u043e", "place": "town", "population": "5493", "population:date": "2011-03-31", "short_name": "Jaska", "source:population": "DZS 2011", "wikidata": "Q396491", "wikipedia": "en:Jastrebarsko"}}, {"type": "node", "id": 556741405, "lat": 45.2232962, "lon": 16.5482493, "tags": {"name": "Hrvatska Kostajnica", "name:ru": "\u0425\u0440\u0432\u0430\u0442\u0441\u043a\u0430-\u041a\u043e\u0441\u0442\u0430\u0439\u043d\u0438\u0446\u0430", "name:sr": "\u0425\u0440\u0432\u0430\u0442\u0441\u043a\u0430 \u041a\u043e\u0441\u0442\u0430\u0458\u043d\u0438\u0446\u0430", "name:uk": "\u0425\u043e\u0440\u0432\u0430\u0442\u0441\u044c\u043a\u0430 \u041a\u043e\u0441\u0442\u0430\u0439\u043d\u0438\u0446\u044f", "place": "town", "population": "2127", "population:date": "2011-03-31", "source:population": "DZS 2011", "wikidata": "Q396575", "wikipedia": "hr:Hrvatska Kostajnica"}}, {"type": "node", "id": 2808440038, "lat": 45.33826, "lon": 16.0907864, "tags": {"name": "Glina", "name:hu": "Glina", "name:ru": "\u0413\u043b\u0438\u043d\u0430", "name:sr": "\u0413\u043b\u0438\u043d\u0430", "place": "town", "population": "4680", "population:date": "2011-03-31", "source:population": "DZS 2011", "wikidata": "Q396566", "wikipedia": "hr:Glina (grad)"}}, {"type": "node", "id": 2228592112, "lat": 45.4415284, "lon": 16.278763, "tags": {"admin_level": "7", "name": "Petrinja", "name:de": "Petrinia", "name:hu": "Petrinya", "name:it": "Petrinia", "name:ru": "\u041f\u0435\u0442\u0440\u0438\u043d\u044f", "name:sr": "\u041f\u0435\u0442\u0440\u0438\u045a\u0430", "place": "town", "population": "15683", "population:date": "2011-03-31", "source:population": "DZS 2011", "wikidata": "Q396512", "wikipedia": "hr:Petrinja"}}, {"type": "node", "id": 330369640, "lat": 45.7155672, "lon": 16.0717164, "tags": {"name": "Velika Gorica", "name:hu": "Nagygorica", "name:lt": "Velika Gorica", "name:ru": "\u0412\u0435\u043b\u0438\u043a\u0430-\u0413\u043e\u0440\u0438\u0446\u0430", "name:sr": "\u0412\u0435\u043b\u0438\u043a\u0430 \u0413\u043e\u0440\u0438\u0446\u0430", "name:uk": "\u0412\u0435\u043b\u0438\u043a\u0430 \u0413\u043e\u0440\u0438\u0446\u044f", "place": "town", "population": "31553", "population:date": "2011-03-31", "source:population": "DZS 2011", "website": "www.gorica.hr/", "wikidata": "Q331141", "wikipedia": "hr:Velika Gorica"}}, {"type": "node", "id": 408910962, "lat": 45.488809, "lon": 16.3754052, "tags": {"addr:postcode": "44000", "capital": "6", "name": "Sisak", "name:el": "\u03a3\u03af\u03c3\u03b1\u03ba", "name:hu": "Sziszek", "name:la": "Siscia", "name:lt": "Sisakas", "name:ru": "\u0421\u0438\u0441\u0430\u043a", "name:sr": "\u0421\u0438\u0441\u0430\u043a", "name:uk": "\u0421\u0456\u0441\u0430\u043a", "old_name:de": "Sissek", "place": "town", "population": "33322", "population:date": "2011-03-31", "source:population": "DZS 2011", "website": "https://sisak.hr/", "wikidata": "Q192119", "wikipedia": "en:Sisak"}}, {"type": "node", "id": 556739325, "lat": 45.7063919, "lon": 16.39664, "tags": {"name": "Ivani\u0107 Grad", "name:hu": "Ivanicsv\u00e1r", "name:ru": "\u0418\u0432\u0430\u043d\u0438\u0447-\u0413\u0440\u0430\u0434", "name:sr": "\u0418\u0432\u0430\u043d\u0438\u045b-\u0413\u0440\u0430\u0434", "place": "town", "population": "9379", "population:date": "2011-03-31", "postal_code": "10310", "source:population": "DZS 2011", "wikidata": "Q385706", "wikipedia": "hr:Ivani\u0107 Grad"}}, {"type": "node", "id": 496932869, "lat": 45.5710472, "lon": 16.6271435, "tags": {"name": "Popova\u010da", "name:ru": "\u041f\u043e\u043f\u043e\u0432\u0430\u0447\u0430", "name:sr": "\u041f\u043e\u043f\u043e\u0432\u0430\u0447\u0430", "place": "town", "population": "4207", "population:date": "2011-03-31", "postal_code": "44317", "source:population": "DZS 2011", "wikidata": "Q2056085", "wikipedia": "hr:Popova\u010da"}}, {"type": "node", "id": 2027048676, "lat": 45.8018625, "lon": 15.7097105, "tags": {"addr:postcode": "10430", "name": "Samobor", "name:hr": "Samobor", "name:hu": "Szamobor", "name:lt": "Samoboras", "name:ru": "\u0421\u0430\u043c\u043e\u0431\u043e\u0440", "name:sr": "\u0421\u0430\u043c\u043e\u0431\u043e\u0440", "place": "town", "population": "15956", "population:date": "2011-03-31", "source:population": "DZS 2011", "wikidata": "Q390587", "wikipedia": "hr:Samobor"}}, {"type": "node", "id": 529132234, "lat": 45.7968126, "lon": 15.776914, "tags": {"name": "Sveta Nedelja", "name:ru": "\u0421\u0432\u0435\u0442\u0430 \u041d\u0435\u0434\u0435\u043b\u044f", "name:sr": "\u0421\u0432\u0435\u0442\u0430 \u041d\u0435\u0434\u0435\u0459\u0430", "place": "town", "population": "1338", "population:date": "2011-03-31", "source:population": "DZS 2011", "wikidata": "Q856385", "wikipedia": "hr:Sveta Nedelja (Zagreba\u010dka \u017eupanija)"}}, {"type": "node", "id": 1605177300, "lat": 45.8572728, "lon": 15.8050436, "tags": {"addr:postcode": "10290", "name": "Zapre\u0161i\u0107", "name:lt": "Zapre\u0161i\u010dius", "name:ru": "\u0417\u0430\u043f\u0440\u0435\u0448\u0438\u0447", "name:sr": "\u0417\u0430\u043f\u0440\u0435\u0448\u0438\u045b", "place": "town", "population": "19644", "population:date": "2011-03-31", "source:population": "DZS 2011", "wikidata": "Q5408", "wikipedia": "hr:Zapre\u0161i\u0107"}}, {"type": "node", "id": 1567235911, "lat": 45.9962496, "lon": 15.9144491, "tags": {"name": "Oroslavje", "name:ru": "\u041e\u0440\u043e\u0441\u043b\u0430\u0432\u044c\u0435", "name:sr": "\u041e\u0440\u043e\u0441\u043b\u0430\u0432\u0458\u0435", "place": "town", "population": "3368", "population:date": "2011-03-31", "source:population": "DZS 2011", "wikidata": "Q126365", "wikipedia": "hr:Oroslavje"}}, {"type": "node", "id": 1946775557, "lat": 46.025686, "lon": 15.9036337, "tags": {"name": "Zabok", "name:ru": "\u0417\u0430\u0431\u043e\u043a", "name:sr": "\u0417\u0430\u0431\u043e\u043a", "place": "town", "population": "2714", "population:date": "2011-03-31", "source:population": "DZS 2011", "wikidata": "Q139018", "wikipedia": "en:Zabok"}}, {"type": "node", "id": 556746325, "lat": 46.0507901, "lon": 15.7438152, "tags": {"name": "Klanjec", "name:ru": "\u041a\u043b\u0430\u043d\u0435\u0446", "name:sr": "\u041a\u043b\u0430\u045a\u0435\u0446", "place": "town", "population": "3234", "population:date": "2011-03-31", "source:population": "DZS 2011", "wikidata": "Q769880", "wikipedia": "hr:Klanjec"}}, {"type": "node", "id": 556805706, "lat": 46.1627282, "lon": 15.7523888, "tags": {"name": "Pregrada", "name:ru": "\u041f\u0440\u0435\u0433\u0440\u0430\u0434\u0430", "name:sr": "\u041f\u0440\u0435\u0433\u0440\u0430\u0434\u0430", "place": "town", "population": "1828", "population:date": "2011-03-31", "source:population": "DZS 2011", "wikidata": "Q844312", "wikipedia": "en:Pregrada"}}, {"type": "node", "id": 5456488299, "lat": 46.1628028, "lon": 15.8711133, "tags": {"capital": "6", "name": "Krapina", "name:lt": "Krapina", "name:ru": "\u041a\u0440\u0430\u043f\u0438\u043d\u0430", "name:sr": "\u041a\u0440\u0430\u043f\u0438\u043d\u0430", "place": "town", "population": "4471", "wikidata": "Q221189", "wikipedia": "hr:Krapina"}}, {"type": "node", "id": 1551865419, "lat": 45.8131847, "lon": 15.9771774, "tags": {"admin_level": "2", "capital": "yes", "capital_ISO3166-1": "yes", "ele": "158", "int_name": "Zagreb", "name": "Zagreb", "name:am": "\u12db\u130d\u122c\u1265", "name:ar": "\u0632\u063a\u0631\u0628", "name:ast": "Zagreb", "name:az": "Zaqreb", "name:ba": "Zagreb", "name:bar": "Zagreb", "name:bat-smg": "Zagr\u0117bs", "name:be": "\u0417\u0430\u0433\u0440\u0430\u0431", "name:be-tarask": "\u0417\u0430\u0433\u0440\u044d\u0431", "name:bg": "\u0417\u0430\u0433\u0440\u0435\u0431", "name:bn": "\u099c\u09be\u0997\u09b0\u09c7\u09ac", "name:bo": "\u0f5b\u0f42\u0f0b\u0f62\u0f7a\u0f56\u0f0d", "name:ckb": "\u0632\u0627\u06af\u0631\u06ce\u0628", "name:co": "Zagabria", "name:cs": "Z\u00e1h\u0159eb", "name:cu": "\ua640\u0430\u0433\u0440\u0454\u0431\u044a", "name:cv": "\u0417\u0430\u0433\u0440\u0435\u0431", "name:el": "\u0396\u03ac\u03b3\u03ba\u03c1\u03b5\u03bc\u03c0", "name:en": "Zagreb", "name:eo": "Zagrebo", "name:es": "Zagreb", "name:eu": "Zagreb", "name:fa": "\u0632\u0627\u06af\u0631\u0628", "name:fr": "Zagreb", "name:ga": "S\u00e1grab", "name:he": "\u05d6\u05d2\u05e8\u05d1", "name:hr": "Zagreb", "name:hu": "Z\u00e1gr\u00e1b", "name:hy": "\u0536\u0561\u0563\u0580\u0565\u0562", "name:is": "Zagreb", "name:it": "Zagabria", "name:ja": "\u30b6\u30b0\u30ec\u30d6", "name:ka": "\u10d6\u10d0\u10d2\u10e0\u10d4\u10d1\u10d8", "name:kk": "\u0417\u0430\u0433\u0440\u0435\u0431", "name:kn": "\u0c9d\u0cbe\u0c97\u0ccd\u0cb0\u0cc6\u0cac\u0ccd", "name:ko": "\uc790\uadf8\ub808\ube0c", "name:ku": "Zagreb", "name:kv": "\u0417\u0430\u0433\u0440\u0435\u0431", "name:la": "Zagrabia", "name:lij": "Zagabbria", "name:lmo": "Zagabria", "name:lt": "Zagrebas", "name:lv": "Zagreba", "name:mhr": "\u0417\u0430\u0433\u0440\u0435\u0431", "name:mk": "\u0417\u0430\u0433\u0440\u0435\u0431", "name:mr": "\u091d\u093e\u0917\u094d\u0930\u0947\u092c", "name:mt": "\u017bagreb", "name:no": "Zagreb", "name:oc": "Zagr\u00e8b", "name:os": "\u0417\u0430\u0433\u0440\u0435\u0431", "name:pih": "Sakreb", "name:pl": "Zagrzeb", "name:pms": "Zagabria", "name:pnb": "\u0632\u063a\u0631\u06cc\u0628", "name:ru": "\u0417\u0430\u0433\u0440\u0435\u0431", "name:sah": "\u0417\u0430\u0433\u0440\u0435\u0431", "name:sc": "Zag\u00e0bria", "name:sk": "Z\u00e1hreb", "name:sq": "Zagrebi", "name:sr": "\u0417\u0430\u0433\u0440\u0435\u0431", "name:sr-Latn": "Zagreb", "name:sv": "Zagreb", "name:szl": "Zagrzeb", "name:ta": "\u0b9a\u0bbe\u0b95\u0bbf\u0bb0\u0bc7\u0baa\u0bcd", "name:tg": "\u0417\u0430\u0433\u0440\u0435\u0431", "name:th": "\u0e0b\u0e32\u0e40\u0e01\u0e23\u0e47\u0e1a", "name:tl": "Zagreb", "name:udm": "\u0417\u0430\u0433\u0440\u0435\u0431", "name:ug": "Zagr\u00e9b", "name:uk": "\u0417\u0430\u0433\u0440\u0435\u0431", "name:ur": "\u0632\u063a\u0631\u0628", "name:vec": "Zagavria", "name:wo": "Sagreb", "name:yi": "\u05d6\u05d0\u05d2\u05e8\u05e2\u05d1", "name:yue": "\u85a9\u683c\u52d2\u5e03", "name:zh": "\u85a9\u683c\u52d2\u5e03", "old_name:de": "Agram", "place": "city", "population": "688163", "population:date": "2011-03-31", "source:population": "DZS 2011", "website": "https://www.zagreb.hr", "wikidata": "Q1435", "wikipedia": "hr:Zagreb"}}, {"type": "node", "id": 4749133276, "lat": 45.8276052, "lon": 16.1089837, "tags": {"name": "Sesvete", "name:sr": "\u0421\u0435\u0441\u0432\u0435\u0442\u0435", "place": "town", "population": "54085", "population:date": "2011-03-31", "postal_code": "10360", "source:population": "DZS 2011", "wikidata": "Q1017892", "wikipedia": "hr:Sesvete"}}, {"type": "node", "id": 614617920, "lat": 45.8060388, "lon": 16.237771, "tags": {"name": "Dugo Selo", "name:en": "Dugo Selo", "name:hu": "Dugo Selo", "name:ru": "\u0414\u0443\u0433\u043e-\u0421\u0435\u043b\u043e", "name:sr": "\u0414\u0443\u0433\u043e \u0421\u0435\u043b\u043e", "place": "town", "population": "10453", "population:date": "2011-03-31", "postal_code": "10370", "source:population": "DZS 2011", "wikidata": "Q400041", "wikipedia": "hr:Dugo Selo"}}, {"type": "node", "id": 556616213, "lat": 45.9801358, "lon": 15.970918, "tags": {"name": "Donja Stubica", "name:hu": "Donja Stubica", "name:ru": "\u0414\u043e\u043d\u044f-\u0421\u0442\u0443\u0431\u0438\u0446\u0430", "name:sr": "\u0414\u043e\u045a\u0430 \u0421\u0442\u0443\u0431\u0438\u0446\u0430", "place": "town", "population": "2200", "population:date": "2011-03-31", "source:population": "DZS 2011", "wikidata": "Q745088", "wikipedia": "hr:Donja Stubica"}}, {"type": "node", "id": 5692544675, "lat": 46.0927547, "lon": 16.0773351, "tags": {"name": "Zlatar", "name:ru": "\u0417\u043b\u0430\u0442\u043e\u0440", "name:sr": "\u0417\u043b\u0430\u0442\u0430\u0440", "place": "town", "population": "2906", "population:date": "2011-03-31", "source:population": "DZS 2011", "wikidata": "Q396550", "wikipedia": "en:Zlatar, Croatia"}}, {"type": "node", "id": 480340577, "lat": 45.9596824, "lon": 16.242933, "tags": {"addr:postcode": "10380", "name": "Sveti Ivan Zelina", "name:hu": "Szentiv\u00e1nzelina", "name:ru": "\u0421\u0432\u0435\u0442\u0438-\u0418\u0432\u0430\u043d-\u0417\u0435\u043b\u0438\u043d\u0430", "name:sr": "\u0421\u0432\u0435\u0442\u0438 \u0418\u0432\u0430\u043d \u0417\u0435\u043b\u0438\u043d\u0430", "place": "town", "population": "2764", "population:date": "2011-03-31", "source:population": "DZS 2011"}}, {"type": "node", "id": 1568096743, "lat": 45.8856479, "lon": 16.4181159, "tags": {"addr:postcode": "10340", "is_in": "Zagreba\u010dka \u017dupanija", "name": "Vrbovec", "name:hu": "Verbovec", "name:ru": "\u0412\u0440\u0431\u043e\u0432\u0435\u0446", "name:sr": "\u0412\u0440\u0431\u043e\u0432\u0435\u0446", "place": "town", "population": "4947", "population:date": "2011-03-31", "source:population": "DZS 2011", "wikidata": "Q754781", "wikipedia": "en:Vrbovec"}}, {"type": "node", "id": 556713833, "lat": 45.7484872, "lon": 16.6131643, "tags": {"name": "\u010cazma", "name:hu": "Cs\u00e1zma", "name:ru": "\u0427\u0430\u0437\u043c\u0430", "name:sr": "\u0427\u0430\u0437\u043c\u0430", "place": "town", "population": "2801", "population:date": "2011-03-31", "source:population": "DZS 2011", "wikidata": "Q337888", "wikipedia": "en:\u010cazma"}}, {"type": "node", "id": 417180566, "lat": 46.0229849, "lon": 16.5456976, "tags": {"name": "Kri\u017eevci", "name:hu": "K\u0151r\u00f6s", "name:mk": "\u041a\u0440\u0438\u0436\u0435\u0432\u0446\u0438", "name:ru": "\u041a\u0440\u0438\u0436\u0435\u0432\u0446\u044b", "name:sr": "\u041a\u0440\u0438\u0436\u0435\u0432\u0446\u0438", "old_name:de": "Kreutz", "place": "town", "population": "11231", "population:date": "2011-03-31", "source:population": "DZS 2011", "wikidata": "Q5718", "wikipedia": "hr:Kri\u017eevci"}}, {"type": "node", "id": 556766636, "lat": 46.2069378, "lon": 16.0435822, "tags": {"name": "Lepoglava", "name:ru": "\u041b\u0435\u043f\u043e\u0433\u043b\u0430\u0432\u0430", "name:sr": "\u041b\u0435\u043f\u043e\u0433\u043b\u0430\u0432\u0430", "place": "town", "population": "4174", "population:date": "2011-03-31", "source:population": "DZS 2011", "website": "http://www.lepoglava.hr/"}}, {"type": "node", "id": 556737745, "lat": 46.2239829, "lon": 16.1244536, "tags": {"name": "Ivanec", "name:hu": "Iv\u00e1nc", "name:ru": "\u0418\u0432\u0430\u043d\u0435\u0446", "name:sr": "\u0418\u0432\u0430\u043d\u0435\u0446", "place": "town", "population": "5234", "population:date": "2011-03-31", "source:population": "DZS 2011", "website": "http://www.ivanec.hr/", "wikidata": "Q326970", "wikipedia": "hr:Ivanec"}}, {"type": "node", "id": 380538884, "lat": 46.1646317, "lon": 16.3343263, "tags": {"name": "Novi Marof", "name:ru": "\u041d\u043e\u0432\u0438-\u041c\u0430\u0440\u043e\u0444", "name:sr": "\u041d\u043e\u0432\u0438 \u041c\u0430\u0440\u043e\u0444", "place": "town", "population": "1956", "population:date": "2011-03-31", "source:population": "DZS 2011", "website": "https://www.novi-marof.hr/", "wikidata": "Q741239", "wikipedia": "en:Novi Marof"}}, {"type": "node", "id": 343645893, "lat": 46.3079645, "lon": 16.3378198, "tags": {"capital": "6", "is_in:continent": "Europe", "is_in:country": "Croatia", "name": "Vara\u017edin", "name:ar": "\u0641\u0627\u0631\u0627\u0632\u062f\u064a\u0646", "name:be": "\u0413\u043e\u0440\u0430\u0434 \u0412\u0430\u0440\u0430\u0436\u0434\u0437\u0456\u043d", "name:bg": "\u0412\u0430\u0440\u0430\u0436\u0434\u0438\u043d", "name:ce": "\u0412\u0430\u0440\u0430\u0436\u0434\u0438\u043d", "name:cs": "Vara\u017ed\u00edn", "name:de": "Warasdin", "name:el": "\u0392\u03b1\u03c1\u03ac\u03b6\u03bd\u03c4\u03b9\u03bd", "name:fa": "\u0648\u0627\u0631\u0627\u0698\u062f\u06cc\u0646", "name:he": "\u05d5\u05d0\u05e8\u05d0\u05d6'\u05d3\u05d9\u05df", "name:hu": "Varasd", "name:ja": "\u30f4\u30a1\u30e9\u30b8\u30e5\u30c7\u30a3\u30f3", "name:ka": "\u10d5\u10d0\u10e0\u10d0\u10df\u10d3\u10d8\u10dc\u10d8", "name:ko": "\ubc14\ub77c\uc8fc\ub518", "name:la": "Varasdinum", "name:lt": "Vara\u017edinas", "name:mk": "\u0412\u0430\u0440\u0430\u0436\u0434\u0438\u043d", "name:nl": "Vara\u017edin", "name:ru": "\u0412\u0430\u0440\u0430\u0436\u0434\u0438\u043d", "name:sq": "Varazhdin", "name:sr": "\u0412\u0430\u0440\u0430\u0436\u0434\u0438\u043d", "name:tt": "\u0412\u0430\u0440\u0430\u0436\u0434\u0438\u043d", "name:uk": "\u0412\u0430\u0440\u0430\u0436\u0434\u0438\u043d", "name:ur": "\u0648\u0627\u0631\u0627\u0698\u062f\u0646", "name:zh": "\u74e6\u62c9\u65e5\u4e01", "place": "town", "population": "38839", "population:date": "2011-03-31", "source:population": "DZS 2011", "website": "https://www.varazdin.hr/", "wikidata": "Q5420", "wikipedia": "hr:Vara\u017edin"}}, {"type": "node", "id": 496196527, "lat": 46.2090178, "lon": 16.4217545, "tags": {"name": "Vara\u017edinske Toplice", "name:hu": "Varasdf\u00fcrd\u0151", "name:ru": "\u0412\u0430\u0440\u0430\u0436\u0434\u0438\u043d\u0441\u043a\u0435-\u0422\u043e\u043f\u043b\u0438\u0446\u0435", "name:sr": "\u0412\u0430\u0440\u0430\u0436\u0434\u0438\u043d\u0441\u043a\u0435 \u0422\u043e\u043f\u043b\u0438\u0446\u0435", "old_name:de": "Warasdin-T\u00f6plitz", "place": "town", "population": "1765", "population:date": "2011-03-31", "source:population": "DZS 2011", "website": "http://www.varazdinske-toplice.hr/", "wikidata": "Q326962", "wikipedia": "hr:Vara\u017edinske Toplice"}}, {"type": "node", "id": 1394661865, "lat": 46.248447, "lon": 16.6190263, "tags": {"name": "Ludbreg", "name:ru": "\u041b\u0443\u0434\u0431\u0440\u0435\u0433", "name:sr": "\u041b\u0443\u0434\u0431\u0440\u0435\u0433", "place": "town", "population": "3603", "population:date": "2011-03-31", "source:population": "DZS 2011", "website": "http://www.ludbreg.hr/", "wikidata": "Q396474", "wikipedia": "en:Ludbreg"}}, {"type": "node", "id": 457271122, "lat": 46.3363042, "lon": 16.614824, "tags": {"loc_name": "Prilok", "name": "Prelog", "name:hu": "Perlak", "name:ru": "\u041f\u0440\u0435\u043b\u043e\u0433", "name:sr": "\u041f\u0440\u0435\u043b\u043e\u0433", "place": "town", "population": "4324", "population:date": "2011-03-31", "source:population": "DZS 2011", "website": "https://www.prelog.hr/", "wikidata": "Q839783", "wikipedia": "hr:Prelog, Croatia"}}, {"type": "node", "id": 568674747, "lat": 46.3877682, "lon": 16.4346835, "tags": {"name": "\u010cakovec", "name:de": "Csakathurn", "name:hu": "Cs\u00e1ktornya", "name:la": "Aquama", "name:lt": "\u010cakovecas", "name:ru": "\u0427\u0430\u043a\u043e\u0432\u0435\u0446", "name:sr": "\u0427\u0430\u043a\u043e\u0432\u0435\u0446", "place": "town", "population": "15147", "population:date": "2011-03-31", "source:population": "DZS 2011", "website": "https://www.cakovec.hr/", "wikidata": "Q167839", "wikipedia": "en:\u010cakovec"}}, {"type": "node", "id": 1207922933, "lat": 46.5120946, "lon": 16.4393832, "tags": {"name": "Mursko Sredi\u0161\u0107e", "name:hu": "Muraszerdahely", "name:ru": "\u041c\u0443\u0440\u0441\u043a\u043e-\u0421\u0440\u0435\u0434\u0438\u0448\u0447\u0435", "name:sr": "\u041c\u0443\u0440\u0441\u043a\u043e \u0421\u0440\u0435\u0434\u0438\u0448\u045b\u0435", "place": "town", "population": "3444", "population:date": "2011-03-31", "source:population": "DZS 2011", "website": "http://www.mursko-sredisce.hr/", "wikidata": "Q326952", "wikipedia": "en:Mursko Sredi\u0161\u0107e"}}, {"type": "node", "id": 73395399, "lat": 43.2960669, "lon": 17.0165161, "tags": {"name": "Makarska", "name:it": "Macarsca", "name:lt": "Makarska", "name:ru": "\u041c\u0430\u043a\u0430\u0440\u0441\u043a\u0430", "name:sr": "\u041c\u0430\u043a\u0430\u0440\u0441\u043a\u0430", "place": "town", "population": "13426", "population:date": "2011-03-31", "source:population": "DZS 2011", "wikidata": "Q272009", "wikipedia": "en:Makarska"}}, {"type": "node", "id": 4386847850, "lat": 43.4471115, "lon": 17.2179703, "tags": {"name": "Imotski", "name:it": "Imoschi", "name:sr": "\u0418\u043c\u043e\u0442\u0441\u043a\u0438", "old_name:de": "Eimot", "place": "town", "population": "4757", "population:date": "2011-03-31", "source:population": "DZS 2011", "wikidata": "Q397656", "wikipedia": "hr:Imotski"}}, {"type": "node", "id": 287126294, "lat": 45.2599175, "lon": 17.3826861, "tags": {"name": "Nova Gradi\u0161ka", "name:hu": "\u00dajgradiska", "name:ru": "\u041d\u043e\u0432\u0430-\u0413\u0440\u0430\u0434\u0438\u0448\u043a\u0430", "name:sr": "\u041d\u043e\u0432\u0430 \u0413\u0440\u0430\u0434\u0438\u0448\u043a\u0430", "name:uk": "\u041d\u043e\u0432\u0430 \u0490\u0440\u0430\u0434\u0456\u0448\u043a\u0430", "old_name:de": "Friedrichsdorf;Neu-Gradischka", "place": "town", "population": "11821", "population:date": "2011-03-31", "source:population": "DZS 2011", "wikidata": "Q58342", "wikipedia": "hr:Nova Gradi\u0161ka"}}, {"type": "node", "id": 556605013, "lat": 45.3415443, "lon": 16.9770868, "tags": {"name": "Novska", "name:hu": "Novszka", "name:ru": "\u041d\u043e\u0432\u0441\u043a\u0430", "name:sr": "\u041d\u043e\u0432\u0441\u043a\u0430", "place": "town", "population": "7028", "population:date": "2011-03-31", "postal_code": "44330", "source:population": "DZS 2011", "wikidata": "Q397639", "wikipedia": "hr:Novska"}}, {"type": "node", "id": 307686225, "lat": 45.4819478, "lon": 16.7786099, "tags": {"name": "Kutina", "name:ru": "\u041a\u0443\u0442\u0438\u043d\u0430", "name:sr": "\u041a\u0443\u0442\u0438\u043d\u0430", "place": "town", "population": "13735", "population:date": "2011-03-31", "source:population": "DZS 2011", "wikidata": "Q396536", "wikipedia": "en:Kutina"}}, {"type": "node", "id": 556601878, "lat": 45.4134223, "lon": 17.1634285, "tags": {"name": "Lipik", "name:ru": "\u041b\u0438\u043f\u0438\u043a", "name:sr": "\u041b\u0438\u043f\u0438\u043a", "place": "town", "population": "2258", "population:date": "2011-03-31", "source:population": "DZS 2011", "wikidata": "Q396595", "wikipedia": "hr:Lipik"}}, {"type": "node", "id": 556603326, "lat": 45.4362339, "lon": 17.1929266, "tags": {"is_in": "Croatia", "name": "Pakrac", "name:hu": "Pakr\u00e1c", "name:ru": "\u041f\u0430\u043a\u0440\u0430\u0446", "name:sr": "\u041f\u0430\u043a\u0440\u0430\u0446", "place": "town", "population": "4842", "population:date": "2011-03-31", "source:population": "DZS 2011", "wikidata": "Q398115", "wikipedia": "en:Pakrac"}}, {"type": "node", "id": 556608689, "lat": 45.5741958, "lon": 16.943837, "tags": {"name": "Gare\u0161nica", "name:hu": "Gare\u0161nica", "name:ru": "\u0413\u0430\u0440\u0435\u0448\u043d\u0438\u0446\u0430", "name:sr": "\u0413\u0430\u0440\u0435\u0448\u043d\u0438\u0446\u0430", "place": "town", "population": "3874", "population:date": "2011-03-31", "source:population": "DZS 2011", "wikidata": "Q399127", "wikipedia": "en:Gare\u0161nica"}}, {"type": "node", "id": 556741409, "lat": 45.7020287, "lon": 17.1722552, "tags": {"name": "Grubi\u0161no Polje", "name:cs": "Hrube\u010dn\u00e9 Pole", "name:ru": "\u0413\u0440\u0443\u0431\u0438\u0448\u043d\u043e-\u041f\u043e\u043b\u0435", "name:sr": "\u0413\u0440\u0443\u0431\u0438\u0448\u043d\u043e \u041f\u043e\u0459\u0435", "place": "town", "population": "2917", "population:date": "2011-03-31", "source:population": "DZS 2011", "wikidata": "Q679801", "wikipedia": "hr:Grubi\u0161no Polje"}}, {"type": "node", "id": 1567862743, "lat": 45.5928323, "lon": 17.223713, "tags": {"name": "Daruvar", "name:hu": "Daruv\u00e1r", "name:la": "Aqua Balissae", "name:ru": "\u0414\u0430\u0440\u0443\u0432\u0430\u0440", "name:sr": "\u0414\u0430\u0440\u0443\u0432\u0430\u0440", "old_name:de": "Darowar", "place": "town", "population": "8567", "population:date": "2011-03-31", "source:population": "DZS 2011", "wikidata": "Q399430", "wikipedia": "hr:Daruvar"}}, {"type": "node", "id": 481325259, "lat": 45.2867466, "lon": 17.8021661, "tags": {"name": "Pleternica", "name:hu": "Pleterniceszentmikl\u00f3s", "name:ru": "\u041f\u043b\u0435\u0442\u0435\u0440\u043d\u0438\u0446\u0430", "name:sr": "\u041f\u043b\u0435\u0442\u0435\u0440\u043d\u0438\u0446\u0430", "place": "town", "population": "3418", "population:date": "2011-03-31", "source:population": "DZS 2011", "wikidata": "Q397633", "wikipedia": "en:Pleternica"}}, {"type": "node", "id": 1588925812, "lat": 45.1665803, "lon": 18.0121385, "tags": {"capital": "6", "name": "Slavonski Brod", "name:ar": "\u0633\u0644\u0627\u0641\u0648\u0646\u0633\u0643\u064a \u0628\u0631\u0648\u062f", "name:de": "Slavonski Brod", "name:en": "Slavonski Brod", "name:es": "Slavonski Brod", "name:fr": "Slavonski Brod", "name:he": "\u05e1\u05dc\u05d1\u05d5\u05e0\u05e1\u05e7\u05d9 \u05d1\u05e8\u05d5\u05d3", "name:hu": "Br\u00f3d", "name:lt": "Slavonski Brodas", "name:ru": "\u0421\u043b\u0430\u0432\u043e\u043d\u0441\u043a\u0438-\u0411\u0440\u043e\u0434", "name:sr": "\u0421\u043b\u0430\u0432\u043e\u043d\u0441\u043a\u0438 \u0411\u0440\u043e\u0434", "name:uk": "\u0421\u043b\u0430\u0432\u043e\u043d\u0441\u044c\u043a\u0438\u0439 \u0411\u0440\u043e\u0434", "place": "city", "population": "53531", "population:date": "2011-03-31", "source:population": "DZS 2011", "website": "http://www.slavonski-brod.hr", "wikidata": "Q4686", "wikipedia": "hr:Slavonski Brod"}}, {"type": "node", "id": 1588859221, "lat": 45.3099831, "lon": 18.4097383, "tags": {"name": "\u0110akovo", "name:hr": "\u0110akovo", "name:hu": "Diak\u00f3v\u00e1r", "name:lt": "D\u017eakovas", "name:ru": "\u0414\u0436\u044f\u043a\u043e\u0432\u043e", "name:sr": "\u0402\u0430\u043a\u043e\u0432\u043e", "old_name:de": "Diakowar", "place": "town", "population": "19491", "population:date": "2011-03-31", "source:population": "DZS 2011", "wikidata": "Q318961", "wikipedia": "hr:\u0110akovo"}}, {"type": "node", "id": 1588846913, "lat": 45.331565, "lon": 17.6742038, "tags": {"capital": "6", "name": "Po\u017eega", "name:hu": "Pozsega", "name:ru": "\u041f\u043e\u0436\u0435\u0433\u0430", "name:sr": "\u041f\u043e\u0436\u0435\u0433\u0430", "old_name:de": "Poschegg", "place": "town", "population": "19506", "population:date": "2011-03-31", "source:population": "DZS 2011", "wikidata": "Q273114", "wikipedia": "hr:Po\u017eega"}}, {"type": "node", "id": 392314268, "lat": 45.423994, "lon": 17.882287, "tags": {"name": "Kutjevo", "name:ru": "\u041a\u0443\u0442\u044c\u0435\u0432\u043e", "name:sr": "\u041a\u0443\u0442\u0458\u0435\u0432\u043e", "place": "town", "population": "2440", "population:date": "2011-03-31", "source:population": "DZS 2011", "wikidata": "Q398139", "wikipedia": "hr:Kutjevo"}}, {"type": "node", "id": 466220873, "lat": 45.7014436, "lon": 17.7016641, "tags": {"int_name": "Slatina", "is_in": "Croatia, Europe", "is_in:ba": "Hrvatska", "is_in:continent": "Europe", "is_in:country": "Croatia", "is_in:country_code": "HR", "name": "Slatina", "name:hu": "Szlatina", "name:ru": "\u0421\u043b\u0430\u0442\u0438\u043d\u0430", "name:sr": "\u0421\u043b\u0430\u0442\u0438\u043d\u0430", "place": "town", "population": "10208", "population:date": "2011-03-31", "postal_code": "33520", "source:population": "DZS 2011", "wikidata": "Q991263", "wikipedia": "en:Slatina, Croatia"}}, {"type": "node", "id": 392314152, "lat": 45.5294335, "lon": 17.8795357, "tags": {"ele": "182", "name": "Orahovica", "name:hu": "Raholca", "name:ru": "\u041e\u0440\u0430\u0445\u043e\u0432\u0438\u0446\u0430", "name:sr": "\u041e\u0440\u0430\u0445\u043e\u0432\u0438\u0446\u0430", "place": "town", "population": "3954", "population:date": "2011-03-31", "source:population": "DZS 2011", "wikidata": "Q397692", "wikipedia": "hr:Orahovica"}}, {"type": "node", "id": 321587549, "lat": 45.4907759, "lon": 18.0938075, "tags": {"name": "Na\u0161ice", "name:hu": "Nekcse", "name:ru": "\u041d\u0430\u0448\u0438\u0446\u0435", "name:sr": "\u041d\u0430\u0448\u0438\u0446\u0435", "place": "town", "population": "7888", "population:date": "2011-03-31", "postal_code": "31500", "source:population": "DZS 2011", "wikidata": "Q397652", "wikipedia": "hr:Na\u0161ice"}}, {"type": "node", "id": 311142091, "lat": 45.6594398, "lon": 18.4203003, "tags": {"name": "Valpovo", "name:hu": "Valp\u00f3", "name:ru": "\u0412\u0430\u043b\u043f\u043e\u0432\u043e", "name:sr": "\u0412\u0430\u043b\u043f\u043e\u0432\u043e", "place": "town", "population": "7406", "population:date": "2011-03-31", "source:population": "DZS 2011", "wikidata": "Q830300", "wikipedia": "en:Valpovo"}}, {"type": "node", "id": 311142607, "lat": 45.6830916, "lon": 18.4063613, "tags": {"name": "Beli\u0161\u0107e", "name:hu": "Belistye", "name:lt": "Beli\u0161\u010d\u0117", "name:ru": "\u0411\u0435\u043b\u0438\u0448\u0447\u0435", "name:sr": "\u0411\u0435\u043b\u0438\u0448\u045b\u0435", "place": "town", "population": "6518", "population:date": "2011-03-31", "source:population": "DZS 2011", "wikidata": "Q399038", "wikipedia": "hr:Beli\u0161\u0107e"}}, {"type": "node", "id": 463204318, "lat": 45.8986944, "lon": 16.8422031, "tags": {"capital": "6", "name": "Bjelovar", "name:hu": "Belov\u00e1r", "name:lt": "Bjelovaras", "name:ru": "\u0411\u044c\u0435\u043b\u043e\u0432\u0430\u0440", "name:sr": "\u0411\u0458\u0435\u043b\u043e\u0432\u0430\u0440", "old_name:de": "Bellowar", "place": "town", "population": "27024", "population:date": "2011-03-31", "source:population": "DZS 2011", "wikidata": "Q5707", "wikipedia": "hr:Bjelovar"}}, {"type": "node", "id": 418154802, "lat": 46.0410468, "lon": 17.0678562, "tags": {"loc_name": "\u0110ur\u0111evec", "name": "\u0110ur\u0111evac", "name:hr": "\u0110ur\u0111evac", "name:hu": "Szentgy\u00f6rgyv\u00e1r", "name:lt": "D\u017eurd\u017eevacas", "name:ru": "\u0414\u0436\u044e\u0440\u0434\u0436\u0435\u0432\u0430\u0446", "name:sr": "\u0402\u0443\u0440\u0452\u0435\u0432\u0430\u0446", "old_name:de": "Sankt Georgwar", "place": "town", "population": "6349", "population:date": "2011-03-31", "source:population": "DZS 2011", "wikidata": "Q342186", "wikipedia": "hr:\u0110ur\u0111evac"}}, {"type": "node", "id": 392293867, "lat": 45.8331834, "lon": 17.3853058, "tags": {"capital": "6", "is_in:continent": "Europe", "is_in:country": "Croatia", "name": "Virovitica", "name:hu": "Ver\u0151ce", "name:it": "Varaviza", "name:lt": "Virovitica", "name:ru": "\u0412\u0438\u0440\u043e\u0432\u0438\u0442\u0438\u0446\u0430", "name:sr": "\u0412\u0438\u0440\u043e\u0432\u0438\u0442\u0438\u0446\u0430", "old_name:de": "Wirowititz", "place": "town", "population": "14688", "population:date": "2011-03-31", "postal_code": "33000", "source:population": "DZS 2011", "wikidata": "Q266168", "wikipedia": "hr:Virovitica"}}, {"type": "node", "id": 418152207, "lat": 46.162359, "lon": 16.8308094, "tags": {"capital": "6", "name": "Koprivnica", "name:hu": "Kapronca", "name:ru": "\u041a\u043e\u043f\u0440\u0438\u0432\u043d\u0438\u0446\u0430", "name:sr": "\u041a\u043e\u043f\u0440\u0438\u0432\u043d\u0438\u0446\u0430", "place": "town", "population": "23955", "population:date": "2011-03-31", "source:population": "DZS 2011", "website": "https://www.koprivnica.hr/", "wikidata": "Q5640", "wikipedia": "hr:Koprivnica"}}, {"type": "node", "id": 311143614, "lat": 45.7607956, "lon": 18.1652043, "tags": {"name": "Donji Miholjac", "name:hu": "Als\u00f3miholj\u00e1c", "name:ru": "\u0414\u043e\u043d\u0438-\u041c\u0438\u0445\u043e\u043b\u044f\u0446", "name:sr": "\u0414\u043e\u045a\u0438 \u041c\u0438\u0445\u043e\u0459\u0430\u0446", "old_name:de": "Unter-Miholtz", "old_name:hu": "Szentmih\u00e1ly", "place": "town", "population": "6240", "population:date": "2011-03-31", "source:population": "DZS 2011", "wikidata": "Q399261", "wikipedia": "hr:Donji Miholjac"}}, {"type": "node", "id": 466257688, "lat": 45.0723677, "lon": 18.694355, "tags": {"name": "\u017dupanja", "name:hr": "\u017dupanja", "name:ru": "\u0416\u0443\u043f\u0430\u043d\u044f", "name:sr": "\u0416\u0443\u043f\u0430\u045a\u0430", "place": "town", "population": "12090", "population:date": "2011-03-31", "source:population": "DZS 2011", "wikidata": "Q394310", "wikipedia": "hr:\u017dupanja"}}, {"type": "node", "id": 1588972606, "lat": 45.2879286, "lon": 18.8026325, "tags": {"name": "Vinkovci", "name:de": "Vinkovci", "name:en": "Vinkovci", "name:hu": "Vinkovce", "name:la": "Cibalae", "name:lt": "Vinkovcai", "name:ru": "\u0412\u0438\u043d\u043a\u043e\u0432\u0446\u0438", "name:sr": "\u0412\u0438\u043d\u043a\u043e\u0432\u0446\u0438", "old_name": "Vinkovce", "old_name:de": "Winkowitz", "place": "town", "population": "32029", "population:date": "2011-03-31", "source:population": "DZS 2011", "wikidata": "Q221495", "wikipedia": "hr:Vinkovci"}}, {"type": "node", "id": 556791083, "lat": 45.1467255, "lon": 18.8837277, "tags": {"name": "Otok", "name:en": "Otok", "name:ru": "\u041e\u0442\u043e\u043a", "name:sr": "\u041e\u0442\u043e\u043a", "place": "town", "population": "4694", "population:date": "2011-03-31", "source:population": "DZS 2011", "wikidata": "Q994223", "wikipedia": "hr:Otok (Vukovarsko-srijemska \u017eupanija)"}}, {"type": "node", "id": 253924853, "lat": 45.5548719, "lon": 18.6953719, "tags": {"capital": "6", "is_in:continent": "Europe", "is_in:country": "Croatia", "is_in:country_code": "HR", "is_in:county": "Osje\u010dko-baranjska", "name": "Osijek", "name:ar": "\u0623\u0648\u0633\u064a\u064a\u0643", "name:de": "Osijek", "name:en": "Osijek", "name:es": "Osijek", "name:fr": "Osijek", "name:hr": "Osijek", "name:hu": "Esz\u00e9k", "name:la": "Mursa", "name:lt": "Osijekas", "name:ru": "\u041e\u0441\u0438\u0435\u043a", "name:sr": "\u041e\u0441\u0438\u0458\u0435\u043a", "name:sr-Latn": "Osijek", "old_name:de": "Essegg", "place": "city", "population": "84104", "population:date": "2011-03-31", "postal_code": "31000", "source:population": "DZS 2011", "website": "https://www.osijek.hr", "wikidata": "Q1640", "wikipedia": "hr:Osijek"}}, {"type": "node", "id": 343592046, "lat": 45.3444116, "lon": 19.0023817, "tags": {"alt_name:hu": "Valk\u00f3v\u00e1r", "capital": "6", "name": "Vukovar", "name:de": "Vukovar", "name:en": "Vukovar", "name:he": "\u05d5\u05d5\u05e7\u05d5\u05d1\u05e8", "name:hr": "Vukovar", "name:hu": "Vukov\u00e1r", "name:lt": "Vukovaras", "name:ru": "\u0412\u0443\u043a\u043e\u0432\u0430\u0440", "name:sr": "\u0412\u0443\u043a\u043e\u0432\u0430\u0440", "name:sr-Latn": "Vukovar", "name:uk": "\u0412\u0443\u043a\u043e\u0432\u0430\u0440", "old_name:de": "Wukowar", "place": "town", "population": "26468", "population:date": "2011-03-31", "source:population": "DZS 2011", "wikidata": "Q5867", "wikipedia": "hr:Vukovar"}}, {"type": "node", "id": 470922368, "lat": 45.2215817, "lon": 19.3754013, "tags": {"name": "Ilok", "name:hu": "\u00dajlak", "name:sr": "\u0418\u043b\u043e\u043a", "old_name:de": "Illok", "place": "town", "population": "5072", "population:date": "2011-03-31", "source:population": "DZS 2011", "wikidata": "Q5882", "wikipedia": "hr:Ilok"}}, {"type": "node", "id": 419259175, "lat": 45.7697026, "lon": 18.6058278, "tags": {"name": "Beli Manastir", "name:de": "Beli Manastir", "name:hu": "P\u00e9lmonostor", "name:ru": "\u0411\u0435\u043b\u0438-\u041c\u043e\u043d\u0430\u0441\u0442\u0438\u0440", "name:sr": "\u0411\u0435\u043b\u0438 \u041c\u0430\u043d\u0430\u0441\u0442\u0438\u0440", "name:sr-Latn": "Beli Manastir", "name:uk": "\u0411\u0456\u043b\u0438\u0439 \u041c\u0430\u043d\u0430\u0441\u0442\u0438\u0440", "old_name:de": "Manoster", "place": "town", "population": "8049", "population:date": "2011-03-31", "source:population": "DZS 2011", "website": "http://www.beli-manastir.hr", "wikidata": "Q397645", "wikipedia": "hr:Beli Manastir"}}]}