{"version": 0.6, "generator": "Overpass API 0.7.56.8 7d656e78", "osm3s": {"timestamp_osm_base": "2021-03-02T19:28:26Z", "timestamp_areas_base": "2021-03-02T19:18:11Z", "copyright": "The data included in this document is from www.openstreetmap.org. The data is made available under ODbL."}, "elements": [{"type": "node", "id": 21371958, "lat": 46.433204, "lon": 16.7230843, "tags": {"ksh_ref": "12122", "name": "Letenye", "name:hr": "Letinja", "name:ru": "\u041b\u0435\u0442\u0435\u043d\u044c\u0435", "name:sl": "Letina", "place": "town", "population": "4060", "postal_code": "8868", "source:population": "KSH (www.ksh.hu)", "source:population:date": "2016-01-01", "source:postal_code": "Magyar Posta (posta.hu)", "source:postal_code:date": "2009-03-01", "wikidata": "Q854969", "wikipedia": "en:Letenye"}}, {"type": "node", "id": 32188020, "lat": 45.9605366, "lon": 17.4634342, "tags": {"ksh_ref": "32799", "name": "Barcs", "name:de": "Draustadt", "name:hr": "Bar\u010d", "name:ru": "\u0411\u0430\u0440\u0447", "name:sl": "Bar\u010d", "name:sr": "\u0411\u0430\u0440\u0447", "old_name:de": "Draustadt", "place": "town", "population": "10698", "postal_code": "7570", "source:population": "KSH (www.ksh.hu)", "source:population:date": "2016-01-01", "wikidata": "Q790370"}}, {"type": "node", "id": 271319040, "lat": 46.2642514, "lon": 17.0950874, "tags": {"ksh_ref": "21315", "name": "Csurg\u00f3", "name:hr": "\u010curguj", "name:ru": "\u0427\u0443\u0440\u0433\u043e", "place": "town", "population": "4932", "postal_code": "8840", "source:population": "KSH (www.ksh.hu)", "source:population:date": "2016-01-01", "source:postal_code": "Magyar Posta (posta.hu)", "source:postal_code:date": "2009-03-01"}}, {"type": "node", "id": 286101602, "lat": 46.4548261, "lon": 16.9923923, "tags": {"ele": "140", "ksh_ref": "30933", "name": "Nagykanizsa", "name:de": "Gro\u00dfkirchen", "name:hr": "Velika Kani\u017ea", "name:ru": "\u041d\u0430\u0434\u044c\u043a\u0430\u043d\u0438\u0436\u0430", "name:tr": "Kanije", "old_name": "Kanizsa", "old_name:de": "Kanischa", "place": "town", "place:hu": "megyei jog\u00fa v\u00e1ros", "population": "47683", "postal_code": "8800", "source:population": "KSH (www.ksh.hu)", "source:population:date": "2016-01-01", "source:postal_code": "Magyar Posta (posta.hu)", "source:postal_code:date": "2009-03-01", "website": "https://nagykanizsa.hu/", "wikidata": "Q14424", "wikipedia": "hu:Nagykanizsa"}}, {"type": "node", "id": 274683600, "lat": 46.5607855, "lon": 17.1221529, "tags": {"ksh_ref": "11785", "name": "Zalakaros", "name:de": "Zalakaros", "place": "town", "population": "1939", "postal_code": "8749", "source:population": "KSH (www.ksh.hu)", "source:population:date": "2016-01-01", "source:postal_code": "Magyar Posta (posta.hu)", "source:postal_code:date": "2009-03-01"}}, {"type": "node", "id": 244529701, "lat": 46.229143, "lon": 17.3570964, "tags": {"ksh_ref": "17941", "name": "Nagyat\u00e1d", "name:ru": "\u041d\u0430\u0434\u044c\u0430\u0442\u0430\u0434", "place": "town", "population": "10468", "postal_code": "7500", "source:population": "KSH (www.ksh.hu)", "source:population:date": "2016-01-01", "source:postal_code": "Magyar Posta (posta.hu)", "source:postal_code:date": "2009-03-01"}}, {"type": "node", "id": 255647868, "lat": 46.2324884, "lon": 17.6140623, "tags": {"ksh_ref": "26453", "name": "Kadark\u00fat", "name:ru": "\u041a\u0430\u0434\u0430\u0440\u043a\u0443\u0442", "place": "town", "population": "2418", "postal_code": "7530", "source:population": "KSH (www.ksh.hu)", "source:population:date": "2016-01-01", "source:postal_code": "Magyar Posta (posta.hu)", "source:postal_code:date": "2009-03-01"}}, {"type": "node", "id": 274670378, "lat": 46.3936498, "lon": 17.5117091, "tags": {"ksh_ref": "21652", "name": "Nagybajom", "name:ru": "\u041d\u0430\u0434\u044c\u0431\u0430\u0439\u043e\u043c", "place": "town", "population": "3309", "postal_code": "7561", "source:population": "KSH (www.ksh.hu)", "source:population:date": "2016-01-01", "source:postal_code": "Magyar Posta (posta.hu)", "source:postal_code:date": "2009-03-01"}}, {"type": "node", "id": 286997942, "lat": 45.8735444, "lon": 17.8514053, "tags": {"ksh_ref": "28741", "name": "Sellye", "name:de": "Schelle", "name:hr": "\u0160eljin", "name:ru": "\u0428\u0435\u043b\u044c\u0435", "place": "town", "population": "2548", "postal_code": "7960", "source:population": "KSH (www.ksh.hu)", "source:population:date": "2016-01-01", "source:postal_code": "Magyar Posta (posta.hu)", "source:postal_code:date": "2009-03-01"}}, {"type": "node", "id": 355204110, "lat": 46.0474395, "lon": 17.7993511, "tags": {"ksh_ref": "26578", "name": "Szigetv\u00e1r", "name:de": "Inselburg", "name:hr": "Siget", "name:ru": "\u0421\u0438\u0433\u0435\u0442\u0432\u0430\u0440", "place": "town", "population": "10585", "postal_code": "7900", "source:population": "KSH (www.ksh.hu)", "source:population:date": "2016-01-01", "source:postal_code": "Magyar Posta (posta.hu)", "source:postal_code:date": "2009-03-01"}}, {"type": "node", "id": 286996950, "lat": 46.0415605, "lon": 17.988914, "tags": {"ksh_ref": "15866", "name": "Szentl\u0151rinc", "name:de": "St. Laurenz", "name:en": "St. Lawrence", "name:hr": "Selurinac", "name:ru": "\u0421\u0435\u043d\u0442\u043b\u0451\u0440\u0438\u043d\u0446", "place": "town", "population": "6401", "postal_code": "7940", "source:population": "KSH (www.ksh.hu)", "source:population:date": "2016-01-01", "source:postal_code": "Magyar Posta (posta.hu)", "source:postal_code:date": "2009-03-01"}}, {"type": "node", "id": 20938029, "lat": 45.8477907, "lon": 18.2359978, "tags": {"ksh_ref": "21528", "name": "Hark\u00e1ny", "name:de": "Harkan", "name:hr": "Harkanj", "name:ru": "\u0425\u0430\u0440\u043a\u0430\u043d\u044c", "place": "town", "population": "4303", "postal_code": "7815", "source:population": "KSH (www.ksh.hu)", "source:population:date": "2016-01-01", "source:postal_code": "Magyar Posta (posta.hu)", "source:postal_code:date": "2009-03-01"}}, {"type": "node", "id": 26234773, "lat": 45.852096, "lon": 18.2981568, "tags": {"ksh_ref": "05519", "name": "Sikl\u00f3s", "name:de": "Sieglos", "name:hr": "\u0160iklo\u0161", "name:ru": "\u0428\u0438\u043a\u043b\u043e\u0448", "place": "town", "population": "9147", "postal_code": "7800", "source:population": "KSH (www.ksh.hu)", "source:population:date": "2016-01-01", "source:postal_code": "Magyar Posta (posta.hu)", "source:postal_code:date": "2009-03-01"}}, {"type": "node", "id": 17550787, "lat": 46.0763222, "lon": 18.2280746, "tags": {"capital": "6", "ksh_ref": "19415", "name": "P\u00e9cs", "name:de": "F\u00fcnfkirchen", "name:hr": "Pe\u010duh", "name:hu": "P\u00e9cs", "name:pl": "Pecz", "name:ru": "\u041f\u0435\u0447", "name:sr": "\u041f\u0435\u0447\u0443\u0458", "name:uk": "\u041f\u0435\u0447", "old_name:la": "Sopianae", "old_name:pl": "Pi\u0119cioko\u015bcio\u0142y", "place": "city", "population": "145347", "postal_code": "7600", "source:population": "KSH (www.ksh.hu)", "source:population:date": "2016-01-01", "source:postal_code": "Magyar Posta (posta.hu)", "source:postal_code:date": "2009-03-01", "wikidata": "Q45779", "wikipedia": "hu:P\u00e9cs"}}, {"type": "node", "id": 21495636, "lat": 46.0487525, "lon": 18.2860822, "tags": {"ksh_ref": "06336", "name": "Koz\u00e1rmisleny", "name:de": "Mischlen", "name:hr": "Mi\u0161ljen", "place": "town", "population": "5981", "postal_code": "7761", "source:population": "KSH (www.ksh.hu)", "source:population:date": "2016-01-01", "source:postal_code": "Magyar Posta (posta.hu)", "source:postal_code:date": "2009-03-01"}}, {"type": "node", "id": 25926749, "lat": 46.3564692, "lon": 17.7886886, "tags": {"alt_name:de": "Ruppertsberg;Ruppertsburg", "capital": "6", "ksh_ref": "20473", "name": "Kaposv\u00e1r", "name:de": "Ruppertsburg", "name:hu": "Kaposv\u00e1r", "name:ru": "\u041a\u0430\u043f\u043e\u0448\u0432\u0430\u0440", "name:sr": "\u041a\u0430\u043f\u043e\u0448\u0432\u0430\u0440", "name:uk": "\u041a\u0430\u043f\u043e\u0448\u0432\u0430\u0440", "place": "city", "population": "63186", "postal_code": "7400", "source:population": "KSH (www.ksh.hu)", "source:population:date": "2016-01-01", "source:postal_code": "Magyar Posta (posta.hu)", "source:postal_code:date": "2009-03-01", "wikidata": "Q184998", "wikipedia": "hu:Kaposv\u00e1r"}}, {"type": "node", "id": 249290743, "lat": 46.5345467, "lon": 17.9386708, "tags": {"ksh_ref": "11192", "name": "Igal", "name:ru": "\u0418\u0433\u0430\u043b\u044c", "place": "town", "population": "1327", "postal_code": "7275", "source:population": "KSH (www.ksh.hu)", "source:population:date": "2016-01-01", "source:postal_code": "Magyar Posta (posta.hu)", "source:postal_code:date": "2009-03-01"}}, {"type": "node", "id": 279166299, "lat": 46.2559563, "lon": 18.1065598, "tags": {"ksh_ref": "32160", "name": "S\u00e1sd", "name:de": "Schaschd", "name:hr": "\u0160a\u0161", "name:ru": "\u0428\u0430\u0448\u0434", "old_name:de": "Ried", "place": "town", "population": "3053", "postal_code": "7370", "source:population": "KSH (www.ksh.hu)", "source:population:date": "2016-01-01", "source:postal_code": "Magyar Posta (posta.hu)", "source:postal_code:date": "2009-03-01"}}, {"type": "node", "id": 29530538, "lat": 46.349833, "lon": 18.2285903, "tags": {"ksh_ref": "06813", "name": "M\u00e1gocs", "name:de": "Magotsch", "name:hr": "Mago\u010d", "name:ru": "\u041c\u0430\u0433\u043e\u0447\u044c", "place": "town", "population": "2316", "postal_code": "7342", "source:population": "KSH (www.ksh.hu)", "source:population:date": "2016-01-01", "source:postal_code": "Magyar Posta (posta.hu)", "source:postal_code:date": "2009-03-01"}}, {"type": "node", "id": 18331125, "lat": 46.1911673, "lon": 18.2613778, "tags": {"ksh_ref": "26408", "name": "Koml\u00f3", "name:de": "Kumlau", "name:ru": "\u041a\u043e\u043c\u043b\u043e", "place": "town", "population": "23388", "postal_code": "7300", "source:population": "KSH (www.ksh.hu)", "source:population:date": "2016-01-01", "source:postal_code": "Magyar Posta (posta.hu)", "source:postal_code:date": "2009-03-01", "wikidata": "Q430207", "wikipedia": "hu:Koml\u00f3 (telep\u00fcl\u00e9s)"}}, {"type": "node", "id": 286998160, "lat": 46.1608411, "lon": 18.4206938, "tags": {"ksh_ref": "10825", "name": "P\u00e9csv\u00e1rad", "name:de": "F\u00fcnfkirchenwardein", "name:de_1": "Petschwar", "name:hr": "Pe\u010dvar", "name:ru": "\u041f\u0435\u0447\u0432\u0430\u0440\u0430\u0434", "place": "town", "population": "3994", "postal_code": "7720", "source:population": "KSH (www.ksh.hu)", "source:population:date": "2016-01-01", "source:postal_code": "Magyar Posta (posta.hu)", "source:postal_code:date": "2009-03-01"}}, {"type": "node", "id": 274666503, "lat": 46.3778989, "lon": 18.1332865, "tags": {"ksh_ref": "07685", "name": "Domb\u00f3v\u00e1r", "name:de": "Dombowa", "name:ru": "\u0414\u043e\u043c\u0431\u043e\u0432\u0430\u0440", "place": "town", "population": "18461", "postal_code": "7200", "source:population": "KSH (www.ksh.hu)", "source:population:date": "2016-01-01", "source:postal_code": "Magyar Posta (posta.hu)", "source:postal_code:date": "2009-03-01", "wikidata": "Q633789"}}, {"type": "node", "id": 17502356, "lat": 45.8697644, "lon": 18.4555208, "tags": {"ksh_ref": "28024", "name": "Vill\u00e1ny", "name:de": "Willand", "name:hr": "Vilanj", "name:ru": "\u0412\u0438\u043b\u043b\u0430\u043d\u044c", "name:sr": "\u0412\u0438\u0459\u0430\u043d", "name:sr-Latn": "Vilanj", "place": "town", "population": "2406", "postal_code": "7773", "source:population": "KSH (www.ksh.hu)", "source:population:date": "2016-01-01", "source:postal_code": "Magyar Posta (posta.hu)", "source:postal_code:date": "2009-03-01", "wikidata": "Q657642", "wikipedia": "hu:Vill\u00e1ny"}}, {"type": "node", "id": 21495982, "lat": 45.9692795, "lon": 18.5161494, "tags": {"ksh_ref": "33154", "name": "B\u00f3ly", "name:de": "Bohl", "name:hr": "Bolj", "name:ru": "\u0411\u043e\u0439", "place": "town", "population": "3874", "postal_code": "7754", "source:population": "KSH (www.ksh.hu)", "source:population:date": "2016-01-01", "source:postal_code": "Magyar Posta (posta.hu)", "source:postal_code:date": "2009-03-01"}}, {"type": "node", "id": 416984891, "lat": 45.9933836, "lon": 18.6821079, "tags": {"ksh_ref": "23959", "name": "Moh\u00e1cs", "name:cs": "Moh\u00e1\u010d", "name:de": "Mohatsch", "name:hr": "Moha\u010d", "name:ru": "\u041c\u043e\u0445\u0430\u0447", "name:sr": "\u041c\u043e\u0445\u0430\u0447", "place": "town", "population": "17355", "postal_code": "7700", "source:population": "KSH (www.ksh.hu)", "source:population:date": "2016-01-01", "source:postal_code": "Magyar Posta (posta.hu)", "source:postal_code:date": "2009-03-01", "wikidata": "Q320798"}}, {"type": "node", "id": 312774526, "lat": 46.2824922, "lon": 18.459239, "tags": {"ksh_ref": "14030", "name": "Nagym\u00e1nyok", "name:de": "Gro\u00dfmanok", "name:ru": "\u041d\u0430\u0434\u044c\u043c\u0430\u044c\u043e\u043a", "place": "town", "population": "2233", "postal_code": "7355", "source:population": "KSH (www.ksh.hu)", "source:population:date": "2016-01-01", "source:postal_code": "Magyar Posta (posta.hu)", "source:postal_code:date": "2009-03-01"}}, {"type": "node", "id": 213383214, "lat": 46.2984212, "lon": 18.532191, "tags": {"ksh_ref": "06497", "name": "Bonyh\u00e1d", "name:de": "Bonnhard", "name:ru": "\u0411\u043e\u043d\u044c\u0445\u0430\u0434", "place": "town", "population": "13322", "postal_code": "7150", "source:population": "KSH (www.ksh.hu)", "source:population:date": "2016-01-01", "source:postal_code": "Magyar Posta (posta.hu)", "source:postal_code:date": "2009-03-01"}}, {"type": "node", "id": 76705495, "lat": 46.1933095, "lon": 18.7241126, "tags": {"ksh_ref": "08864", "name": "B\u00e1tasz\u00e9k", "name:de": "Badeseck", "name:hr": "Bacik", "name:ru": "\u0411\u0430\u0442\u0430\u0441\u0435\u043a", "place": "town", "population": "6118", "postal_code": "7140", "source:population": "KSH (www.ksh.hu)", "source:population:date": "2016-01-01", "source:postal_code": "Magyar Posta (posta.hu)", "source:postal_code:date": "2009-03-01"}}, {"type": "node", "id": 25553427, "lat": 46.3484884, "lon": 18.701663, "tags": {"alt_name:de": "Sechsard", "capital": "6", "ksh_ref": "22761", "name": "Szeksz\u00e1rd", "name:de": "Sechshard", "name:hu": "Szeksz\u00e1rd", "name:ru": "\u0421\u0435\u043a\u0441\u0430\u0440\u0434", "place": "city", "population": "32844", "postal_code": "7100", "source:population": "KSH (www.ksh.hu)", "source:population:date": "2016-01-01", "source:postal_code": "Magyar Posta (posta.hu)", "source:postal_code:date": "2009-03-01", "wikidata": "Q189761", "wikipedia": "hu:Szeksz\u00e1rd"}}, {"type": "node", "id": 173247226, "lat": 46.5553541, "lon": 18.4783275, "tags": {"ksh_ref": "30289", "name": "Gy\u00f6nk", "name:de": "Jink", "name:ru": "\u0414\u044c\u0435\u043d\u043a", "place": "town", "population": "1999", "postal_code": "7064", "source:population": "KSH (www.ksh.hu)", "source:population:date": "2016-01-01", "source:postal_code": "Magyar Posta (posta.hu)", "source:postal_code:date": "2009-03-01"}}, {"type": "node", "id": 206235481, "lat": 46.4226584, "lon": 18.7887741, "tags": {"ksh_ref": "25274", "name": "Tolna", "name:de": "Tolnau", "name:ru": "\u0422\u043e\u043b\u044c\u043d\u0430", "place": "town", "population": "11080", "postal_code": "7130", "source:population": "KSH (www.ksh.hu)", "source:population:date": "2016-01-01", "source:postal_code": "Magyar Posta (posta.hu)", "source:postal_code:date": "2009-03-01"}}, {"type": "node", "id": 287001980, "lat": 46.1784967, "lon": 18.9511186, "tags": {"ksh_ref": "03522", "name": "Baja", "name:de": "Frankenstadt", "name:ru": "\u0411\u0430\u0439\u044f", "place": "town", "population": "35411", "postal_code": "6500", "source:population": "KSH (www.ksh.hu)", "source:population:date": "2016-01-01", "source:postal_code": "Magyar Posta (posta.hu)", "source:postal_code:date": "2009-03-01", "wikidata": "Q203344", "wikipedia": "hu:Baja"}}, {"type": "node", "id": 330880946, "lat": 46.5230265, "lon": 18.9825043, "tags": {"ksh_ref": "06442", "name": "Kalocsa", "name:de": "Kollotschau", "name:hr": "Kalo\u010da", "name:ru": "\u041a\u0430\u043b\u043e\u0447\u0430", "name:sr": "\u041a\u0430\u043b\u043e\u0447\u0430", "place": "town", "population": "15490", "postal_code": "6300", "source:population": "KSH (www.ksh.hu)", "source:population:date": "2016-01-01", "source:postal_code": "Magyar Posta (posta.hu)", "source:postal_code:date": "2009-03-01", "wikidata": "Q679249", "wikipedia": "hu:Kalocsa"}}, {"type": "node", "id": 287001534, "lat": 46.3982552, "lon": 19.117199, "tags": {"ksh_ref": "18759", "name": "Haj\u00f3s", "name:de": "Hajosch", "name:hr": "Ajo\u0161", "name:ru": "\u0425\u0430\u0439\u043e\u0448", "place": "town", "population": "3013", "postal_code": "6344", "source:population": "KSH (www.ksh.hu)", "source:population:date": "2016-01-01", "source:postal_code": "Magyar Posta (posta.hu)", "source:postal_code:date": "2009-03-01"}}, {"type": "node", "id": 3252267072, "lat": 46.5237655, "lon": 19.2533387, "tags": {"ksh_ref": "19789", "name": "Kecel", "name:hr": "Keceja", "name:ru": "\u041a\u0435\u0446\u0435\u043b\u044c", "place": "town", "population": "8445", "postal_code": "6237", "source:population": "KSH (www.ksh.hu)", "source:population:date": "2016-01-01", "source:postal_code": "Magyar Posta, 2009.03.01"}}, {"type": "node", "id": 287003234, "lat": 46.1274127, "lon": 19.3319128, "tags": {"ksh_ref": "10719", "name": "B\u00e1csalm\u00e1s", "name:de": "Almasch", "name:hr": "Aljma\u0161", "name:ru": "\u0411\u0430\u0447\u0430\u043b\u044c\u043c\u0430\u0448", "place": "town", "population": "6496", "postal_code": "6430", "source:population": "KSH (www.ksh.hu)", "source:population:date": "2016-01-01", "source:postal_code": "Magyar Posta (posta.hu)", "source:postal_code:date": "2009-03-01"}}, {"type": "node", "id": 290611295, "lat": 46.2151957, "lon": 19.3792097, "tags": {"ksh_ref": "16018", "name": "M\u00e9lyk\u00fat", "name:hr": "Miljkut", "name:ru": "\u041c\u0435\u0439\u043a\u0443\u0442", "place": "town", "population": "4841", "postal_code": "6449", "source:population": "KSH (www.ksh.hu)", "source:population:date": "2016-01-01", "source:postal_code": "Magyar Posta (posta.hu)", "source:postal_code:date": "2009-03-01"}}, {"type": "node", "id": 287003778, "lat": 46.2972264, "lon": 19.3235909, "tags": {"ksh_ref": "09469", "name": "J\u00e1noshalma", "name:hr": "Jankovac", "name:ru": "\u042f\u043d\u043e\u0448\u0445\u0430\u043b\u044c\u043c\u0430", "place": "town", "population": "8530", "postal_code": "6440", "source:population": "KSH (www.ksh.hu)", "source:population:date": "2016-01-01", "source:postal_code": "Magyar Posta (posta.hu)", "source:postal_code:date": "2009-03-01"}}, {"type": "node", "id": 287009799, "lat": 46.2049292, "lon": 19.5374011, "tags": {"ksh_ref": "28486", "name": "Tompa", "name:sr": "\u0422\u043e\u043c\u043f\u0430", "place": "town", "population": "4413", "postal_code": "6422", "source:population": "KSH (www.ksh.hu)", "source:population:date": "2016-01-01", "source:postal_code": "Magyar Posta (posta.hu)", "source:postal_code:date": "2009-03-01", "wikidata": "Q222782", "wikipedia": "hu:Tompa (Magyarorsz\u00e1g)"}}, {"type": "node", "id": 287004164, "lat": 46.4278497, "lon": 19.4833076, "tags": {"ksh_ref": "32434", "name": "Kiskunhalas", "name:de": "Hallasch", "name:hr": "Ola\u0161", "name:ru": "\u041a\u0438\u0448\u043a\u0443\u043d\u0445\u0430\u043b\u0430\u0448", "name:sr": "\u041a\u0438\u0448\u043a\u0443\u043d\u0445\u0430\u043b\u0430\u0448", "place": "town", "population": "27470", "postal_code": "6400", "source:population": "KSH (www.ksh.hu)", "source:population:date": "2016-01-01", "source:postal_code": "Magyar Posta (posta.hu)", "source:postal_code:date": "2009-03-01", "wikidata": "Q329775", "wikipedia": "hu:Kiskunhalas"}}, {"type": "node", "id": 30848800, "lat": 46.2163238, "lon": 19.8894811, "tags": {"ksh_ref": "04349", "name": "M\u00f3rahalom", "name:hr": "Ralma", "name:ru": "\u041c\u043e\u0440\u0430\u0445\u0430\u043b\u043e\u043c", "name:sr": "\u041c\u043e\u0440\u0430\u0445\u0430\u043b\u043e\u043c", "name:sr-Latn": "Morahalom", "place": "town", "population": "6017", "postal_code": "6782", "source:population": "KSH (www.ksh.hu)", "source:population:date": "2016-01-01", "source:postal_code": "Magyar Posta (posta.hu)", "source:postal_code:date": "2009-03-01"}}, {"type": "node", "id": 287005373, "lat": 46.4906228, "lon": 19.7393121, "tags": {"ksh_ref": "24396", "name": "Kiskunmajsa", "name:ru": "\u041a\u0438\u0448\u043a\u0443\u043d\u043c\u0430\u0439\u0448\u0430", "place": "town", "population": "11216", "postal_code": "6120", "source:population": "KSH (www.ksh.hu)", "source:population:date": "2016-01-01", "source:postal_code": "Magyar Posta (posta.hu)", "source:postal_code:date": "2009-03-01"}}, {"type": "node", "id": 286973106, "lat": 46.3657365, "lon": 20.1042174, "tags": {"ksh_ref": "31705", "name": "S\u00e1ndorfalva", "name:ru": "\u0428\u0430\u043d\u0434\u043e\u0440\u0444\u0430\u043b\u044c\u0432\u0430", "place": "town", "population": "7772", "postal_code": "6762", "source:population": "KSH (www.ksh.hu)", "source:population:date": "2016-01-01", "source:postal_code": "Magyar Posta (posta.hu)", "source:postal_code:date": "2009-03-01"}}, {"type": "node", "id": 286973656, "lat": 46.4704606, "lon": 19.9812009, "tags": {"ksh_ref": "31024", "name": "Kistelek", "name:ru": "\u041a\u0438\u0448\u0442\u0435\u043b\u0435\u043a", "place": "town", "population": "6968", "postal_code": "6760", "source:population": "KSH (www.ksh.hu)", "source:population:date": "2016-01-01", "source:postal_code": "Magyar Posta (posta.hu)", "source:postal_code:date": "2009-03-01"}}, {"type": "node", "id": 286106057, "lat": 46.9528507, "lon": 16.2748541, "tags": {"ksh_ref": "31583", "name": "Szentgotth\u00e1rd", "name:de": "St. Gotthard", "name:hu": "Szentgotth\u00e1rd", "name:ru": "\u0421\u0435\u043d\u0442\u0433\u043e\u0442\u0445\u0430\u0440\u0434", "name:sl": "Mono\u0161ter", "name:sr": "\u0421\u0435\u043d\u0442\u0433\u043e\u0442\u0430\u0440\u0434", "place": "town", "population": "8872", "postal_code": "9970", "source:population": "KSH (www.ksh.hu)", "source:population:date": "2016-01-01", "source:postal_code": "Magyar Posta (posta.hu)", "source:postal_code:date": "2009-03-01"}}, {"type": "node", "id": 285944075, "lat": 46.6245749, "lon": 16.5366668, "tags": {"ksh_ref": "12575", "name": "Lenti", "name:de": "Nempthy", "name:hr": "Lentiba", "name:ru": "\u041b\u0435\u043d\u0442\u0438", "place": "town", "population": "7756", "postal_code": "8960", "source:population": "KSH (www.ksh.hu)", "source:population:date": "2016-01-01", "source:postal_code": "Magyar Posta (posta.hu)", "source:postal_code:date": "2009-03-01", "wikidata": "Q854965", "wikipedia": "en:Lenti"}}, {"type": "node", "id": 276952211, "lat": 46.8415658, "lon": 16.4182244, "tags": {"ksh_ref": "10630", "name": "\u0150riszentp\u00e9ter", "name:de": "St. Peter in der Wart", "name:ru": "\u042d\u0440\u0438\u0441\u0435\u043d\u0442\u043f\u0435\u0442\u0435\u0440", "name:sl": "\u0160empeter", "place": "town", "population": "1154", "postal_code": "9941", "source:population": "KSH (www.ksh.hu)", "source:population:date": "2016-01-01", "source:postal_code": "Magyar Posta (posta.hu)", "source:postal_code:date": "2009-03-01"}}, {"type": "node", "id": 276105600, "lat": 46.8461983, "lon": 16.5852286, "tags": {"ksh_ref": "30313", "name": "Zalal\u00f6v\u0151", "name:la": "Municipium Aelium Salla", "name:ru": "\u0417\u0430\u043b\u0430\u043b\u0451\u0432\u0451", "place": "town", "population": "2945", "postal_code": "8999", "source:population": "KSH (www.ksh.hu)", "source:population:date": "2016-01-01", "source:postal_code": "Magyar Posta (posta.hu)", "source:postal_code:date": "2009-03-01"}}, {"type": "node", "id": 268197049, "lat": 47.0126655, "lon": 16.6010475, "tags": {"ksh_ref": "13532", "name": "K\u00f6rmend", "name:de": "Kirment", "name:hr": "Kirmied", "name:ru": "\u041a\u0451\u0440\u043c\u0435\u043d\u0434", "name:sl": "Kermendin", "old_name:de": "Pinkam\u00fcnd", "place": "town", "population": "11419", "postal_code": "9900", "source:population": "KSH (www.ksh.hu)", "source:population:date": "2016-01-01", "source:postal_code": "Magyar Posta (posta.hu)", "source:postal_code:date": "2009-03-01"}}, {"type": "node", "id": 286103368, "lat": 47.3894949, "lon": 16.5406843, "tags": {"alt_name": "G\u00fcns", "int_name": "K\u00f6szeg", "ksh_ref": "16832", "name": "K\u0151szeg", "name:de": "G\u00fcns", "name:hr": "Kiseg", "name:ru": "\u041a\u0451\u0441\u0435\u0433", "name:sk": "Kysek", "old_name": "Kiseg", "place": "town", "population": "11730", "postal_code": "9730", "source:population": "KSH (www.ksh.hu)", "source:population:date": "2016-01-01", "source:postal_code": "Magyar Posta (posta.hu)", "source:postal_code:date": "2009-03-01"}}, {"type": "node", "id": 1704499260, "lat": 47.2291184, "lon": 16.6187625, "tags": {"capital": "6", "ksh_ref": "03009", "name": "Szombathely", "name:de": "Steinamanger", "name:hr": "Sambotel", "name:hu": "Szombathely", "name:ru": "\u0421\u043e\u043c\u0431\u0430\u0442\u0445\u0435\u0439", "name:sk": "Kamenec", "name:sr": "\u0421\u043e\u043c\u0431\u0430\u0442\u0445\u0435\u0459", "old_name:de": "Stein am Anger", "old_name:la": "Savaria", "place": "city", "population": "77973", "postal_code": "9700", "source:population": "KSH (www.ksh.hu)", "source:population:date": "2016-01-01", "wikidata": "Q42007", "wikipedia": "hu:Szombathely"}}, {"type": "node", "id": 700705985, "lat": 47.2308177, "lon": 16.723032, "tags": {"ksh_ref": "26426", "name": "V\u00e9p", "name:de": "Wettendorf", "name:ru": "\u0412\u0435\u043f", "place": "town", "population": "3266", "postal_code": "9751", "source:population": "KSH (www.ksh.hu)", "source:population:date": "2016-01-01", "source:postal_code": "A Magyar K\u00f6zt\u00e1rsas\u00e1g Helys\u00e9gn\u00e9vt\u00e1ra, 2009"}}, {"type": "node", "id": 668781111, "lat": 47.401594, "lon": 16.7078418, "tags": {"ksh_ref": "12140", "name": "Csepreg", "name:de": "Tschapring", "name:hr": "\u010cepreg", "name:ru": "\u0427\u0435\u043f\u0440\u0435\u0433", "place": "town", "population": "3272", "postal_code": "9735", "source:population": "KSH (www.ksh.hu)", "source:population:date": "2016-01-01", "source:postal_code": "A Magyar K\u00f6zt\u00e1rsas\u00e1g Helys\u00e9gn\u00e9vt\u00e1ra, 2009"}}, {"type": "node", "id": 286103515, "lat": 47.3833959, "lon": 16.753305, "tags": {"ksh_ref": "02431", "name": "B\u00fck", "name:de": "Wichs", "place": "town", "population": "3579", "postal_code": "9737", "source:population": "KSH (www.ksh.hu)", "source:population:date": "2016-01-01", "source:postal_code": "Magyar Posta (posta.hu)", "source:postal_code:date": "2009-03-01"}}, {"type": "node", "id": 25913119, "lat": 47.6803063, "lon": 16.5983457, "tags": {"ksh_ref": "08518", "name": "Sopron", "name:cs": "\u0160opro\u0148", "name:de": "\u00d6denburg", "name:he": "\u05e9\u05d5\u05e4\u05e8\u05d5\u05df", "name:hr": "\u0160opron", "name:hu": "Sopron", "name:it": "Odenburgo", "name:ja": "\u30b7\u30e7\u30d7\u30ed\u30f3", "name:ka": "\u10e8\u10dd\u10de\u10e0\u10dd\u10dc\u10d8", "name:la": "Scarbantia", "name:ru": "\u0428\u043e\u043f\u0440\u043e\u043d", "name:sk": "\u0160opron", "name:sr": "\u0428\u043e\u043f\u0440\u043e\u043d", "place": "town", "population": "61887", "postal_code": "9400", "source:population": "KSH (www.ksh.hu)", "source:population:date": "2016-01-01", "source:postal_code": "Magyar Posta (posta.hu)", "source:postal_code:date": "2009-03-01", "wikidata": "Q168648"}}, {"type": "node", "id": 88976335, "lat": 46.72254, "lon": 17.0097774, "tags": {"ksh_ref": "31741", "name": "Pacsa", "name:ru": "\u041f\u0430\u0447\u0430", "place": "town", "population": "1610", "postal_code": "8761", "source:population": "KSH (www.ksh.hu)", "source:population:date": "2016-01-01", "source:postal_code": "Magyar Posta (posta.hu)", "source:postal_code:date": "2009-03-01"}}, {"type": "node", "id": 183813583, "lat": 46.8415803, "lon": 16.8456316, "tags": {"capital": "6", "ksh_ref": "32054", "name": "Zalaegerszeg", "name:de": "Egersee", "name:ru": "\u0417\u0430\u043b\u0430\u044d\u0433\u0435\u0440\u0441\u0435\u0433", "name:sr": "\u0417\u0430\u043b\u0430\u0435\u0433\u0435\u0440\u0441\u0435\u0433", "name:uk": "\u0417\u0430\u043b\u0430\u0435\u0491\u0435\u0440\u0441\u0435\u0491", "place": "city", "population": "58829", "postal_code": "8900", "source:population": "KSH (www.ksh.hu)", "source:population:date": "2016-01-01", "wikidata": "Q60037", "wikipedia": "hu:Zalaegerszeg"}}, {"type": "node", "id": 88991312, "lat": 46.7906038, "lon": 17.1834489, "tags": {"ksh_ref": "03814", "name": "H\u00e9v\u00edz", "name:de": "Heuwies", "name:ru": "\u0425\u0435\u0432\u0438\u0437", "place": "town", "population": "4721", "postal_code": "8380", "source:population": "KSH (www.ksh.hu)", "source:population:date": "2016-01-01", "source:postal_code": "Magyar Posta (posta.hu)", "source:postal_code:date": "2009-03-01", "wikidata": "Q377929", "wikipedia": "hu:H\u00e9v\u00edz"}}, {"type": "node", "id": 286102448, "lat": 46.9438023, "lon": 17.0790205, "tags": {"ksh_ref": "32522", "name": "Zalaszentgr\u00f3t", "name:ru": "\u0417\u0430\u043b\u0430\u0441\u0435\u043d\u0442\u0433\u0440\u043e\u0442", "place": "town", "population": "6448", "postal_code": "8790", "source:population": "KSH (www.ksh.hu)", "source:population:date": "2016-01-01", "source:postal_code": "Magyar Posta (posta.hu)", "source:postal_code:date": "2009-03-01"}}, {"type": "node", "id": 88984459, "lat": 46.7675081, "lon": 17.2462801, "tags": {"ksh_ref": "18421", "name": "Keszthely", "name:de": "Kesthell", "name:ru": "\u041a\u0435\u0441\u0442\u0445\u0435\u0439", "place": "town", "population": "19910", "postal_code": "8360", "source:population": "KSH (www.ksh.hu)", "source:population:date": "2016-01-01", "source:postal_code": "Magyar Posta (posta.hu)", "source:postal_code:date": "2009-03-01", "wikidata": "Q526335", "wikipedia": "hu:Keszthely"}}, {"type": "node", "id": 244528591, "lat": 46.5833484, "lon": 17.4123002, "tags": {"ksh_ref": "18500", "name": "Marcali", "name:de": "Martzal", "name:hr": "Marcalin", "name:ru": "\u041c\u0430\u0440\u0446\u0430\u043b\u0438", "place": "town", "population": "11352", "postal_code": "8700", "source:population": "KSH (www.ksh.hu)", "source:population:date": "2016-01-01", "source:postal_code": "Magyar Posta (posta.hu)", "source:postal_code:date": "2009-03-01"}}, {"type": "node", "id": 244527319, "lat": 46.7467521, "lon": 17.54946, "tags": {"ksh_ref": "14632", "name": "Fony\u00f3d", "name:de": "Fonjod", "name:ru": "\u0424\u043e\u043d\u044c\u043e\u0434", "place": "town", "population": "4745", "postal_code": "8640", "source:population": "KSH (www.ksh.hu)", "source:population:date": "2016-01-01", "source:postal_code": "Magyar Posta (posta.hu)", "source:postal_code:date": "2009-03-01", "wikidata": "Q588606", "wikipedia": "hu:Fony\u00f3d"}}, {"type": "node", "id": 26843041, "lat": 46.9784329, "lon": 17.2811657, "tags": {"ksh_ref": "25593", "name": "S\u00fcmeg", "name:de": "Schimeck", "name:ru": "\u0428\u044e\u043c\u0435\u0433", "place": "town", "population": "6133", "postal_code": "8330", "source:population": "KSH (www.ksh.hu)", "source:population:date": "2016-01-01", "source:postal_code": "Magyar Posta (posta.hu)", "source:postal_code:date": "2009-03-01"}}, {"type": "node", "id": 25915038, "lat": 46.8820972, "lon": 17.4389619, "tags": {"ksh_ref": "29434", "name": "Tapolca", "name:de": "Toppoltz", "name:ru": "\u0422\u0430\u043f\u043e\u043b\u044c\u0446\u0430", "place": "town", "population": "15459", "postal_code": "8300", "source:population": "KSH (www.ksh.hu)", "source:population:date": "2016-01-01", "source:postal_code": "Magyar Posta (posta.hu)", "source:postal_code:date": "2009-03-01", "wikidata": "Q288413", "wikipedia": "hu:Tapolca"}}, {"type": "node", "id": 244531289, "lat": 46.8057988, "lon": 17.514693, "tags": {"ksh_ref": "22327", "name": "Badacsonytomaj", "name:ru": "\u0411\u0430\u0434\u0430\u0447\u043e\u043d\u044c\u0442\u043e\u043c\u0430\u0439", "place": "town", "population": "2077", "postal_code": "8258", "source:population": "KSH (www.ksh.hu)", "source:population:date": "2016-01-01", "source:postal_code": "Magyar Posta (posta.hu)", "source:postal_code:date": "2009-03-01", "wikidata": "Q788322", "wikipedia": "hu:Badacsonytomaj"}}, {"type": "node", "id": 286105334, "lat": 47.0490649, "lon": 16.7998821, "tags": {"ksh_ref": "04695", "name": "Vasv\u00e1r", "name:de": "Eisenburg", "name:la": "Vasvarum", "name:ru": "\u0412\u0430\u0448\u0432\u0430\u0440", "name:sk": "\u017delezn\u00fd hrad", "place": "town", "population": "4229", "postal_code": "9800", "source:population": "KSH (www.ksh.hu)", "source:population:date": "2016-01-01", "source:postal_code": "Magyar Posta (posta.hu)", "source:postal_code:date": "2009-03-01"}}, {"type": "node", "id": 494394144, "lat": 47.1198765, "lon": 17.1642699, "tags": {"ksh_ref": "11679", "name": "J\u00e1nosh\u00e1za", "name:ru": "\u042f\u043d\u043e\u0448\u0445\u0430\u0437\u0430", "place": "town", "population": "2461", "postal_code": "9545", "source:population": "KSH (www.ksh.hu)", "source:population:date": "2016-01-01", "source:postal_code": "Magyar Posta (posta.hu)", "source:postal_code:date": "2009-03-01"}}, {"type": "node", "id": 25914519, "lat": 47.2517426, "lon": 16.9342165, "tags": {"alt_name:de": "Rotenturm an der Raab", "ksh_ref": "21306", "name": "S\u00e1rv\u00e1r", "name:de": "Kotenburg", "name:ru": "\u0428\u0430\u0440\u0432\u0430\u0440", "place": "town", "population": "14797", "postal_code": "9600", "source:population": "KSH (www.ksh.hu)", "source:population:date": "2016-01-01", "source:postal_code": "Magyar Posta (posta.hu)", "source:postal_code:date": "2009-03-01"}}, {"type": "node", "id": 286103761, "lat": 47.2579643, "lon": 17.1521883, "tags": {"ksh_ref": "27094", "name": "Celld\u00f6m\u00f6lk", "name:de": "Kleinmariazell", "name:hr": "Demlak", "name:ru": "\u0426\u0435\u043b\u044c\u0434\u0451\u043c\u0451\u043b\u044c\u043a", "place": "town", "population": "10827", "postal_code": "9500", "source:population": "KSH (www.ksh.hu)", "source:population:date": "2016-01-01", "source:postal_code": "Magyar Posta (posta.hu)", "source:postal_code:date": "2009-03-01"}}, {"type": "node", "id": 285886599, "lat": 47.104052, "lon": 17.4364185, "tags": {"ksh_ref": "32276", "name": "Devecser", "name:de": "Dewetscher", "name:ru": "\u0414\u0435\u0432\u0435\u0447\u0435\u0440", "place": "town", "population": "4246", "postal_code": "8460", "source:population": "KSH (www.ksh.hu)", "source:population:date": "2016-01-01", "source:postal_code": "Magyar Posta (posta.hu)", "source:postal_code:date": "2009-03-01"}}, {"type": "node", "id": 285886520, "lat": 47.1056579, "lon": 17.5587276, "tags": {"ksh_ref": "06673", "name": "Ajka", "name:de": "Eikau", "name:ru": "\u0410\u0439\u043a\u0430", "place": "town", "population": "28284", "postal_code": "8400", "source:population": "KSH (www.ksh.hu)", "source:population:date": "2016-01-01", "source:postal_code": "Magyar Posta (posta.hu)", "source:postal_code:date": "2009-03-01", "wikidata": "Q206872"}}, {"type": "node", "id": 268183245, "lat": 47.3261087, "lon": 17.4705293, "tags": {"ksh_ref": "31945", "name": "P\u00e1pa", "name:de": "Poppa", "name:hu": "P\u00e1pa", "name:ru": "\u041f\u0430\u043f\u0430", "place": "town", "population": "31011", "postal_code": "8500", "source:population": "KSH (www.ksh.hu)", "source:population:date": "2016-01-01", "source:postal_code": "Magyar Posta (posta.hu)", "source:postal_code:date": "2009-03-01", "wikidata": "Q214945"}}, {"type": "node", "id": 259645377, "lat": 46.6671072, "lon": 17.6411039, "tags": {"ksh_ref": "26675", "name": "Lengyelt\u00f3ti", "name:ru": "\u041b\u0435\u043d\u0434\u044c\u0435\u043b\u044c\u0442\u043e\u0442\u0438", "place": "town", "population": "2952", "postal_code": "8693", "source:population": "KSH (www.ksh.hu)", "source:population:date": "2016-01-01", "source:postal_code": "Magyar Posta (posta.hu)", "source:postal_code:date": "2009-03-01"}}, {"type": "node", "id": 244526775, "lat": 46.7785548, "lon": 17.6553063, "tags": {"ksh_ref": "33853", "name": "Balatonbogl\u00e1r", "name:ru": "\u0411\u0430\u043b\u0430\u0442\u043e\u043d\u0433\u043b\u0430\u0440", "place": "town", "population": "5673", "postal_code": "8630", "source:population": "KSH (www.ksh.hu)", "source:population:date": "2016-01-01", "source:postal_code": "Magyar Posta (posta.hu)", "source:postal_code:date": "2009-03-01", "wikidata": "Q789261", "wikipedia": "hu:Balatonbogl\u00e1r"}}, {"type": "node", "id": 244526749, "lat": 46.7867617, "lon": 17.6965209, "tags": {"ksh_ref": "33862", "name": "Balatonlelle", "place": "town", "population": "5235", "postal_code": "8638", "source:population": "KSH (www.ksh.hu)", "source:population:date": "2016-01-01", "source:postal_code": "Magyar Posta (posta.hu)", "source:postal_code:date": "2009-03-01", "wikidata": "Q789299", "wikipedia": "hu:Balatonlelle"}}, {"type": "node", "id": 244526361, "lat": 46.8491197, "lon": 17.8792403, "tags": {"ksh_ref": "07117", "name": "Balatonf\u00f6ldv\u00e1r", "name:ru": "\u0411\u0430\u043b\u0430\u0442\u043e\u043d\u0441\u0430\u0440\u0441\u043e", "place": "town", "population": "2150", "postal_code": "8623", "source:population": "KSH (www.ksh.hu)", "source:population:date": "2016-01-01", "source:postal_code": "Magyar Posta (posta.hu)", "source:postal_code:date": "2009-03-01", "wikidata": "Q789282", "wikipedia": "hu:Balatonf\u00f6ldv\u00e1r"}}, {"type": "node", "id": 244526125, "lat": 46.8800183, "lon": 17.9459928, "tags": {"ksh_ref": "06008", "name": "Zam\u00e1rdi", "name:ru": "\u0417\u0430\u043c\u0430\u0440\u0434\u0438", "place": "town", "population": "2422", "postal_code": "8621", "source:population": "KSH (www.ksh.hu)", "source:population:date": "2016-01-01", "source:postal_code": "Magyar Posta (posta.hu)", "source:postal_code:date": "2009-03-01", "wikidata": "Q146033", "wikipedia": "hu:Zam\u00e1rdi"}}, {"type": "node", "id": 296137465, "lat": 46.9567254, "lon": 17.888892, "tags": {"ksh_ref": "21175", "name": "Balatonf\u00fcred", "name:de": "Bad Plattensee", "name:fa": "\u0628\u0627\u0644\u0627\u062a\u0646\u0641\u0648\u0631\u062f", "name:hr": "Balatonfured", "name:lt": "Balatonfiuredas", "name:ru": "\u0411\u0430\u043b\u0430\u0442\u043e\u043d\u0444\u044e\u0440\u0435\u0434", "name:sr": "\u0411\u0430\u043b\u0430\u0442\u043e\u043d\u0444\u0438\u0440\u0435\u0434", "name:zh": "\u5df4\u62c9\u9813\u83f2\u8cf4\u5fb7", "place": "town", "population": "13082", "postal_code": "8230", "source:population": "KSH (www.ksh.hu)", "source:population:date": "2016-01-01", "source:postal_code": "Magyar Posta (posta.hu)", "source:postal_code:date": "2009-03-01", "wikidata": "Q680743", "wikipedia": "hu:Balatonf\u00fcred"}}, {"type": "node", "id": 15731237, "lat": 46.7356419, "lon": 18.038393, "tags": {"ksh_ref": "08590", "name": "Tab", "name:ru": "\u0422\u0430\u0431", "place": "town", "population": "4301", "postal_code": "8660", "source:population": "KSH (www.ksh.hu)", "source:population:date": "2016-01-01", "source:postal_code": "Magyar Posta (posta.hu)", "source:postal_code:date": "2009-03-01"}}, {"type": "node", "id": 275831245, "lat": 46.6293978, "lon": 18.2850331, "tags": {"ksh_ref": "24563", "name": "Tam\u00e1si", "name:de": "Tammasching", "name:ru": "\u0422\u0430\u043c\u0430\u0448\u0438", "place": "town", "population": "8068", "postal_code": "7090", "source:population": "KSH (www.ksh.hu)", "source:population:date": "2016-01-01", "source:postal_code": "Magyar Posta (posta.hu)", "source:postal_code:date": "2009-03-01"}}, {"type": "node", "id": 331844188, "lat": 46.9071694, "lon": 18.0541598, "tags": {"ksh_ref": "17631", "name": "Si\u00f3fok", "name:de": "Schiofok", "name:lt": "\u0160iofokas", "name:ru": "\u0428\u0438\u043e\u0444\u043e\u043a", "name:sr": "\u0428\u0438\u043e\u0444\u043e\u043a", "place": "town", "population": "25364", "postal_code": "8600", "source:population": "KSH (www.ksh.hu)", "source:population:date": "2016-01-01", "source:postal_code": "Magyar Posta (posta.hu)", "source:postal_code:date": "2009-03-01", "wikidata": "Q245126", "wikipedia": "hu:Si\u00f3fok"}}, {"type": "node", "id": 286153825, "lat": 46.9269341, "lon": 18.2449727, "tags": {"ksh_ref": "02802", "name": "Enying", "name:ru": "\u042d\u043d\u044c\u0438\u043d\u0433", "place": "town", "population": "6651", "postal_code": "8130", "source:population": "KSH (www.ksh.hu)", "source:population:date": "2016-01-01", "source:postal_code": "Magyar Posta (posta.hu)", "source:postal_code:date": "2009-03-01"}}, {"type": "node", "id": 285941739, "lat": 47.1328461, "lon": 17.7523356, "tags": {"ksh_ref": "23658", "name": "Herend", "name:de": "Herrendorf", "name:hu": "Herend", "name:ru": "\u0425\u0435\u0440\u0435\u043d\u0434", "place": "town", "population": "3367", "postal_code": "8440", "source:population": "KSH (www.ksh.hu)", "source:population:date": "2016-01-01", "source:postal_code": "Magyar Posta (posta.hu)", "source:postal_code:date": "2009-03-01"}}, {"type": "node", "id": 334943106, "lat": 47.0928058, "lon": 17.9140147, "tags": {"capital": "6", "ksh_ref": "11767", "name": "Veszpr\u00e9m", "name:de": "Wesprim", "name:ru": "\u0412\u0435\u0441\u043f\u0440\u0435\u043c", "name:sk": "Vespr\u00edm", "name:sr": "\u0412\u0435\u0441\u043f\u0440\u0435\u043c", "name:uk": "\u0412\u0435\u0441\u043f\u0440\u0435\u043c", "old_name:de": "Wei\u00dfbrunn", "place": "city", "population": "60392", "postal_code": "8200", "source:population": "KSH (www.ksh.hu)", "source:population:date": "2016-01-01", "source:postal_code": "Magyar Posta (posta.hu)", "source:postal_code:date": "2009-03-01", "wikidata": "Q146317", "wikipedia": "hu:Veszpr\u00e9m"}}, {"type": "node", "id": 244531781, "lat": 47.035766, "lon": 18.0200896, "tags": {"ksh_ref": "05838", "name": "Balatonalm\u00e1di", "name:ru": "\u0411\u0430\u043b\u0430\u0442\u043e\u043d\u0430\u043b\u044c\u043c\u0430\u0434\u0438", "place": "town", "population": "8564", "postal_code": "8220", "short_name": "Alm\u00e1di", "source:population": "KSH (www.ksh.hu)", "source:population:date": "2016-01-01", "source:postal_code": "Magyar Posta (posta.hu)", "source:postal_code:date": "2009-03-01", "wikidata": "Q789256", "wikipedia": "hu:Balatonalm\u00e1di"}}, {"type": "node", "id": 285941012, "lat": 47.2613795, "lon": 17.8718188, "tags": {"ksh_ref": "26499", "name": "Zirc", "name:de": "Sirtz", "name:ru": "\u0417\u0438\u0440\u0446", "place": "town", "population": "6899", "postal_code": "8420", "source:population": "KSH (www.ksh.hu)", "source:population:date": "2016-01-01", "source:postal_code": "Magyar Posta (posta.hu)", "source:postal_code:date": "2009-03-01"}}, {"type": "node", "id": 244531904, "lat": 47.0349778, "lon": 18.1079681, "tags": {"ksh_ref": "05148", "name": "Balatonkenese", "name:ru": "\u0411\u0430\u043b\u0430\u0442\u043e\u043d\u043a\u0435\u043d\u0435\u0448\u0435", "place": "town", "population": "2554", "postal_code": "8174", "short_name": "Kenese", "source:population": "KSH (www.ksh.hu)", "source:population:date": "2016-01-01", "source:postal_code": "Magyar Posta (posta.hu)", "source:postal_code:date": "2009-03-01", "wikidata": "Q646115", "wikipedia": "hu:Balatonkenese"}}, {"type": "node", "id": 244531825, "lat": 47.0620043, "lon": 18.0409677, "tags": {"ksh_ref": "02219", "name": "Balatonf\u0171zf\u0151", "name:ru": "\u0411\u0430\u043b\u0430\u0442\u043e\u043d\u0444\u044e\u0437\u0444\u0451", "place": "town", "population": "4084", "postal_code": "8175", "short_name": "F\u0171zf\u0151", "source:population": "KSH (www.ksh.hu)", "source:population:date": "2016-01-01", "source:postal_code": "Magyar Posta (posta.hu)", "source:postal_code:date": "2009-03-01", "wikidata": "Q520531", "wikipedia": "hu:Balatonf\u0171zf\u0151"}}, {"type": "node", "id": 285941295, "lat": 47.1109931, "lon": 18.1339369, "tags": {"ksh_ref": "33127", "name": "Berhida", "name:ru": "\u0411\u0435\u0440\u0445\u0438\u0434\u0430", "place": "town", "population": "5785", "postal_code": "8181", "source:population": "KSH (www.ksh.hu)", "source:population:date": "2016-01-01", "source:postal_code": "Magyar Posta (posta.hu)", "source:postal_code:date": "2009-03-01"}}, {"type": "node", "id": 285902043, "lat": 47.198695, "lon": 18.138157, "tags": {"ksh_ref": "11439", "name": "V\u00e1rpalota", "name:de": "Burgschlo\u00df", "name:ru": "\u0412\u0430\u0440\u043f\u0430\u043b\u043e\u0442\u0430", "place": "town", "population": "19640", "postal_code": "8100", "source:population": "KSH (www.ksh.hu)", "source:population:date": "2016-01-01", "source:postal_code": "Magyar Posta (posta.hu)", "source:postal_code:date": "2009-03-01", "wikidata": "Q755681"}}, {"type": "node", "id": 268154562, "lat": 47.0563978, "lon": 18.3067942, "tags": {"ksh_ref": "17525", "name": "Polg\u00e1rdi", "name:ru": "\u041f\u043e\u043b\u044c\u0433\u0430\u0440\u0434\u0438", "place": "town", "population": "6856", "postal_code": "8154", "source:population": "KSH (www.ksh.hu)", "source:population:date": "2016-01-01", "source:postal_code": "Magyar Posta (posta.hu)", "source:postal_code:date": "2009-03-01"}}, {"type": "node", "id": 76464246, "lat": 47.1910169, "lon": 18.410811, "tags": {"capital": "6", "ksh_ref": "14827", "name": "Sz\u00e9kesfeh\u00e9rv\u00e1r", "name:de": "Stuhlwei\u00dfenburg", "name:la": "Alba Regia Regina", "name:ro": "Alba Regal\u0103", "name:ru": "\u0421\u0435\u043a\u0435\u0448\u0444\u0435\u0445\u0435\u0440\u0432\u0430\u0440", "name:sk": "Stoli\u010dn\u00fd Belehrad", "name:sr": "\u0421\u0435\u043a\u0435\u0448\u0444\u0435\u0445\u0435\u0440\u0432\u0430\u0440", "name:uk": "\u0421\u0435\u043a\u0435\u0448\u0444\u0435\u0433\u0435\u0440\u0432\u0430\u0440", "old_name:hr": "Stolni Biograd", "old_name:sr": "\u0421\u0442\u043e\u043b\u043d\u0438 \u0411\u0435\u043e\u0433\u0440\u0430\u0434", "place": "city", "population": "98207", "postal_code": "8000", "source:population": "KSH (www.ksh.hu)", "source:population:date": "2016-01-01", "source:postal_code": "Magyar Posta (posta.hu)", "source:postal_code:date": "2009-03-01", "wikidata": "Q130212", "wikipedia": "hu:Sz\u00e9kesfeh\u00e9rv\u00e1r"}}, {"type": "node", "id": 286150672, "lat": 47.3227042, "lon": 18.233096, "tags": {"ksh_ref": "18254", "name": "Bodajk", "name:ru": "\u0411\u043e\u0434\u0430\u0439\u043a", "place": "town", "population": "4015", "postal_code": "8053", "source:population": "KSH (www.ksh.hu)", "source:population:date": "2016-01-01", "source:postal_code": "Magyar Posta (posta.hu)", "source:postal_code:date": "2009-03-01"}}, {"type": "node", "id": 268154501, "lat": 47.3720267, "lon": 18.2090388, "tags": {"ksh_ref": "18485", "name": "M\u00f3r", "name:de": "Moor", "name:ru": "\u041c\u043e\u0440", "place": "town", "population": "14010", "postal_code": "8060", "source:population": "KSH (www.ksh.hu)", "source:population:date": "2016-01-01", "source:postal_code": "Magyar Posta (posta.hu)", "source:postal_code:date": "2009-03-01"}}, {"type": "node", "id": 281950258, "lat": 47.588634, "lon": 16.8774268, "tags": {"ksh_ref": "15343", "name": "Fert\u0151szentmikl\u00f3s", "name:de": "Sankt Niklaus am Neusiedlersee", "name:hr": "Miklo\u0161", "name:hu": "Fert\u0151szentmikl\u00f3s", "place": "town", "population": "3864", "postal_code": "9444", "source:population": "KSH (www.ksh.hu)", "source:population:date": "2016-01-01", "source:postal_code": "Magyar Posta (posta.hu)", "source:postal_code:date": "2009-03-01"}}, {"type": "node", "id": 281950278, "lat": 47.6216447, "lon": 16.8645968, "tags": {"ksh_ref": "09885", "name": "Fert\u0151d", "name:hr": "Herce\u0161ko", "name:ru": "\u0424\u0435\u0440\u0442\u0451\u0434", "place": "town", "population": "3396", "postal_code": "9431", "source:population": "KSH (www.ksh.hu)", "source:population:date": "2016-01-01", "source:postal_code": "Magyar Posta (posta.hu)", "source:postal_code:date": "2009-03-01"}}, {"type": "node", "id": 282440643, "lat": 47.4195089, "lon": 17.0154287, "tags": {"ksh_ref": "30881", "name": "R\u00e9pcelak", "name:de": "Lak an der Raibnitz", "place": "town", "population": "2632", "postal_code": "9653", "source:population": "KSH (www.ksh.hu)", "source:population:date": "2016-01-01", "source:postal_code": "Magyar Posta (posta.hu)", "source:postal_code:date": "2009-03-01"}}, {"type": "node", "id": 282438606, "lat": 47.4661125, "lon": 17.0898826, "tags": {"ksh_ref": "10588", "name": "Beled", "name:ru": "\u0411\u0435\u043b\u0435\u0434", "place": "town", "population": "2632", "postal_code": "9343", "source:population": "KSH (www.ksh.hu)", "source:population:date": "2016-01-01", "source:postal_code": "Magyar Posta (posta.hu)", "source:postal_code:date": "2009-03-01"}}, {"type": "node", "id": 280680112, "lat": 47.5937043, "lon": 17.0274824, "tags": {"ksh_ref": "28334", "name": "Kapuv\u00e1r", "name:de": "Kobrunn", "name:hr": "Kapuja", "name:ru": "\u041a\u0430\u043f\u0443\u0432\u0430\u0440", "place": "town", "population": "10431", "postal_code": "9330", "source:population": "KSH (www.ksh.hu)", "source:population:date": "2016-01-01", "source:postal_code": "Magyar Posta (posta.hu)", "source:postal_code:date": "2009-03-01", "website": "http://www.kapuvar.hu/"}}, {"type": "node", "id": 277526831, "lat": 47.7859228, "lon": 17.1364228, "tags": {"ksh_ref": "29221", "name": "J\u00e1nossomorja", "name:de": "St. Johann", "name:hr": "\u0160omierja", "name:hu": "J\u00e1nossomorja", "name:ru": "\u042f\u043d\u043e\u0448\u0448\u043e\u043c\u043e\u0440\u044c\u044f", "place": "town", "population": "6099", "postal_code": "9241", "source:population": "KSH (www.ksh.hu)", "source:population:date": "2016-01-01", "source:postal_code": "A Magyar K\u00f6zt\u00e1rsas\u00e1g Helys\u00e9gn\u00e9vt\u00e1ra, 2009"}}, {"type": "node", "id": 277119750, "lat": 47.6134153, "lon": 17.2497955, "tags": {"ksh_ref": "04039", "name": "Csorna", "name:de": "Gschirnau", "name:hr": "\u010cernja", "name:ru": "\u0427\u043e\u0440\u043d\u0430", "place": "town", "population": "10406", "postal_code": "9300", "source:population": "KSH (www.ksh.hu)", "source:population:date": "2016-01-01", "source:postal_code": "Magyar Posta (posta.hu)", "source:postal_code:date": "2009-03-01"}}, {"type": "node", "id": 269357447, "lat": 47.5159522, "lon": 17.5166682, "tags": {"ksh_ref": "19035", "name": "T\u00e9t", "name:de": "Tietzing", "name:ru": "\u0422\u0435\u0442", "place": "town", "population": "4062", "postal_code": "9100", "source:population": "KSH (www.ksh.hu)", "source:population:date": "2016-01-01", "source:postal_code": "Magyar Posta (posta.hu)", "source:postal_code:date": "2009-03-01"}}, {"type": "node", "id": 279252537, "lat": 47.7354942, "lon": 17.3906258, "tags": {"ksh_ref": "33668", "name": "L\u00e9b\u00e9ny", "name:de": "Leiden", "name:ru": "\u041b\u0435\u0431\u0435\u043d\u044c", "place": "town", "population": "3229", "postal_code": "9155", "source:population": "KSH (www.ksh.hu)", "source:population:date": "2016-01-01", "source:postal_code": "Magyar Posta (posta.hu)", "source:postal_code:date": "2009-03-01"}}, {"type": "node", "id": 277515388, "lat": 47.8731793, "lon": 17.2722342, "tags": {"alt_name": "M\u00f3v\u00e1r", "ksh_ref": "04783", "name": "Mosonmagyar\u00f3v\u00e1r", "name:de": "Wieselburg-Ungarisch Altenburg", "name:hr": "Stari Grad", "name:la": "Ad Flexum", "name:ru": "\u041c\u043e\u0448\u043e\u043d\u043c\u0430\u0434\u044c\u044f\u0440\u043e\u0432\u0430\u0440", "name:sk": "Mo\u0161on-Uhorsk\u00fd Starhrad", "old_name": "Magyar\u00f3v\u00e1r", "place": "town", "population": "32856", "postal_code": "9200", "source:population": "KSH (www.ksh.hu)", "source:population:date": "2016-01-01", "source:postal_code": "Magyar Posta (posta.hu)", "source:postal_code:date": "2009-03-01", "wikidata": "Q207406", "wikipedia": "hu:Mosonmagyar\u00f3v\u00e1r"}}, {"type": "node", "id": 277546267, "lat": 47.5502015, "lon": 17.7541679, "tags": {"ksh_ref": "24305", "name": "Pannonhalma", "name:ru": "\u041f\u0430\u043d\u043d\u043e\u043d\u0445\u0430\u043b\u044c\u043c\u0430", "place": "town", "population": "4001", "postal_code": "9090", "source:population": "KSH (www.ksh.hu)", "source:population:date": "2016-01-01", "source:postal_code": "Magyar Posta (posta.hu)", "source:postal_code:date": "2009-03-01"}}, {"type": "node", "id": 286130314, "lat": 47.4992603, "lon": 18.0300173, "tags": {"ksh_ref": "17330", "name": "Kisb\u00e9r", "name:hu": "Kisb\u00e9r", "name:ru": "\u041a\u0438\u0448\u0431\u0435\u0440", "place": "town", "population": "5357", "postal_code": "2870", "source:population": "KSH (www.ksh.hu)", "source:population:date": "2016-01-01", "source:postal_code": "Magyar Posta (posta.hu)", "source:postal_code:date": "2009-03-01"}}, {"type": "node", "id": 64624269, "lat": 47.687609, "lon": 17.6346815, "tags": {"capital": "6", "description": "r\u00f3mai kori v\u00e1ros", "is_in:country": "Hungary", "ksh_ref": "25584", "name": "Gy\u0151r", "name:de": "Raab", "name:ka": "\u10d3\u10d8\u10dd\u10e0\u10d8", "name:la": "Arrabona", "name:ru": "\u0414\u044c\u0451\u0440", "name:sk": "R\u00e1b", "name:sr": "\u0402\u0435\u0440", "name:uk": "\u0414\u044c\u0439\u043e\u0440", "place": "city", "population": "129568", "postal_code": "9000", "source:population": "KSH (www.ksh.hu)", "source:population:date": "2016-01-01", "source:postal_code": "Magyar Posta (posta.hu)", "source:postal_code:date": "2009-03-01", "url": "http://mek.oszk.hu/02100/02185/html/1324.html", "wikidata": "Q134494", "wikipedia": "hu:Gy\u0151r"}}, {"type": "node", "id": 277546342, "lat": 47.642224, "lon": 17.9787467, "tags": {"ksh_ref": "19363", "name": "B\u00e1bolna", "name:ru": "\u0411\u0430\u0431\u043e\u043b\u044c\u043d\u0430", "place": "town", "population": "3840", "postal_code": "2943", "source:population": "KSH (www.ksh.hu)", "source:population:date": "2016-01-01", "source:postal_code": "Magyar Posta (posta.hu)", "source:postal_code:date": "2009-03-01"}}, {"type": "node", "id": 206306262, "lat": 47.7104229, "lon": 18.0156133, "tags": {"description": "r\u00f3mai kori v\u00e1ros", "ksh_ref": "04428", "name": "\u00c1cs", "name:de": "Atsch", "name:hu": "\u00c1cs", "name:la": "Ad Statuas", "name:ru": "\u0410\u0447", "place": "town", "population": "6793", "postal_code": "2941", "source:population": "KSH (www.ksh.hu)", "source:population:date": "2016-01-01", "source:postal_code": "Magyar Posta (posta.hu)", "source:postal_code:date": "2009-03-01", "url": "http://mek.oszk.hu/02100/02185/html/1324.html"}}, {"type": "node", "id": 286130475, "lat": 47.4897011, "lon": 18.3148401, "tags": {"ksh_ref": "30766", "name": "Oroszl\u00e1ny", "name:de": "Ohreslahn", "name:hu": "Oroszl\u00e1ny", "name:ru": "\u041e\u0440\u043e\u0441\u043b\u0430\u043d\u044c", "place": "town", "population": "17983", "postal_code": "2840", "source:population": "KSH (www.ksh.hu)", "source:population:date": "2016-01-01", "source:postal_code": "Magyar Posta (posta.hu)", "source:postal_code:date": "2009-03-01", "wikidata": "Q843028"}}, {"type": "node", "id": 282420922, "lat": 47.5837788, "lon": 18.3980308, "tags": {"capital": "6", "ksh_ref": "18157", "name": "Tatab\u00e1nya", "name:de": "Totiserkolonie", "name:ru": "\u0422\u0430\u0442\u0430\u0431\u0430\u043d\u044c\u044f", "name:sk": "Tataba\u0148a", "name:sr": "\u0422\u0430\u0442\u0430\u0431\u0430\u045a\u0430", "name:uk": "\u0422\u0430\u0442\u0430\u0431\u0430\u043d\u044c\u044f", "place": "city", "population": "66362", "postal_code": "2800", "source:population": "KSH (www.ksh.hu)", "source:population:date": "2016-01-01", "source:postal_code": "Magyar Posta (posta.hu)", "source:postal_code:date": "2009-03-01", "wikidata": "Q187821", "wikipedia": "hu:Tatab\u00e1nya"}}, {"type": "node", "id": 29637688, "lat": 47.7417349, "lon": 18.1218256, "tags": {"ksh_ref": "05449", "name": "Kom\u00e1rom", "name:de": "Komorn", "name:hu": "Kom\u00e1rom", "name:ru": "\u041a\u043e\u043c\u0430\u0440\u043e\u043c", "name:sk": "Kom\u00e1rno", "place": "town", "population": "18786", "postal_code": "2900", "source:population": "KSH (www.ksh.hu)", "source:population:date": "2016-01-01", "source:postal_code": "Magyar Posta (posta.hu)", "source:postal_code:date": "2009-03-01", "wikidata": "Q625154"}}, {"type": "node", "id": 206293368, "lat": 47.6500863, "lon": 18.3181275, "tags": {"ksh_ref": "20127", "name": "Tata", "name:de": "Totis", "name:la": "Dotis", "name:ru": "\u0422\u0430\u0442\u0430", "place": "town", "population": "23445", "postal_code": "2890", "source:population": "KSH (www.ksh.hu)", "source:population:date": "2016-01-01", "source:postal_code": "Magyar Posta (posta.hu)", "source:postal_code:date": "2009-03-01", "website": "http://tata.hu/", "wikidata": "Q329768", "wikipedia": "hu:Tata"}}, {"type": "node", "id": 163748213, "lat": 46.756962, "lon": 18.5435129, "tags": {"ksh_ref": "20783", "name": "Simontornya", "name:de": "Simonsturm", "name:ru": "\u0428\u0438\u043c\u043e\u043d\u0442\u043e\u0440\u043d\u044c\u044f", "place": "town", "population": "3986", "postal_code": "7081", "source:population": "KSH (www.ksh.hu)", "source:population:date": "2016-01-01", "source:postal_code": "Magyar Posta (posta.hu)", "source:postal_code:date": "2009-03-01"}}, {"type": "node", "id": 164965193, "lat": 46.6229468, "lon": 18.8589364, "tags": {"ksh_ref": "04862", "name": "Paks", "name:de": "Paksch", "name:ru": "\u041f\u0430\u043a\u0448", "name:sr": "\u041f\u0430\u043a\u0448", "place": "town", "population": "19117", "postal_code": "7030", "source:population": "KSH (www.ksh.hu)", "source:population:date": "2016-01-01", "source:postal_code": "Magyar Posta (posta.hu)", "source:postal_code:date": "2009-03-01", "wikidata": "Q740800"}}, {"type": "node", "id": 276163832, "lat": 46.8874371, "lon": 18.6196247, "tags": {"ksh_ref": "23694", "name": "S\u00e1rbog\u00e1rd", "name:de": "Bochart", "name:ru": "\u0428\u0430\u0440\u0431\u043e\u0433\u0430\u0440\u0434", "name:sr": "\u0428\u0430\u0440\u0431\u043e\u0433\u0430\u0440\u0434", "place": "town", "population": "12038", "postal_code": "7000", "source:population": "KSH (www.ksh.hu)", "source:population:date": "2016-01-01", "source:postal_code": "Magyar Posta (posta.hu)", "source:postal_code:date": "2009-03-01"}}, {"type": "node", "id": 287001052, "lat": 46.6206925, "lon": 19.2836756, "tags": {"contact:website": "https://kiskoros.hu/", "ksh_ref": "09344", "name": "Kisk\u0151r\u00f6s", "name:de": "K\u00f6r\u00f6sch", "name:hr": "Kire\u0161", "name:ru": "\u041a\u0438\u0448\u043a\u0451\u0440\u0451\u0448", "name:sk": "Mal\u00fd Kere\u0161", "place": "town", "population": "14109", "postal_code": "6200", "source:population": "KSH (www.ksh.hu)", "source:population:date": "2016-01-01", "source:postal_code": "Magyar Posta (posta.hu)", "source:postal_code:date": "2009-03-01", "wikidata": "Q646850", "wikipedia": "hu:Kisk\u0151r\u00f6s"}}, {"type": "node", "id": 274958127, "lat": 46.810432, "lon": 18.9222921, "tags": {"ksh_ref": "31501", "name": "Dunaf\u00f6ldv\u00e1r", "name:ru": "\u0414\u0443\u043d\u0430\u0444\u0451\u043b\u044c\u0434\u0432\u0430\u0440", "place": "town", "population": "8501", "postal_code": "7020", "source:population": "KSH (www.ksh.hu)", "source:population:date": "2016-01-01", "source:postal_code": "Magyar Posta (posta.hu)", "source:postal_code:date": "2009-03-01"}}, {"type": "node", "id": 76675056, "lat": 46.8022565, "lon": 19.0046438, "tags": {"ksh_ref": "29115", "name": "Solt", "name:de": "Scholt", "name:hr": "\u0160olta", "name:ru": "\u0428\u043e\u043b\u044c\u0442", "place": "town", "population": "6312", "postal_code": "6320", "source:population": "KSH (www.ksh.hu)", "source:population:date": "2016-01-01", "source:postal_code": "Magyar Posta (posta.hu)", "source:postal_code:date": "2009-03-01"}}, {"type": "node", "id": 274355674, "lat": 46.9163658, "lon": 18.9716536, "tags": {"ksh_ref": "07612", "name": "Dunavecse", "name:hr": "Ve\u010dica", "name:ru": "\u0414\u0443\u043d\u0430\u0432\u0435\u0447\u0435", "place": "town", "population": "3824", "postal_code": "6087", "source:population": "KSH (www.ksh.hu)", "source:population:date": "2016-01-01", "source:postal_code": "Magyar Posta (posta.hu)", "source:postal_code:date": "2009-03-01"}}, {"type": "node", "id": 1673787395, "lat": 46.9670241, "lon": 18.9397061, "tags": {"ksh_ref": "03115", "name": "Duna\u00fajv\u00e1ros", "name:de": "Neustadt an der Donau", "name:ru": "\u0414\u0443\u043d\u0430\u0443\u0439\u0432\u0430\u0440\u043e\u0448", "name:uk": "\u0414\u0443\u043d\u0430\u0443\u0439\u0432\u0430\u0440\u043e\u0448", "old_name": "Dunapentele;Szt\u00e1linv\u00e1ros", "place": "town", "population": "45354", "postal_code": "2400", "source:population": "KSH (www.ksh.hu)", "source:population:date": "2016-01-01", "source:postal_code": "Magyar Posta (posta.hu)", "source:postal_code:date": "2009-03-01", "wikidata": "Q187812"}}, {"type": "node", "id": 287000079, "lat": 46.8752316, "lon": 19.2225016, "tags": {"ksh_ref": "25061", "name": "Szabadsz\u00e1ll\u00e1s", "name:ru": "\u0421\u0430\u0431\u0430\u0434\u0441\u0430\u043b\u043b\u0430\u0448", "place": "town", "population": "6116", "postal_code": "6080", "source:population": "KSH (www.ksh.hu)", "source:population:date": "2016-01-01", "source:postal_code": "Magyar Posta (posta.hu)", "source:postal_code:date": "2009-03-01"}}, {"type": "node", "id": 276162534, "lat": 47.0292178, "lon": 18.5216608, "tags": {"ele": "123", "ksh_ref": "17376", "name": "Aba", "name:ru": "\u0410\u0431\u0430", "place": "town", "population": "4660", "postal_code": "8127", "source:population": "http://nepesseg.com/fejer/aba", "source:population:date": "2019-01-01", "source:postal_code": "Magyar Posta (posta.hu)", "source:postal_code:date": "2009-03-01", "website": "http://www.aba.hu/"}}, {"type": "node", "id": 267513895, "lat": 47.1385777, "lon": 18.7576092, "tags": {"ksh_ref": "29018", "name": "Pusztaszabolcs", "name:ru": "\u041f\u0443\u0441\u0442\u0430\u0441\u0430\u0431\u043e\u043b\u044c\u0447", "place": "town", "population": "5847", "postal_code": "2490", "source:population": "KSH (www.ksh.hu)", "source:population:date": "2016-01-01", "source:postal_code": "Magyar Posta (posta.hu)", "source:postal_code:date": "2009-03-01"}}, {"type": "node", "id": 267513823, "lat": 47.1208993, "lon": 18.8631074, "tags": {"ksh_ref": "08925", "name": "Adony", "name:de": "Adam", "name:ru": "\u0410\u0434\u043e\u043d\u044c", "place": "town", "population": "3686", "postal_code": "2457", "source:population": "KSH (www.ksh.hu)", "source:population:date": "2016-01-01", "source:postal_code": "Magyar Posta (posta.hu)", "source:postal_code:date": "2009-03-01"}}, {"type": "node", "id": 157010589, "lat": 47.2028062, "lon": 18.6261978, "tags": {"ksh_ref": "10296", "name": "G\u00e1rdony", "name:de": "Gardon", "name:ru": "\u0413\u0430\u0440\u0434\u043e\u043d\u044c", "place": "town", "population": "12600", "postal_code": "2483", "source:population": "KSH (www.ksh.hu)", "source:population:date": "2016-01-01", "source:postal_code": "Magyar Posta (posta.hu)", "source:postal_code:date": "2009-03-01"}}, {"type": "node", "id": 157001904, "lat": 47.2353177, "lon": 18.6605263, "tags": {"ksh_ref": "25016", "name": "Velence", "place": "town", "population": "5619", "postal_code": "2481", "source:population": "KSH (www.ksh.hu)", "source:population:date": "2016-01-01", "source:postal_code": "Magyar Posta (posta.hu)", "source:postal_code:date": "2009-03-01"}}, {"type": "node", "id": 268154261, "lat": 47.3918045, "lon": 18.464064, "tags": {"ksh_ref": "20002", "name": "Cs\u00e1kv\u00e1r", "name:de": "Tschakwar", "name:hu": "Cs\u00e1kv\u00e1r", "name:ru": "\u0427\u0430\u043a\u0432\u0430\u0440", "place": "town", "population": "5253", "postal_code": "8083", "source:population": "KSH (www.ksh.hu)", "source:population:date": "2016-01-01", "source:postal_code": "Magyar Posta (posta.hu)", "source:postal_code:date": "2009-03-01"}}, {"type": "node", "id": 196190783, "lat": 47.3141209, "lon": 18.7886273, "tags": {"ksh_ref": "04659", "name": "Martonv\u00e1s\u00e1r", "name:de": "Martinsmarkt", "name:ru": "\u041c\u0430\u0440\u0442\u043e\u043d\u0432\u0430\u0448\u0430\u0440", "place": "town", "population": "5592", "postal_code": "2462", "source:population": "KSH (www.ksh.hu)", "source:population:date": "2016-01-01", "source:postal_code": "Magyar Posta (posta.hu)", "source:postal_code:date": "2009-03-01"}}, {"type": "node", "id": 267513814, "lat": 47.0259018, "lon": 18.9393279, "tags": {"ksh_ref": "09900", "name": "R\u00e1calm\u00e1s", "name:ru": "\u0420\u0430\u0446\u0430\u043b\u044c\u043c\u0430\u0448", "place": "town", "population": "4561", "postal_code": "2459", "source:population": "KSH (www.ksh.hu)", "source:population:date": "2016-01-01", "source:postal_code": "Magyar Posta (posta.hu)", "source:postal_code:date": "2009-03-01"}}, {"type": "node", "id": 130074165, "lat": 47.1609765, "lon": 18.9436266, "tags": {"ksh_ref": "17260", "name": "R\u00e1ckeve", "name:de": "Rautzenmarkt", "name:ru": "\u0420\u0430\u0446\u043a\u0435\u0432\u0435", "place": "town", "population": "10069", "postal_code": "2300", "source:population": "KSH (www.ksh.hu)", "source:population:date": "2016-01-01", "source:postal_code": "Magyar Posta (posta.hu)", "source:postal_code:date": "2009-03-01"}}, {"type": "node", "id": 274956814, "lat": 47.0257098, "lon": 19.1234855, "tags": {"ksh_ref": "28130", "name": "Kunszentmikl\u00f3s", "name:ru": "\u041a\u0443\u043d\u0441\u0435\u043d\u0442\u043c\u0438\u043a\u043b\u043e\u0448", "place": "town", "population": "8309", "postal_code": "6090", "source:population": "KSH (www.ksh.hu)", "source:population:date": "2016-01-01", "source:postal_code": "Magyar Posta (posta.hu)", "source:postal_code:date": "2009-03-01"}}, {"type": "node", "id": 196187810, "lat": 47.2519697, "lon": 18.8983773, "tags": {"ksh_ref": "23603", "name": "Ercsi", "name:ru": "\u042d\u0440\u0447\u0438", "place": "town", "population": "7981", "postal_code": "2451", "source:population": "KSH (www.ksh.hu)", "source:population:date": "2016-01-01", "source:postal_code": "Magyar Posta (posta.hu)", "source:postal_code:date": "2009-03-01"}}, {"type": "node", "id": 274960664, "lat": 47.2789632, "lon": 19.0661045, "tags": {"ksh_ref": "20534", "name": "Dunavars\u00e1ny", "name:ru": "\u0414\u0443\u043d\u0430\u0432\u0430\u0440\u0448\u0430\u043d\u044c", "place": "town", "population": "7659", "postal_code": "2336", "source:population": "KSH (www.ksh.hu)", "source:population:date": "2016-01-01", "source:postal_code": "Magyar Posta (posta.hu)", "source:postal_code:date": "2009-03-01"}}, {"type": "node", "id": 196174247, "lat": 47.3171992, "lon": 18.9120948, "tags": {"ksh_ref": "17312", "name": "Sz\u00e1zhalombatta", "name:ru": "\u0421\u0430\u044d\u0445\u0430\u043b\u043e\u043c\u0431\u0430\u0442\u0442\u0430", "place": "town", "population": "18599", "postal_code": "2440", "source:population": "KSH (www.ksh.hu)", "source:population:date": "2016-01-01", "source:postal_code": "Magyar Posta (posta.hu)", "source:postal_code:date": "2009-03-01", "wikidata": "Q773203"}}, {"type": "node", "id": 139327118, "lat": 47.3226787, "lon": 18.9632427, "tags": {"ksh_ref": "29823", "name": "T\u00f6k\u00f6l", "name:de": "Teckel", "name:hr": "Tukulja", "name:ru": "\u0422\u0451\u043a\u0451\u043b\u044c", "name:sr": "\u0422\u0443\u043a\u0443\u0459\u0430", "place": "town", "population": "10168", "postal_code": "2316", "source:population": "KSH (www.ksh.hu)", "source:population:date": "2016-01-01", "source:postal_code": "Magyar Posta (posta.hu)", "source:postal_code:date": "2009-03-01"}}, {"type": "node", "id": 156531665, "lat": 47.3772495, "lon": 18.9213833, "tags": {"ksh_ref": "30988", "name": "\u00c9rd", "name:de": "Hanselbeck", "name:hr": "Andzabeg", "name:ru": "\u042d\u0440\u0434", "place": "town", "population": "64841", "postal_code": "2030", "source:population": "KSH (www.ksh.hu)", "source:population:date": "2016-01-01", "source:postal_code": "Magyar Posta (posta.hu)", "source:postal_code:date": "2009-03-01", "wikidata": "Q193050"}}, {"type": "node", "id": 155311912, "lat": 47.406256, "lon": 18.9448604, "tags": {"ksh_ref": "24013", "name": "Di\u00f3sd", "name:de": "Orasch", "place": "town", "population": "9916", "postal_code": "2049", "source:population": "KSH (www.ksh.hu)", "source:population:date": "2016-01-01", "source:postal_code": "Magyar Posta (posta.hu)", "source:postal_code:date": "2009-03-01"}}, {"type": "node", "id": 274960662, "lat": 47.3245067, "lon": 19.0001884, "tags": {"ksh_ref": "13277", "name": "Szigethalom", "place": "town", "population": "17156", "postal_code": "2315", "source:population": "KSH (www.ksh.hu)", "source:population:date": "2016-01-01", "source:postal_code": "Magyar Posta (posta.hu)", "source:postal_code:date": "2009-03-01", "wikidata": "Q784229"}}, {"type": "node", "id": 274961265, "lat": 47.345765, "lon": 19.0409037, "tags": {"ksh_ref": "28954", "name": "Szigetszentmikl\u00f3s", "name:de": "Nigglau", "name:ru": "\u0421\u0438\u0433\u0435\u0442\u0441\u0435\u043d\u0442\u043c\u0438\u043a\u043b\u043e\u0448", "place": "town", "population": "36330", "postal_code": "2310", "source:population": "KSH (www.ksh.hu)", "source:population:date": "2016-01-01", "source:postal_code": "Magyar Posta (posta.hu)", "source:postal_code:date": "2009-03-01", "wikidata": "Q740853"}}, {"type": "node", "id": 274960000, "lat": 47.363105, "lon": 18.9811444, "tags": {"ksh_ref": "09690", "name": "Hal\u00e1sztelek", "name:bg": "\u0425\u0430\u043b\u0430\u0441\u0442\u0435\u043b\u0435\u043a", "place": "town", "population": "9758", "postal_code": "2314", "source:population": "KSH (www.ksh.hu)", "source:population:date": "2016-01-01", "source:postal_code": "Magyar Posta (posta.hu)", "source:postal_code:date": "2009-03-01"}}, {"type": "node", "id": 286199233, "lat": 47.3011895, "lon": 19.2313617, "tags": {"ksh_ref": "04075", "name": "\u00d3csa", "name:ru": "\u041e\u0447\u0430", "place": "town", "population": "9247", "postal_code": "2364", "source:population": "KSH (www.ksh.hu)", "source:population:date": "2016-01-01", "source:postal_code": "Magyar Posta (posta.hu)", "source:postal_code:date": "2009-03-01"}}, {"type": "node", "id": 274961269, "lat": 47.359976, "lon": 19.0953357, "tags": {"ksh_ref": "09584", "name": "Dunaharaszti", "name:de": "Harast", "name:gsw": "Hrascht", "name:ru": "\u0414\u0443\u043d\u0430\u0445\u0430\u0440\u0430\u0441\u0442\u0438", "place": "town", "population": "21018", "postal_code": "2330", "source:population": "KSH (www.ksh.hu)", "source:population:date": "2016-01-01", "source:postal_code": "Magyar Posta (posta.hu)", "source:postal_code:date": "2009-03-01", "wikidata": "Q854933"}}, {"type": "node", "id": 274961837, "lat": 47.3845453, "lon": 19.2173066, "tags": {"ksh_ref": "25627", "name": "Gy\u00e1l", "name:ru": "\u0414\u044c\u044f\u043b\u044c", "place": "town", "population": "23152", "postal_code": "2360", "source:population": "KSH (www.ksh.hu)", "source:population:date": "2016-01-01", "source:postal_code": "Magyar Posta (posta.hu)", "source:postal_code:date": "2009-03-01", "wikidata": "Q842908"}}, {"type": "node", "id": 286200051, "lat": 47.4095417, "lon": 19.2650378, "tags": {"ksh_ref": "26815", "name": "Vecs\u00e9s", "name:de": "Wetschesch", "name:ru": "\u0412\u0435\u0447\u0435\u0448", "name:sk": "Ve\u010de\u0161", "place": "town", "population": "20673", "postal_code": "2220", "source:population": "KSH (www.ksh.hu)", "source:population:date": "2016-01-01", "source:postal_code": "Magyar Posta (posta.hu)", "source:postal_code:date": "2009-03-01", "wikidata": "Q36063"}}, {"type": "node", "id": 287001106, "lat": 46.5820205, "lon": 19.3942728, "tags": {"ksh_ref": "19983", "name": "Soltvadkert", "name:hr": "Vakier", "name:ru": "\u0428\u043e\u043b\u044c\u0442\u0432\u0430\u0434\u043a\u0435\u0440\u0442", "place": "town", "population": "7405", "postal_code": "6230", "source:population": "KSH (www.ksh.hu)", "source:population:date": "2016-01-01", "source:postal_code": "Magyar Posta (posta.hu)", "source:postal_code:date": "2009-03-01", "wikidata": "Q854987", "wikipedia": "hu:Soltvadkert"}}, {"type": "node", "id": 287000140, "lat": 46.800917, "lon": 19.3595369, "tags": {"ksh_ref": "21999", "name": "Izs\u00e1k", "name:ru": "\u0418\u0436\u0430\u043a", "place": "town", "population": "5617", "postal_code": "6070", "source:population": "KSH (www.ksh.hu)", "source:population:date": "2016-01-01", "source:postal_code": "Magyar Posta (posta.hu)", "source:postal_code:date": "2009-03-01", "wikidata": "Q627878", "wikipedia": "hu:Izs\u00e1k (telep\u00fcl\u00e9s)"}}, {"type": "node", "id": 286999754, "lat": 46.9358768, "lon": 19.4825067, "tags": {"ksh_ref": "22530", "name": "Kerekegyh\u00e1za", "name:ru": "\u041a\u0435\u0440\u0435\u043a\u0435\u0434\u044c\u0445\u0430\u0437\u0430", "place": "town", "population": "6470", "postal_code": "6041", "source:population": "KSH (www.ksh.hu)", "source:population:date": "2016-01-01", "source:postal_code": "Magyar Posta (posta.hu)", "source:postal_code:date": "2009-03-01"}}, {"type": "node", "id": 32443002, "lat": 46.9080769, "lon": 19.6928133, "tags": {"capital": "6", "ele": "122", "ksh_ref": "26684", "name": "Kecskem\u00e9t", "name:de": "Ketschkemet", "name:ru": "\u041a\u0435\u0447\u043a\u0435\u043c\u0435\u0442", "name:sk": "Ke\u010dkem\u00edt", "name:sr": "\u041a\u0435\u0447\u043a\u0435\u043c\u0435\u0442", "name:uk": "\u041a\u0435\u0447\u043a\u0435\u043c\u0435\u0442", "place": "city", "population": "111724", "postal_code": "6000", "source:population": "KSH (www.ksh.hu)", "source:population:date": "2016-01-01", "source:postal_code": "Magyar Posta (posta.hu)", "source:postal_code:date": "2009-03-01", "wikidata": "Q171357", "wikipedia": "hu:Kecskem\u00e9t"}}, {"type": "node", "id": 287005902, "lat": 46.7113263, "lon": 19.8502905, "tags": {"ksh_ref": "20297", "name": "Kiskunf\u00e9legyh\u00e1za", "name:de": "Feulega\u00df", "name:ru": "\u041a\u0438\u0448\u043a\u0443\u043d\u0444\u0435\u043b\u0435\u0434\u044c\u0445\u0430\u0437\u0430", "place": "town", "population": "29138", "postal_code": "6100", "source:population": "KSH (www.ksh.hu)", "source:population:date": "2016-01-01", "source:postal_code": "Magyar Posta (posta.hu)", "source:postal_code:date": "2009-03-01", "wikidata": "Q478038", "wikipedia": "hu:Kiskunf\u00e9legyh\u00e1za"}}, {"type": "node", "id": 287008438, "lat": 46.9315289, "lon": 20.1045358, "tags": {"ksh_ref": "30623", "name": "Tiszak\u00e9cske", "name:ru": "\u0422\u0438\u0441\u0430\u043a\u0435\u0447\u043a\u0435", "name:sr": "\u0422\u0438\u0441\u0430\u043a\u0435\u0447\u043a\u0435", "place": "town", "population": "11743", "postal_code": "6060", "source:population": "KSH (www.ksh.hu)", "source:population:date": "2016-01-01", "source:postal_code": "Magyar Posta (posta.hu)", "source:postal_code:date": "2009-03-01"}}, {"type": "node", "id": 204008081, "lat": 47.1729302, "lon": 19.3229242, "tags": {"ksh_ref": "09247", "name": "Dabas", "name:de": "Dabotz", "name:ru": "\u0414\u0430\u0431\u0430\u0448", "name:sk": "Daba\u0161", "place": "town", "population": "16728", "postal_code": "2370", "source:population": "KSH (www.ksh.hu)", "source:population:date": "2016-01-01", "source:postal_code": "Magyar Posta (posta.hu)", "source:postal_code:date": "2009-03-01", "wikidata": "Q854940"}}, {"type": "node", "id": 286937639, "lat": 47.1297585, "lon": 19.4309024, "tags": {"ksh_ref": "05281", "name": "\u00d6rk\u00e9ny", "name:ru": "\u042d\u0440\u043a\u0435\u043d\u044c", "place": "town", "population": "4748", "postal_code": "2377", "source:population": "KSH (www.ksh.hu)", "source:population:date": "2016-01-01", "source:postal_code": "Magyar Posta (posta.hu)", "source:postal_code:date": "2009-03-01"}}, {"type": "node", "id": 287007417, "lat": 47.026289, "lon": 19.5582094, "tags": {"ksh_ref": "17677", "name": "Lajosmizse", "name:ru": "\u041b\u0430\u0439\u043e\u0448\u043c\u0438\u0436\u0435", "place": "town", "population": "11342", "postal_code": "6050", "source:population": "KSH (www.ksh.hu)", "source:population:date": "2016-01-01", "source:postal_code": "Magyar Posta (posta.hu)", "source:postal_code:date": "2009-03-01"}}, {"type": "node", "id": 204009228, "lat": 47.2200186, "lon": 19.3841049, "tags": {"ksh_ref": "06293", "name": "\u00dajharty\u00e1n", "name:de": "Neuhartian", "name:sk": "Nov\u00e9 Chr\u0165any", "place": "town", "population": "2702", "postal_code": "2367", "source:population": "KSH (www.ksh.hu)", "source:population:date": "2016-01-01", "source:postal_code": "Magyar Posta (posta.hu)", "source:postal_code:date": "2009-03-01"}}, {"type": "node", "id": 286200348, "lat": 47.3850605, "lon": 19.3453263, "tags": {"ksh_ref": "12894", "name": "\u00dcll\u0151", "name:ru": "\u0418\u043b\u043b\u0435", "name:sk": "Ilov", "place": "town", "population": "11774", "postal_code": "2225", "source:population": "KSH (www.ksh.hu)", "source:population:date": "2016-01-01", "source:postal_code": "Magyar Posta (posta.hu)", "source:postal_code:date": "2009-03-01"}}, {"type": "node", "id": 286200470, "lat": 47.3527433, "lon": 19.4468404, "tags": {"ksh_ref": "10551", "name": "Monor", "name:de": "Monnor", "name:ru": "\u041c\u043e\u043d\u043e\u0440", "name:sk": "Monor", "place": "town", "population": "17960", "postal_code": "2200", "source:population": "KSH (www.ksh.hu)", "source:population:date": "2016-01-01", "source:postal_code": "Magyar Posta (posta.hu)", "source:postal_code:date": "2009-03-01", "wikidata": "Q749320"}}, {"type": "node", "id": 286201239, "lat": 47.2860696, "lon": 19.5467411, "tags": {"ksh_ref": "09821", "name": "Pilis", "name:ru": "\u041f\u0438\u043b\u0438\u0448", "name:sk": "Pil\u00ed\u0161", "place": "town", "population": "11518", "postal_code": "2721", "source:population": "KSH (www.ksh.hu)", "source:population:date": "2016-01-01", "source:postal_code": "Magyar Posta (posta.hu)", "source:postal_code:date": "2009-03-01"}}, {"type": "node", "id": 286201536, "lat": 47.2457295, "lon": 19.6127835, "tags": {"ksh_ref": "31653", "name": "Albertirsa", "name:de": "Irschingen", "name:ru": "\u0410\u043b\u044c\u0431\u0435\u0440\u0442\u0438\u0448\u0430", "name:sk": "Ir\u0161a", "place": "town", "population": "12188", "postal_code": "2730", "source:population": "KSH (www.ksh.hu)", "source:population:date": "2016-01-01", "source:postal_code": "Magyar Posta (posta.hu)", "source:postal_code:date": "2009-03-01"}}, {"type": "node", "id": 31377320, "lat": 47.0374257, "lon": 19.7863141, "tags": {"ksh_ref": "19716", "name": "Nagyk\u0151r\u00f6s", "name:de": "Grosskirisch", "name:ru": "\u041d\u0430\u0434\u044c\u043a\u0451\u0440\u0451\u0448", "name:sk": "Ve\u013ek\u00fd Kere\u0161", "name:sr": "\u041d\u0430\u0452\u043a\u0435\u0440\u0435\u0448", "place": "town", "population": "23589", "postal_code": "2750", "source:population": "KSH (www.ksh.hu)", "source:population:date": "2016-01-01", "source:postal_code": "Magyar Posta (posta.hu)", "source:postal_code:date": "2009-03-01", "wikidata": "Q830394"}}, {"type": "node", "id": 84782806, "lat": 47.1716447, "lon": 19.7977516, "tags": {"ksh_ref": "11341", "name": "Cegl\u00e9d", "name:de": "Zieglet", "name:ru": "\u0426\u0435\u0433\u043b\u0435\u0434", "name:sk": "Cegl\u00edd", "place": "town", "population": "35616", "postal_code": "2700", "source:population": "KSH (www.ksh.hu)", "source:population:date": "2016-01-01", "source:postal_code": "Magyar Posta (posta.hu)", "source:postal_code:date": "2009-03-01", "wikidata": "Q214948"}}, {"type": "node", "id": 1037122686, "lat": 47.1887402, "lon": 20.0047823, "tags": {"ksh_ref": "27872", "name": "Abony", "name:de": "Wabing", "name:ru": "\u0410\u0431\u043e\u043d\u044c", "place": "town", "population": "14508", "postal_code": "2740", "source:population": "KSH (www.ksh.hu)", "source:population:date": "2016-01-01", "source:postal_code": "A Magyar K\u00f6zt\u00e1rsas\u00e1g Helys\u00e9gn\u00e9vt\u00e1ra, 2009"}}, {"type": "node", "id": 414953978, "lat": 47.3321179, "lon": 19.8753916, "tags": {"ksh_ref": "14146", "name": "T\u00e1pi\u00f3szele", "name:ru": "\u0422\u0430\u043f\u0438\u043e\u0441\u0435\u043b\u0435", "place": "town", "population": "5869", "postal_code": "2766", "source:population": "KSH (www.ksh.hu)", "source:population:date": "2016-01-01", "source:postal_code": "Magyar Posta (posta.hu)", "source:postal_code:date": "2009-03-01"}}, {"type": "node", "id": 286961168, "lat": 47.2844426, "lon": 20.0702678, "tags": {"ksh_ref": "15291", "name": "\u00dajsz\u00e1sz", "name:ru": "\u0423\u0439\u0441\u0430\u0441", "place": "town", "population": "6054", "postal_code": "5052", "source:population": "KSH (www.ksh.hu)", "source:population:date": "2016-01-01", "source:postal_code": "Magyar Posta (posta.hu)", "source:postal_code:date": "2009-03-01"}}, {"type": "node", "id": 206345670, "lat": 47.4907066, "lon": 18.6358046, "tags": {"ksh_ref": "10481", "name": "Bicske", "name:de": "Witschke", "name:ru": "\u0411\u0438\u0447\u043a\u0435", "place": "town", "population": "11984", "postal_code": "2060", "source:population": "KSH (www.ksh.hu)", "source:population:date": "2016-01-01", "source:postal_code": "Magyar Posta (posta.hu)", "source:postal_code:date": "2009-03-01"}}, {"type": "node", "id": 179713955, "lat": 47.4739442, "lon": 18.8232855, "tags": {"ksh_ref": "08891", "name": "Biatorb\u00e1gy", "name:de": "Wiehall-Kleinturwall", "name:ru": "\u0411\u0438\u0430\u0442\u043e\u0440\u0431\u0430\u0434\u044c", "place": "town", "population": "12932", "postal_code": "2051", "source:population": "KSH (www.ksh.hu)", "source:population:date": "2016-01-01", "source:postal_code": "Magyar Posta (posta.hu)", "source:postal_code:date": "2009-03-01"}}, {"type": "node", "id": 206345175, "lat": 47.5483115, "lon": 18.7174344, "tags": {"ksh_ref": "25034", "name": "Zs\u00e1mb\u00e9k", "name:de": "Schambeck", "name:hu": "Zs\u00e1mb\u00e9k", "name:ru": "\u0416\u0430\u043c\u0431\u0435\u043a", "place": "town", "population": "5368", "postal_code": "2072", "source:population": "KSH (www.ksh.hu)", "source:population:date": "2016-01-01", "source:postal_code": "Magyar Posta (posta.hu)", "source:postal_code:date": "2009-03-01"}}, {"type": "node", "id": 206293092, "lat": 47.7450853, "lon": 18.5015732, "tags": {"ksh_ref": "15255", "name": "L\u00e1batlan", "name:de": "Labeland", "name:hu": "L\u00e1batlan", "name:ru": "\u041b\u0430\u0431\u0430\u0442\u043b\u0430\u043d", "place": "town", "population": "4794", "postal_code": "2541", "source:population": "KSH (www.ksh.hu)", "source:population:date": "2016-01-01", "source:postal_code": "Magyar Posta (posta.hu)", "source:postal_code:date": "2009-03-01"}}, {"type": "node", "id": 206293013, "lat": 47.7607852, "lon": 18.5545212, "tags": {"ksh_ref": "15352", "name": "Nyerges\u00fajfalu", "name:de": "Neudorf an der Donau", "name:hu": "Nyerges\u00fajfalu", "name:ru": "\u041d\u044c\u0435\u0440\u0433\u0435\u0448\u0443\u0439\u0444\u0430\u043b\u0443", "place": "town", "population": "7378", "postal_code": "2536", "source:population": "KSH (www.ksh.hu)", "source:population:date": "2016-01-01", "source:postal_code": "Magyar Posta (posta.hu)", "source:postal_code:date": "2009-03-01"}}, {"type": "node", "id": 206284670, "lat": 47.7398038, "lon": 18.6543708, "tags": {"ksh_ref": "08758", "name": "T\u00e1t", "name:de": "Taath", "name:hu": "T\u00e1t", "place": "town", "population": "5241", "postal_code": "2534", "source:population": "KSH (www.ksh.hu)", "source:population:date": "2016-01-01", "source:postal_code": "Magyar Posta (posta.hu)", "source:postal_code:date": "2009-03-01"}}, {"type": "node", "id": 206283567, "lat": 47.7223782, "lon": 18.731435, "tags": {"ksh_ref": "10490", "name": "Dorog", "name:de": "Drostdorf", "name:hu": "Dorog", "name:ru": "\u0414\u043e\u0440\u043e\u0433", "name:sk": "Dorog", "place": "town", "population": "11855", "postal_code": "2510", "source:population": "KSH (www.ksh.hu)", "source:population:date": "2016-01-01", "source:postal_code": "Magyar Posta (posta.hu)", "source:postal_code:date": "2009-03-01"}}, {"type": "node", "id": 206282578, "lat": 47.6329416, "lon": 18.8261229, "tags": {"ksh_ref": "07144", "name": "Piliscsaba", "name:de": "Tschawa", "name:ru": "\u041f\u0438\u043b\u0438\u0448\u0447\u0430\u0431\u0430", "name:sk": "Pili\u0161sk\u00e1 \u010caba", "place": "town", "population": "8194", "postal_code": "2081", "source:population": "KSH (www.ksh.hu)", "source:population:date": "2016-01-01", "source:postal_code": "Magyar Posta (posta.hu)", "source:postal_code:date": "2009-03-01"}}, {"type": "node", "id": 206292236, "lat": 47.7856977, "lon": 18.7403349, "tags": {"alt_name": "Ostrihom", "ksh_ref": "25131", "name": "Esztergom", "name:an": "Esztergom", "name:be": "\u042d\u0441\u0442\u044d\u0440\u0433\u0430\u043c", "name:br": "Esztergom", "name:ca": "Esztergom", "name:cs": "Ost\u0159ihom", "name:da": "Esztergom", "name:de": "Gran", "name:dsb": "Esztergom", "name:en": "Esztergom", "name:eo": "Esztergom", "name:es": "Esztergom", "name:et": "Esztergom", "name:eu": "Esztergom", "name:fa": "\u0627\u0633\u062a\u0631\u06af\u0645", "name:fi": "Esztergom", "name:fo": "Esztergom", "name:fr": "Esztergom", "name:gl": "Esztergom", "name:he": "\u05d0\u05e1\u05d8\u05e8\u05d2\u05d5\u05dd", "name:hr": "Ostrogon", "name:hu": "Esztergom", "name:id": "Esztergom", "name:it": "Esztergom", "name:ja": "\u30a8\u30b9\u30c6\u30eb\u30b4\u30e0", "name:ka": "\u10d4\u10e1\u10e2\u10d4\u10e0\u10d2\u10dd\u10db\u10d8", "name:ko": "\uc5d0\uc2a4\ud14c\ub974\uacf0", "name:kv": "\u042d\u0441\u0442\u0435\u0440\u0433\u043e\u043c", "name:la": "Strigonium", "name:lb": "Esztergom", "name:lmo": "Strigoni", "name:lt": "Estergomas", "name:mhr": "\u042d\u0441\u0442\u0435\u0440\u0433\u043e\u043c", "name:ms": "Esztergom", "name:nl": "Esztergom", "name:nn": "Esztergom", "name:no": "Esztergom", "name:pl": "Ostrzyhom", "name:pt": "Esztergom", "name:qu": "Esztergom", "name:ro": "Esztergom", "name:ru": "\u042d\u0441\u0442\u0435\u0440\u0433\u043e\u043c", "name:sco": "Esztergom", "name:sh": "Estergom", "name:sk": "Ostrihom", "name:sl": "Esztergom", "name:sr": "\u041e\u0441\u0442\u0440\u043e\u0433\u043e\u043d", "name:sv": "Esztergom", "name:tr": "Estergon", "name:uk": "\u0415\u0441\u0442\u0435\u0440\u0491\u043e\u043c", "name:vi": "Esztergom", "name:vo": "Esztergom", "name:war": "Esztergom", "name:zh": "\u57c3\u65af\u6cf0\u5c14\u6208\u59c6", "old_name": "Gran", "place": "town", "population": "27990", "postal_code": "2500", "source:population": "KSH (www.ksh.hu)", "source:population:date": "2016-01-01", "source:postal_code": "Magyar Posta (posta.hu)", "source:postal_code:date": "2009-03-01"}}, {"type": "node", "id": 243682087, "lat": 47.8183245, "lon": 18.8727585, "tags": {"ksh_ref": "24916", "name": "Szob", "name:de": "Zopp an der Donau", "name:ru": "\u0421\u043e\u0431", "name:sk": "Soba", "place": "town", "population": "2660", "postal_code": "2628", "source:population": "KSH (www.ksh.hu)", "source:population:date": "2016-01-01", "source:postal_code": "Magyar Posta (posta.hu)", "source:postal_code:date": "2009-03-01"}}, {"type": "node", "id": 252013624, "lat": 47.4349579, "lon": 18.9130312, "tags": {"ksh_ref": "06859", "name": "T\u00f6r\u00f6kb\u00e1lint", "name:de": "Gro\u00dfturwall", "name:ru": "\u0422\u0451\u0440\u0451\u043a\u0431\u0430\u043b\u0438\u043d\u0442", "place": "town", "population": "13385", "postal_code": "2045", "source:population": "KSH (www.ksh.hu)", "source:population:date": "2016-01-01", "source:postal_code": "Magyar Posta (posta.hu)", "source:postal_code:date": "2009-03-01"}}, {"type": "node", "id": 141699600, "lat": 47.4600185, "lon": 18.9541818, "tags": {"ksh_ref": "23278", "name": "Buda\u00f6rs", "name:de": "Wudersch", "name:hr": "Jer\u0161a", "name:ru": "\u0411\u0443\u0434\u0430\u044d\u0440\u0448", "place": "town", "population": "28394", "postal_code": "2040", "source:population": "KSH (www.ksh.hu)", "source:population:date": "2016-01-01", "source:postal_code": "Magyar Posta (posta.hu)", "source:postal_code:date": "2009-03-01", "wikidata": "Q755691"}}, {"type": "node", "id": 148195197, "lat": 47.5099444, "lon": 18.929382, "tags": {"ksh_ref": "12052", "name": "Budakeszi", "name:de": "Wudige\u00df", "name:ru": "\u0411\u0443\u0434\u0430\u043a\u0435\u0441\u0438", "place": "town", "population": "13939", "postal_code": "2092", "source:population": "KSH (www.ksh.hu)", "source:population:date": "2016-01-01", "source:postal_code": "Magyar Posta (posta.hu)", "source:postal_code:date": "2009-03-01"}}, {"type": "node", "id": 85788293, "lat": 47.4983815, "lon": 19.0404707, "tags": {"ISO3166-2": "HU-BU", "admin_level": "2", "capital": "yes", "capital_ISO3166-1": "yes", "ele": "102", "ksh_ref": "13578", "name": "Budapest", "name:ace": "Budap\u00e8st", "name:af": "Boedapest", "name:am": "\u1261\u12f3\u1354\u1235\u1275", "name:ar": "\u0628\u0648\u062f\u0627\u0628\u0633\u062a", "name:arz": "\u0628\u0648\u062f\u0627\u0628\u0633\u062a", "name:ast": "Budapest", "name:av": "\u0411\u0443\u0434\u0430\u043f\u0435\u0448\u0442", "name:az": "Budape\u015ft", "name:bat-smg": "Budape\u0161ts", "name:be": "\u0411\u0443\u0434\u0430\u043f\u0435\u0448\u0442", "name:be-tarask": "\u0411\u0443\u0434\u0430\u043f\u044d\u0448\u0442", "name:bg": "\u0411\u0443\u0434\u0430\u043f\u0435\u0449\u0430", "name:bn": "\u09ac\u09c1\u09a6\u09be\u09aa\u09c7\u09b8\u09cd\u099f", "name:bo": "\u0f56\u0f74\u0f0b\u0f51\u0f0b\u0f55\u0f7a\u0f0b\u0f66\u0f72\u0f51\u0f0d", "name:bs": "Budimpe\u0161ta", "name:ca": "Budapest", "name:ckb": "\u0628\u0648\u062f\u0627\u067e\u06ce\u0633\u062a", "name:crh": "Budape\u015ft", "name:cs": "Budape\u0161\u0165", "name:csb": "B\u00f9dapeszt", "name:cv": "\u0411\u0443\u0434\u0430\u043f\u0435\u0448\u0442", "name:de": "Budapest", "name:diq": "Budape\u015ft", "name:el": "\u0392\u03bf\u03c5\u03b4\u03b1\u03c0\u03ad\u03c3\u03c4\u03b7", "name:en": "Budapest", "name:eo": "Budape\u015dto", "name:es": "Budapest", "name:fa": "\u0628\u0648\u062f\u0627\u067e\u0633\u062a", "name:fr": "Budapest", "name:frp": "Budap\u00e8st", "name:fy": "Boedapest", "name:ga": "B\u00fadaipeist", "name:gag": "Budape\u015ft", "name:gu": "\u0aac\u0ac1\u0aa1\u0abe\u0aaa\u0ac7\u0ab8\u0acd\u0a9f", "name:he": "\u05d1\u05d5\u05d3\u05e4\u05e9\u05d8", "name:hi": "\u092c\u0941\u0921\u093e\u092a\u0947\u0938\u094d\u091f", "name:hr": "Budimpe\u0161ta", "name:ht": "Boudap\u00e8s", "name:hu": "Budapest", "name:hy": "\u0532\u0578\u0582\u0564\u0561\u057a\u0565\u0577\u057f", "name:is": "B\u00fadapest", "name:it": "Budapest", "name:ja": "\u30d6\u30c0\u30da\u30b9\u30c8", "name:ka": "\u10d1\u10e3\u10d3\u10d0\u10de\u10d4\u10e8\u10e2\u10d8", "name:kk": "\u0411\u0443\u0434\u0430\u043f\u0435\u0448\u0442", "name:kn": "\u0cac\u0cc1\u0ca1\u0cbe\u0caa\u0cc6\u0cb8\u0ccd\u0c9f\u0ccd", "name:ko": "\ubd80\ub2e4\ud398\uc2a4\ud2b8", "name:koi": "\u0411\u0443\u0434\u0430\u043f\u0435\u0448\u0442", "name:krc": "\u0411\u0443\u0434\u0430\u043f\u0435\u0448\u0442", "name:ku": "Budape\u015ft", "name:kv": "\u0411\u0443\u0434\u0430\u043f\u0435\u0448\u0442", "name:la": "Budapestinum", "name:li": "Boedapes", "name:lt": "Budape\u0161tas", "name:lv": "Budape\u0161ta", "name:mdf": "\u0411\u0443\u0434\u0430\u043f\u0435\u0448\u0442", "name:mhr": "\u0411\u0443\u0434\u0430\u043f\u0435\u0448\u0442", "name:mk": "\u0411\u0443\u0434\u0438\u043c\u043f\u0435\u0448\u0442\u0430", "name:ml": "\u0d2c\u0d41\u0d21\u0d3e\u0d2a\u0d46\u0d38\u0d4d\u0d31\u0d4d\u0d31\u0d4d", "name:mn": "\u0411\u0443\u0434\u0430\u043f\u0435\u0448\u0442", "name:mr": "\u092c\u0941\u0921\u093e\u092a\u0947\u0938\u094d\u091f", "name:mrj": "\u0411\u0443\u0434\u0430\u043f\u0435\u0448\u0442", "name:my": "\u1017\u1030\u1038\u1012\u1015\u1000\u103a\u1019\u103c\u102d\u102f\u1037", "name:myv": "\u0411\u0443\u0434\u0430\u043f\u0435\u0448\u0442 \u043e\u0448", "name:nl": "Boedapest", "name:no": "Budapest", "name:nov": "Budapesht", "name:oc": "Budap\u00e8st", "name:os": "\u0411\u0443\u0434\u0430\u043f\u0435\u0448\u0442", "name:pdc": "Budapescht", "name:pl": "Budapeszt", "name:pms": "B\u00f9dapest", "name:pnb": "\u0628\u0648\u062f\u0627\u067e\u0633\u062a", "name:ps": "\u0628\u0648\u0689\u0627\u067e\u0633\u067c", "name:pt": "Budapeste", "name:ro": "Budapesta", "name:ru": "\u0411\u0443\u0434\u0430\u043f\u0435\u0448\u0442", "name:sah": "\u0411\u0443\u0434\u0430\u043f\u0435\u0448\u0442", "name:sh": "Budimpe\u0161ta", "name:sk": "Budape\u0161\u0165", "name:sl": "Budimpe\u0161ta", "name:sq": "Budapesti", "name:sr": "\u0411\u0443\u0434\u0438\u043c\u043f\u0435\u0448\u0442\u0430", "name:sv": "Budapest", "name:szl": "Budapeszt", "name:ta": "\u0baa\u0bc1\u0b9f\u0bbe\u0baa\u0bc6\u0bb8\u0bcd\u0b9f\u0bcd", "name:tg": "\u0411\u0443\u0434\u0430\u043f\u0435\u0448\u0442", "name:th": "\u0e1a\u0e39\u0e14\u0e32\u0e40\u0e1b\u0e2a\u0e15\u0e4c", "name:tr": "Budape\u015fte", "name:tt": "\u0411\u0443\u0434\u0430\u043f\u0435\u0448\u0442", "name:udm": "\u0411\u0443\u0434\u0430\u043f\u0435\u0448\u0442", "name:ug": "Budap\u00e9sht", "name:uk": "\u0411\u0443\u0434\u0430\u043f\u0435\u0448\u0442", "name:ur": "\u0628\u0648\u062f\u0627\u067e\u0633\u062a", "name:uz": "Budapesht", "name:vep": "Budape\u0161t", "name:yi": "\u05d1\u05d5\u05d3\u05d0\u05e4\u05e2\u05e9\u05d8", "name:yue": "\u5e03\u9054\u4f69\u65af", "name:zea": "Boedapest", "name:zh": "\u5e03\u9054\u4f69\u65af", "place": "city", "population": "1759407", "postal_code": "1011-1239", "source:population": "KSH (www.ksh.hu)", "source:population:date": "2016-01-01", "wikidata": "Q1781", "wikipedia": "hu:Budapest"}}, {"type": "node", "id": 123770266, "lat": 47.6210717, "lon": 18.9115602, "tags": {"alt_name:de": "Rotenburg", "ksh_ref": "14340", "name": "Pilisv\u00f6r\u00f6sv\u00e1r", "name:de": "Werischwar", "name:ru": "\u041f\u0438\u043b\u0438\u0448\u0432\u0451\u0440\u0451\u0448\u0432\u0430\u0440", "place": "town", "population": "13903", "postal_code": "2085", "source:population": "KSH (www.ksh.hu)", "source:population:date": "2016-01-01", "source:postal_code": "Magyar Posta (posta.hu)", "source:postal_code:date": "2009-03-01"}}, {"type": "node", "id": 73993237, "lat": 47.6192785, "lon": 19.0468565, "tags": {"ksh_ref": "23463", "name": "Budakal\u00e1sz", "name:de": "Kalasch", "name:ru": "\u0411\u0443\u0434\u0430\u043a\u0430\u043b\u0430\u0441", "place": "town", "population": "10673", "postal_code": "2011", "source:population": "KSH (www.ksh.hu)", "source:population:date": "2016-01-01", "source:postal_code": "Magyar Posta (posta.hu)", "source:postal_code:date": "2009-03-01"}}, {"type": "node", "id": 286933452, "lat": 47.5447322, "lon": 19.2636378, "tags": {"ksh_ref": "34157", "name": "Kistarcsa", "name:ru": "\u041a\u0438\u0448\u0442\u0430\u0440\u0447\u0430", "name:sk": "Mal\u00e1 Tar\u010da", "place": "town", "population": "12383", "postal_code": "2143", "source:population": "KSH (www.ksh.hu)", "source:population:date": "2016-01-01", "source:postal_code": "Magyar Posta (posta.hu)", "source:postal_code:date": "2009-03-01"}}, {"type": "node", "id": 201505357, "lat": 47.5616135, "lon": 19.2869071, "tags": {"ksh_ref": "34166", "name": "Kerepes", "name:ru": "\u041a\u0435\u0440\u0435\u043f\u0435\u0448", "name:sk": "Kerepe\u0161", "place": "town", "population": "9904", "postal_code": "2144", "source:population": "KSH (www.ksh.hu)", "source:population:date": "2016-01-01", "source:postal_code": "Magyar Posta (posta.hu)", "source:postal_code:date": "2009-03-01"}}, {"type": "node", "id": 180730584, "lat": 47.6125871, "lon": 19.1980105, "tags": {"ksh_ref": "32610", "name": "F\u00f3t", "name:ru": "\u0424\u043e\u0442", "place": "town", "population": "19216", "postal_code": "2151", "source:population": "KSH (www.ksh.hu)", "source:population:date": "2016-01-01", "source:postal_code": "Magyar Posta (posta.hu)", "source:postal_code:date": "2009-03-01", "wikidata": "Q830652"}}, {"type": "node", "id": 59976001, "lat": 47.6468212, "lon": 19.0236304, "tags": {"ksh_ref": "06372", "name": "Pom\u00e1z", "name:de": "Paumasch", "name:ru": "\u041f\u043e\u043c\u0430\u0437", "name:sk": "Pom\u00e1z", "place": "town", "population": "16764", "postal_code": "2013", "source:population": "KSH (www.ksh.hu)", "source:population:date": "2016-01-01", "source:postal_code": "Magyar Posta (posta.hu)", "source:postal_code:date": "2009-03-01", "wikidata": "Q842923"}}, {"type": "node", "id": 73993229, "lat": 47.6677606, "lon": 19.0760467, "tags": {"ksh_ref": "15440", "name": "Szentendre", "name:de": "Sankt Andr\u00e4", "name:hr": "Senandrija", "name:ru": "\u0421\u0435\u043d\u0442\u0435\u043d\u0434\u0440\u0435", "name:sk": "Sv\u00e4t\u00fd Ondrej", "name:sr": "\u0421\u0435\u043d\u0442\u0430\u043d\u0434\u0440\u0435\u0458\u0430", "place": "town", "population": "25802", "postal_code": "2000", "source:population": "KSH (www.ksh.hu)", "source:population:date": "2016-01-01", "source:postal_code": "Magyar Posta (posta.hu)", "source:postal_code:date": "2009-03-01", "wikidata": "Q390798"}}, {"type": "node", "id": 243682091, "lat": 47.7891142, "lon": 18.9587262, "tags": {"ksh_ref": "31732", "name": "Nagymaros", "name:de": "Freistadt", "name:ru": "\u041d\u0430\u0434\u044c\u043c\u0430\u0440\u043e\u0448", "name:sk": "Ve\u013ek\u00e1 Maru\u0161a", "place": "town", "population": "4717", "postal_code": "2626", "source:population": "KSH (www.ksh.hu)", "source:population:date": "2016-01-01", "source:postal_code": "Magyar Posta (posta.hu)", "source:postal_code:date": "2009-03-01"}}, {"type": "node", "id": 243682125, "lat": 47.7848912, "lon": 18.9705776, "tags": {"ksh_ref": "28413", "name": "Visegr\u00e1d", "name:cs": "Vy\u0161ehrad", "name:da": "Visegr\u00e1d", "name:de": "Plintenburg", "name:en": "Visegr\u00e1d", "name:eo": "Visegr\u00e1d", "name:es": "Visegr\u00e1d", "name:et": "Visegr\u00e1d", "name:fi": "Visegr\u00e1d", "name:fr": "Visegr\u00e1d", "name:he": "\u05d5\u05d9\u05e9\u05d2\u05e8\u05d3", "name:hr": "Vi\u0161egrad", "name:hu": "Visegr\u00e1d", "name:it": "Visegr\u00e1d", "name:ja": "\u30f4\u30a3\u30b7\u30a7\u30b0\u30e9\u30fc\u30c9", "name:ka": "\u10d5\u10d8\u10e8\u10d4\u10d2\u10e0\u10d0\u10d3\u10d8", "name:ko": "\ube44\uc170\uadf8\ub77c\ub4dc", "name:lt": "Vi\u0161egradas", "name:ms": "Visegr\u00e1d", "name:nl": "Visegr\u00e1d", "name:no": "Visegr\u00e1d", "name:pl": "Wyszehrad", "name:pt": "Visegr\u00e1d", "name:ro": "Visegr\u00e1d", "name:ru": "\u0412\u0438\u0448\u0435\u0433\u0440\u0430\u0434", "name:sk": "Vy\u0161ehrad", "name:sl": "Vi\u0161egrad", "name:sr": "\u0412\u0438\u0448\u0435\u0433\u0440\u0430\u0434", "name:sv": "Visegr\u00e1d", "name:tr": "Vi\u015fegrad", "name:uk": "\u0412\u0438\u0448\u0435\u0433\u0440\u0430\u0434", "name:vi": "Visegr\u00e1d", "name:zh": "\u7dad\u8b1d\u683c\u62c9\u5fb7", "place": "town", "population": "1842", "postal_code": "2025", "source:population": "KSH (www.ksh.hu)", "source:population:date": "2016-01-01", "source:postal_code": "Magyar Posta (posta.hu)", "source:postal_code:date": "2009-03-01"}}, {"type": "node", "id": 180731026, "lat": 47.6316697, "lon": 19.1294055, "tags": {"ksh_ref": "18616", "name": "Dunakeszi", "name:ru": "\u0414\u0443\u043d\u0430\u043a\u0435\u0441\u0438", "place": "town", "population": "42467", "postal_code": "2120", "source:population": "KSH (www.ksh.hu)", "source:population:date": "2016-01-01", "source:postal_code": "Magyar Posta (posta.hu)", "source:postal_code:date": "2009-03-01", "wikidata": "Q547479"}}, {"type": "node", "id": 206360857, "lat": 47.6834336, "lon": 19.1341568, "tags": {"ksh_ref": "23649", "name": "G\u00f6d", "name:ru": "\u0413\u0451\u0434", "place": "town", "population": "18351", "postal_code": "2131", "source:population": "KSH (www.ksh.hu)", "source:population:date": "2016-01-01", "source:postal_code": "A Magyar K\u00f6zt\u00e1rsas\u00e1g Helys\u00e9gn\u00e9vt\u00e1ra, 2009", "wikidata": "Q604258"}}, {"type": "node", "id": 206359948, "lat": 47.655235, "lon": 19.2868815, "tags": {"ksh_ref": "18342", "name": "Veresegyh\u00e1z", "place": "town", "population": "17532", "postal_code": "2112", "source:population": "KSH (www.ksh.hu)", "source:population:date": "2016-01-01", "source:postal_code": "Magyar Posta (posta.hu)", "source:postal_code:date": "2009-03-01", "wikidata": "Q843039"}}, {"type": "node", "id": 206360043, "lat": 47.6827581, "lon": 19.263848, "tags": {"ksh_ref": "08545", "name": "\u0150rbotty\u00e1n", "name:sk": "Bo\u0165any", "place": "town", "population": "7062", "postal_code": "2162", "source:population": "KSH (www.ksh.hu)", "source:population:date": "2016-01-01", "source:postal_code": "Magyar Posta (posta.hu)", "source:postal_code:date": "2009-03-01"}}, {"type": "node", "id": 177532814, "lat": 47.7782873, "lon": 19.1278294, "tags": {"ksh_ref": "24934", "name": "V\u00e1c", "name:de": "Waitzen", "name:ru": "\u0412\u0430\u0446", "name:sk": "Vacov", "name:sr": "\u0412\u0430\u0446", "place": "town", "population": "32981", "postal_code": "2600", "source:population": "KSH (www.ksh.hu)", "source:population:date": "2016-01-01", "source:postal_code": "Magyar Posta (posta.hu)", "source:postal_code:date": "2009-03-01", "wikidata": "Q207408", "wikipedia": "hu:V\u00e1c"}}, {"type": "node", "id": 146855791, "lat": 47.9303241, "lon": 19.1375901, "tags": {"ksh_ref": "23825", "name": "R\u00e9ts\u00e1g", "name:ru": "\u0420\u0435\u0448\u0435\u0442\u0430\u0433", "name:sk": "Re\u010d\u00e1g", "place": "town", "population": "2722", "postal_code": "2651", "source:population": "KSH (www.ksh.hu)", "source:population:date": "2016-01-01", "source:postal_code": "Magyar Posta (posta.hu)", "source:postal_code:date": "2009-03-01"}}, {"type": "node", "id": 243687006, "lat": 48.0768832, "lon": 19.2926037, "tags": {"ksh_ref": "13657", "name": "Balassagyarmat", "name:de": "Jahrmarkt", "name:ru": "\u0411\u0430\u043b\u0430\u0448\u0448\u0430\u0434\u044c\u044f\u0440\u043c\u0430\u0442", "name:sk": "Bal\u00e1\u017eske \u010earmoty", "place": "town", "population": "15280", "postal_code": "2660", "source:population": "KSH (www.ksh.hu)", "source:population:date": "2016-01-01", "source:postal_code": "Magyar Posta (posta.hu)", "source:postal_code:date": "2009-03-01", "wikidata": "Q789233", "wikipedia": "hu:Balassagyarmat"}}, {"type": "node", "id": 286202645, "lat": 47.4223375, "lon": 19.394503, "tags": {"ksh_ref": "29735", "name": "Gy\u00f6mr\u0151", "name:ru": "\u0414\u044c\u0451\u043c\u0440\u0451", "name:sk": "Demrov", "place": "town", "place:hu": "V\u00e1ros", "population": "17236", "postal_code": "2230", "source:population": "KSH (www.ksh.hu)", "source:population:date": "2016-01-01", "source:postal_code": "Magyar Posta (posta.hu)", "source:postal_code:date": "2009-03-01", "telephone_area_code": "29", "wikidata": "Q854906"}}, {"type": "node", "id": 286202716, "lat": 47.4449622, "lon": 19.3593136, "tags": {"ksh_ref": "10922", "name": "Magl\u00f3d", "name:de": "Maglau", "name:sk": "Maglovec", "place": "town", "population": "12037", "postal_code": "2234", "source:population": "KSH (www.ksh.hu)", "source:population:date": "2016-01-01", "source:postal_code": "Magyar Posta (posta.hu)", "source:postal_code:date": "2009-03-01"}}, {"type": "node", "id": 286203307, "lat": 47.4911201, "lon": 19.3446801, "tags": {"ksh_ref": "04057", "name": "P\u00e9cel", "name:ru": "\u041f\u0435\u0446\u0435\u043b\u044c", "place": "town", "population": "15494", "postal_code": "2119", "source:population": "KSH (www.ksh.hu)", "source:population:date": "2016-01-01", "source:postal_code": "Magyar Posta (posta.hu)", "source:postal_code:date": "2009-03-01", "wikidata": "Q222964"}}, {"type": "node", "id": 140335407, "lat": 47.6052871, "lon": 19.3535185, "tags": {"ksh_ref": "32559", "name": "G\u00f6d\u00f6ll\u0151", "name:de": "Getterle", "name:ru": "\u0413\u0451\u0434\u0451\u043b\u043b\u0451", "name:sk": "Jed\u013eovo", "place": "town", "population": "32437", "postal_code": "2100", "source:population": "KSH (www.ksh.hu)", "source:population:date": "2016-01-01", "source:postal_code": "Magyar Posta (posta.hu)", "source:postal_code:date": "2009-03-01", "wikidata": "Q209988"}}, {"type": "node", "id": 257448661, "lat": 47.5303335, "lon": 19.4017001, "tags": {"ksh_ref": "07807", "name": "Isaszeg", "name:ru": "\u0418\u0448\u0430\u0441\u0435\u0433", "name:sk": "I\u0161aseg", "place": "town", "population": "11264", "postal_code": "2117", "source:population": "KSH (www.ksh.hu)", "source:population:date": "2016-01-01", "source:postal_code": "Magyar Posta (posta.hu)", "source:postal_code:date": "2009-03-01"}}, {"type": "node", "id": 492138672, "lat": 47.4542606, "lon": 19.5214828, "tags": {"ksh_ref": "21713", "name": "S\u00fclys\u00e1p", "name:sk": "\u0160ap", "place": "town", "population": "8280", "postal_code": "2241", "source:population": "KSH (www.ksh.hu)", "source:population:date": "2016-01-01", "source:postal_code": "A Magyar K\u00f6zt\u00e1rsas\u00e1g Helys\u00e9gn\u00e9vt\u00e1ra, 2009"}}, {"type": "node", "id": 286936520, "lat": 47.60935, "lon": 19.5949442, "tags": {"ksh_ref": "09593", "name": "Tura", "name:ru": "\u0422\u0443\u0440\u0430", "place": "town", "population": "7689", "postal_code": "2194", "source:population": "KSH (www.ksh.hu)", "source:population:date": "2016-01-01", "source:postal_code": "Magyar Posta (posta.hu)", "source:postal_code:date": "2009-03-01"}}, {"type": "node", "id": 206361816, "lat": 47.6532732, "lon": 19.4747432, "tags": {"ksh_ref": "16188", "name": "Asz\u00f3d", "name:ru": "\u0410\u0441\u043e\u0434", "name:sk": "As\u00f3d", "place": "town", "population": "6160", "postal_code": "2170", "source:population": "KSH (www.ksh.hu)", "source:population:date": "2016-01-01", "source:postal_code": "Magyar Posta (posta.hu)", "source:postal_code:date": "2009-03-01"}}, {"type": "node", "id": 206362107, "lat": 47.6683971, "lon": 19.6743874, "tags": {"ksh_ref": "22309", "name": "Hatvan", "name:de": "Hottwan", "name:ru": "\u0425\u0430\u0442\u0432\u0430\u043d", "name:sk": "Chotvan", "place": "town", "population": "20250", "postal_code": "3000", "source:population": "KSH (www.ksh.hu)", "source:population:date": "2016-01-01", "source:postal_code": "Magyar Posta (posta.hu)", "source:postal_code:date": "2009-03-01", "wikidata": "Q629849"}}, {"type": "node", "id": 286964115, "lat": 47.7400504, "lon": 19.6773099, "tags": {"ksh_ref": "30401", "name": "L\u0151rinci", "name:ru": "\u041b\u0451\u0440\u0438\u043d\u0446\u0438", "name:sk": "Laurinec", "place": "town", "population": "5446", "postal_code": "3021", "source:population": "KSH (www.ksh.hu)", "source:population:date": "2016-01-01", "source:postal_code": "Magyar Posta (posta.hu)", "source:postal_code:date": "2009-03-01"}}, {"type": "node", "id": 286935167, "lat": 47.4138187, "lon": 19.7503736, "tags": {"ksh_ref": "13435", "name": "Nagyk\u00e1ta", "name:ru": "\u041d\u0430\u0434\u044c\u043a\u0430\u0442\u0430", "place": "town", "population": "12384", "postal_code": "2760", "source:population": "KSH (www.ksh.hu)", "source:population:date": "2016-01-01", "source:postal_code": "Magyar Posta (posta.hu)", "source:postal_code:date": "2009-03-01"}}, {"type": "node", "id": 26734414, "lat": 47.5030505, "lon": 19.9117887, "tags": {"ksh_ref": "18209", "loc_name": "Ber\u00e9ny", "name": "J\u00e1szber\u00e9ny", "name:de": "Ja\u00dfbring", "name:fa": "\u06cc\u0627\u0633\u200c\u0628\u0631\u0646\u06cc", "name:os": "\u042f\u0441\u0431\u0435\u0440\u0435\u043d\u044c", "name:ru": "\u042f\u0441\u0431\u0435\u0440\u0435\u043d\u044c", "name:sr": "\u0408\u0430\u0441\u0431\u0435\u0440\u0435\u045a", "name:zh": "\u4e9e\u65af\u8c9d\u96f7\u5c3c", "place": "town", "population": "26235", "postal_code": "5100", "source:population": "KSH (www.ksh.hu)", "source:population:date": "2016-01-01", "source:postal_code": "Magyar Posta (posta.hu)", "source:postal_code:date": "2009-03-01", "wikidata": "Q281371", "wikipedia": "hu:J\u00e1szber\u00e9ny"}}, {"type": "node", "id": 286960157, "lat": 47.5692314, "lon": 19.7168149, "tags": {"ksh_ref": "23339", "name": "J\u00e1szf\u00e9nyszaru", "name:ru": "\u042f\u0441\u0444\u0435\u043d\u044c\u0441\u0430\u0440\u0443", "place": "town", "population": "5606", "postal_code": "5126", "source:population": "KSH (www.ksh.hu)", "source:population:date": "2016-01-01", "source:postal_code": "Magyar Posta (posta.hu)", "source:postal_code:date": "2009-03-01"}}, {"type": "node", "id": 492040672, "lat": 47.8146817, "lon": 19.7903391, "tags": {"ksh_ref": "08323", "name": "Gy\u00f6ngy\u00f6spata", "name:ru": "\u0414\u044c\u0451\u043d\u0434\u044c\u0451\u0448\u043f\u0430\u0442\u0430", "place": "town", "population": "2459", "postal_code": "3035", "source:population": "KSH (www.ksh.hu)", "source:population:date": "2016-01-01", "source:postal_code": "Magyar Posta (posta.hu)", "source:postal_code:date": "2009-03-01"}}, {"type": "node", "id": 286959944, "lat": 47.6445417, "lon": 19.9786517, "tags": {"ksh_ref": "22105", "name": "J\u00e1sz\u00e1roksz\u00e1ll\u00e1s", "name:ru": "\u042f\u0441\u0430\u0440\u043e\u043a\u0441\u0430\u043b\u043b\u0430\u0448", "place": "town", "population": "7756", "postal_code": "5123", "source:population": "KSH (www.ksh.hu)", "source:population:date": "2016-01-01", "source:postal_code": "Magyar Posta (posta.hu)", "source:postal_code:date": "2009-03-01"}}, {"type": "node", "id": 243689884, "lat": 47.7799838, "lon": 19.9291176, "tags": {"ksh_ref": "05236", "name": "Gy\u00f6ngy\u00f6s", "name:de": "Genge\u00df", "name:ru": "\u0414\u044c\u0451\u043d\u0434\u044c\u0451\u0448", "name:sk": "Dinde\u0161", "name:uk": "\u0414\u044c\u0454\u043d\u0434\u044c\u0454\u0448", "place": "town", "population": "29920", "postal_code": "3200", "source:population": "KSH (www.ksh.hu)", "source:population:date": "2016-01-01", "source:postal_code": "Magyar Posta (posta.hu)", "source:postal_code:date": "2009-03-01", "wikidata": "Q209983", "wikipedia": "hu:Gy\u00f6ngy\u00f6s (telep\u00fcl\u00e9s)"}}, {"type": "node", "id": 286129575, "lat": 47.9210914, "lon": 19.6998353, "tags": {"ksh_ref": "07409", "name": "P\u00e1szt\u00f3", "name:ru": "\u041f\u0430\u0441\u0442\u043e", "name:sk": "Pastuchov", "place": "town", "population": "9212", "postal_code": "3060", "source:population": "KSH (www.ksh.hu)", "source:population:date": "2016-01-01", "source:postal_code": "Magyar Posta (posta.hu)", "source:postal_code:date": "2009-03-01"}}, {"type": "node", "id": 243688206, "lat": 48.0802382, "lon": 19.5207485, "tags": {"ksh_ref": "06628", "name": "Sz\u00e9cs\u00e9ny", "name:ru": "\u0421\u0435\u0447\u0435\u043d\u044c", "name:sk": "Se\u010dany", "place": "town", "population": "5883", "postal_code": "3170", "source:population": "KSH (www.ksh.hu)", "source:population:date": "2016-01-01", "source:postal_code": "Magyar Posta (posta.hu)", "source:postal_code:date": "2009-03-01", "website": "http://szecseny.hu/"}}, {"type": "node", "id": 286129272, "lat": 47.9955532, "lon": 19.8272105, "tags": {"ksh_ref": "33534", "name": "B\u00e1tonyterenye", "name:sk": "Terany", "place": "town", "population": "12221", "postal_code": "3070", "source:population": "KSH (www.ksh.hu)", "source:population:date": "2016-01-01", "source:postal_code": "Magyar Posta (posta.hu)", "source:postal_code:date": "2009-03-01"}}, {"type": "node", "id": 286966161, "lat": 48.0190139, "lon": 20.0985669, "tags": {"ksh_ref": "12070", "loc_name": "P\u00e9terke", "name": "P\u00e9terv\u00e1s\u00e1ra", "name:ru": "\u041f\u0435\u0442\u0435\u0440\u0432\u0430\u0448\u0430\u0440\u0430", "place": "town", "population": "2065", "postal_code": "3250", "source:population": "KSH (www.ksh.hu)", "source:population:date": "2016-01-01", "source:postal_code": "Magyar Posta (posta.hu)", "source:postal_code:date": "2009-03-01"}}, {"type": "node", "id": 243688523, "lat": 48.0960676, "lon": 19.8005642, "tags": {"capital": "6", "ksh_ref": "25788", "name": "Salg\u00f3tarj\u00e1n", "name:de": "Schalgotarjan", "name:ru": "\u0428\u0430\u043b\u044c\u0433\u043e\u0442\u0430\u0440\u044c\u044f\u043d", "name:sk": "\u0160algov-Tarjany", "place": "city", "population": "35188", "postal_code": "3100", "source:population": "KSH (www.ksh.hu)", "source:population:date": "2016-01-01", "source:postal_code": "Magyar Posta (posta.hu)", "source:postal_code:date": "2009-03-01", "wikidata": "Q189769", "wikipedia": "hu:Salg\u00f3tarj\u00e1n"}}, {"type": "node", "id": 30453579, "lat": 46.2546312, "lon": 20.1486016, "tags": {"alt_name:de": "Segedin", "capital": "6", "ksh_ref": "33367", "name": "Szeged", "name:ar": "\u0633\u064a\u062c\u062f", "name:az": "Seqed", "name:be": "\u0421\u0435\u0433\u0435\u0434", "name:bg": "\u0421\u0435\u0433\u0435\u0434", "name:ce": "\u0421\u0435\u0433\u0435\u0434", "name:de": "Szegedin", "name:el": "\u03a3\u03ad\u03b3\u03ba\u03b5\u03bd\u03c4", "name:fa": "\u0633\u06af\u062f", "name:he": "\u05e1\u05d2\u05d3", "name:hr": "Segedin", "name:hy": "\u054d\u0565\u0563\u0565\u0564", "name:it": "Seghedino", "name:ja": "\u30bb\u30b2\u30c9", "name:ka": "\u10e1\u10d4\u10d2\u10d4\u10d3\u10d8", "name:ko": "\uc138\uac8c\ub4dc", "name:la": "Partiscum", "name:lt": "Segedas", "name:lv": "Segeda", "name:mk": "\u0421\u0435\u0433\u0435\u0434\u0438\u043d", "name:mr": "\u0938\u0947\u0917\u0947\u0921", "name:pl": "Segedyn", "name:ro": "Seghedin", "name:ru": "\u0421\u0435\u0433\u0435\u0434", "name:sk": "Seged\u00edn", "name:sr": "\u0421\u0435\u0433\u0435\u0434\u0438\u043d", "name:sr-Latn": "Segedin", "name:th": "\u0e41\u0e0b\u0e41\u0e01\u0e47\u0e14", "name:tt": "\u0421\u0435\u0433\u0435\u0434", "name:uk": "\u0421\u0435\u0433\u0435\u0434", "name:yi": "\u05e1\u05e2\u05d2\u05e2\u05d3", "name:zh": "\u585e\u683c\u5fb7", "place": "city", "population": "162621", "postal_code": "6700", "source:population": "KSH (www.ksh.hu)", "source:population:date": "2016-01-01", "source:postal_code": "Magyar Posta (posta.hu)", "source:postal_code:date": "2009-03-01", "website": "https://www.szegedvaros.hu/", "wikidata": "Q81581", "wikipedia": "hu:Szeged"}}, {"type": "node", "id": 30848692, "lat": 46.2150438, "lon": 20.4751022, "tags": {"ksh_ref": "07357", "name": "Mak\u00f3", "name:de": "Makowa", "name:ro": "Mac\u01ceu", "name:ru": "\u041c\u0430\u043a\u043e", "place": "town", "population": "22747", "postal_code": "6900", "source:population": "KSH (www.ksh.hu)", "source:population:date": "2016-01-01", "source:postal_code": "Magyar Posta (posta.hu)", "source:postal_code:date": "2009-03-01", "wikidata": "Q240504", "wikipedia": "hu:Mak\u00f3"}}, {"type": "node", "id": 30848697, "lat": 46.4171344, "lon": 20.3196068, "tags": {"ksh_ref": "08314", "name": "H\u00f3dmez\u0151v\u00e1s\u00e1rhely", "name:de": "Neumarkt an der Thei\u00df", "name:ro": "Ione\u0219ti", "name:ru": "\u0425\u043e\u0434\u043c\u0435\u0437\u0451\u0432\u0430\u0448\u0430\u0440\u0445\u0435\u0439", "place": "town", "population": "44401", "postal_code": "6800", "source:population": "KSH (www.ksh.hu)", "source:population:date": "2016-01-01", "source:postal_code": "Magyar Posta (posta.hu)", "source:postal_code:date": "2009-03-01", "wikidata": "Q124375", "wikipedia": "hu:H\u00f3dmez\u0151v\u00e1s\u00e1rhely"}}, {"type": "node", "id": 286973296, "lat": 46.524022, "lon": 20.186003, "tags": {"ksh_ref": "21555", "name": "Mindszent", "name:hr": "Micenta", "name:ru": "\u041c\u0438\u043d\u0434\u0441\u0435\u043d\u0442", "place": "town", "population": "6674", "postal_code": "6630", "source:population": "KSH (www.ksh.hu)", "source:population:date": "2016-01-01", "source:postal_code": "Magyar Posta (posta.hu)", "source:postal_code:date": "2009-03-01"}}, {"type": "node", "id": 354693572, "lat": 46.2440484, "lon": 20.723398, "tags": {"ksh_ref": "05379", "name": "Csan\u00e1dpalota", "name:ru": "\u0427\u0430\u043d\u0430\u0434\u043f\u0430\u043b\u043e\u0442\u0430", "place": "town", "population": "2801", "postal_code": "6913", "source:population": "KSH (www.ksh.hu)", "source:population:date": "2016-01-01", "source:postal_code": "Magyar Posta (posta.hu)", "source:postal_code:date": "2009-03-01"}}, {"type": "node", "id": 286991190, "lat": 46.3139611, "lon": 20.8194076, "tags": {"ksh_ref": "11873", "name": "Mez\u0151hegyes", "name:ru": "\u041c\u0435\u0437\u0451\u0445\u0435\u0434\u044c\u0435\u0448", "place": "town", "population": "5274", "postal_code": "5820", "source:population": "KSH (www.ksh.hu)", "source:population:date": "2016-01-01", "source:postal_code": "Magyar Posta (posta.hu)", "source:postal_code:date": "2009-03-01"}}, {"type": "node", "id": 286991019, "lat": 46.4115096, "lon": 20.7366044, "tags": {"ksh_ref": "16434", "name": "T\u00f3tkoml\u00f3s", "name:ru": "\u0422\u043e\u0442\u043a\u043e\u043c\u043b\u043e\u0448", "name:sk": "Slovensk\u00fd Koml\u00f3\u0161", "place": "town", "population": "5902", "postal_code": "5940", "source:population": "KSH (www.ksh.hu)", "source:population:date": "2016-01-01", "source:postal_code": "Magyar Posta (posta.hu)", "source:postal_code:date": "2009-03-01"}}, {"type": "node", "id": 31094677, "lat": 46.5603339, "lon": 20.6693477, "tags": {"ksh_ref": "23065", "name": "Orosh\u00e1za", "name:ru": "\u041e\u0440\u043e\u0448\u0445\u0430\u0437\u0430", "place": "town", "population": "28093", "postal_code": "5900", "source:population": "KSH (www.ksh.hu)", "source:population:date": "2016-01-01", "source:postal_code": "Magyar Posta (posta.hu)", "source:postal_code:date": "2009-03-01", "wikidata": "Q390796", "wikipedia": "hu:Orosh\u00e1za"}}, {"type": "node", "id": 286991898, "lat": 46.4073383, "lon": 20.9236006, "tags": {"ksh_ref": "30322", "name": "Mez\u0151kov\u00e1csh\u00e1za", "name:ru": "\u041c\u0435\u0437\u0451\u0445\u043e\u0432\u0430\u0447\u0445\u0430\u0437\u0430", "place": "town", "population": "6059", "postal_code": "5800", "source:population": "KSH (www.ksh.hu)", "source:population:date": "2016-01-01", "source:postal_code": "Magyar Posta (posta.hu)", "source:postal_code:date": "2009-03-01"}}, {"type": "node", "id": 286994582, "lat": 46.2858683, "lon": 21.0218929, "tags": {"ksh_ref": "18102", "name": "Battonya", "name:hr": "Batanja", "name:ro": "B\u0103tania", "name:ru": "\u0411\u0430\u0442\u0442\u043e\u043d\u044c\u044f", "name:sr": "\u0411\u0430\u0442\u0430\u045a\u0430", "place": "town", "population": "5835", "postal_code": "5830", "source:population": "KSH (www.ksh.hu)", "source:population:date": "2016-01-01", "source:postal_code": "Magyar Posta (posta.hu)", "source:postal_code:date": "2009-03-01"}}, {"type": "node", "id": 354700463, "lat": 46.4981379, "lon": 21.0280887, "tags": {"ksh_ref": "30128", "name": "Medgyesegyh\u00e1za", "name:ru": "\u041c\u0435\u0434\u0434\u044c\u0435\u0448\u0435\u0434\u044c\u0445\u0430\u0437\u0430", "name:sk": "Mede\u0161", "place": "town", "population": "3527", "postal_code": "5666", "source:population": "KSH (www.ksh.hu)", "source:population:date": "2016-01-01", "source:postal_code": "Magyar Posta (posta.hu)", "source:postal_code:date": "2009-03-01"}}, {"type": "node", "id": 286995507, "lat": 46.5294265, "lon": 21.2526107, "tags": {"ksh_ref": "32957", "name": "Elek", "name:de": "Elek", "name:ro": "Aletea", "name:ru": "\u042d\u043b\u0435\u043a", "place": "town", "population": "4659", "postal_code": "5742", "source:population": "KSH (www.ksh.hu)", "source:population:date": "2016-01-01", "source:postal_code": "Magyar Posta (posta.hu)", "source:postal_code:date": "2009-03-01"}}, {"type": "node", "id": 286974186, "lat": 46.6524049, "lon": 20.2566408, "tags": {"ksh_ref": "14456", "name": "Szentes", "name:ru": "\u0421\u0435\u043d\u0442\u0435\u0448", "place": "town", "population": "27695", "postal_code": "6600", "source:population": "KSH (www.ksh.hu)", "source:population:date": "2016-01-01", "source:postal_code": "Magyar Posta (posta.hu)", "source:postal_code:date": "2009-03-01", "wikidata": "Q377834", "wikipedia": "hu:Szentes"}}, {"type": "node", "id": 286972968, "lat": 46.7096643, "lon": 20.1531646, "tags": {"ksh_ref": "05111", "name": "Csongr\u00e1d", "name:de": "Tschongrad", "name:ru": "\u0427\u043e\u043d\u0433\u0440\u0430\u0434", "place": "town", "population": "16277", "postal_code": "6640", "source:population": "KSH (www.ksh.hu)", "source:population:date": "2016-01-01", "source:postal_code": "Magyar Posta (posta.hu)", "source:postal_code:date": "2009-03-01", "wikidata": "Q649214", "wikipedia": "hu:Csongr\u00e1d (telep\u00fcl\u00e9s)"}}, {"type": "node", "id": 84774706, "lat": 46.8399054, "lon": 20.2908813, "tags": {"ksh_ref": "32504", "name": "Kunszentm\u00e1rton", "name:ru": "\u041a\u0443\u043d\u0441\u0435\u043d\u0442\u043c\u0430\u0440\u0442\u043e\u043d", "place": "town", "population": "8324", "postal_code": "5440", "source:population": "KSH (www.ksh.hu)", "source:population:date": "2016-01-01", "source:postal_code": "Magyar Posta (posta.hu)", "source:postal_code:date": "2009-03-01"}}, {"type": "node", "id": 84775644, "lat": 46.9803541, "lon": 20.2541166, "tags": {"ksh_ref": "13815", "name": "Tiszaf\u00f6ldv\u00e1r", "name:ru": "\u0422\u0438\u0441\u0430\u0444\u0451\u043b\u044c\u0434\u0432\u0430\u0440", "place": "town", "population": "10741", "postal_code": "5430", "source:population": "KSH (www.ksh.hu)", "source:population:date": "2016-01-01", "source:postal_code": "Magyar Posta (posta.hu)", "source:postal_code:date": "2009-03-01"}}, {"type": "node", "id": 286990297, "lat": 46.6348863, "lon": 20.8347918, "tags": {"ksh_ref": "26709", "name": "Csorv\u00e1s", "name:ro": "Ciorva\u0219", "name:ru": "\u0427\u043e\u0440\u0432\u0430\u0448", "place": "town", "population": "4789", "postal_code": "5920", "source:population": "KSH (www.ksh.hu)", "source:population:date": "2016-01-01", "source:postal_code": "Magyar Posta (posta.hu)", "source:postal_code:date": "2009-03-01", "website": "http://www.csorvas.hu"}}, {"type": "node", "id": 75716773, "lat": 46.7599676, "lon": 20.7950557, "tags": {"ksh_ref": "10287", "name": "Kondoros", "name:ru": "\u041a\u043e\u043d\u0434\u043e\u0440\u043e\u0448", "place": "town", "population": "4898", "postal_code": "5553", "source:population": "KSH (www.ksh.hu)", "source:population:date": "2016-01-01", "source:postal_code": "Magyar Posta (posta.hu)", "source:postal_code:date": "2009-03-01"}}, {"type": "node", "id": 75716568, "lat": 46.8621434, "lon": 20.5521466, "tags": {"ksh_ref": "23870", "name": "Szarvas", "name:de": "Hirschfeld", "name:ru": "\u0421\u0430\u0440\u0432\u0430\u0448", "name:sk": "Sarva\u0161", "place": "town", "population": "16044", "postal_code": "5540", "source:population": "KSH (www.ksh.hu)", "source:population:date": "2016-01-01", "source:postal_code": "Magyar Posta (posta.hu)", "source:postal_code:date": "2009-03-01", "wikidata": "Q843014", "wikipedia": "hu:Szarvas (telep\u00fcl\u00e9s)"}}, {"type": "node", "id": 286990172, "lat": 46.9358032, "lon": 20.8260916, "tags": {"ksh_ref": "33455", "name": "Gyomaendr\u0151d", "place": "town", "population": "13133", "postal_code": "5500", "source:population": "KSH (www.ksh.hu)", "source:population:date": "2016-01-01", "source:postal_code": "Magyar Posta (posta.hu)", "source:postal_code:date": "2009-03-01"}}, {"type": "node", "id": 719372835, "lat": 47.0898193, "lon": 20.2343365, "tags": {"ksh_ref": "14207", "name": "R\u00e1k\u00f3czifalva", "name:ru": "\u0420\u0430\u043a\u043e\u0446\u0438\u0444\u0430\u043b\u044c\u0432\u0430", "place": "town", "population": "5266", "postal_code": "5085", "source:population": "KSH (www.ksh.hu)", "source:population:date": "2016-01-01", "source:postal_code": "A Magyar K\u00f6zt\u00e1rsas\u00e1g Helys\u00e9gn\u00e9vt\u00e1ra, 2009"}}, {"type": "node", "id": 84776496, "lat": 47.0186153, "lon": 20.2813933, "tags": {"ksh_ref": "02626", "name": "Martf\u0171", "name:ru": "\u041c\u0430\u0440\u0442\u0444\u044e", "place": "town", "population": "6237", "postal_code": "5435", "source:population": "KSH (www.ksh.hu)", "source:population:date": "2016-01-01", "source:postal_code": "Magyar Posta (posta.hu)", "source:postal_code:date": "2009-03-01"}}, {"type": "node", "id": 1801839190, "lat": 47.1754555, "lon": 20.1946818, "tags": {"capital": "6", "ksh_ref": "27854", "name": "Szolnok", "name:de": "Sollnock", "name:ka": "\u10e1\u10dd\u10da\u10dc\u10dd\u10d9\u10d8", "name:ru": "\u0421\u043e\u043b\u044c\u043d\u043e\u043a", "name:sk": "Soln\u00edk", "name:sr": "\u0421\u043e\u043b\u043d\u043e\u043a", "name:uk": "\u0421\u043e\u043b\u043d\u043e\u043a", "place": "city", "population": "72333", "postal_code": "5000", "source:population": "KSH (www.ksh.hu)", "source:population:date": "2016-01-01", "source:postal_code": "Magyar Posta (posta.hu)", "source:postal_code:date": "2009-03-01", "wikidata": "Q181276", "wikipedia": "hu:Szolnok"}}, {"type": "node", "id": 84783758, "lat": 47.1793568, "lon": 20.409153, "tags": {"ksh_ref": "27313", "name": "T\u00f6r\u00f6kszentmikl\u00f3s", "name:de": "T\u00fcrkischsanktniklas", "name:ru": "\u0422\u0451\u0440\u0451\u043a\u0441\u0435\u043d\u0442\u043c\u0438\u043a\u043b\u043e\u0448", "place": "town", "population": "20323", "postal_code": "5200", "source:population": "KSH (www.ksh.hu)", "source:population:date": "2016-01-01", "source:postal_code": "Magyar Posta (posta.hu)", "source:postal_code:date": "2009-03-01", "wikidata": "Q840986"}}, {"type": "node", "id": 719373010, "lat": 47.2960008, "lon": 20.257149, "tags": {"ksh_ref": "11305", "name": "Besenysz\u00f6g", "name:ru": "\u0411\u0435\u0448\u0435\u043d\u044c\u0441\u0451\u0433", "place": "town", "population": "3240", "postal_code": "5071", "source:population": "KSH (www.ksh.hu)", "source:population:date": "2016-01-01", "source:postal_code": "A Magyar K\u00f6zt\u00e1rsas\u00e1g Helys\u00e9gn\u00e9vt\u00e1ra, 2009"}}, {"type": "node", "id": 84784047, "lat": 47.2526516, "lon": 20.5259428, "tags": {"ksh_ref": "16647", "name": "Fegyvernek", "name:ru": "\u0424\u0435\u0434\u044c\u0432\u0435\u0440\u043d\u0435\u043a", "place": "town", "population": "6324", "postal_code": "5231", "source:population": "KSH (www.ksh.hu)", "source:population:date": "2016-01-01", "source:postal_code": "Magyar Posta (posta.hu)", "source:postal_code:date": "2009-03-01"}}, {"type": "node", "id": 268205246, "lat": 47.0004724, "lon": 20.6299513, "tags": {"ksh_ref": "04260", "name": "Mez\u0151t\u00far", "name:de": "Thur", "name:ru": "\u041c\u0435\u0437\u0451\u0442\u0443\u0440", "place": "town", "population": "16502", "postal_code": "5400", "source:population": "KSH (www.ksh.hu)", "source:population:date": "2016-01-01", "source:postal_code": "A Magyar K\u00f6zt\u00e1rsas\u00e1g Helys\u00e9gn\u00e9vt\u00e1ra, 2009", "wikidata": "Q855052"}}, {"type": "node", "id": 286961016, "lat": 47.1092447, "lon": 20.7358057, "tags": {"ksh_ref": "28228", "name": "T\u00farkeve", "name:ru": "\u0422\u0443\u0440\u043a\u0435\u0432\u0435", "place": "town", "population": "8563", "postal_code": "5420", "source:population": "KSH (www.ksh.hu)", "source:population:date": "2016-01-01", "source:postal_code": "Magyar Posta (posta.hu)", "source:postal_code:date": "2009-03-01"}}, {"type": "node", "id": 286995352, "lat": 47.0313464, "lon": 20.9620971, "tags": {"ksh_ref": "24819", "name": "D\u00e9vav\u00e1nya", "name:ru": "\u0414\u0435\u0432\u0430\u043d\u044c\u044f", "place": "town", "population": "7747", "postal_code": "5510", "source:population": "KSH (www.ksh.hu)", "source:population:date": "2016-01-01", "source:postal_code": "Magyar Posta (posta.hu)", "source:postal_code:date": "2009-03-01"}}, {"type": "node", "id": 84784799, "lat": 47.2477469, "lon": 20.6720305, "tags": {"ksh_ref": "17145", "name": "Kenderes", "name:ru": "\u041a\u0435\u043d\u0434\u0435\u0440\u0435\u0448", "place": "town", "population": "4437", "postal_code": "5331", "source:population": "KSH (www.ksh.hu)", "source:population:date": "2016-01-01", "source:postal_code": "Magyar Posta (posta.hu)", "source:postal_code:date": "2009-03-01"}}, {"type": "node", "id": 1376344644, "lat": 47.2162053, "lon": 20.7546669, "tags": {"ksh_ref": "25919", "name": "Kis\u00fajsz\u00e1ll\u00e1s", "name:ru": "\u041a\u0438\u0448\u0443\u0439\u0441\u0430\u043b\u043b\u0430\u0448", "place": "town", "population": "11182", "postal_code": "5310", "source:population": "KSH (www.ksh.hu)", "source:population:date": "2016-01-01", "source:postal_code": "Magyar Posta (posta.hu)", "source:postal_code:date": "2009-03-01"}}, {"type": "node", "id": 267849740, "lat": 47.3699089, "lon": 20.6318292, "tags": {"ksh_ref": "22567", "name": "Kunhegyes", "name:ru": "\u041a\u0443\u043d\u0445\u0435\u0434\u044c\u0435\u0448", "place": "town", "population": "7645", "postal_code": "5340", "source:population": "KSH (www.ksh.hu)", "source:population:date": "2016-01-01", "source:postal_code": "Magyar Posta (posta.hu)", "source:postal_code:date": "2009-03-01"}}, {"type": "node", "id": 84786251, "lat": 47.314646, "lon": 20.9240941, "tags": {"ksh_ref": "04923", "name": "Karcag", "name:de": "Engelhausen", "name:ru": "\u041a\u0430\u0440\u0446\u0430\u0433", "place": "town", "population": "20025", "postal_code": "5300", "source:population": "KSH (www.ksh.hu)", "source:population:date": "2016-01-01", "source:postal_code": "Magyar Posta (posta.hu)", "source:postal_code:date": "2009-03-01"}}, {"type": "node", "id": 354700473, "lat": 46.5952164, "lon": 21.0249183, "tags": {"ksh_ref": "02352", "name": "\u00dajk\u00edgy\u00f3s", "name:ru": "\u0423\u0439\u043a\u0438\u0434\u044c\u043e\u0448", "place": "town", "population": "5009", "postal_code": "5661", "source:population": "KSH (www.ksh.hu)", "source:population:date": "2016-01-01", "source:postal_code": "Magyar Posta (posta.hu)", "source:postal_code:date": "2009-03-01"}}, {"type": "node", "id": 32444521, "lat": 46.6798003, "lon": 21.0985425, "tags": {"capital": "6", "ksh_ref": "15200", "name": "B\u00e9k\u00e9scsaba", "name:de": "Tschabe", "name:ro": "Bichi\u0219ciaba", "name:ru": "\u0411\u0435\u043a\u0435\u0448\u0447\u0430\u0431\u0430", "name:sk": "B\u00e9ke\u0161sk\u00e1 \u010caba", "name:sr": "\u0411\u0435\u043a\u0435\u0448\u0447\u0430\u0431\u0430", "name:uk": "\u0411\u0435\u043a\u0435\u0448\u0447\u0430\u0431\u0430", "place": "city", "population": "60126", "postal_code": "5600", "source:population": "KSH (www.ksh.hu)", "source:population:date": "2016-01-01", "source:postal_code": "Magyar Posta (posta.hu)", "source:postal_code:date": "2009-03-01", "wikidata": "Q178878", "wikipedia": "hu:B\u00e9k\u00e9scsaba"}}, {"type": "node", "id": 286994834, "lat": 46.7717431, "lon": 21.1325877, "tags": {"ksh_ref": "09760", "name": "B\u00e9k\u00e9s", "name:de": "Bekesch", "name:ro": "Bichi\u0219", "name:ru": "\u0411\u0435\u043a\u0435\u0448", "name:sk": "B\u00e9k\u00e9\u0161", "place": "town", "population": "19243", "postal_code": "5630", "source:population": "KSH (www.ksh.hu)", "source:population:date": "2016-01-01", "source:postal_code": "Magyar Posta (posta.hu)", "source:postal_code:date": "2009-03-01", "wikidata": "Q740810", "wikipedia": "hu:B\u00e9k\u00e9s"}}, {"type": "node", "id": 32444954, "lat": 46.6438656, "lon": 21.2747575, "tags": {"ksh_ref": "05032", "name": "Gyula", "name:de": "Deutsch-Jula", "name:ro": "Jula", "name:ru": "\u0414\u044c\u044e\u043b\u0430", "place": "town", "population": "30318", "postal_code": "5700", "source:population": "KSH (www.ksh.hu)", "source:population:date": "2016-01-01", "source:postal_code": "Magyar Posta (posta.hu)", "source:postal_code:date": "2009-03-01", "wikidata": "Q214938", "wikipedia": "hu:Gyula (telep\u00fcl\u00e9s)"}}, {"type": "node", "id": 286992562, "lat": 46.7422871, "lon": 21.3836478, "tags": {"ksh_ref": "28565", "name": "Sarkad", "name:de": "Scharkad", "name:ro": "\u0218\u0103rcad", "name:ru": "\u0428\u0430\u0440\u043a\u0430\u0434", "place": "town", "population": "9808", "postal_code": "5720", "source:population": "KSH (www.ksh.hu)", "source:population:date": "2016-01-01", "source:postal_code": "Magyar Posta (posta.hu)", "source:postal_code:date": "2009-03-01"}}, {"type": "node", "id": 268205542, "lat": 46.8240312, "lon": 21.0290937, "tags": {"ksh_ref": "19628", "name": "Mez\u0151ber\u00e9ny", "name:de": "Maisbr\u00fcnn", "name:ru": "\u041c\u0435\u0437\u0451\u0431\u0435\u0440\u0435\u043d\u044c", "name:sk": "Po\u013en\u00fd Berin\u010dok", "place": "town", "population": "10148", "postal_code": "5650", "source:population": "KSH (www.ksh.hu)", "source:population:date": "2016-01-01", "source:postal_code": "Magyar Posta (posta.hu)", "source:postal_code:date": "2009-03-01"}}, {"type": "node", "id": 286992616, "lat": 46.9618183, "lon": 21.0774039, "tags": {"ksh_ref": "11615", "name": "K\u00f6r\u00f6slad\u00e1ny", "name:ru": "\u041a\u0451\u0440\u0451\u0448\u043b\u0430\u0434\u0430\u043d\u044c", "place": "town", "population": "4476", "postal_code": "5516", "source:population": "KSH (www.ksh.hu)", "source:population:date": "2016-01-01", "source:postal_code": "Magyar Posta (posta.hu)", "source:postal_code:date": "2009-03-01"}}, {"type": "node", "id": 286994012, "lat": 46.9241978, "lon": 21.2598799, "tags": {"ksh_ref": "29531", "name": "V\u00e9szt\u0151", "name:ru": "\u0412\u0435\u0441\u0442\u0451", "place": "town", "population": "6784", "postal_code": "5530", "source:population": "KSH (www.ksh.hu)", "source:population:date": "2016-01-01", "source:postal_code": "Magyar Posta (posta.hu)", "source:postal_code:date": "2009-03-01"}}, {"type": "node", "id": 540580133, "lat": 47.0213485, "lon": 21.1693932, "tags": {"ksh_ref": "21883", "name": "Szeghalom", "name:ru": "\u0421\u0435\u0433\u0445\u0430\u043b\u043e\u043c", "place": "town", "population": "9005", "postal_code": "5520", "source:population": "KSH (www.ksh.hu)", "source:population:date": "2016-01-01", "source:postal_code": "Magyar Posta (posta.hu)", "source:postal_code:date": "2009-03-01"}}, {"type": "node", "id": 286995833, "lat": 47.1045582, "lon": 21.2106131, "tags": {"ksh_ref": "12256", "name": "F\u00fczesgyarmat", "name:ru": "\u0424\u044e\u0437\u0435\u0448\u0434\u044c\u044f\u0440\u043c\u0430\u0442", "place": "town", "population": "5752", "postal_code": "5525", "source:population": "KSH (www.ksh.hu)", "source:population:date": "2016-01-01", "source:postal_code": "Magyar Posta (posta.hu)", "source:postal_code:date": "2009-03-01"}}, {"type": "node", "id": 268204467, "lat": 47.3196043, "lon": 21.1122524, "tags": {"ksh_ref": "10162", "name": "P\u00fcsp\u00f6klad\u00e1ny", "name:ru": "\u041f\u044e\u0448\u043f\u0451\u043a\u043b\u0430\u0434\u0430\u043d\u044c", "place": "town", "population": "14511", "postal_code": "4150", "source:population": "KSH (www.ksh.hu)", "source:population:date": "2016-01-01", "source:postal_code": "A Magyar K\u00f6zt\u00e1rsas\u00e1g Helys\u00e9gn\u00e9vt\u00e1ra, 2009"}}, {"type": "node", "id": 268204409, "lat": 47.3576246, "lon": 21.2742641, "tags": {"ksh_ref": "02307", "name": "Kaba", "name:ru": "\u041a\u0430\u0431\u0430", "place": "town", "population": "5807", "postal_code": "4183", "source:population": "KSH (www.ksh.hu)", "source:population:date": "2016-01-01", "source:postal_code": "A Magyar K\u00f6zt\u00e1rsas\u00e1g Helys\u00e9gn\u00e9vt\u00e1ra, 2009"}}, {"type": "node", "id": 286970084, "lat": 47.0013136, "lon": 21.488646, "tags": {"ksh_ref": "02167", "name": "Kom\u00e1di", "name:ru": "\u041a\u043e\u043c\u0430\u0434\u0438", "place": "town", "population": "5341", "postal_code": "4138", "source:population": "KSH (www.ksh.hu)", "source:population:date": "2016-01-01", "source:postal_code": "Magyar Posta (posta.hu)", "source:postal_code:date": "2009-03-01"}}, {"type": "node", "id": 3066539639, "lat": 47.1313432, "lon": 21.7191678, "tags": {"ksh_ref": "19956", "name": "Biharkeresztes", "name:ru": "\u0411\u0438\u0445\u0430\u0440\u043a\u0435\u0440\u0435\u0441\u0442\u0435\u0448", "place": "town", "population": "4147", "postal_code": "4110", "source:population": "KSH (www.ksh.hu)", "source:population:date": "2016-01-01", "source:postal_code": "Magyar Posta (posta.hu)", "source:postal_code:date": "2009-03-01"}}, {"type": "node", "id": 286969829, "lat": 47.2247273, "lon": 21.5355206, "tags": {"ksh_ref": "12788", "name": "Beretty\u00f3\u00fajfalu", "name:de": "Brettenbach", "name:ru": "\u0411\u0435\u0440\u0435\u0442\u0442\u044c\u043e\u0443\u0439\u0444\u0430\u043b\u0443", "place": "town", "population": "14816", "postal_code": "4100", "source:population": "KSH (www.ksh.hu)", "source:population:date": "2016-01-01", "source:postal_code": "Magyar Posta (posta.hu)", "source:postal_code:date": "2009-03-01", "wikidata": "Q793405"}}, {"type": "node", "id": 286969819, "lat": 47.3539466, "lon": 21.5709171, "tags": {"ksh_ref": "05573", "name": "Derecske", "name:ru": "\u0414\u0435\u0440\u0435\u0447\u043a\u0435", "place": "town", "population": "8612", "postal_code": "4130", "source:population": "KSH (www.ksh.hu)", "source:population:date": "2016-01-01", "source:postal_code": "Magyar Posta (posta.hu)", "source:postal_code:date": "2009-03-01"}}, {"type": "node", "id": 724932230, "lat": 47.4594684, "lon": 20.2167801, "tags": {"ksh_ref": "22798", "name": "J\u00e1szkis\u00e9r", "name:ru": "\u042f\u0441\u043a\u0438\u0448\u0435\u0440", "place": "town", "population": "5349", "postal_code": "5137", "source:population": "KSH (www.ksh.hu)", "source:population:date": "2016-01-01", "source:postal_code": "A Magyar K\u00f6zt\u00e1rsas\u00e1g Helys\u00e9gn\u00e9vt\u00e1ra, 2009"}}, {"type": "node", "id": 286959644, "lat": 47.5133704, "lon": 20.1410061, "tags": {"ksh_ref": "22202", "name": "J\u00e1szap\u00e1ti", "name:ru": "\u042f\u0441\u0430\u043f\u0430\u0442\u0438", "place": "town", "population": "8442", "postal_code": "5130", "source:population": "KSH (www.ksh.hu)", "source:population:date": "2016-01-01", "source:postal_code": "Magyar Posta (posta.hu)", "source:postal_code:date": "2009-03-01"}}, {"type": "node", "id": 247464102, "lat": 47.5957526, "lon": 20.2897722, "tags": {"ksh_ref": "14526", "name": "Heves", "name:de": "Hewesch", "name:ru": "\u0425\u0435\u0432\u0435\u0448", "place": "town", "population": "10475", "postal_code": "3360", "source:population": "KSH (www.ksh.hu)", "source:population:date": "2016-01-01", "source:postal_code": "Magyar Posta (posta.hu)", "source:postal_code:date": "2009-03-01"}}, {"type": "node", "id": 286963674, "lat": 47.4994568, "lon": 20.4925043, "tags": {"ksh_ref": "18281", "name": "Kisk\u00f6re", "name:ru": "\u041a\u0438\u0448\u043a\u0451\u0440\u0435", "place": "town", "population": "2870", "postal_code": "3384", "source:population": "KSH (www.ksh.hu)", "source:population:date": "2016-01-01", "source:postal_code": "Magyar Posta (posta.hu)", "source:postal_code:date": "2009-03-01"}}, {"type": "node", "id": 84760091, "lat": 47.7485389, "lon": 20.4142673, "tags": {"ksh_ref": "03276", "name": "F\u00fczesabony", "name:de": "Wabing", "name:hu": "F\u00fczesabony", "name:ru": "\u0424\u044e\u0437\u0435\u0448\u0430\u0431\u043e\u043d\u044c", "place": "town", "population": "7527", "postal_code": "3390", "source:population": "KSH (www.ksh.hu)", "source:population:date": "2016-01-01", "source:postal_code": "Magyar Posta (posta.hu)", "source:postal_code:date": "2009-03-01"}}, {"type": "node", "id": 286960422, "lat": 47.4760139, "lon": 20.5997748, "tags": {"ksh_ref": "12441", "name": "Ab\u00e1dszal\u00f3k", "name:ru": "\u0410\u0431\u0430\u0434\u0441\u0430\u043b\u043e\u043a", "place": "town", "population": "4160", "postal_code": "5241", "source:population": "KSH (www.ksh.hu)", "source:population:date": "2016-01-01", "source:postal_code": "Magyar Posta (posta.hu)", "source:postal_code:date": "2009-03-01"}}, {"type": "node", "id": 84766688, "lat": 47.6130877, "lon": 20.7502258, "tags": {"ksh_ref": "29726", "name": "Tiszaf\u00fcred", "name:ru": "\u0422\u0438\u0441\u0430\u0444\u044e\u0440\u0435\u0434", "place": "town", "population": "11091", "postal_code": "5350", "source:population": "KSH (www.ksh.hu)", "source:population:date": "2016-01-01", "source:postal_code": "Magyar Posta (posta.hu)", "source:postal_code:date": "2009-03-01"}}, {"type": "node", "id": 286986763, "lat": 47.8097525, "lon": 20.5660889, "tags": {"ksh_ref": "19433", "name": "Mez\u0151k\u00f6vesd", "name:ru": "\u041c\u0435\u0437\u0451\u043a\u0451\u0432\u0435\u0448\u0434", "note": "Itt lakok.", "place": "town", "population": "16310", "postal_code": "3400", "source:population": "KSH (www.ksh.hu)", "source:population:date": "2016-01-01", "source:postal_code": "Magyar Posta (posta.hu)", "source:postal_code:date": "2009-03-01", "wikidata": "Q933638"}}, {"type": "node", "id": 354944589, "lat": 47.829883, "lon": 20.6922479, "tags": {"ksh_ref": "11323", "name": "Mez\u0151keresztes", "name:ru": "\u041c\u0435\u0437\u0451\u043a\u0435\u0440\u0435\u0441\u0442\u0435\u0448", "place": "town", "population": "3746", "postal_code": "3441", "source:population": "KSH (www.ksh.hu)", "source:population:date": "2016-01-01", "source:postal_code": "Magyar Posta (posta.hu)", "source:postal_code:date": "2009-03-01"}}, {"type": "node", "id": 286987155, "lat": 47.8175357, "lon": 20.903168, "tags": {"ksh_ref": "13833", "name": "Mez\u0151cs\u00e1t", "name:ru": "\u041c\u0435\u0437\u0451\u0447\u0430\u0442", "name:uk": "\u041c\u0435\u0437\u0439\u043e\u0447\u0430\u0442", "place": "town", "population": "5826", "postal_code": "3450", "source:population": "KSH (www.ksh.hu)", "source:population:date": "2016-01-01", "source:postal_code": "Magyar Posta (posta.hu)", "source:postal_code:date": "2009-03-01", "wikidata": "Q304803"}}, {"type": "node", "id": 243705866, "lat": 47.8490107, "lon": 20.2279112, "tags": {"ksh_ref": "24147", "name": "Verpel\u00e9t", "name:ru": "\u0412\u0435\u0440\u043f\u0435\u043b\u0435\u0442", "place": "town", "population": "3800", "postal_code": "3351", "source:population": "KSH (www.ksh.hu)", "source:population:date": "2016-01-01", "source:postal_code": "Magyar Posta (posta.hu)", "source:postal_code:date": "2009-03-01"}}, {"type": "node", "id": 26757722, "lat": 47.8989887, "lon": 20.3743665, "tags": {"capital": "6", "ksh_ref": "20491", "name": "Eger", "name:de": "Erlau", "name:la": "Agria", "name:lt": "Egeris", "name:lv": "Egera", "name:ru": "\u042d\u0433\u0435\u0440", "name:sk": "J\u00e1ger", "name:sr": "\u0415\u0433\u0435\u0440", "old_name:tr": "E\u011fri", "place": "city", "population": "54480", "postal_code": "3300", "source:population": "KSH (www.ksh.hu)", "source:population:date": "2016-01-01", "source:postal_code": "Magyar Posta (posta.hu)", "source:postal_code:date": "2009-03-01", "wikidata": "Q167109", "wikipedia": "hu:Eger"}}, {"type": "node", "id": 286986224, "lat": 48.1225672, "lon": 20.2453048, "tags": {"ksh_ref": "05315", "name": "Borsodn\u00e1dasd", "name:ru": "\u0411\u043e\u0440\u0449\u043e\u0434\u043d\u0430\u0434\u0430\u0448\u0434", "place": "town", "population": "3185", "postal_code": "3671", "source:population": "KSH (www.ksh.hu)", "source:population:date": "2016-01-01", "source:postal_code": "Magyar Posta (posta.hu)", "source:postal_code:date": "2009-03-01"}}, {"type": "node", "id": 268215944, "lat": 48.2196425, "lon": 20.2954986, "tags": {"ksh_ref": "14492", "name": "\u00d3zd", "name:ru": "\u041e\u0437\u0434", "place": "town", "population": "33141", "postal_code": "3600", "source:population": "KSH (www.ksh.hu)", "source:population:date": "2016-01-01", "source:postal_code": "Magyar Posta (posta.hu)", "source:postal_code:date": "2009-03-01", "wikidata": "Q293558"}}, {"type": "node", "id": 286962843, "lat": 48.052978, "lon": 20.3485363, "tags": {"ksh_ref": "33260", "name": "B\u00e9lap\u00e1tfalva", "name:ru": "\u0411\u0435\u043b\u0430\u043f\u0430\u0442\u0444\u0430\u043b\u044c\u0432\u0430", "place": "town", "population": "2979", "postal_code": "3346", "source:population": "KSH (www.ksh.hu)", "source:population:date": "2016-01-01", "source:postal_code": "Magyar Posta (posta.hu)", "source:postal_code:date": "2009-03-01"}}, {"type": "node", "id": 244172617, "lat": 47.9339466, "lon": 20.8165452, "tags": {"ksh_ref": "04677", "name": "Em\u0151d", "name:ru": "\u0415\u043c\u0451\u0434", "place": "town", "population": "4761", "postal_code": "3432", "source:population": "KSH (www.ksh.hu)", "source:population:date": "2016-01-01", "source:postal_code": "Magyar Posta (posta.hu)", "source:postal_code:date": "2009-03-01"}}, {"type": "node", "id": 244172660, "lat": 47.9922271, "lon": 20.8305698, "tags": {"ksh_ref": "12885", "name": "Ny\u00e9kl\u00e1dh\u00e1za", "name:ru": "\u041d\u044c\u0435\u043a\u043b\u0430\u0434\u0445\u0430\u0437\u0430", "place": "town", "population": "4865", "postal_code": "3433", "source:population": "KSH (www.ksh.hu)", "source:population:date": "2016-01-01", "source:postal_code": "Magyar Posta (posta.hu)", "source:postal_code:date": "2009-03-01"}}, {"type": "node", "id": 354944867, "lat": 48.1750425, "lon": 20.738743, "tags": {"ksh_ref": "03504", "name": "Saj\u00f3b\u00e1bony", "name:ru": "\u0428\u0430\u0439\u043e\u0431\u0430\u0431\u043e\u043d\u044c", "place": "town", "population": "2761", "postal_code": "3792", "source:population": "KSH (www.ksh.hu)", "source:population:date": "2016-01-01", "source:postal_code": "Magyar Posta (posta.hu)", "source:postal_code:date": "2009-03-01"}}, {"type": "node", "id": 245767926, "lat": 48.2183544, "lon": 20.7087764, "tags": {"ksh_ref": "16054", "name": "Saj\u00f3szentp\u00e9ter", "name:de": "Sankt Peter", "name:ru": "\u0428\u0430\u0439\u043e\u0441\u0435\u043d\u0442\u043f\u0435\u0442\u0435\u0440", "name:sk": "Sv\u00e4t\u00fd Peter nad Slanou", "place": "town", "population": "11491", "postal_code": "3770", "source:population": "KSH (www.ksh.hu)", "source:population:date": "2016-01-01", "source:postal_code": "Magyar Posta (posta.hu)", "source:postal_code:date": "2009-03-01"}}, {"type": "node", "id": 64622559, "lat": 48.1030643, "lon": 20.7900429, "tags": {"capital": "6", "ksh_ref": "30456", "name": "Miskolc", "name:ar": "\u0645\u064a\u0634\u0643\u0648\u0644\u062a\u0633", "name:bg": "\u041c\u0438\u0448\u043a\u043e\u043b\u0446", "name:cs": "Miskolc", "name:de": "Mischkolz", "name:fa": "\u0645\u06cc\u0634\u06a9\u0648\u0644\u062a\u0633", "name:he": "\u05de\u05d9\u05e9\u05e7\u05d5\u05dc\u05e5", "name:hr": "Mi\u0161kolc", "name:ja": "\u30df\u30b7\u30e5\u30b3\u30eb\u30c4", "name:ka": "\u10db\u10d8\u10e8\u10d9\u10dd\u10da\u10ea\u10d8", "name:ko": "\ubbf8\uc288\ucf5c\uce20", "name:lt": "Mi\u0161kolcas", "name:lv": "Mi\u0161kolca", "name:mk": "\u041c\u0438\u0448\u043a\u043e\u043b\u0446", "name:pl": "Miszkolc", "name:ro": "Mi\u0219col\u021b", "name:ru": "\u041c\u0438\u0448\u043a\u043e\u043b\u044c\u0446", "name:sk": "Mi\u0161kovec", "name:sr": "\u041c\u0438\u0448\u043a\u043e\u043b\u0446", "name:uk": "\u041c\u0456\u0448\u043a\u043e\u043b\u044c\u0446", "name:zh": "\u7c73\u4ec0\u79d1\u5c14\u8328", "old_name:de": "Mischkolz", "place": "city", "population": "158101", "postal_code": "3500", "source:population": "KSH (www.ksh.hu)", "source:population:date": "2016-01-01", "source:postal_code": "Magyar Posta (posta.hu)", "source:postal_code:date": "2009-03-01", "wikidata": "Q102397", "wikipedia": "hu:Miskolc"}}, {"type": "node", "id": 244172750, "lat": 48.1095123, "lon": 20.8591603, "tags": {"ksh_ref": "02848", "name": "Fels\u0151zsolca", "name:ru": "\u0424\u0435\u043b\u044c\u0448\u0451\u0436\u043e\u043b\u044c\u0446\u0430", "name:sk": "Vy\u0161n\u00e1 \u017dolca", "place": "town", "population": "6486", "postal_code": "3561", "source:population": "KSH (www.ksh.hu)", "source:population:date": "2016-01-01", "source:postal_code": "Magyar Posta (posta.hu)", "source:postal_code:date": "2009-03-01"}}, {"type": "node", "id": 286979602, "lat": 48.0703015, "lon": 20.8819968, "tags": {"ksh_ref": "21032", "name": "Als\u00f3zsolca", "name:ru": "\u0410\u043b\u044c\u0448\u043e\u0436\u043e\u043b\u044c\u0446\u0430", "name:sk": "Ni\u017en\u00e1 \u017dolca", "place": "town", "population": "5606", "postal_code": "3571", "source:population": "KSH (www.ksh.hu)", "source:population:date": "2016-01-01", "source:postal_code": "Magyar Posta (posta.hu)", "source:postal_code:date": "2009-03-01"}}, {"type": "node", "id": 354944685, "lat": 48.1207157, "lon": 20.9129384, "tags": {"ksh_ref": "22558", "name": "Onga", "name:ru": "\u041e\u043d\u0433\u0430", "place": "town", "population": "4764", "postal_code": "3562", "source:population": "KSH (www.ksh.hu)", "source:population:date": "2016-01-01", "source:postal_code": "Magyar Posta (posta.hu)", "source:postal_code:date": "2009-03-01"}}, {"type": "node", "id": 286982043, "lat": 48.2015243, "lon": 20.9275021, "tags": {"ksh_ref": "21351", "name": "Sziksz\u00f3", "name:de": "Sixau", "name:hu": "Sziksz\u00f3", "name:ru": "\u0421\u0438\u043a\u0441\u043e", "name:sk": "Siksava", "name:uk": "\u0421\u0456\u043a\u0441\u043e", "place": "town", "population": "5307", "postal_code": "3800", "source:population": "KSH (www.ksh.hu)", "source:population:date": "2016-01-01", "source:postal_code": "Magyar Posta (posta.hu)", "source:postal_code:date": "2009-03-01", "website": "http://www.szikszo.hu/", "wikidata": "Q854913", "wikipedia": "hu:Sziksz\u00f3"}}, {"type": "node", "id": 286970865, "lat": 47.4285575, "lon": 21.1593087, "tags": {"ksh_ref": "28103", "name": "N\u00e1dudvar", "name:ru": "\u041d\u0430\u0434\u0443\u0434\u0432\u0430\u0440", "place": "town", "population": "8697", "postal_code": "4181", "source:population": "KSH (www.ksh.hu)", "source:population:date": "2016-01-01", "source:postal_code": "Magyar Posta (posta.hu)", "source:postal_code:date": "2009-03-01"}}, {"type": "node", "id": 268204356, "lat": 47.4431291, "lon": 21.3902995, "tags": {"ksh_ref": "05175", "name": "Hajd\u00faszoboszl\u00f3", "name:de": "Sobols", "name:ru": "\u0425\u0430\u0439\u0434\u0443\u0441\u043e\u0431\u043e\u0441\u043b\u043e", "place": "town", "population": "23735", "postal_code": "4200", "source:population": "KSH (www.ksh.hu)", "source:population:date": "2016-01-01", "source:postal_code": "A Magyar K\u00f6zt\u00e1rsas\u00e1g Helys\u00e9gn\u00e9vt\u00e1ra, 2009", "wikidata": "Q830404"}}, {"type": "node", "id": 286971559, "lat": 47.6116279, "lon": 21.3437378, "tags": {"ksh_ref": "02918", "name": "Balmaz\u00fajv\u00e1ros", "name:de": "Neustadt auf dem Heiduckenboden", "name:ru": "\u0411\u0430\u043b\u044c\u043c\u0430\u0437\u0443\u0439\u0432\u0430\u0440\u043e\u0448", "place": "town", "population": "17421", "postal_code": "4060", "source:population": "KSH (www.ksh.hu)", "source:population:date": "2016-01-01", "source:postal_code": "Magyar Posta (posta.hu)", "source:postal_code:date": "2009-03-01", "wikidata": "Q789510"}}, {"type": "node", "id": 286969567, "lat": 47.6975481, "lon": 20.9935969, "tags": {"ksh_ref": "15644", "name": "Tiszacsege", "name:ru": "\u0422\u0438\u0441\u0430\u0447\u0435\u0433\u0435", "place": "town", "population": "4684", "postal_code": "4066", "source:population": "KSH (www.ksh.hu)", "source:population:date": "2016-01-01", "source:postal_code": "Magyar Posta (posta.hu)", "source:postal_code:date": "2009-03-01"}}, {"type": "node", "id": 26757724, "lat": 47.531399, "lon": 21.6259782, "tags": {"alt_name:uk": "\u0414\u0435\u0431\u0440\u0435\u0446\u0435\u043d", "capital": "6", "ksh_ref": "15130", "name": "Debrecen", "name:cs": "Debrec\u00edn", "name:de": "Debrezin", "name:hu": "Debrecen", "name:pl": "Debreczyn", "name:ro": "Debre\u021bin", "name:ru": "\u0414\u0435\u0431\u0440\u0435\u0446\u0435\u043d", "name:sk": "Debrec\u00edn", "name:sr": "\u0414\u0435\u0431\u0440\u0435\u0446\u0438\u043d", "name:uk": "\u0414\u0435\u0431\u0440\u0435\u0447\u0438\u043d", "place": "city", "population": "203059", "postal_code": "4000", "source:population": "KSH (www.ksh.hu)", "source:population:date": "2016-01-01", "source:postal_code": "Magyar Posta (posta.hu)", "source:postal_code:date": "2009-03-01", "wikidata": "Q79880", "wikipedia": "hu:Debrecen"}}, {"type": "node", "id": 286968184, "lat": 47.5989514, "lon": 21.7537139, "tags": {"ksh_ref": "31097", "name": "Hajd\u00fas\u00e1mson", "name:ru": "\u0425\u0430\u0439\u0434\u0443\u0448\u0430\u043c\u0448\u043e\u043d", "place": "town", "population": "13039", "postal_code": "4251", "source:population": "KSH (www.ksh.hu)", "source:population:date": "2016-01-01", "source:postal_code": "Magyar Posta (posta.hu)", "source:postal_code:date": "2009-03-01"}}, {"type": "node", "id": 286968025, "lat": 47.6716617, "lon": 21.5078944, "tags": {"ksh_ref": "03045", "name": "Hajd\u00fab\u00f6sz\u00f6rm\u00e9ny", "name:de": "Betschermen", "name:ru": "\u0425\u0430\u0439\u0434\u0443\u0431\u0451\u0441\u0451\u0440\u043c\u0435\u043d\u044c", "place": "town", "population": "30951", "postal_code": "4220", "source:population": "KSH (www.ksh.hu)", "source:population:date": "2016-01-01", "source:postal_code": "Magyar Posta (posta.hu)", "source:postal_code:date": "2009-03-01", "wikidata": "Q679224"}}, {"type": "node", "id": 286969379, "lat": 47.8157169, "lon": 21.5006846, "tags": {"ksh_ref": "12803", "name": "Hajd\u00fadorog", "name:ru": "\u0425\u0430\u0439\u0434\u0443\u0434\u043e\u0440\u043e\u0433", "place": "town", "population": "8622", "postal_code": "4087", "source:population": "KSH (www.ksh.hu)", "source:population:date": "2016-01-01", "source:postal_code": "Magyar Posta (posta.hu)", "source:postal_code:date": "2009-03-01", "wikidata": "Q252325"}}, {"type": "node", "id": 286174034, "lat": 47.6844833, "lon": 21.6691853, "tags": {"ksh_ref": "10393", "name": "Hajd\u00fahadh\u00e1z", "name:ru": "\u0425\u0430\u0439\u0434\u0443\u0445\u0430\u0434\u0445\u0430\u0437", "place": "town", "population": "12747", "postal_code": "4242", "source:population": "KSH (www.ksh.hu)", "source:population:date": "2016-01-01", "source:postal_code": "Magyar Posta (posta.hu)", "source:postal_code:date": "2009-03-01"}}, {"type": "node", "id": 3136096712, "lat": 47.7156887, "lon": 21.6746328, "tags": {"ksh_ref": "23214", "name": "T\u00e9gl\u00e1s", "name:ru": "\u0422\u0435\u0433\u043b\u0430\u0448", "place": "town", "population": "6321", "postal_code": "4243", "source:population": "KSH (www.ksh.hu)", "source:population:date": "2016-01-01", "source:postal_code": "Magyar Posta (posta.hu)", "source:postal_code:date": "2009-03-01"}}, {"type": "node", "id": 286174484, "lat": 47.8008977, "lon": 21.6829931, "tags": {"ksh_ref": "26611", "name": "\u00dajfeh\u00e9rt\u00f3", "name:de": "Ratzfert", "name:ru": "\u0423\u0439\u0444\u0435\u0445\u0435\u0440\u0442\u043e", "place": "town", "population": "12607", "postal_code": "4244", "source:population": "KSH (www.ksh.hu)", "source:population:date": "2016-01-01", "source:postal_code": "Magyar Posta (posta.hu)", "source:postal_code:date": "2009-03-01"}}, {"type": "node", "id": 286975602, "lat": 47.9280341, "lon": 21.0467056, "tags": {"ksh_ref": "28352", "name": "Tisza\u00fajv\u00e1ros", "name:de": "Neustadt an der Thei\u00df", "name:ru": "\u0422\u0438\u0441\u0430\u0443\u0439\u0432\u0430\u0440\u043e\u0448", "name:uk": "\u0422\u0438\u0441\u0430\u0443\u0439\u0432\u0430\u0440\u043e\u0448", "old_name": "Leninv\u00e1ros", "place": "town", "place:hu": "V\u00e1ros", "population": "15954", "postal_code": "3580", "source:population": "KSH (www.ksh.hu)", "source:population:date": "2016-01-01", "source:postal_code": "Magyar Posta (posta.hu)", "source:postal_code:date": "2009-03-01", "wikidata": "Q375097", "wikipedia": "hu:Tisza\u00fajv\u00e1ros"}}, {"type": "node", "id": 286967912, "lat": 47.8707939, "lon": 21.1141032, "tags": {"ksh_ref": "23117", "name": "Polg\u00e1r", "name:ru": "\u041f\u043e\u043b\u044c\u0433\u0430\u0440", "place": "town", "population": "7908", "postal_code": "4090", "source:population": "KSH (www.ksh.hu)", "source:population:date": "2016-01-01", "source:postal_code": "Magyar Posta (posta.hu)", "source:postal_code:date": "2009-03-01"}}, {"type": "node", "id": 286169938, "lat": 47.956619, "lon": 21.3680532, "tags": {"ksh_ref": "07597", "name": "Tiszavasv\u00e1ri", "name:ru": "\u0422\u0438\u0441\u0430\u0432\u0430\u0448\u0432\u0430\u0440\u0438", "place": "town", "population": "12818", "postal_code": "4440", "source:population": "KSH (www.ksh.hu)", "source:population:date": "2016-01-01", "source:postal_code": "Magyar Posta (posta.hu)", "source:postal_code:date": "2009-03-01"}}, {"type": "node", "id": 286169157, "lat": 48.0171761, "lon": 21.3749662, "tags": {"ksh_ref": "23524", "name": "Tiszal\u00f6k", "name:ru": "\u0422\u0438\u0441\u0430\u043b\u0451\u043a", "place": "town", "population": "5305", "postal_code": "4450", "source:population": "KSH (www.ksh.hu)", "source:population:date": "2016-01-01", "source:postal_code": "Magyar Posta (posta.hu)", "source:postal_code:date": "2009-03-01"}}, {"type": "node", "id": 286978816, "lat": 48.1633851, "lon": 21.2010881, "tags": {"ksh_ref": "30739", "name": "Szerencs", "name:de": "Serentsch", "name:hu": "Szerencs", "name:ru": "\u0421\u0435\u0440\u0435\u043d\u0447", "name:sk": "Seren\u010d", "place": "town", "population": "8942", "postal_code": "3900", "source:population": "KSH (www.ksh.hu)", "source:population:date": "2016-01-01", "source:postal_code": "Magyar Posta (posta.hu)", "source:postal_code:date": "2009-03-01"}}, {"type": "node", "id": 286969354, "lat": 47.8452241, "lon": 21.4279002, "tags": {"ksh_ref": "22406", "name": "Hajd\u00fan\u00e1n\u00e1s", "name:ru": "\u0425\u0430\u0439\u0434\u0443\u043d\u0430\u043d\u0430\u0448", "place": "town", "population": "17038", "postal_code": "4080", "source:population": "KSH (www.ksh.hu)", "source:population:date": "2016-01-01", "source:postal_code": "Magyar Posta (posta.hu)", "source:postal_code:date": "2009-03-01", "website": "http://hajdunanas.hu/", "wikidata": "Q739304"}}, {"type": "node", "id": 286185174, "lat": 48.0102668, "lon": 21.6314008, "tags": {"ksh_ref": "13550", "name": "Ny\u00edrtelek", "name:ru": "\u041d\u044c\u0438\u0440\u0442\u0435\u043b\u0435\u043a", "place": "town", "population": "6535", "postal_code": "4461", "source:population": "KSH (www.ksh.hu)", "source:population:date": "2016-01-01", "source:postal_code": "Magyar Posta (posta.hu)", "source:postal_code:date": "2009-03-01"}}, {"type": "node", "id": 64627511, "lat": 47.9557802, "lon": 21.7167982, "tags": {"capital": "6", "ksh_ref": "17206", "name": "Ny\u00edregyh\u00e1za", "name:de": "Birkenkirchen", "name:hu": "Ny\u00edregyh\u00e1za", "name:ka": "\u10dc\u10d8\u10d8\u10e0\u10d4\u10ef\u10f0\u10d0\u10d6\u10d0", "name:ru": "\u041d\u044c\u0438\u0440\u0435\u0434\u044c\u0445\u0430\u0437\u0430", "name:sk": "N\u00edre\u010fh\u00e1za", "name:sr": "\u040a\u0438\u0440\u0435\u0452\u0445\u0430\u0437\u0430", "name:uk": "\u041d\u044c\u0457\u0440\u0435\u0434\u044c\u0433\u0430\u0437\u0430", "place": "city", "population": "118058", "postal_code": "4400", "source:population": "KSH (www.ksh.hu)", "source:population:date": "2016-01-01", "source:postal_code": "Magyar Posta (posta.hu)", "source:postal_code:date": "2009-03-01", "wikidata": "Q171223", "wikipedia": "hu:Ny\u00edregyh\u00e1za"}}, {"type": "node", "id": 26757723, "lat": 48.1235534, "lon": 21.4113895, "tags": {"ksh_ref": "18306", "name": "Tokaj", "name:de": "Tokey", "name:hu": "Tokaj", "name:ru": "\u0422\u043e\u043a\u0430\u0439", "name:uk": "\u0422\u043e\u043a\u0430\u0439", "place": "town", "population": "4282", "postal_code": "3910", "source:population": "KSH (www.ksh.hu)", "source:population:date": "2016-01-01", "source:postal_code": "Magyar Posta (posta.hu)", "source:postal_code:date": "2009-03-01", "wikidata": "Q582209"}}, {"type": "node", "id": 286168628, "lat": 48.12218, "lon": 21.4775144, "tags": {"ksh_ref": "14739", "name": "Rakamaz", "name:de": "Rackermoos", "name:hu": "Rakamaz", "name:ru": "\u0420\u0430\u043a\u0430\u043c\u0430\u0437", "place": "town", "population": "4338", "postal_code": "4465", "source:population": "KSH (www.ksh.hu)", "source:population:date": "2016-01-01", "source:postal_code": "Magyar Posta (posta.hu)", "source:postal_code:date": "2009-03-01"}}, {"type": "node", "id": 286158556, "lat": 48.0678349, "lon": 21.7986929, "tags": {"ksh_ref": "19992", "name": "Kemecse", "name:ru": "\u041a\u0435\u043c\u0435\u0447\u0435", "name:uk": "\u041a\u0435\u043c\u0435\u0447\u0435", "place": "town", "population": "4811", "postal_code": "4501", "source:population": "KSH (www.ksh.hu)", "source:population:date": "2016-01-01", "source:postal_code": "Magyar Posta (posta.hu)", "source:postal_code:date": "2009-03-01", "wikidata": "Q911628"}}, {"type": "node", "id": 286166176, "lat": 48.122594, "lon": 21.7102156, "tags": {"ksh_ref": "25636", "name": "Ibr\u00e1ny", "name:ru": "\u0418\u0431\u0440\u0430\u043d\u044c", "place": "town", "population": "6662", "postal_code": "4484", "source:population": "KSH (www.ksh.hu)", "source:population:date": "2016-01-01", "source:postal_code": "Magyar Posta (posta.hu)", "source:postal_code:date": "2009-03-01"}}, {"type": "node", "id": 286166152, "lat": 48.1322422, "lon": 21.7593891, "tags": {"ksh_ref": "27155", "name": "Nagyhal\u00e1sz", "name:ru": "\u041d\u0430\u0434\u044c\u0445\u0430\u043b\u0430\u0441", "place": "town", "population": "5660", "postal_code": "4485", "source:population": "KSH (www.ksh.hu)", "source:population:date": "2016-01-01", "source:postal_code": "Magyar Posta (posta.hu)", "source:postal_code:date": "2009-03-01"}}, {"type": "node", "id": 286971124, "lat": 47.3853112, "lon": 21.8764089, "tags": {"ksh_ref": "05768", "name": "L\u00e9tav\u00e9rtes", "place": "town", "population": "7108", "postal_code": "4281", "source:population": "KSH (www.ksh.hu)", "source:population:date": "2016-01-01", "source:postal_code": "A Magyar K\u00f6zt\u00e1rsas\u00e1g Helys\u00e9gn\u00e9vt\u00e1ra, 2009"}}, {"type": "node", "id": 286968655, "lat": 47.5267293, "lon": 21.8987164, "tags": {"ksh_ref": "08989", "name": "V\u00e1mosp\u00e9rcs", "name:ru": "\u0412\u0430\u043c\u043e\u0448\u043f\u0435\u0440\u0447", "place": "town", "population": "5322", "postal_code": "4287", "source:population": "KSH (www.ksh.hu)", "source:population:date": "2016-01-01", "source:postal_code": "Magyar Posta (posta.hu)", "source:postal_code:date": "2009-03-01"}}, {"type": "node", "id": 286969057, "lat": 47.6913589, "lon": 21.9053502, "tags": {"ksh_ref": "06187", "name": "Ny\u00edradony", "name:ru": "\u041d\u044c\u0438\u0440\u0430\u0434\u043e\u043d\u044c", "place": "town", "population": "7714", "postal_code": "4254", "source:population": "KSH (www.ksh.hu)", "source:population:date": "2016-01-01", "source:postal_code": "Magyar Posta (posta.hu)", "source:postal_code:date": "2009-03-01"}}, {"type": "node", "id": 286180264, "lat": 47.770088, "lon": 21.8601316, "tags": {"ksh_ref": "26958", "name": "Balk\u00e1ny", "name:ru": "\u0411\u0430\u043b\u044c\u043a\u0430\u043d\u044c", "place": "town", "population": "6413", "postal_code": "4233", "source:population": "KSH (www.ksh.hu)", "source:population:date": "2016-01-01", "source:postal_code": "Magyar Posta (posta.hu)", "source:postal_code:date": "2009-03-01"}}, {"type": "node", "id": 286175858, "lat": 47.6920499, "lon": 22.0417654, "tags": {"ksh_ref": "11271", "name": "Ny\u00edrlugos", "name:ru": "\u041d\u044c\u0438\u0440\u043b\u0443\u0433\u043e\u0448", "name:uk": "\u041d\u044c\u0457\u0440\u043b\u0443\u0433\u043e\u0448", "place": "town", "population": "2683", "postal_code": "4371", "source:population": "KSH (www.ksh.hu)", "source:population:date": "2016-01-01", "source:postal_code": "Magyar Posta (posta.hu)", "source:postal_code:date": "2009-03-01", "wikidata": "Q933454"}}, {"type": "node", "id": 286171150, "lat": 47.874296, "lon": 21.8434965, "tags": {"ksh_ref": "24785", "name": "Nagyk\u00e1ll\u00f3", "name:ru": "\u041d\u0430\u0434\u044c\u043a\u0430\u043b\u043b\u043e", "place": "town", "population": "9211", "postal_code": "4320", "source:population": "KSH (www.ksh.hu)", "source:population:date": "2016-01-01", "source:postal_code": "Magyar Posta (posta.hu)", "source:postal_code:date": "2009-03-01"}}, {"type": "node", "id": 286177168, "lat": 47.8793156, "lon": 22.0258708, "tags": {"ksh_ref": "19655", "name": "M\u00e1riap\u00f3cs", "name:ru": "\u041c\u0430\u0440\u0438\u0430\u043f\u043e\u0447", "place": "town", "population": "2136", "postal_code": "4326", "source:population": "KSH (www.ksh.hu)", "source:population:date": "2016-01-01", "source:postal_code": "Magyar Posta (posta.hu)", "source:postal_code:date": "2009-03-01"}}, {"type": "node", "id": 286176618, "lat": 47.839511, "lon": 22.1322309, "tags": {"ksh_ref": "14845", "name": "Ny\u00edrb\u00e1tor", "name:de": "Bathor", "name:hu": "Ny\u00edrb\u00e1tor", "place": "town", "population": "12146", "postal_code": "4300", "source:population": "KSH (www.ksh.hu)", "source:population:date": "2016-01-01", "source:postal_code": "Magyar Posta (posta.hu)", "source:postal_code:date": "2009-03-01"}}, {"type": "node", "id": 286156605, "lat": 47.9994207, "lon": 22.0793592, "tags": {"ksh_ref": "02325", "name": "Baktal\u00f3r\u00e1nth\u00e1za", "name:ru": "\u0411\u0430\u043a\u0442\u0430\u043b\u043e\u0440\u0430\u043d\u0442\u0445\u0430\u0437\u0430", "place": "town", "population": "3954", "postal_code": "4561", "source:population": "KSH (www.ksh.hu)", "source:population:date": "2016-01-01", "source:postal_code": "Magyar Posta (posta.hu)", "source:postal_code:date": "2009-03-01"}}, {"type": "node", "id": 739414870, "lat": 47.9990668, "lon": 22.1715133, "tags": {"ksh_ref": "18591", "name": "Vaja", "name:ru": "\u0412\u0430\u0439\u044f", "place": "town", "population": "3534", "postal_code": "4562", "source:population": "KSH (www.ksh.hu)", "source:population:date": "2016-01-01", "source:postal_code": "A Magyar K\u00f6zt\u00e1rsas\u00e1g Helys\u00e9gn\u00e9vt\u00e1ra, 2009"}}, {"type": "node", "id": 286158978, "lat": 48.1136996, "lon": 21.9252073, "tags": {"ksh_ref": "17756", "name": "Demecser", "name:ru": "\u0414\u0435\u043c\u0435\u0447\u0435\u0440", "place": "town", "population": "4173", "postal_code": "4516", "source:population": "KSH (www.ksh.hu)", "source:population:date": "2016-01-01", "source:postal_code": "Magyar Posta (posta.hu)", "source:postal_code:date": "2009-03-01"}}, {"type": "node", "id": 286167916, "lat": 48.2256872, "lon": 21.9244483, "tags": {"ksh_ref": "14508", "name": "Dombr\u00e1d", "name:ru": "\u0414\u043e\u043c\u0431\u0430\u0440\u0434", "place": "town", "population": "3964", "postal_code": "4492", "source:population": "KSH (www.ksh.hu)", "source:population:date": "2016-01-01", "source:postal_code": "Magyar Posta (posta.hu)", "source:postal_code:date": "2009-03-01"}}, {"type": "node", "id": 480039413, "lat": 48.067926, "lon": 22.1877049, "tags": {"ksh_ref": "12274", "name": "Ny\u00edrmada", "name:ru": "\u041d\u044c\u0438\u0440\u043a\u0430\u0440\u0430\u0441", "place": "town", "population": "4839", "postal_code": "4564", "source:population": "KSH (www.ksh.hu)", "source:population:date": "2016-01-01", "source:postal_code": "A Magyar K\u00f6zt\u00e1rsas\u00e1g Helys\u00e9gn\u00e9vt\u00e1ra, 2009", "wikidata": "Q1073325", "wikipedia": "hu:Ny\u00edrmada"}}, {"type": "node", "id": 739414946, "lat": 48.1778501, "lon": 22.0522301, "tags": {"ksh_ref": "08776", "name": "Ajak", "name:ru": "\u0410\u0439\u044f\u043a", "place": "town", "population": "3709", "postal_code": "4524", "source:population": "KSH (www.ksh.hu)", "source:population:date": "2016-01-01", "source:postal_code": "A Magyar K\u00f6zt\u00e1rsas\u00e1g Helys\u00e9gn\u00e9vt\u00e1ra, 2009"}}, {"type": "node", "id": 268212667, "lat": 48.2257593, "lon": 22.0784247, "tags": {"ksh_ref": "09265", "name": "Kisv\u00e1rda", "name:de": "Kleinwardein", "name:ru": "\u041a\u0438\u0448\u0432\u0430\u0440\u0434\u0430", "name:uk": "\u041a\u0456\u0448\u0432\u0430\u0440\u0434\u0430", "place": "town", "population": "16489", "postal_code": "4600", "source:population": "KSH (www.ksh.hu)", "source:population:date": "2016-01-01", "source:postal_code": "Magyar Posta (posta.hu)", "source:postal_code:date": "2009-03-01", "wikidata": "Q674311"}}, {"type": "node", "id": 286178832, "lat": 47.8626738, "lon": 22.3870647, "tags": {"ksh_ref": "06488", "name": "Nagyecsed", "name:ru": "\u041d\u0430\u0434\u044c\u0435\u0447\u0435\u0434", "name:uk": "\u041d\u0430\u0434\u044c\u0454\u0447\u0435\u0434", "place": "town", "population": "6317", "postal_code": "4355", "source:population": "KSH (www.ksh.hu)", "source:population:date": "2016-01-01", "source:postal_code": "Magyar Posta (posta.hu)", "source:postal_code:date": "2009-03-01", "wikidata": "Q932823"}}, {"type": "node", "id": 286178040, "lat": 47.9539113, "lon": 22.3208477, "tags": {"ksh_ref": "18874", "name": "M\u00e1t\u00e9szalka", "name:de": "Salka", "name:ru": "\u041c\u0430\u0442\u0435\u0441\u0430\u043b\u044c\u043a\u0430", "name:uk": "\u041c\u0430\u0442\u0435\u0441\u0430\u043b\u044c\u043a\u0430", "place": "town", "population": "16864", "postal_code": "4700", "source:population": "KSH (www.ksh.hu)", "source:population:date": "2016-01-01", "source:postal_code": "Magyar Posta (posta.hu)", "source:postal_code:date": "2009-03-01", "wikidata": "Q842976"}}, {"type": "node", "id": 286181035, "lat": 47.9850963, "lon": 22.5167524, "tags": {"ksh_ref": "18971", "name": "Feh\u00e9rgyarmat", "name:ru": "\u0424\u0435\u0445\u0435\u0440\u0434\u044c\u044f\u0440\u043c\u0430\u0442", "place": "town", "population": "8042", "postal_code": "4900", "source:population": "KSH (www.ksh.hu)", "source:population:date": "2016-01-01", "source:postal_code": "Magyar Posta (posta.hu)", "source:postal_code:date": "2009-03-01"}}, {"type": "node", "id": 286187060, "lat": 48.1267635, "lon": 22.312647, "tags": {"ksh_ref": "18324", "name": "V\u00e1s\u00e1rosnam\u00e9ny", "name:de": "Namming", "name:hu": "V\u00e1s\u00e1rosnam\u00e9ny", "name:ru": "\u0412\u0430\u0448\u0430\u0440\u043e\u0448\u043d\u0430\u043c\u0435\u043d\u044c", "place": "town", "population": "8766", "postal_code": "4800", "source:population": "KSH (www.ksh.hu)", "source:population:date": "2016-01-01", "source:postal_code": "Magyar Posta (posta.hu)", "source:postal_code:date": "2009-03-01"}}, {"type": "node", "id": 286178341, "lat": 47.8363678, "lon": 22.6794652, "tags": {"ksh_ref": "30641", "name": "Csenger", "name:ru": "\u0427\u0435\u043d\u0433\u0435\u0440", "place": "town", "population": "4820", "postal_code": "4765", "source:population": "KSH (www.ksh.hu)", "source:population:date": "2016-01-01", "source:postal_code": "Magyar Posta (posta.hu)", "source:postal_code:date": "2009-03-01"}}, {"type": "node", "id": 286985492, "lat": 48.2942607, "lon": 20.4342869, "tags": {"ksh_ref": "27410", "name": "Putnok", "name:ru": "\u041f\u0443\u0442\u043d\u043e\u043a", "name:sk": "Putn\u00edk", "place": "town", "population": "6609", "postal_code": "3630", "source:population": "KSH (www.ksh.hu)", "source:population:date": "2016-01-01", "source:postal_code": "Magyar Posta (posta.hu)", "source:postal_code:date": "2009-03-01"}}, {"type": "node", "id": 245769604, "lat": 48.2544414, "lon": 20.6223251, "tags": {"ksh_ref": "06691", "name": "Kazincbarcika", "name:ru": "\u041a\u0430\u0437\u0438\u043d\u0446\u0431\u0430\u0440\u0446\u0438\u043a\u0430", "name:sk": "Kazinec", "name:uk": "\u041a\u0430\u0437\u0456\u043d\u0446\u0431\u0430\u0440\u0446\u0438\u043a\u0430", "place": "town", "population": "27078", "postal_code": "3700", "source:population": "KSH (www.ksh.hu)", "source:population:date": "2016-01-01", "source:postal_code": "Magyar Posta (posta.hu)", "source:postal_code:date": "2009-03-01", "wikidata": "Q214942"}}, {"type": "node", "id": 248466484, "lat": 48.293613, "lon": 20.7340134, "tags": {"ksh_ref": "10728", "name": "Edel\u00e9ny", "name:de": "Edeling", "name:ru": "\u042d\u0434\u0435\u043b\u0435\u043d\u044c", "name:sk": "Edel\u00edn", "place": "town", "population": "9516", "postal_code": "3780", "source:population": "KSH (www.ksh.hu)", "source:population:date": "2016-01-01", "source:postal_code": "Magyar Posta (posta.hu)", "source:postal_code:date": "2009-03-01"}}, {"type": "node", "id": 286989417, "lat": 48.373781, "lon": 20.6224508, "tags": {"ksh_ref": "23029", "name": "Rudab\u00e1nya", "name:ru": "\u0420\u0443\u0434\u0430\u0431\u0430\u043d\u044c\u044f", "place": "town", "population": "2458", "postal_code": "3733", "source:population": "KSH (www.ksh.hu)", "source:population:date": "2016-01-01", "source:postal_code": "Magyar Posta (posta.hu)", "source:postal_code:date": "2009-03-01"}}, {"type": "node", "id": 286985356, "lat": 48.4030034, "lon": 20.7324798, "tags": {"ksh_ref": "08077", "name": "Szendr\u0151", "name:ru": "\u0421\u0435\u043d\u0434\u0440\u0451", "name:sk": "Sendrov", "name:uk": "\u0421\u0435\u043d\u0434\u0440\u044c\u043e", "place": "town", "population": "4249", "postal_code": "3752", "source:population": "KSH (www.ksh.hu)", "source:population:date": "2016-01-01", "source:postal_code": "Magyar Posta (posta.hu)", "source:postal_code:date": "2009-03-01", "wikidata": "Q590583", "wikipedia": "hu:Szendr\u0151 (Magyarorsz\u00e1g)"}}, {"type": "node", "id": 286982064, "lat": 48.3305743, "lon": 21.1222112, "tags": {"ksh_ref": "33048", "name": "Encs", "name:ru": "\u042d\u043d\u0447", "name:sk": "En\u010da", "name:uk": "\u0415\u043d\u0447", "place": "town", "population": "6297", "postal_code": "3860", "source:population": "KSH (www.ksh.hu)", "source:population:date": "2016-01-01", "source:postal_code": "Magyar Posta (posta.hu)", "source:postal_code:date": "2009-03-01", "wikidata": "Q855060"}}, {"type": "node", "id": 286988415, "lat": 48.278706, "lon": 21.1855002, "tags": {"ksh_ref": "03595", "name": "Aba\u00fajsz\u00e1nt\u00f3", "name:ru": "\u0410\u0431\u0430\u0443\u0439\u0441\u0430\u043d\u0442\u043e", "name:sk": "Abovsk\u00fd Santov", "place": "town", "population": "3021", "postal_code": "3881", "source:population": "KSH (www.ksh.hu)", "source:population:date": "2016-01-01", "source:postal_code": "Magyar Posta (posta.hu)", "source:postal_code:date": "2009-03-01"}}, {"type": "node", "id": 266938720, "lat": 48.4724881, "lon": 21.2726277, "tags": {"ksh_ref": "15936", "name": "G\u00f6nc", "name:de": "Guntz", "name:ru": "\u0413\u0451\u043d\u0446", "name:sk": "Gynec", "name:uk": "\u0490\u044c\u043e\u043d\u0446", "place": "town", "population": "2053", "postal_code": "3895", "source:population": "KSH (www.ksh.hu)", "source:population:date": "2016-01-01", "source:postal_code": "Magyar Posta (posta.hu)", "source:postal_code:date": "2009-03-01", "website": "http://www.gonc.hu/", "wikidata": "Q842967", "wikipedia": "hu:G\u00f6nc"}}, {"type": "node", "id": 286983971, "lat": 48.3216823, "lon": 21.5655524, "tags": {"ele": "112", "ksh_ref": "27474", "name": "S\u00e1rospatak", "name:de": "Patak am Bodrog", "name:ru": "\u0428\u0430\u0440\u043e\u0448\u043f\u0430\u0442\u0430\u043a", "name:sk": "Blatn\u00fd Potok", "name:uk": "\u0428\u0430\u0440\u043e\u0448\u043f\u0430\u0442\u0430\u043a", "place": "town", "population": "12067", "postal_code": "3950", "source:population": "KSH (www.ksh.hu)", "source:population:date": "2016-01-01", "source:postal_code": "Magyar Posta (posta.hu)", "source:postal_code:date": "2009-03-01", "website": "http://www.sarospatak.hu", "wikidata": "Q668318", "wikipedia": "hu:S\u00e1rospatak"}}, {"type": "node", "id": 286984247, "lat": 48.3960978, "lon": 21.6561497, "tags": {"ksh_ref": "05120", "name": "S\u00e1toralja\u00fajhely", "name:de": "Neustadt am Zeltberg", "name:ru": "\u0428\u0430\u0442\u043e\u0440\u0430\u043b\u044c\u044f\u0443\u0439\u0445\u0435\u0439", "name:sk": "Nov\u00e9 Mesto pod \u0160iatrom", "name:uk": "\u0428\u0430\u0442\u043e\u0440\u0430\u043b\u044c\u044f\u0443\u0439\u0445\u0435\u0439", "place": "town", "population": "14703", "postal_code": "3980", "source:population": "KSH (www.ksh.hu)", "source:population:date": "2016-01-01", "source:postal_code": "Magyar Posta (posta.hu)", "source:postal_code:date": "2009-03-01", "wikidata": "Q116417"}}, {"type": "node", "id": 266938649, "lat": 48.4715824, "lon": 21.5110813, "tags": {"ksh_ref": "12362", "name": "P\u00e1lh\u00e1za", "name:ru": "\u041f\u0430\u043b\u044c\u0445\u0430\u0437\u0430", "name:sk": "Palh\u00e1z", "place": "town", "population": "1050", "postal_code": "3994", "source:population": "KSH (www.ksh.hu)", "source:population:date": "2016-01-01", "source:postal_code": "Magyar Posta (posta.hu)", "source:postal_code:date": "2009-03-01", "wikipedia": "hu:P\u00e1lh\u00e1za"}}, {"type": "node", "id": 286988665, "lat": 48.2615593, "lon": 21.8888754, "tags": {"ksh_ref": "03939", "name": "Cig\u00e1nd", "name:ru": "\u0426\u0438\u0433\u0430\u043d\u0434", "place": "town", "population": "3058", "postal_code": "3973", "source:population": "KSH (www.ksh.hu)", "source:population:date": "2016-01-01", "source:postal_code": "Magyar Posta (posta.hu)", "source:postal_code:date": "2009-03-01"}}, {"type": "node", "id": 286183304, "lat": 48.3221462, "lon": 22.1901309, "tags": {"ksh_ref": "17826", "name": "M\u00e1ndok", "name:ru": "\u041c\u0430\u043d\u0434\u043e\u043a", "place": "town", "population": "4094", "postal_code": "4644", "source:population": "KSH (www.ksh.hu)", "source:population:date": "2016-01-01", "source:postal_code": "A Magyar K\u00f6zt\u00e1rsas\u00e1g Helys\u00e9gn\u00e9vt\u00e1ra, 2009"}}, {"type": "node", "id": 286155540, "lat": 48.4063743, "lon": 22.1778835, "tags": {"ksh_ref": "16203", "name": "Z\u00e1hony", "name:be": "\u0417\u0430\u0445\u0430\u043d\u044c", "name:bg": "\u0417\u0430\u0445\u043e\u043d", "name:pl": "Zagony", "name:ru": "\u0417\u0430\u0445\u043e\u043d\u044c", "name:sr": "\u0417\u0430\u0445\u043e\u045a", "name:uk": "\u0417\u0430\u0433\u043e\u043d\u044c", "name:zh": "\u624e\u970d\u5c3c", "place": "town", "population": "4237", "postal_code": "4625", "source:population": "KSH (www.ksh.hu)", "source:population:date": "2016-01-01", "source:postal_code": "A Magyar K\u00f6zt\u00e1rsas\u00e1g Helys\u00e9gn\u00e9vt\u00e1ra, 2009", "wikidata": "Q246723", "wikipedia": "hu:Z\u00e1hony"}}]}