{"type": "FeatureCollection", "features": [{"type": "Feature", "properties": {"type": "node", "id": 192271967, "tags": {"capital": "6", "gnadmin": "ME", "gnfeature": "P", "gnfeaturec": "PPL", "name": "Ulcinj - Ulqin", "name:en": "Ulcinj", "name:it": "Dulcigno", "name:mk": "\u0423\u043b\u0446\u0438\u045a", "name:ru": "\u0423\u043b\u044c\u0446\u0438\u043d\u044c", "name:sq": "Ulqin", "name:sr": "\u0423\u043b\u0446\u0438\u045a", "name:sr-Latn": "Ulcinj", "name:uk": "\u0423\u043b\u0446\u0438\u043d\u044c", "place": "town", "population": "10707", "wikidata": "Q189969", "wikipedia": "en:Ulcinj"}}, "geometry": {"type": "Point", "coordinates": [19.2055563, 41.926012]}}, {"type": "Feature", "properties": {"type": "node", "id": 36258939, "tags": {"capital": "6", "gnadmin": "ME", "gnfeature": "P", "gnfeaturec": "PPL", "name": "Budva", "name:be": "\u0411\u0443\u0434\u0432\u0430", "name:en": "Budva", "name:it": "Budua", "name:ru": "\u0411\u0443\u0434\u0432\u0430", "name:sr": "\u0411\u0443\u0434\u0432\u0430", "name:sr-Latn": "Budva", "name:uk": "\u0411\u0443\u0434\u0432\u0430", "place": "city", "population": "13338", "wikidata": "Q174237"}}, "geometry": {"type": "Point", "coordinates": [18.8419505, 42.2885656]}}, {"type": "Feature", "properties": {"type": "node", "id": 705473322, "tags": {"alt_name:it": "Santa Maria degli Ospizi", "name": "Sutomore", "name:it": "Spizza", "name:mk": "\u0421\u0443\u0442\u043e\u043c\u043e\u0440\u0435", "name:ru": "\u0421\u0443\u0442\u043e\u043c\u043e\u0440\u0435", "name:sq": "Spi\u00e7i", "name:sr": "\u0421\u0443\u0442\u043e\u043c\u043e\u0440\u0435", "name:sr-Latn": "Sutomore", "name:uk": "\u0421\u0443\u0442\u043e\u043c\u043e\u0440\u0435", "place": "town", "population": "1827", "wikidata": "Q685112", "wikipedia": "sr:\u0421\u0443\u0442\u043e\u043c\u043e\u0440\u0435"}}, "geometry": {"type": "Point", "coordinates": [19.0429902, 42.1426733]}}, {"type": "Feature", "properties": {"type": "node", "id": 49875186, "tags": {"alt_name:it": "Antibari", "capital": "6", "gnadmin": "ME", "gnfeature": "P", "gnfeaturec": "PPL", "name": "Bar", "name:ar": "\u0628\u0627\u0631", "name:be": "\u0411\u0430\u0440", "name:bg": "\u0411\u0430\u0440", "name:bs": "Bar", "name:ca": "Bar", "name:ce": "\u0411\u0430\u0440", "name:ceb": "Bar", "name:cs": "Bar", "name:da": "Bar", "name:de": "Bar", "name:el": "\u039c\u03c0\u03b1\u03c1", "name:en": "Bar", "name:es": "Bar", "name:et": "Bar", "name:eu": "Bar", "name:fa": "\u0628\u0627\u0631", "name:fi": "Bar", "name:fo": "Bar", "name:fr": "Bar", "name:gag": "Bar", "name:he": "\u05d1\u05e8", "name:hr": "Bar", "name:hu": "Bar", "name:id": "Bar", "name:is": "Bar", "name:it": "Antivari", "name:ja": "\u30d0\u30fc\u30eb", "name:ka": "\u10d1\u10d0\u10e0\u10d8", "name:kl": "Bar", "name:ko": "\ubc14\ub974", "name:la": "Antibarium", "name:lt": "Baras", "name:mk": "\u0411\u0430\u0440", "name:nb": "Bar", "name:nl": "Bar", "name:nn": "Bar", "name:oc": "Bar", "name:pl": "Bar", "name:pt": "Bar", "name:ro": "Bar", "name:ru": "\u0411\u0430\u0440", "name:sco": "Bar", "name:sh": "Bar", "name:sk": "Bar", "name:sl": "Bar", "name:sq": "Tivari", "name:sr": "\u0411\u0430\u0440", "name:sr-Latn": "Bar", "name:sv": "Bar", "name:tr": "Bar", "name:uk": "\u0411\u0430\u0440", "name:ur": "\u0628\u0627\u0631", "name:zh-Hans": "\u5df4\u5c14", "name:zh-Hant": "\u5df4\u723e", "place": "city", "population": "17727", "wikidata": "Q115276", "wikipedia": "en:Bar, Montenegro"}}, "geometry": {"type": "Point", "coordinates": [19.0954528, 42.0979745]}}, {"type": "Feature", "properties": {"type": "node", "id": 421275620, "tags": {"name": "Stari Bar", "name:it": "Antivari Vecchia", "name:sq": "Tivari i Vjet\u00ebr", "name:sr": "\u0421\u0442\u0430\u0440\u0438 \u0411\u0430\u0440", "place": "town", "population": "1864", "wikidata": "Q1190321", "wikipedia": "sr:\u0421\u0442\u0430\u0440\u0438 \u0411\u0430\u0440"}}, "geometry": {"type": "Point", "coordinates": [19.1338353, 42.093943]}}, {"type": "Feature", "properties": {"type": "node", "id": 705456583, "tags": {"alt_name": "Petrovac", "alt_name:it": "Castel Lastua", "int_name": "Petrovac", "name": "Petrovac na Moru", "name:it": "Castellastua", "name:ru": "\u041f\u0435\u0442\u0440\u043e\u0432\u0430\u0446", "name:sr": "\u041f\u0435\u0442\u0440\u043e\u0432\u0430\u0446 \u043d\u0430 \u041c\u043e\u0440\u0443", "name:sr-Latn": "Petrovac na Moru", "name:uk": "\u041f\u0435\u0442\u0440\u043e\u0432\u0430\u0446 \u043d\u0430 \u041c\u043e\u0440\u0443", "place": "town", "population": "1485", "wikidata": "Q990088", "wikipedia": "en:Petrovac, Budva"}}, "geometry": {"type": "Point", "coordinates": [18.9428248, 42.2068358]}}, {"type": "Feature", "properties": {"type": "node", "id": 422867965, "tags": {"name": "Sveti Stefan", "name:en": "Sveti Stefan", "name:lt": "Sveti Stefanas", "name:ru": "\u0421\u0432\u0435\u0442\u0438-\u0421\u0442\u0435\u0444\u0430\u043d", "name:sr": "\u0421\u0432\u0435\u0442\u0438 \u0421\u0442\u0435\u0444\u0430\u043d", "name:sr-Latn": "Sveti Stefan", "name:uk": "\u0421\u0432\u0454\u0442\u0456-\u0421\u0442\u0435\u0444\u0430\u043d", "place": "town", "population": "364", "wikidata": "Q844192", "wikipedia": "sr:\u0421\u0432\u0435\u0442\u0438 \u0421\u0442\u0435\u0444\u0430\u043d (\u043e\u0441\u0442\u0440\u0432\u043e)"}}, "geometry": {"type": "Point", "coordinates": [18.8979757, 42.25478]}}, {"type": "Feature", "properties": {"type": "node", "id": 529467160, "tags": {"name": "Rijeka Crnojevi\u0107a", "name:sr": "\u0420\u0438\u0458\u0435\u043a\u0430 \u0426\u0440\u043d\u043e\u0458\u0435\u0432\u0438\u045b\u0430", "place": "town"}}, "geometry": {"type": "Point", "coordinates": [19.0230118, 42.3562537]}}, {"type": "Feature", "properties": {"type": "node", "id": 192272840, "tags": {"name": "Virpazar", "name:en": "Virpazar", "name:it": "Viro", "name:ru": "\u0412\u0438\u0440\u043f\u0430\u0437\u0430\u0440", "name:sq": "Viri", "name:sr": "\u0412\u0438\u0440\u043f\u0430\u0437\u0430\u0440", "name:sr-Latn": "Virpazar", "place": "town", "population": "337", "wikidata": "Q1027457", "wikipedia": "sr:\u0412\u0438\u0440\u043f\u0430\u0437\u0430\u0440"}}, "geometry": {"type": "Point", "coordinates": [19.0906057, 42.2462724]}}, {"type": "Feature", "properties": {"type": "node", "id": 1927167868, "tags": {"name": "Golubovci", "name:en": "Golubovci", "name:hr": "Golubovci", "name:lt": "Golubovcai", "name:sq": "Golluboci", "name:sr": "\u0413\u043e\u043b\u0443\u0431\u043e\u0432\u0446\u0438", "name:sr-Latn": "Golubovci", "place": "town", "population": "3110", "wikidata": "Q1190698", "wikipedia": "en:Golubovci"}}, "geometry": {"type": "Point", "coordinates": [19.2342145, 42.3350267]}}, {"type": "Feature", "properties": {"type": "node", "id": 1693756765, "tags": {"alt_name:sq": "Tuz", "name": "Tuzi", "name:en": "Tuzi", "name:ru": "\u0422\u0443\u0437\u0438", "name:sq": "Tuzi", "name:sr": "\u0422\u0443\u0437\u0438", "name:sr-Latn": "Tuzi", "place": "town", "population": "4748", "wikidata": "Q991302", "wikipedia": "en:Tuzi"}}, "geometry": {"type": "Point", "coordinates": [19.3301531, 42.3663286]}}, {"type": "Feature", "properties": {"type": "node", "id": 123858919, "tags": {"alt_name:it": "Castelnuovo in Dalmazia", "capital": "6", "gnadmin": "ME", "gnfeature": "P", "gnfeaturec": "PPL", "name": "Herceg Novi", "name:bg": "\u0425\u0435\u0440\u0446\u0435\u0433 \u041d\u043e\u0432\u0438", "name:bs": "Herceg Novi", "name:el": "\u03a7\u03ad\u03c1\u03c4\u03c3\u03b5\u03b3\u03ba \u039d\u03cc\u03b2\u03b9", "name:en": "Herceg Novi", "name:fr": "Herceg Novi", "name:hr": "Herceg Novi", "name:hu": "Herceg Novi", "name:it": "Castelnuovo di Cattaro", "name:lt": "Herceg Novis", "name:mk": "\u0425\u0435\u0440\u0446\u0435\u0433 \u041d\u043e\u0432\u0438", "name:ro": "Herceg Novi", "name:ru": "\u0425\u0435\u0440\u0446\u0435\u0433-\u041d\u043e\u0432\u0438", "name:sh": "Herceg Novi", "name:sk": "Herceg Novi", "name:sl": "Hercegnovi", "name:sq": "Herceg Novi", "name:sr": "\u0425\u0435\u0440\u0446\u0435\u0433 \u041d\u043e\u0432\u0438", "name:sr-Latn": "Herceg Novi", "name:uk": "\u0425\u0435\u0440\u0446\u0435\u0433-\u041d\u043e\u0432\u0438\u0439", "place": "town", "population": "12739", "short_name:it": "Castelnuovo", "wikidata": "Q193103", "wikipedia": "en:Herceg Novi"}}, "geometry": {"type": "Point", "coordinates": [18.5368202, 42.4511125]}}, {"type": "Feature", "properties": {"type": "node", "id": 1435479087, "tags": {"name": "Igalo", "name:bs": "Igalo", "name:el": "\u038a\u03b3\u03ba\u03b1\u03bb\u03bf", "name:en": "Igalo", "name:fr": "Igalo", "name:hr": "Igalo", "name:it": "Igalo", "name:mk": "\u0418\u0433\u0430\u043b\u043e", "name:ro": "Igalo", "name:ru": "\u0418\u0433\u0430\u043b\u043e", "name:sh": "Igalo", "name:sl": "Igalo", "name:sr": "\u0418\u0433\u0430\u043b\u043e", "name:sr-Latn": "Igalo", "name:uk": "\u0406\u0445\u0430\u043b\u043e", "place": "town", "population": "3754", "wikidata": "Q742111", "wikipedia": "sr:\u0418\u0433\u0430\u043b\u043e"}}, "geometry": {"type": "Point", "coordinates": [18.5134426, 42.4596368]}}, {"type": "Feature", "properties": {"type": "node", "id": 428001652, "tags": {"name": "Zelenika", "name:en": "Zelenika", "name:it": "Zelenica", "name:ru": "\u0417\u0435\u043b\u0435\u043d\u0438\u043a\u0430", "name:sr": "\u0417\u0435\u043b\u0435\u043d\u0438\u043a\u0430", "name:sr-Latn": "Zelenika", "name:uk": "\u0417\u0435\u043b\u0435\u043d\u0456\u043a\u0430", "place": "town", "population": "1788", "wikidata": "Q187381", "wikipedia": "sr:Zelenika"}}, "geometry": {"type": "Point", "coordinates": [18.5749862, 42.4509936]}}, {"type": "Feature", "properties": {"type": "node", "id": 255260894, "tags": {"name": "Bijela", "name:bs": "Bijela", "name:en": "Bijela", "name:fr": "Bijela", "name:hr": "Bijela", "name:ro": "Bijela", "name:ru": "\u0411\u0438\u0435\u043b\u0430", "name:sh": "Bijela", "name:sl": "Bijela", "name:sr": "\u0411\u0438\u0458\u0435\u043b\u0430", "name:sr-Latn": "Bijela", "name:uk": "\u0411\u0456\u0454\u043b\u0430", "place": "town", "population": "3691", "wikidata": "Q2027553", "wikipedia": "sr:\u0411\u0438\u0458\u0435\u043b\u0430 (\u0425\u0435\u0440\u0446\u0435\u0433 \u041d\u043e\u0432\u0438)"}}, "geometry": {"type": "Point", "coordinates": [18.6542346, 42.4544318]}}, {"type": "Feature", "properties": {"type": "node", "id": 308687242, "tags": {"admin_level": "8", "capital": "6", "gnadmin": "ME", "gnfeature": "P", "gnfeaturec": "PPL", "name": "Tivat", "name:en": "Tivat", "name:it": "Teodo", "name:lt": "Tivatas", "name:ru": "\u0422\u0438\u0432\u0430\u0442", "name:sr": "\u0422\u0438\u0432\u0430\u0442", "name:sr-Latn": "Tivat", "name:uk": "\u0422\u0438\u0432\u0430\u0442", "place": "town", "population": "9467", "population:date": "2005", "wikidata": "Q223469", "wikipedia": "fr:Tivat"}}, "geometry": {"type": "Point", "coordinates": [18.7000949, 42.4288801]}}, {"type": "Feature", "properties": {"type": "node", "id": 2260119605, "tags": {"name": "Donja Lastva", "name:it": "Lastua Inferiore", "name:sr": "\u0414\u043e\u045a\u0430 \u041b\u0430\u0441\u0442\u0432\u0430", "place": "town", "population": "751"}}, "geometry": {"type": "Point", "coordinates": [18.6900079, 42.444084]}}, {"type": "Feature", "properties": {"type": "node", "id": 705225047, "tags": {"name": "Pr\u010danj", "name:it": "Perzagno", "name:ru": "\u041f\u0440\u0447\u0430\u043d\u044c", "name:sr": "\u041f\u0440\u0447\u0430\u045a", "place": "town", "population": "1130"}}, "geometry": {"type": "Point", "coordinates": [18.753071, 42.4490017]}}, {"type": "Feature", "properties": {"type": "node", "id": 705026141, "tags": {"alt_name:it": "Bonentro;Sant'Eustachio", "name": "Dobrota", "name:en": "Dobrota", "name:it": "Dobrota", "name:ru": "\u0414\u043e\u0431\u0440\u043e\u0442\u0430", "name:sr": "\u0414\u043e\u0431\u0440\u043e\u0442\u0430", "name:uk": "\u0414\u043e\u0431\u0440\u043e\u0442\u0430", "place": "town", "population": "8169", "wikidata": "Q1008132", "wikipedia": "en:Dobrota"}}, "geometry": {"type": "Point", "coordinates": [18.7648257, 42.4662164]}}, {"type": "Feature", "properties": {"type": "node", "id": 29052086, "tags": {"capital": "6", "gnadmin": "ME", "gnfeature": "P", "gnfeaturec": "PPL", "name": "Kotor", "name:it": "Cattaro", "name:ru": "\u041a\u043e\u0442\u043e\u0440", "name:sr": "\u041a\u043e\u0442\u043e\u0440", "name:uk": "\u041a\u043e\u0442\u043e\u0440", "place": "town", "population": "13176", "postal_code": "85339", "wikidata": "Q171080", "wikipedia": "fr:Kotor"}}, "geometry": {"type": "Point", "coordinates": [18.7710437, 42.4248515]}}, {"type": "Feature", "properties": {"type": "node", "id": 48069998, "tags": {"name": "Perast", "name:it": "Perasto", "name:ru": "\u041f\u0435\u0440\u0430\u0441\u0442", "name:sr": "\u041f\u0435\u0440\u0430\u0441\u0442", "place": "town", "population": "349", "wikidata": "Q998789", "wikipedia": "sr:\u041f\u0435\u0440\u0430\u0441\u0442"}}, "geometry": {"type": "Point", "coordinates": [18.6988592, 42.4862681]}}, {"type": "Feature", "properties": {"type": "node", "id": 425487395, "tags": {"name": "Risan", "name:it": "Risano", "name:pl": "NG piekna wioska", "name:ru": "\u0420\u0438\u0441\u0430\u043d", "name:sr": "\u0420\u0438\u0441\u0430\u043d", "name:uk": "\u0420\u0456\u0441\u0430\u043d", "place": "town", "population": "2034"}}, "geometry": {"type": "Point", "coordinates": [18.6955649, 42.5149792]}}, {"type": "Feature", "properties": {"type": "node", "id": 255351379, "tags": {"alt_name:sq": "Cetina", "capital": "6", "ele": "650", "gnadmin": "ME", "gnfeature": "P", "gnfeaturec": "PPL", "name": "Cetinje", "name:be": "\u0426\u044d\u0446\u0456\u043d\u0435", "name:en": "Cetinje", "name:hr": "Cetinje", "name:it": "Cettigne", "name:ru": "\u0426\u0435\u0442\u0438\u043d\u0435", "name:sq": "\u00c7etina", "name:sr": "\u0426\u0435\u0442\u0438\u045a\u0435", "name:sr-Latn": "Cetinje", "name:uk": "\u0426\u0435\u0442\u0438\u043d\u0454", "place": "city", "population": "15137", "population:date": "2005", "wikidata": "Q173338", "wikipedia": "fr:Cetinje"}}, "geometry": {"type": "Point", "coordinates": [18.9246085, 42.389633]}}, {"type": "Feature", "properties": {"type": "node", "id": 123860883, "tags": {"admin_level": "2", "capital": "yes", "ele": "48", "gnadmin": "ME", "gnfeature": "P", "gnfeaturec": "PPL", "is_in:country": "Montenegro", "name": "Podgorica", "name:am": "\u1356\u12f5\u130e\u122a\u133b", "name:ar": "\u0628\u0648\u062f\u063a\u0648\u0631\u064a\u062a\u0633\u0627", "name:ast": "Podgorica", "name:az": "Podqoritsa", "name:be": "\u041f\u0430\u0434\u0433\u043e\u0440\u044b\u0446\u0430", "name:be-tarask": "\u041f\u0430\u0434\u0433\u043e\u0440\u044b\u0446\u0430", "name:bg": "\u041f\u043e\u0434\u0433\u043e\u0440\u0438\u0446\u0430", "name:ckb": "\u067e\u06c6\u062f\u06af\u06c6\u0631\u06cc\u0633\u0627", "name:cu": "\u041f\u043e\u0434\u044a\u0433\u043e\u0440\u0438\u0446\u0430", "name:cv": "\u041f\u043e\u0434\u0433\u043e\u0440\u0438\u0446\u0430", "name:de": "Podgorica", "name:diq": "Podgorika", "name:el": "\u03a0\u03bf\u03bd\u03c4\u03b3\u03ba\u03cc\u03c1\u03b9\u03c4\u03c3\u03b1", "name:en": "Podgorica", "name:eo": "Podgorico", "name:es": "Podgorica", "name:fa": "\u067e\u0648\u062f\u06af\u0648\u0631\u06cc\u062a\u0633\u0627", "name:fr": "Podgorica", "name:fy": "Podgorytsa", "name:ga": "Podgair\u00edtse", "name:gl": "Podgorica", "name:he": "\u05e4\u05d5\u05d3\u05d2\u05d5\u05e8\u05d9\u05e6\u05d4", "name:hu": "Podgorica", "name:hy": "\u054a\u0578\u0564\u0563\u0578\u0580\u056b\u0581\u0561", "name:is": "Podgorica", "name:it": "Podgorizza", "name:ja": "\u30dd\u30c9\u30b4\u30ea\u30c4\u30a1", "name:ka": "\u10de\u10dd\u10d3\u10d2\u10dd\u10e0\u10d8\u10ea\u10d0", "name:kk": "\u041f\u043e\u0434\u0433\u043e\u0440\u0438\u0446\u0430", "name:ko": "\ud3ec\ub4dc\uace0\ub9ac\ucc28", "name:ku": "Podgorica", "name:la": "Birziminium", "name:mhr": "\u041f\u043e\u0434\u0433\u043e\u0440\u0438\u0446\u0430", "name:mk": "\u041f\u043e\u0434\u0433\u043e\u0440\u0438\u0446\u0430", "name:mr": "\u092a\u0949\u0921\u0917\u094b\u0930\u093f\u0915\u093e", "name:nah": "Podgoritza", "name:no": "Podgorica", "name:nov": "Podgoritsa", "name:os": "\u041f\u043e\u0434\u0433\u043e\u0440\u0438\u0446\u00e6", "name:pl": "Podgorica", "name:ru": "\u041f\u043e\u0434\u0433\u043e\u0440\u0438\u0446\u0430", "name:sah": "\u041f\u043e\u0434\u0433\u043e\u0440\u0438\u0446\u0430", "name:scn": "Podg\u00f2rica", "name:sh": "Podgorica", "name:sl": "Podgorica", "name:sr": "\u041f\u043e\u0434\u0433\u043e\u0440\u0438\u0446\u0430", "name:sr-Latn": "Podgorica", "name:sv": "Podgorica", "name:ta": "\u0baa\u0ba4\u0bcd\u0b95\u0bb0\u0bc0\u0ba4\u0bcd\u0b9a\u0bbe", "name:tg": "\u041f\u043e\u0434\u0433\u043e\u0440\u0438\u0442\u0441\u0430", "name:th": "\u0e1e\u0e2d\u0e14\u0e01\u0e2d\u0e23\u0e35\u0e15\u0e0b\u0e32", "name:tr": "Podgoritsa", "name:uk": "\u041f\u043e\u0434\u0433\u043e\u0440\u0438\u0446\u044f", "name:ur": "\u067e\u0648\u0688\u06af\u0648\u0631\u06cc\u06a9\u0627", "name:vi": "Podgorica", "name:wo": "Podgorika", "name:zh": "\u6ce2\u5fb7\u6208\u91cc\u5bdf", "old_name": "Titograd", "old_name:bs": "Titograd", "old_name:de": "Titograd;Podgoritza", "old_name:fr": "Titograde;Podgoritsa", "old_name:hr": "Titograd", "old_name:it": "Titogrado", "old_name:sh": "Titograd", "old_name:sr": "\u0422\u0438\u0442\u043e\u0433\u0440\u0430\u0434", "old_name:sr-Latn": "Titograd", "old_name:vi": "Titograd", "place": "city", "population": "150799", "population:date": "2011", "wikidata": "Q23564", "wikipedia": "en:Podgorica"}}, "geometry": {"type": "Point", "coordinates": [19.2621081, 42.4415238]}}, {"type": "Feature", "properties": {"type": "node", "id": 426878932, "tags": {"admin_level": "8", "capital": "6", "gnadmin": "ME", "gnfeature": "P", "gnfeaturec": "PPL", "name": "Danilovgrad", "name:en": "Danilovgrad", "name:lt": "Danilovgradas", "name:ru": "\u0414\u0430\u043d\u0438\u043b\u043e\u0432\u0433\u0440\u0430\u0434", "name:sr": "\u0414\u0430\u043d\u0438\u043b\u043e\u0432\u0433\u0440\u0430\u0434", "name:sr-Latn": "Danilovgrad", "name:uk": "\u0414\u0430\u043d\u0438\u043b\u043e\u0432\u0433\u0440\u0430\u0434", "place": "town", "population": "5208", "wikidata": "Q3741507"}}, "geometry": {"type": "Point", "coordinates": [19.1042769, 42.5499513]}}, {"type": "Feature", "properties": {"type": "node", "id": 255351703, "tags": {"capital": "6", "ele": "640", "gnadmin": "ME", "gnfeature": "P", "gnfeaturec": "PPL", "name": "Nik\u0161i\u0107", "name:cs": "Nik\u0161i\u0107", "name:en": "Nik\u0161i\u0107", "name:lt": "Nik\u0161i\u010dius", "name:ru": "\u041d\u0438\u043a\u0448\u0438\u0447", "name:sr": "\u041d\u0438\u043a\u0448\u0438\u045b", "name:sr-Latn": "Nik\u0161i\u0107", "name:uk": "\u041d\u0438\u043a\u0448\u0438\u0447", "place": "city", "population": "56970", "population:date": "2005", "wikidata": "Q200733", "wikipedia": "sr:Nik\u0161i\u0107"}}, "geometry": {"type": "Point", "coordinates": [18.9488746, 42.7739559]}}, {"type": "Feature", "properties": {"type": "node", "id": 255352645, "tags": {"admin_level": "8", "capital": "6", "gnadmin": "ME", "gnfeature": "P", "gnfeaturec": "PPL", "name": "Plu\u017eine", "name:ru": "\u041f\u043b\u0443\u0436\u0438\u043d\u0435", "name:sr": "\u041f\u043b\u0443\u0436\u0438\u043d\u0435", "place": "town", "population": "1494", "population:date": "2003", "wikidata": "Q390605", "wikipedia": "fr:Plu\u017eine"}}, "geometry": {"type": "Point", "coordinates": [18.8452248, 43.1562282]}}, {"type": "Feature", "properties": {"type": "node", "id": 717568839, "tags": {"admin_level": "8", "capital": "6", "gnadmin": "ME", "gnfeature": "P", "gnfeaturec": "PPL", "int_name": "Savnik", "name": "\u0160avnik", "name:ru": "\u0428\u0430\u0432\u043d\u0438\u043a", "name:sr": "\u0428\u0430\u0432\u043d\u0438\u043a", "name:sr-Latn": "\u0160avnik", "place": "town", "population": "570", "population:date": "2003", "wikidata": "Q837219", "wikipedia": "fr:\u0160avnik"}}, "geometry": {"type": "Point", "coordinates": [19.0946043, 42.957197]}}, {"type": "Feature", "properties": {"type": "node", "id": 289851953, "tags": {"capital": "6", "gnadmin": "ME", "gnfeature": "P", "gnfeaturec": "PPL", "name": "\u017dabljak", "name:ru": "\u0416\u0430\u0431\u043b\u044f\u043a", "name:sq": "Zhabljakut", "name:sr": "\u0416\u0430\u0431\u0459\u0430\u043a", "name:tr": "Yabliyak", "name:uk": "\u0416\u0430\u0431\u043b\u044f\u043a", "place": "town", "population": "1723", "wikidata": "Q393309", "wikipedia": "sr:\u0416\u0430\u0431\u0459\u0430\u043a"}}, "geometry": {"type": "Point", "coordinates": [19.1208669, 43.1550532]}}, {"type": "Feature", "properties": {"type": "node", "id": 1927167879, "tags": {"admin_level": "8", "capital": "6", "ele": "1014", "gnadmin": "ME", "gnfeature": "P", "gnfeaturec": "PPL", "name": "Gusinje", "name:bg": "\u0413\u0443\u0441\u0438\u043d\u0435", "name:cs": "Gusinje", "name:de": "Gusinje", "name:en": "Gusinje", "name:es": "Gusinje", "name:fr": "Gusinje", "name:it": "Gusinje", "name:mk": "\u0413\u0443\u0441\u0438\u045a\u0435", "name:pl": "Gusinje", "name:ro": "Gusinje", "name:ru": "\u0413\u0443\u0441\u0438\u043d\u0435", "name:sh": "Gusinje", "name:sl": "Gusinje", "name:sq": "Gucia", "name:sr": "\u0413\u0443\u0441\u0438\u045a\u0435", "name:sr-Latn": "Gusinje", "name:uk": "\u0413\u0443\u0441\u0456\u043d\u044c\u0454", "place": "town", "population": "1704", "wikidata": "Q1555366"}}, "geometry": {"type": "Point", "coordinates": [19.833253, 42.5637693]}}, {"type": "Feature", "properties": {"type": "node", "id": 335730547, "tags": {"admin_level": "8", "capital": "6", "gnadmin": "ME", "gnfeature": "P", "gnfeaturec": "PPL", "int_name": "Andrijevica", "name": "Andrijevica", "name:en": "Andrijevica", "name:ru": "\u0410\u043d\u0434\u0440\u0438\u0435\u0432\u0438\u0446\u0430", "name:sr": "\u0410\u043d\u0434\u0440\u0438\u0458\u0435\u0432\u0438\u0446\u0430", "name:sr-Latn": "Andrijevica", "name:uk": "\u0410\u043d\u0434\u0440\u0456\u0454\u0432\u0456\u0446\u0430", "place": "town", "population": "1073", "wikidata": "Q242059"}}, "geometry": {"type": "Point", "coordinates": [19.7915337, 42.7339909]}}, {"type": "Feature", "properties": {"type": "node", "id": 335731660, "tags": {"capital": "6", "gnadmin": "ME", "gnfeature": "P", "gnfeaturec": "PPL", "int_name": "Plav", "name": "Plav", "name:be": "\u041f\u043b\u0430\u045e", "name:en": "Plav", "name:mk": "\u041f\u043b\u0430\u0432", "name:ru": "\u041f\u043b\u0430\u0432", "name:sr": "\u041f\u043b\u0430\u0432", "name:sr-Latn": "Plav", "name:uk": "\u041f\u043b\u0430\u0432", "place": "town", "population": "3615", "wikidata": "Q211195", "wikipedia": "en:Plav, Montenegro"}}, "geometry": {"type": "Point", "coordinates": [19.9441846, 42.5968969]}}, {"type": "Feature", "properties": {"type": "node", "id": 289905750, "tags": {"admin_level": "8", "capital": "6", "gnadmin": "ME", "gnfeature": "P", "gnfeaturec": "PPL", "int_name": "Kolasin", "name": "Kola\u0161in", "name:fr": "Kola\u0161in", "name:ru": "\u041a\u043e\u043b\u0430\u0448\u0438\u043d", "name:sr": "\u041a\u043e\u043b\u0430\u0448\u0438\u043d", "name:uk": "\u041a\u043e\u043b\u0430\u0448\u0438\u043d", "place": "town", "population": "2989", "population:date": "2003", "wikidata": "Q498895", "wikipedia": "fr:Kola\u0161in"}}, "geometry": {"type": "Point", "coordinates": [19.5216941, 42.8236455]}}, {"type": "Feature", "properties": {"type": "node", "id": 313120480, "tags": {"admin_level": "8", "capital": "6", "gnadmin": "ME", "gnfeature": "P", "gnfeaturec": "PPL", "name": "Mojkovac", "name:ru": "\u041c\u043e\u0439\u043a\u043e\u0432\u0430\u0446", "name:sr": "\u041c\u043e\u0458\u043a\u043e\u0432\u0430\u0446", "place": "town", "population": "4120", "wikidata": "Q3299782"}}, "geometry": {"type": "Point", "coordinates": [19.5793591, 42.9618618]}}, {"type": "Feature", "properties": {"type": "node", "id": 320443766, "tags": {"admin_level": "8", "capital": "6", "gnadmin": "ME", "gnfeature": "P", "gnfeaturec": "PPL", "name": "Berane", "name:en": "Berane", "name:ru": "\u0411\u0435\u0440\u0430\u043d\u0435", "name:sr": "\u0411\u0435\u0440\u0430\u043d\u0435", "name:uk": "\u0411\u0435\u0440\u0430\u043d\u0435", "place": "town", "population": "11776", "population:date": "2003", "wikidata": "Q208200", "wikipedia": "fr:Berane"}}, "geometry": {"type": "Point", "coordinates": [19.8740451, 42.846826]}}, {"type": "Feature", "properties": {"type": "node", "id": 338462696, "tags": {"admin_level": "8", "capital": "6", "ele": "851", "gnadmin": "ME", "gnfeature": "P", "gnfeaturec": "PPL", "name": "Petnjica", "name:bg": "\u041f\u0435\u0442\u043d\u0438\u0446\u0430", "name:bs": "Petnjica", "name:cs": "Petjnica", "name:de": "Petjnica", "name:en": "Petnjica", "name:es": "Petnjica", "name:fr": "Petjnica", "name:it": "Petjnica", "name:ro": "Petnjica", "name:ru": "\u041f\u0435\u0442\u043d\u0438\u0446\u0430", "name:sh": "Petnjica", "name:sl": "Petjnica", "name:sr": "\u041f\u0435\u0442\u045a\u0438\u0446\u0430", "name:sr-Latn": "Petnjica", "name:uk": "\u041f\u0435\u0442\u043d'\u0457\u0446\u044f", "place": "town", "population": "565", "wikidata": "Q1700305"}}, "geometry": {"type": "Point", "coordinates": [19.963806, 42.9092162]}}, {"type": "Feature", "properties": {"type": "node", "id": 5352502635, "tags": {"name": "Rakonje", "name:sr": "\u0420\u0430\u043a\u043e\u045a\u0435", "place": "town", "population": "2291"}}, "geometry": {"type": "Point", "coordinates": [19.7339961, 43.0208838]}}, {"type": "Feature", "properties": {"type": "node", "id": 313119774, "tags": {"capital": "6", "ele": "578", "gnadmin": "ME", "gnfeature": "P", "gnfeaturec": "PPL", "name": "Bijelo Polje", "name:ru": "\u0411\u0438\u0435\u043b\u043e-\u041f\u043e\u043b\u0435", "name:sr": "\u0411\u0438\u0458\u0435\u043b\u043e \u041f\u043e\u0459\u0435", "name:sr-Latn": "Bijelo Polje", "name:uk": "\u0411\u0456\u0454\u043b\u043e-\u041f\u043e\u043b\u0454", "place": "city", "population": "15883", "population:date": "2003", "wikidata": "Q207470", "wikipedia": "sr:\u0411\u0438\u0458\u0435\u043b\u043e \u041f\u043e\u0459\u0435"}}, "geometry": {"type": "Point", "coordinates": [19.7469527, 43.0337081]}}, {"type": "Feature", "properties": {"type": "node", "id": 7004067126, "tags": {"name": "Lje\u0161nica", "name:sr": "\u0409\u0435\u0448\u043d\u0438\u0446\u0430", "place": "town", "population": "1546"}}, "geometry": {"type": "Point", "coordinates": [19.7344664, 43.0430728]}}, {"type": "Feature", "properties": {"type": "node", "id": 4011182448, "tags": {"name": "Loznica", "name:sr": "\u041b\u043e\u0437\u043d\u0438\u0446\u0435", "place": "town", "population": "1296"}}, "geometry": {"type": "Point", "coordinates": [19.760516, 43.0358179]}}, {"type": "Feature", "properties": {"type": "node", "id": 4153480982, "tags": {"name": "Nedakusi", "name:sr": "\u041d\u0435\u0434\u0430\u043a\u0443\u0441\u0438", "place": "town", "population": "2158"}}, "geometry": {"type": "Point", "coordinates": [19.7678681, 43.0555413]}}, {"type": "Feature", "properties": {"type": "node", "id": 4009040227, "tags": {"name": "Rasovo", "name:sr": "\u0420\u0430\u0441\u043e\u0432\u043e", "place": "town", "population": "578"}}, "geometry": {"type": "Point", "coordinates": [19.7857084, 43.0588378]}}, {"type": "Feature", "properties": {"type": "node", "id": 4008105121, "tags": {"name": "Potkrajci", "name:sr": "\u041f\u043e\u0442\u043a\u0440\u0430\u0458\u0446\u0438", "place": "town", "population": "1066"}}, "geometry": {"type": "Point", "coordinates": [19.7748504, 43.0751259]}}, {"type": "Feature", "properties": {"type": "node", "id": 307861977, "tags": {"admin_level": "8", "alt_name": "Rozaje", "capital": "6", "geonameid": "786234", "gnadmin": "ME", "gnfeature": "P", "gnfeaturec": "PPL", "name": "Ro\u017eaje", "name:ru": "\u0420\u043e\u0436\u0430\u0435", "name:sr": "\u0420\u043e\u0436\u0430\u0458\u0435", "place": "town", "population": "22693", "wikidata": "Q506775"}}, "geometry": {"type": "Point", "coordinates": [20.1659665, 42.8416663]}}, {"type": "Feature", "properties": {"type": "node", "id": 2388129895, "tags": {"name": "Gradac", "name:sr": "\u0413\u0440\u0430\u0434\u0430\u0446", "place": "town", "population": "296", "wikidata": "Q3113073", "wikipedia": "sr:\u0413\u0440\u0430\u0434\u0430\u0446 (\u041f\u0459\u0435\u0432\u0459\u0430)"}}, "geometry": {"type": "Point", "coordinates": [19.1532752, 43.3946117]}}, {"type": "Feature", "properties": {"type": "node", "id": 292101644, "tags": {"admin_level": "8", "capital": "6", "gnadmin": "ME", "gnfeature": "P", "gnfeaturec": "PPL", "name": "Pljevlja", "name:de": "Pljevlja", "name:en": "Pljevlja", "name:ru": "\u041f\u043b\u0435\u0432\u043b\u044f", "name:sr": "\u041f\u0459\u0435\u0432\u0459\u0430", "name:uk": "\u041f\u043b\u0454\u0432\u043b\u044f", "place": "city", "population": "27000", "wikidata": "Q211343", "wikipedia": "fr:Pljevlja"}}, "geometry": {"type": "Point", "coordinates": [19.3584715, 43.3565611]}}]}