{"version": 0.6, "generator": "Overpass API 0.7.56.7 b85c4387", "osm3s": {"timestamp_osm_base": "2021-03-01T12:21:42Z", "timestamp_areas_base": "2021-03-01T11:15:19Z", "copyright": "The data included in this document is from www.openstreetmap.org. The data is made available under ODbL."}, "elements": [{"type": "node", "id": 50033577, "lat": 12.1066695, "lon": -68.9351307, "tags": {"capital": "3", "is_capital": "territory", "name": "Willemstad", "name:ar": "\u064a\u0644\u0645\u0633\u062a\u0627\u062f", "name:az": "Villem\u015ftad", "name:be": "\u0412\u0456\u043b\u0435\u043c\u0441\u0442\u0430\u0434", "name:be-tarask": "\u0412\u0456\u043b\u0435\u043c\u0441\u0442\u0430\u0434", "name:bg": "\u0412\u0438\u043b\u0435\u043c\u0441\u0442\u0430\u0434", "name:el": "\u0392\u03af\u03bb\u03bb\u03b5\u03bc\u03c3\u03c4\u03b1\u03bd\u03c4", "name:en": "Willemstad", "name:eo": "Vilemstado", "name:fr": "Willemstad", "name:fy": "Willemst\u00ead", "name:he": "\u05d5\u05d9\u05dc\u05de\u05e1\u05d8\u05d0\u05d3", "name:hu": "Willemstad", "name:ja": "\u30a6\u30a3\u30ec\u30e0\u30b9\u30bf\u30c3\u30c9", "name:ka": "\u10d5\u10d8\u10da\u10d4\u10db\u10e1\u10e2\u10d0\u10d3\u10d8", "name:ko": "\ube4c\ub818\uc2a4\ud0c0\ud2b8", "name:lt": "Vilemstadas", "name:mk": "\u0412\u0438\u043b\u0435\u043c\u0441\u0442\u0430\u0434", "name:mr": "\u0935\u093f\u0932\u0947\u092e\u0936\u094d\u091f\u093e\u0921", "name:os": "\u0412\u0438\u043b\u043b\u0435\u043c\u0441\u0442\u0430\u0434", "name:ru": "\u0412\u0438\u043b\u043b\u0435\u043c\u0441\u0442\u0430\u0434", "name:sr": "\u0412\u0438\u043b\u0435\u043c\u0441\u0442\u0430\u0434", "name:sv": "Willemstad", "name:th": "\u0e27\u0e34\u0e25\u0e40\u0e25\u0e21\u0e2a\u0e15\u0e31\u0e14", "name:uk": "\u0412\u0456\u043b\u043b\u0435\u043c\u0441\u0442\u0430\u0434", "name:ur": "\u0648\u06cc\u0644\u0645\u0633\u0679\u06cc\u0688", "name:zh": "\u5a01\u5ec9\u65af\u5854\u5fb7", "place": "town", "population": "140000", "wikidata": "Q132679", "wikipedia": "nl:Willemstad (Cura\u00e7ao)"}}, {"type": "node", "id": 3815721257, "lat": 12.4361328, "lon": -69.9094505, "tags": {"name": "San Nicolaas", "name:mk": "\u0421\u0430\u043d \u041d\u0438\u043a\u043e\u043b\u0430\u0441", "name:nl": "Sint Nicolaas", "place": "town", "population": "18000", "wikidata": "Q2605285", "wikipedia": "en:San Nicolaas"}}, {"type": "node", "id": 6596602233, "lat": 12.5143164, "lon": -70.0212771, "tags": {"name": "Dakota", "name:mk": "\u0414\u0430\u043a\u043e\u0442\u0430", "place": "town"}}, {"type": "node", "id": 6596602234, "lat": 12.5041503, "lon": -70.0031012, "tags": {"name": "Wayaca", "name:mk": "\u0412\u0430\u0458\u0430\u043a\u0430", "place": "town"}}, {"type": "node", "id": 50031810, "lat": 12.5268736, "lon": -70.0356845, "tags": {"admin_level": "3", "capital": "3", "is_capital": "state", "name": "Oranjestad", "name:ar": "\u0623\u0648\u0631\u0646\u062c\u0633\u062a\u0627\u062f", "name:be": "\u0410\u0440\u0430\u043d'\u0435\u0441\u0442\u0430\u0434", "name:be-tarask": "\u0410\u0440\u0430\u043d\u044c\u0435\u0441\u0442\u0430\u0434", "name:bg": "\u041e\u0440\u0430\u043d\u0435\u0441\u0442\u0430\u0434", "name:el": "\u039f\u03c1\u03ac\u03bd\u03b9\u03b5\u03c3\u03c4\u03b1\u03c4", "name:en": "Oranjestad", "name:eo": "Oranjestado", "name:fr": "Oranjestad", "name:fy": "Oranjest\u00ead", "name:he": "\u05d0\u05d5\u05e8\u05e0\u05d9\u05d9\u05e1\u05d8\u05d0\u05d3", "name:hu": "Oranjestad", "name:ja": "\u30aa\u30e9\u30cb\u30a8\u30b9\u30bf\u30c3\u30c9", "name:ka": "\u10dd\u10e0\u10d0\u10dc\u10d4\u10e1\u10e2\u10d0\u10d3\u10d8", "name:ko": "\uc624\ub791\uc608\uc2a4\ud0c0\ud2b8", "name:lt": "Oranjestadas", "name:mk": "\u041e\u0440\u0430\u045a\u0435\u0441\u0442\u0430\u0434", "name:mr": "\u0913\u0930\u093e\u0902\u091c\u0947\u0936\u094d\u091f\u093e\u0921", "name:nl": "Oranjestad", "name:os": "\u041e\u0440\u0430\u043d\u044c\u0435\u0441\u0442\u0430\u0434", "name:ru": "\u041e\u0440\u0430\u043d\u044c\u0435\u0441\u0442\u0430\u0434", "name:sr": "\u041e\u0440\u0430\u045a\u0435\u0441\u0442\u0430\u0434", "name:uk": "\u041e\u0440\u0430\u043d\u044c\u0454\u0441\u0442\u0430\u0434", "name:ur": "\u0627\u0648\u0631\u0646\u062c\u0633\u0679\u06cc\u0688", "name:zh": "\u5967\u62c9\u6d85\u65af\u5854\u5fb7", "place": "town", "population": "35000", "ref:LOCODE": "AWORJ", "wikidata": "Q131243", "wikipedia": "en:Oranjestad, Aruba"}}, {"type": "node", "id": 4182294398, "lat": 12.5113591, "lon": -69.9804307, "tags": {"name": "Santa Cruz", "name:mk": "\u0421\u0430\u043d\u0442\u0430 \u041a\u0440\u0443\u0441", "place": "town", "wikidata": "Q3558364"}}, {"type": "node", "id": 50034650, "lat": 12.1471741, "lon": -68.2740783, "tags": {"alt_name": "Kralendijk", "capital": "8", "int_name": "Kralendijk", "is_capital": "territory", "name": "Kralendijk", "name:en": "Kralendijk", "name:fr": "Kralendijk", "name:hu": "Kralendijk", "name:lt": "Kralendeikas", "name:mk": "\u041a\u0440\u0430\u043b\u0435\u043d\u0434\u0430\u0458\u043a", "name:nl": "Kralendijk", "note:capital": "Bonaire is a subset (type Special municipality) of Bonaire, Sint Eustatius and Saba which is admin_level=8", "place": "town", "population": "12531", "wikidata": "Q331584"}}, {"type": "node", "id": 279149652, "lat": 17.482411, "lon": -62.9828803, "tags": {"admin_level": "8", "capital": "8", "name": "Oranjestad", "name:el": "\u039f\u03c1\u03ac\u03bd\u03b9\u03b5\u03c3\u03c4\u03b1\u03c4", "name:lt": "Oranjestadas", "name:mk": "\u041e\u0440\u0430\u045a\u0435\u0441\u0442\u0430\u0434", "name:nl": "Oranjestad", "place": "town", "wikidata": "Q217610", "wikipedia": "en:Oranjestad, Sint Eustatius"}}, {"type": "node", "id": 265616624, "lat": 18.0250713, "lon": -63.0483073, "tags": {"admin_level": "3", "capital": "3", "capital_ISO3166-1": "yes", "name": "Philipsburg", "name:be": "\u0424\u0456\u043b\u0456\u043f\u0441\u0431\u0443\u0440\u0433", "name:bg": "\u0424\u0438\u043b\u0438\u043f\u0441\u0431\u0443\u0440\u0433", "name:el": "\u03a6\u03af\u03bb\u03b9\u03c0\u03c3\u03bc\u03c0\u03bf\u03c5\u03c1\u03b3\u03ba", "name:fr": "Philipsburg", "name:hu": "Philipsburg", "name:ja": "\u30d5\u30a3\u30ea\u30c3\u30d7\u30b9\u30d6\u30eb\u30d5", "name:ka": "\u10e4\u10d8\u10da\u10d8\u10de\u10e1\u10d1\u10e3\u10e0\u10d2\u10d8", "name:lt": "Filipsburgas", "name:mk": "\u0424\u0438\u043b\u0438\u043f\u0441\u0431\u0443\u0440\u0433", "name:ru": "\u0424\u0438\u043b\u0438\u043f\u0441\u0431\u0443\u0440\u0433", "name:sr": "\u0424\u0438\u043b\u0438\u043f\u0441\u0431\u0443\u0440\u0433", "name:uk": "\u0424\u0456\u043b\u0456\u043f\u0441\u0431\u0443\u0440\u0433", "name:zh": "\u83f2\u5229\u666e\u65af\u5821", "place": "town", "population": "1300", "wikidata": "Q30958", "wikipedia": "en:Philipsburg, Sint Maarten"}}, {"type": "node", "id": 271972790, "lat": 18.0333145, "lon": -63.0640744, "tags": {"is_in": "Sint Maarten,Nederlandse Antillen,Koningrijk der Nederlanden", "name": "Cul-de-Sac", "name:mk": "\u041a\u0438\u043b \u0434\u0435 \u0421\u0430\u043a", "place": "town"}}, {"type": "node", "id": 3122855232, "lat": 51.3276019, "lon": 3.4922057, "tags": {"name": "Oostburg", "name:nl": "Oostburg", "name:ru": "\u041e\u0441\u0442\u0431\u0443\u0440\u0433", "place": "town", "population": "4632", "population:date": "2020-01-01", "postal_code": "4501", "source:population": "https://www.gemeentesluis.nl/Bestuur_en_Organisatie/Gemeente_in_beeld/Inwoneraantallen_per_kern", "wikidata": "Q1615032", "wikipedia": "nl:Oostburg (plaats)"}}, {"type": "node", "id": 3122829496, "lat": 51.4480929, "lon": 3.5697992, "tags": {"name": "Vlissingen", "name:ar": "\u0641\u0644\u0633\u0646\u0642\u0646", "name:es": "Flesinga", "name:fr": "Flessingue", "name:fy": "Flissingen", "name:nl": "Vlissingen", "name:ru": "\u0424\u043b\u0438\u0441\u0441\u0438\u043d\u0433\u0435\u043d", "place": "town", "population": "33625", "population:date": "2017-01-01", "postal_code": "4381", "source:population": "CBS Wijk 2017", "wikidata": "Q10084", "wikipedia": "nl:Vlissingen"}}, {"type": "node", "id": 3122879753, "lat": 51.4997302, "lon": 3.6136962, "tags": {"capital": "4", "name": "Middelburg", "name:ar": "\u0645\u064a\u062f\u064a\u0644\u0628\u0648\u0631\u062e", "name:de": "Middelburg", "name:en": "Middelburg", "name:es": "Middelburg", "name:fr": "Middelbourg", "name:fy": "Middelburch", "name:ja": "\u30df\u30c7\u30eb\u30d6\u30eb\u30d5", "name:ko": "\ubbf8\ub378\ubdd4\ub974\ud750", "name:nl": "Middelburg", "name:ru": "\u041c\u0438\u0434\u0434\u0435\u043b\u0431\u0443\u0440\u0433", "name:sr": "\u041c\u0438\u0434\u0435\u043b\u0431\u0443\u0440\u0433", "place": "city", "population": "40345", "population:date": "2017-01-01", "source:population": "CBS Wijk 2017", "wikidata": "Q52101", "wikipedia": "nl:Middelburg (Zeeland)"}}, {"type": "node", "id": 3123884752, "lat": 51.3254737, "lon": 3.8403111, "tags": {"name": "Terneuzen", "name:fr": "Terneuse", "name:nl": "Terneuzen", "name:ru": "\u0422\u0435\u0440\u043d\u0451\u0437\u0435\u043d", "place": "town", "population": "25280", "population:date": "2017-01-01", "source:population": "https://terneuzen.incijfers.nl/jive", "wikidata": "Q2207185", "wikipedia": "nl:Terneuzen (stad)"}}, {"type": "node", "id": 3059932556, "lat": 51.2822909, "lon": 4.0532016, "tags": {"name": "Hulst", "name:carnaval": "Vossestad", "name:nl": "Hulst", "name:ru": "\u0425\u044e\u043b\u0441\u0442", "place": "town", "population": "10845", "population:date": "2017-01-01", "postal_code": "4561;4562", "source:population": "CBS Wijk 2017", "wikidata": "Q81100", "wikipedia": "nl:Hulst (stad)"}}, {"type": "node", "id": 3122931409, "lat": 51.5031033, "lon": 3.8897596, "tags": {"name": "Goes", "name:ar": "\u062e\u0648\u0633", "name:carnaval": "Hanzehat", "name:fa": "\u062e\u0648\u0633", "name:nl": "Goes", "name:ru": "\u0413\u0443\u0441", "place": "town", "population": "27495", "population:date": "2017-01-01", "postal_code": "4461;4462;4463;4464;4465", "source:population": "CBS Wijk 2017", "wikidata": "Q81220", "wikipedia": "nl:Goes"}}, {"type": "node", "id": 1871017081, "lat": 51.4935582, "lon": 4.0452502, "tags": {"name": "Yerseke", "place": "town", "population": "6970", "population:date": "2020-01-01", "source:population": "https://www.cbs.nl/nl-nl/maatwerk/2020/29/kerncijfers-wijken-en-buurten-2020", "start_date": "24-01-966", "wikidata": "Q606807", "wikipedia": "nl:Yerseke"}}, {"type": "node", "id": 760705238, "lat": 51.4958265, "lon": 4.2871293, "tags": {"alt_name:nl": "Bergen-op-Zoom", "is_in": "NL", "is_in:continent": "Europe", "is_in:country": "The Netherlands", "is_in:country_code": "NL", "is_in:province": "North Brabant", "name": "Bergen op Zoom", "name:carnaval": "Krabbegat", "name:fr": "Berg-op-Zoom", "name:nl": "Bergen op Zoom", "name:ru": "\u0411\u0435\u0440\u0433\u0435\u043d-\u043e\u043f-\u0417\u043e\u043c", "place": "town", "population": "51834", "population:date": "2017-01-01", "source:population": "CBS Wijk 2017", "wikidata": "Q9814", "wikipedia": "nl:Bergen op Zoom (gemeente)"}}, {"type": "node", "id": 3122923212, "lat": 51.5354462, "lon": 4.2232813, "tags": {"name": "Tholen", "name:nl": "Tholen", "name:ru": "\u0422\u043e\u043b\u0435\u043d", "place": "town", "population": "7890", "population:date": "2017-01-01", "postal_code": "4691", "source:population": "CBS Wijk 2017", "wikidata": "Q312776", "wikipedia": "nl:Tholen (stad)"}}, {"type": "node", "id": 3122973293, "lat": 51.58592, "lon": 4.3145758, "tags": {"is_in": "NL", "is_in:continent": "Europe", "is_in:country": "The Netherlands", "is_in:country_code": "NL", "is_in:province": "North Brabant", "name": "Steenbergen", "name:carnaval": "Strienestad", "place": "town", "population": "11208", "population:date": "2017-01-01", "source:population": "https://www.gemeente-steenbergen.nl/over_de_gemeente/kernen/cijfers/loop_der_bevolking_2017", "wikidata": "Q14389109", "wikipedia": "nl:Steenbergen (stad)"}}, {"type": "node", "id": 3122967684, "lat": 51.5339208, "lon": 4.4665925, "tags": {"is_in": "NL", "is_in:continent": "Europe", "is_in:country": "The Netherlands", "is_in:country_code": "NL", "is_in:province": "North Brabant", "name": "Roosendaal", "name:carnaval": "Tullepetaonestad", "name:fr": "Rosendael", "name:nl": "Roosendaal", "name:ru": "\u0420\u043e\u0441\u0435\u043d\u0434\u0430\u043b", "place": "town", "population": "67390", "population:date": "2017-01-01", "source:population": "https://roosendaal.buurtmonitor.nl", "wikidata": "Q6903267", "wikipedia": "nl:Roosendaal"}}, {"type": "node", "id": 3122997542, "lat": 51.5886526, "lon": 4.5337999, "tags": {"is_in": "NL", "is_in:continent": "Europe", "is_in:country": "The Netherlands", "is_in:country_code": "NL", "is_in:province": "North Brabant", "name": "Oudenbosch", "name:carnaval": "Puitenol", "name:ru": "\u0410\u0443\u0434\u0435\u043d\u0431\u043e\u0441", "place": "town", "population": "12479", "population:date": "2018-01-01", "source:population": "https://www.halderberge.nl/halderberge-cijfers", "wikidata": "Q2701706", "wikipedia": "nl:Oudenbosch"}}, {"type": "node", "id": 244043476, "lat": 51.4702197, "lon": 4.6610472, "tags": {"name": "Zundert", "name:carnaval": "Maonblussers", "name:el": "\u0396\u03bf\u03c5\u03bd\u03b4\u03ad\u03c1\u03c4\u03b7", "name:nl": "Zundert", "name:ru": "\u0417\u044e\u043d\u0434\u0435\u0440\u0442", "place": "town", "population": "7970", "population:date": "2017-01-01", "source:population": "CBS Wijk 2017", "wikidata": "Q2638759", "wikipedia": "nl:Zundert (plaats)"}}, {"type": "node", "id": 3123022919, "lat": 51.5692065, "lon": 4.6360813, "tags": {"is_in": "NL", "is_in:continent": "Europe", "is_in:country": "The Netherlands", "is_in:country_code": "NL", "is_in:province": "North Brabant", "name": "Etten-Leur", "name:carnaval": "Stijlorenrijk / Zwaaigat", "place": "town", "population": "43027", "population:date": "2017-01-01", "source:population": "CBS", "wikidata": "Q9833", "wikipedia": "nl:Etten-Leur"}}, {"type": "node", "id": 867998189, "lat": 51.5887845, "lon": 4.7760237, "tags": {"name": "Breda", "name:carnaval": "Kielegat", "name:fr": "Br\u00e9da", "name:nl": "Breda", "name:ru": "\u0411\u0440\u0435\u0434\u0430", "name:sr": "\u0411\u0440\u0435\u0434\u0430", "name:uk": "\u0411\u0440\u0435\u0434\u0430", "name:zh-Hans": "\u5e03\u96f7\u8fbe", "name:zh-Hant": "\u5e03\u96f7\u9054", "place": "city", "population": "150008", "population:date": "2017-01-01", "population:note": "Inwonertal gemeente minus Prinsenbeek, Bavel, Teteringen, en Ulvenhout.", "source:population": "https://breda.incijfers.nl/jive", "website": "https://www.breda.nl/", "wikidata": "Q40844", "wikipedia": "nl:Breda"}}, {"type": "node", "id": 5310681751, "lat": 51.5900496, "lon": 4.9184482, "tags": {"is_in:continent": "Europe", "is_in:country": "The Netherlands", "is_in:country_code": "NL", "is_in:province": "North Brabant", "name": "Rijen", "name:carnaval": "Wringersgat", "name:ru": "\u0420\u0435\u0439\u0435\u043d", "place": "town", "population": "16770", "population:date": "2017-01-01", "source:population": "CBS Wijk 2017", "wikidata": "Q2516342", "wikipedia": "nl:Rijen"}}, {"type": "node", "id": 2184401185, "lat": 50.7782686, "lon": 5.7075337, "tags": {"is_in": "NL", "is_in:continent": "Europe", "is_in:country": "The Netherlands", "is_in:country_code": "NL", "is_in:province": "Limburg", "name": "Eijsden", "place": "town", "population": "7895", "population:date": "2017-01-01", "population:note": "Inclusief Mariadorp, exclusief Oost-Maarland en Mesch.", "source:population": "CBS Buurt 2017", "wikidata": "Q1007134", "wikipedia": "nl:Eijsden (plaats)"}}, {"type": "node", "id": 41977208, "lat": 50.8512438, "lon": 5.6909768, "tags": {"admin_level": "8", "alt_name:la": "Traiectum ad Mosam", "capital": "4", "loc_name": "Mestreech", "name": "Maastricht", "name:ar": "\u0645\u0627\u0633\u062a\u0631\u064a\u062e\u062a", "name:de": "Maastricht", "name:en": "Maastricht", "name:eo": "Mastri\u0125to", "name:es": "Maastricht", "name:fr": "Maastricht", "name:he": "\u05de\u05d0\u05e1\u05d8\u05e8\u05d9\u05db\u05d8", "name:ja": "\u30de\u30fc\u30b9\u30c8\u30ea\u30d2\u30c8", "name:la": "Traiectum Mosae", "name:li": "Mestreech", "name:lt": "Mastrichtas", "name:mk": "\u041c\u0430\u0441\u0442\u0440\u0438\u0445\u0442", "name:nds": "Maastricht", "name:nl": "Maastricht", "name:ru": "\u041c\u0430\u0430\u0441\u0442\u0440\u0438\u0445\u0442", "name:sr": "\u041c\u0430\u0441\u0442\u0440\u0438\u0445\u0442", "name:uk": "\u041c\u0430\u0430\u0441\u0442\u0440\u0438\u0445\u0442", "old_name:es": "Mastrique", "old_name:fr": "Maestricht", "place": "city", "population": "120105", "population:date": "2017-01-01", "population:note": "Inwonertal gemeente minus Borgharen en Itteren.", "source:population": "https://maastricht.incijfers.nl/jive", "website": "https://www.maastricht.nl", "wikidata": "Q1309", "wikipedia": "nl:Maastricht"}}, {"type": "node", "id": 42007078, "lat": 50.8647531, "lon": 5.8312518, "tags": {"name": "Valkenburg", "name:carnaval": "'t Bokkeriek", "name:de": "Falkenburg", "name:fr": "Fauquemont", "name:li": "Valkeberg", "name:nl": "Valkenburg", "place": "town", "population": "7635", "population:date": "2017-01-01", "postal_code": "6301", "source:population": "CBS Wijk 2017", "website": "http://www.valkenburg.nl/", "wikidata": "Q100076", "wikipedia": "nl:Valkenburg (Limburg)"}}, {"type": "node", "id": 2023432505, "lat": 50.9694381, "lon": 5.7669713, "tags": {"name": "Stein", "name:carnaval": "Bokkeriek", "place": "town", "population": "10765", "population:date": "2017-01-01", "population:note": "Inwonertal exclusief Maasband.", "postal_code": "6171", "source:population": "CBS Wijk & Buurt 2017", "wikidata": "Q14389950", "wikipedia": "nl:Stein (Limburg)"}}, {"type": "node", "id": 4004062547, "lat": 50.9673322, "lon": 5.8277007, "tags": {"name": "Geleen", "name:carnaval": "Waereldsjtad", "name:lt": "Gelenas", "name:nl": "Geleen", "place": "town", "population": "31970", "population:date": "2017-01-01", "source:population": "https://sittard-geleen.incijfers.nl/jive", "wikidata": "Q73570", "wikipedia": "nl:Geleen"}}, {"type": "node", "id": 2526992665, "lat": 50.9974235, "lon": 5.8666627, "tags": {"name": "Sittard", "name:carnaval": "Marotte Riek", "name:lt": "Sitardas", "name:nl": "Sittard", "name:ru": "\u0421\u0438\u0442\u0442\u0430\u0440\u0434", "place": "town", "population": "37534", "population:date": "2017-01-01", "population:note": "Inwonertal omvat de wijken Limbrichterveld, Sittard en Overhoven.", "source:population": "https://sittard-geleen.incijfers.nl/jive", "wikidata": "Q73022", "wikipedia": "nl:Sittard"}}, {"type": "node", "id": 2769925232, "lat": 51.3625476, "lon": 5.1649853, "tags": {"name": "Reusel", "name:carnaval": "Narrendonk", "name:ru": "\u0420\u0451\u0441\u0435\u043b", "place": "town", "population": "8554", "population:date": "2017-01-01", "postal_code": "5541", "source:population": "https://www.reuseldemierden.nl/inwoners-en-ondernemers/bevolkingscijfers_42633", "wikidata": "Q3428345", "wikipedia": "nl:Reusel (plaats)"}}, {"type": "node", "id": 3123161010, "lat": 51.4862924, "lon": 5.1379984, "tags": {"name": "Hilvarenbeek", "name:carnaval": "Pezerikkengat", "place": "town", "population": "8575", "population:date": "2017-01-01", "postal_code": "5081", "source:population": "CBS Wijk 2017", "wikidata": "Q9404653", "wikipedia": "nl:Hilvarenbeek (plaats)"}}, {"type": "node", "id": 3123077789, "lat": 51.5239585, "lon": 5.0661977, "tags": {"is_in": "NL", "is_in:continent": "Europe", "is_in:country": "The Netherlands", "is_in:country_code": "NL", "is_in:province": "North Brabant", "name": "Goirle", "name:carnaval": "Ballefruttersgat", "name:ru": "\u0413\u043e\u0439\u0440\u043b\u0435", "place": "town", "population": "20795", "population:date": "2017-01-01", "source:population": "CBS Wijk 2017", "wikidata": "Q4681121", "wikipedia": "nl:Goirle (plaats)"}}, {"type": "node", "id": 1206763375, "lat": 51.5562404, "lon": 5.0886014, "tags": {"name": "Tilburg", "name:ar": "\u062a\u064a\u0644\u0628\u0648\u0631\u062e", "name:az": "Tilburq", "name:be": "\u0422\u044b\u043b\u0431\u0443\u0440\u0433", "name:bg": "\u0422\u0438\u043b\u0431\u0443\u0440\u0433", "name:carnaval": "Kruikenstad", "name:el": "\u03a4\u03af\u03bb\u03bc\u03c0\u03bf\u03c5\u03c1\u03c7", "name:eo": "Tilburgo", "name:es": "Tilburgo", "name:fa": "\u062a\u06cc\u0644\u0628\u0648\u0631\u062e", "name:fr": "Tilbourg", "name:fy": "Tilburch", "name:he": "\u05d8\u05d9\u05dc\u05d1\u05d5\u05e8\u05da", "name:hy": "\u0539\u056b\u056c\u0562\u0578\u0582\u0580\u056d", "name:ja": "\u30c6\u30a3\u30eb\u30d6\u30eb\u30d5", "name:ka": "\u10e2\u10d8\u10da\u10d1\u10e3\u10e0\u10d2\u10d8", "name:ko": "\ud2f8\ubdd4\ub974\ud750", "name:lt": "Tilburgas", "name:lv": "Tilburga", "name:mk": "\u0422\u0438\u043b\u0431\u0443\u0440\u0433", "name:mn": "\u0422\u0438\u043b\u0431\u0443\u0440\u0433", "name:nl": "Tilburg", "name:pt": "Tilburgo", "name:ru": "\u0422\u0438\u043b\u0431\u0443\u0440\u0433", "name:sr": "\u0422\u0438\u043b\u0431\u0443\u0440\u0433", "name:th": "\u0e15\u0e34\u0e25\u0e1a\u0e37\u0e23\u0e4c\u0e04", "name:uk": "\u0422\u0456\u043b\u0431\u0443\u0440\u0433", "name:zh": "\u8482\u5c14\u5821", "name:zh-Hant": "\u8482\u723e\u5821", "place": "city", "population": "199128", "population:date": "2020-01-01", "population:note": "Inwonertal gemeente minus woonplaatsen Berkel-Enschot en Udenhout", "source:population": "https://www.tilburg.nl/stad-bestuur/stad/statistische-gegevens", "website": "https://www.tilburg.nl/", "wikipedia": "nl:Tilburg"}}, {"type": "node", "id": 3123137087, "lat": 51.5778742, "lon": 5.1938101, "tags": {"name": "Oisterwijk", "name:carnaval": "D\u00f6llekesgat", "name:ru": "\u041e\u0439\u0441\u0442\u0435\u0440\u0432\u0435\u0439\u043a", "place": "town", "population": "19870", "population:date": "2018-01-01", "source:population": "https://oisterwijk.nl/oisterwijk-moergestel-en-heukelom/feiten-en-cijfers-oisterwijk.html", "wikidata": "Q3299324", "wikipedia": "nl:Oisterwijk (plaats)"}}, {"type": "node", "id": 3123160927, "lat": 51.4190691, "lon": 5.4045572, "tags": {"name": "Veldhoven", "name:carnaval": "Rommelgat", "name:ru": "\u0412\u0435\u043b\u0434\u0445\u043e\u0432\u0435\u043d", "name:zh-Hans": "\u97e6\u5fb7\u970d\u82ac", "name:zh-Hant": "\u97cb\u5fb7\u970d\u82ac", "place": "town", "population": "44724", "population:date": "2017-01-01", "population:note": "Inwonertal inclusief Oerle.", "source:population": "CBS", "wikidata": "Q9875", "wikipedia": "nl:Veldhoven"}}, {"type": "node", "id": 3123164384, "lat": 51.5032385, "lon": 5.3155486, "tags": {"name": "Oirschot", "name:carnaval": "Skon Orregat", "name:ru": "\u041e\u0439\u0440\u0441\u0445\u043e\u0442", "place": "town", "population": "10708", "population:date": "2016-01-01", "population:note": "Inwonertal exclusief Spoordonk en bewoning recreatiepark De Stille Wille.", "source:population": "https://www.oirschot.nl/actueel/over-oirschot_44623", "wikidata": "Q2414583", "wikipedia": "nl:Oirschot (plaats)"}}, {"type": "node", "id": 3123173277, "lat": 51.593711, "lon": 5.3278263, "tags": {"is_in": "NL", "is_in:continent": "Europe", "is_in:country": "The Netherlands", "is_in:country_code": "NL", "is_in:province": "North Brabant", "name": "Boxtel", "name:carnaval": "Eendengat", "name:ru": "\u0411\u043e\u043a\u0441\u0442\u0435\u043b", "place": "town", "population": "24610", "population:date": "2017-01-01", "population:note": "Inwonertal exclusief Lennisheuvel.", "source:population": "CBS Wijk 2017", "wikidata": "Q13443096", "wikipedia": "nl:Boxtel (plaats)"}}, {"type": "node", "id": 3125419370, "lat": 51.5033671, "lon": 5.3938665, "tags": {"name": "Best", "name:carnaval": "Klompengat", "name:ru": "\u0411\u0435\u0441\u0442", "place": "town", "population": "29180", "population:date": "2017-01-01", "source:population": "https://www.gemeentebest.nl/nieuws/2018/01/15/voorlopige-gegevens-bevolkingsontwikkeling-2017", "website": "https://www.gemeentebest.nl/", "wikidata": "Q9816", "wikipedia": "nl:Best"}}, {"type": "node", "id": 42439544, "lat": 51.350688, "lon": 5.4594497, "tags": {"name": "Valkenswaard", "name:carnaval": "Striepersgat", "name:nl": "Valkenswaard", "name:ru": "\u0412\u0430\u043b\u043a\u0435\u043d\u0441\u0432\u0430\u0440\u0434", "place": "town", "population": "20342", "population:date": "2017-01-01", "source:population": "https://www.valkenswaard.nl/bestuur-en-organisatie/feiten-en-cijfers_43187", "website": "https://www.valkenswaard.nl/", "wikidata": "Q1869375", "wikipedia": "nl:Valkenswaard (plaats)"}}, {"type": "node", "id": 3124070294, "lat": 51.2531334, "lon": 5.7085827, "tags": {"name": "Weert", "name:carnaval": "Rogstaekersstad", "name:li": "Wie\u00ebrt", "place": "town", "population": "40534", "population:date": "2017-01-01", "population:note": "Inwonertal exclusief Stramproy, Altweerderheide, Laar, Tungelroy en Swartbroek.", "source:population": "https://weert.incijfers.nl/jive", "wikidata": "Q12344051", "wikipedia": "nl:Weert (stad)"}}, {"type": "node", "id": 42516652, "lat": 51.3858887, "lon": 5.7133677, "tags": {"name": "Someren", "name:carnaval": "Meerpoel", "name:eo": "Somereno", "name:ru": "\u0421\u043e\u043c\u0435\u0440\u0435\u043d", "place": "town", "population": "11980", "population:date": "2017-01-01", "postal_code": "5711", "source:population": "CBS Wijk 2017", "website": "https://www.someren.nl/", "wikidata": "Q7476457"}}, {"type": "node", "id": 42616340, "lat": 51.4392648, "lon": 5.478633, "tags": {"name": "Eindhoven", "name:carnaval": "Lampegat", "name:el": "\u0391\u03ca\u03bd\u03c4\u03c7\u03cc\u03c6\u03b5\u03bd", "name:he": "\u05d0\u05d9\u05d9\u05e0\u05d3\u05d4\u05d5\u05d1\u05df", "name:la": "Endhovia", "name:lt": "Eindhovenas", "name:mk": "\u0410\u0458\u043d\u0434\u0445\u043e\u0432\u0435\u043d", "name:ru": "\u042d\u0439\u043d\u0434\u0445\u043e\u0432\u0435\u043d", "name:sr": "\u0410\u0458\u043d\u0434\u0445\u043e\u0432\u0435\u043d", "name:uk": "\u0415\u0439\u043d\u0434\u0433\u043e\u0432\u0435\u043d", "name:zh": "\u57c3\u56e0\u970d\u6e29", "place": "city", "population": "226921", "population:date": "2017-01-01", "population:note": "Inwonertal inclusief Kerkdorp Acht", "source:population": "https://eindhoven.incijfers.nl", "wikidata": "Q9832", "wikipedia": "nl:Eindhoven"}}, {"type": "node", "id": 25279725, "lat": 51.4743021, "lon": 5.5490439, "tags": {"name": "Nuenen", "name:carnaval": "Dw\u00e8rsklippelgat", "name:ru": "\u041d\u044e\u044d\u043d\u0435\u043d", "name:zh-Hans": "\u7ebd\u5357", "name:zh-Hant": "\u7d10\u5357", "place": "town", "population": "19930", "population:date": "2017-01-01", "source:population": "CBS Wijk 2017", "website": "https://www.nuenen.nl/", "wikidata": "Q153516", "wikipedia": "nl:Nuenen"}}, {"type": "node", "id": 26862196, "lat": 51.4226684, "lon": 5.5607546, "tags": {"name": "Geldrop", "name:carnaval": "Lappegat", "name:nl": "Geldrop", "name:ru": "\u0413\u0435\u043b\u0434\u0440\u043e\u043f", "place": "town", "population": "28767", "population:date": "2018-01-01", "source:population": "https://www.geldrop-mierlo.nl/over-geldrop-mierlo/publicatie/feiten-en-cijfers", "website": "https://www.geldrop-mierlo.nl/", "wikidata": "Q2636411", "wikipedia": "nl:Geldrop"}}, {"type": "node", "id": 2681398835, "lat": 51.4437624, "lon": 5.6187496, "tags": {"name": "Mierlo", "name:carnaval": "Kersenpittenrijk", "name:ru": "\u041c\u0438\u0440\u043b\u043e", "place": "town", "population": "10493", "population:date": "2018-01-01", "postal_code": "5731", "source:population": "https://www.geldrop-mierlo.nl/over-geldrop-mierlo/publicatie/feiten-en-cijfers", "wikidata": "Q1614337", "wikipedia": "nl:Mierlo"}}, {"type": "node", "id": 299144900, "lat": 51.4790956, "lon": 5.6557686, "tags": {"name": "Helmond", "name:carnaval": "Kattegat", "name:ru": "\u0425\u0435\u043b\u043c\u043e\u043d\u0434", "name:sr": "\u0425\u0435\u043b\u043c\u043e\u043d\u0434", "name:zh-Hans": "\u8d6b\u5c14\u8499\u5fb7", "name:zh-Hant": "\u6d77\u723e\u8499\u5fb7", "place": "city", "population": "90609", "population:date": "2017-01-01", "population:note": "Inwonertal inclusief Stiphout en Mierlo-Hout.", "source:population": "https://www.helmond.nl/feitenencijfers", "wikidata": "Q9844", "wikipedia": "nl:Helmond"}}, {"type": "node", "id": 2960543431, "lat": 51.5173136, "lon": 5.500838, "tags": {"name": "Son en Breugel", "place": "town", "population": "16626", "population:date": "2017-01-01", "source:population": "CBS", "wikidata": "Q9869", "wikipedia": "nl:Son en Breugel"}}, {"type": "node", "id": 43046874, "lat": 51.5646434, "lon": 5.4610004, "tags": {"is_in": "NL", "is_in:continent": "Europe", "is_in:country": "The Netherlands", "is_in:country_code": "NL", "is_in:province": "North Brabant", "name": "Sint-Oedenrode", "name:carnaval": "Papgat", "name:ru": "\u0421\u0438\u043d\u0442-\u0423\u0434\u0435\u043d\u0440\u043e\u0434\u0435", "place": "town", "population": "13635", "population:date": "2017-01-01", "population:note": "Inwonertal exclusief Boskant, Nijnsel en Olland.", "source:population": "CBS Wijk & Buurt 2017", "website": "https://www.asten.nl", "wikidata": "Q9867", "wikipedia": "nl:Sint-Oedenrode"}}, {"type": "node", "id": 42547976, "lat": 51.404091, "lon": 5.7458688, "tags": {"name": "Asten", "name:carnaval": "Klotland", "name:nl": "Asten", "name:ru": "\u0410\u0441\u0442\u0435\u043d", "place": "town", "population": "13214", "population:date": "2017-01-01", "postal_code": "5721", "source:population": "https://www.asten.nl/sport-cultuur-recreatie/vvv-toeristische-informatie.html", "wikidata": "Q2022283", "wikipedia": "nl:Asten (plaats)"}}, {"type": "node", "id": 3124021956, "lat": 51.4638535, "lon": 5.7946304, "tags": {"name": "Deurne", "name:carnaval": "Peelstrekelrijk", "name:ru": "\u0414\u0451\u0440\u043d\u0435", "place": "town", "population": "24690", "population:date": "2018-01-01", "source:population": "https://www.deurne.nl/home/onderwerpen-a-z_42816/product/inwoners-en-woningen-gemeente-deurne-leeftijdsopbouw_884.html", "wikidata": "Q2583037", "wikipedia": "nl:Deurne (Noord-Brabant)"}}, {"type": "node", "id": 3123243854, "lat": 51.5589833, "lon": 5.6864592, "tags": {"is_in": "NL", "is_in:continent": "Europe", "is_in:country": "The Netherlands", "is_in:country_code": "NL", "is_in:province": "North Brabant", "name": "Gemert", "name:carnaval": "Waeverstadt", "name:ru": "\u0413\u0435\u043c\u0435\u0440\u0442", "place": "town", "population": "16531", "population:date": "2018-01-01", "source:population": "https://www.gemert-bakel.nl/bestuur-organisatie/over-gemert-bakel", "wikidata": "Q970701", "wikipedia": "nl:Gemert (Gemert-Bakel)"}}, {"type": "node", "id": 1832048285, "lat": 50.7710157, "lon": 6.019049, "tags": {"ele": "198", "name": "Vaals", "name:li": "Vols", "place": "town", "population": "7080", "population:date": "2017-01-01", "postal_code": "6291", "source:population": "CBS Wijk 2017", "wikidata": "Q1923104", "wikipedia": "nl:Vaals (plaats)"}}, {"type": "node", "id": 2667692113, "lat": 50.8654924, "lon": 6.0632022, "tags": {"name": "Kerkrade", "name:de": "Kerkrade", "name:li": "Kirchroa", "name:lt": "Kerkrad\u0117", "old_name:de": "Kirchrath", "place": "town", "population": "45643", "population:date": "2019-01-01", "source:population": "CBS", "wikidata": "Q28914824", "wikipedia": "nl:Kerkrade (plaats)"}}, {"type": "node", "id": 3124182601, "lat": 50.9431108, "lon": 5.9705675, "tags": {"name": "Brunssum", "name:carnaval": "Broensum", "name:li": "Broenssem", "name:lt": "Briunsiumas", "name:nl": "Brunssum", "place": "town", "population": "28358", "population:date": "2017-01-01", "source:population": "https://parkstad-limburg.buurtmonitor.nl/jive", "wikidata": "Q9803", "wikipedia": "nl:Brunssum"}}, {"type": "node", "id": 2667692112, "lat": 50.8876735, "lon": 5.9773285, "tags": {"name": "Heerlen", "name:carnaval": "Sjpassemig", "name:fy": "Hearlen", "name:nl": "Heerlen", "name:ru": "\u0425\u0435\u0440\u043b\u0435\u043d", "place": "city", "population": "67943", "population:date": "2017-01-01", "population:note": "Inwonertal exclusief Hoensbroek.", "source:population": "https://heerlen.incijfers.nl/jive", "wikidata": "Q33444227"}}, {"type": "node", "id": 3125417033, "lat": 50.9080845, "lon": 6.0264604, "tags": {"name": "Landgraaf", "name:carnaval": "Schaesberg", "name:nl": "Landgraaf", "place": "town", "population": "37456", "population:date": "2017-01-01", "source:population": "https://parkstad-limburg.buurtmonitor.nl/jive", "wikidata": "Q9795", "wikipedia": "nl:Landgraaf (gemeente)"}}, {"type": "node", "id": 3124096042, "lat": 51.1933903, "lon": 5.9882649, "tags": {"name": "Roermond", "name:ar": "\u0631\u0648\u0631\u0645\u0648\u0646\u062f", "name:carnaval": "De Sjtad van Sjtuf", "name:fa": "\u0631\u0648\u0631\u0645\u0648\u0646\u062f", "name:fr": "Ruremonde", "name:li": "Remunj", "name:nl": "Roermond", "name:ru": "\u0420\u0443\u0440\u043c\u043e\u043d\u0434", "name:zh-Hans": "\u9c81\u5c14\u8499\u5fb7", "name:zh-Hant": "\u9b6f\u723e\u8499\u5fb7", "place": "city", "population": "41225", "population:date": "2017-01-01", "population:note": "Inwonertal inclusief Asenray.", "source:population": "https://www.roermond.nl/4/organisatie/Bestuur-en-organisatie-Statistieken-en-kengetallen.html", "wikidata": "Q9783", "wikipedia": "nl:Roermond (stad)"}}, {"type": "node", "id": 42422333, "lat": 51.3427973, "lon": 6.1362837, "tags": {"is_in": "NL", "is_in:continent": "Europe", "is_in:country": "The Netherlands", "is_in:country_code": "NL", "is_in:municipality": "Venlo", "is_in:province": "Limburg", "name": "Tegelen", "name:carnaval": "Pannekletsers", "name:ru": "\u0422\u0435\u0433\u0435\u043b\u0435\u043d", "place": "town", "population": "15230", "population:date": "2017-01-01", "source:population": "https://venlo.incijfers.nl/jive"}}, {"type": "node", "id": 4774930013, "lat": 51.3702109, "lon": 6.1688954, "tags": {"name": "Venlo", "name:ar": "\u0641\u064a\u0646\u0644\u0648", "name:carnaval": "Jocus Ri\u00e9k", "name:de": "Venlo", "name:fy": "Fenlo", "name:la": "Venlonum", "name:nds": "Venlo", "name:ru": "\u0412\u0435\u043d\u043b\u043e", "name:sr": "\u0412\u0435\u043d\u043b\u043e", "name:zh": "\u6587\u6d1b", "place": "city", "population": "64339", "population:date": "2017-01-01", "population:note": "Inwonertal inclusief stadsdeel Blerick behalve Hout-Blerick en Boekend;exclusief Tegelen, Belfeld, Velden, Steyl, Arcen en Lomm.", "postal_code": "5900", "source:population": "https://venlo.incijfers.nl/jive", "wikidata": "Q3322237", "wikipedia": "nl:Venlo (stad)"}}, {"type": "node", "id": 1724698233, "lat": 51.4525002, "lon": 6.0539238, "tags": {"name": "Horst", "name:carnaval": "Dreumelri\u00eak", "name:nl": "Horst", "name:ru": "\u0425\u043e\u0440\u0441\u0442", "place": "town", "population": "12895", "population:date": "2017-01-01", "source:population": "https://www.horstaandemaas.nl/Ondernemers/Over_Horst_aan_de_Maas/Basisgegevens_kort_en_bondig/Inwonersaantallen", "wikidata": "Q2097993", "wikipedia": "nl:Horst (Limburg)"}}, {"type": "node", "id": 3123242741, "lat": 51.5270258, "lon": 5.9753635, "tags": {"name": "Venray", "name:carnaval": "Pi\u00eblhaazeriek", "name:nl": "Venray", "name:ru": "\u0412\u0435\u043d\u0440\u0430\u0439", "place": "town", "population": "28415", "population:date": "2017-01-01", "source:population": "CBS Wijk 2017", "wikidata": "Q23015555", "wikipedia": "nl:Venray (plaats)"}}, {"type": "node", "id": 3122906235, "lat": 51.6539431, "lon": 3.9195821, "tags": {"name": "Zierikzee", "name:fy": "Sieriksee", "name:nl": "Zierikzee", "name:ru": "\u0417\u0438\u0440\u0438\u043a\u0437\u0435", "place": "town", "population": "11150", "population:date": "2017-01-01", "source:population": "CBS Wijk 2017", "wikidata": "Q81076", "wikipedia": "nl:Zierikzee"}}, {"type": "node", "id": 2290698778, "lat": 51.833921, "lon": 4.1436739, "tags": {"name": "Hellevoetsluis", "name:nl": "Hellevoetsluis", "name:ru": "\u0425\u0435\u043b\u043b\u0435\u0432\u0443\u0442\u0441\u043b\u0451\u0439\u0441", "place": "town", "population": "38722", "population:date": "2017-01-01", "source:population": "CBS", "wikidata": "Q826130", "wikipedia": "nl:Hellevoetsluis"}}, {"type": "node", "id": 1595408862, "lat": 51.901662, "lon": 4.1626292, "tags": {"name": "Brielle", "name:nl": "Brielle", "name:ru": "\u0411\u0440\u0438\u043b\u043b\u0435", "name:uk": "\u0411\u0440\u0456\u043b\u043b\u0435", "old_name": "Den Briel", "place": "town", "population": "13407", "population:date": "2018-01-01", "postal_code": "3230 3232", "source:population": "https://www.brielle.nl/in-brielle/cijfers-en-feiten_43523", "website": "https://www.brielle.nl/", "wikidata": "Q462663", "wikipedia": "nl:Brielle"}}, {"type": "node", "id": 732807914, "lat": 51.9771615, "lon": 4.1314526, "tags": {"name": "Hoek van Holland", "name:en": "Hook of Holland", "name:nl": "Hoek van Holland", "name:ru": "\u0425\u0443\u043a-\u0432\u0430\u043d-\u0425\u043e\u043b\u043b\u0430\u043d\u0434", "place": "town", "population": "10212", "population:date": "2017-01-01", "postal_code": "3151", "source:population": "https://rotterdam.buurtmonitor.nl/jive", "website": "http://www.rotterdam.nl/hoekvanholland", "wikidata": "Q990130", "wikipedia": "nl:Hoek van Holland"}}, {"type": "node", "id": 441929561, "lat": 52.0028294, "lon": 4.1603759, "tags": {"name": "'s-Gravenzande", "name:nl": "'s-Gravenzande", "name:ru": "\u0413\u0440\u0430\u0432\u0435\u043d\u0437\u0430\u043d\u0434\u0435", "place": "town", "population": "21130", "population:date": "2017-01-01", "source:population": "https://westland.incijfers.nl/jive", "url": "http://www.gemeentewestland.nl", "wikidata": "Q425786", "wikipedia": "nl:'s-Gravenzande"}}, {"type": "node", "id": 858088589, "lat": 52.026011, "lon": 4.1741508, "tags": {"is_in:country": "The Netherlands", "is_in:country_code": "NL", "is_in:province": "South Holland", "name": "Monster", "name:carnaval": "Munsterdonck", "name:ru": "\u041c\u043e\u043d\u0441\u0442\u0435\u0440", "place": "town", "population": "13900", "population:date": "2017-01-01", "postal_code": "2681", "source:population": "https://westland.incijfers.nl/jive", "url": "www.gemeentewestland.nl", "wikidata": "Q969531", "wikipedia": "nl:Monster (Zuid-Holland)"}}, {"type": "node", "id": 3123021404, "lat": 51.6468, "lon": 4.6105971, "tags": {"is_in": "NL", "is_in:continent": "Europe", "is_in:country": "The Netherlands", "is_in:country_code": "NL", "is_in:province": "North Brabant", "name": "Zevenbergen", "name:carnaval": "Zeuvebultelaand", "name:ru": "\u0417\u0435\u0432\u0435\u043d\u0431\u0435\u0440\u0433\u0435\u043d", "place": "town", "population": "14235", "population:date": "2017-01-01", "source:population": "https://moerdijk.incijfers.nl/jive", "wikidata": "Q76960", "wikipedia": "nl:Zevenbergen (Moerdijk)"}}, {"type": "node", "id": 1574683058, "lat": 51.8464881, "lon": 4.3287681, "tags": {"is_in:country": "The Netherlands", "is_in:country_code": "NL", "is_in:province": "South Holland", "name": "Spijkenisse", "name:ru": "\u0421\u043f\u0435\u0439\u043a\u0435\u043d\u0438\u0441\u0441\u0435", "place": "town", "population": "71647", "population:date": "2017-01-01", "source:population": "https://nissewaard.buurtmonitor.nl/jive", "website": "http://www.spijkenisse.nl", "wikidata": "Q488545", "wikipedia": "nl:Spijkenisse"}}, {"type": "node", "id": 44141620, "lat": 51.8652855, "lon": 4.3641111, "tags": {"is_in": "NL", "is_in:municipality": "Rotterdam", "name": "Hoogvliet", "place": "town", "population": "34502", "population:date": "2017-01-01", "source:population": "https://rotterdam.buurtmonitor.nl/jive", "wikidata": "Q2103147", "wikipedia": "nl:Hoogvliet (stadsdeel)"}}, {"type": "node", "id": 44355326, "lat": 51.9075958, "lon": 4.3399618, "tags": {"is_in:country": "The Netherlands", "is_in:country_code": "NL", "is_in:province": "South Holland", "name": "Vlaardingen", "name:carnaval": "Buizengat", "name:fy": "Flaardingen", "name:ru": "\u0412\u043b\u0430\u0440\u0434\u0438\u043d\u0433\u0435\u043d", "name:zh": "\u5f17\u62c9\u5c14\u4e01\u6069", "place": "town", "population": "71991", "population:date": "2017-01-01", "source:population": "https://mvs.incijfers.nl/dashboard/Bevolking", "website": "https://www.vlaardingen.nl/", "wikidata": "Q210007", "wikipedia": "nl:Vlaardingen"}}, {"type": "node", "id": 760583438, "lat": 51.91718, "lon": 4.4019149, "tags": {"name": "Schiedam", "name:fy": "Skiedam", "name:lt": "Schidamas", "name:ru": "\u0421\u0445\u0438\u0434\u0430\u043c", "place": "town", "population": "77890", "population:date": "2017-01-01", "source:population": "https://mvs.incijfers.nl/dashboard/Bevolking", "website": "https://www.schiedam.nl/", "wikidata": "Q204709", "wikipedia": "nl:Schiedam"}}, {"type": "node", "id": 842461014, "lat": 51.9219917, "lon": 4.2541194, "tags": {"is_in:country": "The Netherlands", "is_in:country_code": "NL", "is_in:province": "South Holland", "name": "Maassluis", "name:ru": "\u041c\u0430\u0441\u0441\u043b\u0451\u0439\u0441", "place": "town", "population": "32484", "population:date": "2017-01-01", "source:population": "https://mvs.incijfers.nl/dashboard/Bevolking", "website": "https://www.maassluis.nl/", "wikidata": "Q497130", "wikipedia": "nl:Maassluis"}}, {"type": "node", "id": 850458460, "lat": 51.9963306, "lon": 4.2059633, "tags": {"name": "Naaldwijk", "name:carnaval": "Naaldnarren", "name:nl": "Naaldwijk", "name:ru": "\u041d\u0430\u043b\u0434\u0432\u0435\u0439\u043a", "place": "town", "population": "20295", "population:date": "2017-01-01", "source:population": "https://westland.incijfers.nl/jive", "website": "https://www.gemeentewestland.nl/", "wikidata": "Q1613459", "wikipedia": "nl:Naaldwijk"}}, {"type": "node", "id": 849259802, "lat": 51.9751843, "lon": 4.2471322, "tags": {"is_in:country": "The Netherlands", "is_in:country_code": "NL", "is_in:province": "South Holland", "name": "De Lier", "name:carnaval": "Bukkersgat", "name:ru": "\u0414\u0435-\u041b\u0438\u0440", "place": "town", "population": "12220", "population:date": "2017-01-01", "postal_code": "2678", "source:population": "https://westland.incijfers.nl/jive", "url": "http://www.gemeentewestland.nl", "wikidata": "Q1616247", "wikipedia": "nl:De Lier"}}, {"type": "node", "id": 343531346, "lat": 52.0235098, "lon": 4.2745855, "tags": {"is_in": "NL", "is_in:continent": "Europe", "is_in:country": "The Netherlands", "is_in:country_code": "NL", "is_in:province": "South Holland", "name": "Wateringen", "name:carnaval": "Bieringen", "name:ru": "\u0412\u0430\u0442\u0435\u0440\u0438\u043d\u0433\u0435\u043d", "place": "town", "population": "15680", "population:date": "2017-01-01", "source:population": "https://westland.incijfers.nl/jive", "wikidata": "Q1615972", "wikipedia": "nl:Wateringen"}}, {"type": "node", "id": 274247451, "lat": 52.0114017, "lon": 4.35839, "tags": {"name": "Delft", "name:carnaval": "Kabbelgat", "name:el": "\u039d\u03c4\u03b5\u03bb\u03c6\u03c4", "name:fa": "\u062f\u0644\u0641\u062a", "name:he": "\u05d3\u05dc\u05e4\u05d8", "name:ja": "\u30c7\u30eb\u30d5\u30c8", "name:ko": "\ub378\ud504\ud2b8", "name:la": "Delphi", "name:nds": "Delft", "name:ru": "\u0414\u0435\u043b\u0444\u0442", "name:sr": "\u0414\u0435\u043b\u0444\u0442", "name:zh": "\u4ee3\u5c14\u592b\u7279", "name:zh-Hant": "\u4ee3\u723e\u592b\u7279", "place": "city", "population": "101386", "population:date": "2017-01-01", "source:population": "https://delft.buurtmonitor.nl/jive?cat_show=Bevolking", "website": "https://www.delft.nl/", "wikidata": "Q690", "wikipedia": "nl:Delft"}}, {"type": "node", "id": 1937357890, "lat": 51.8251585, "lon": 4.4179182, "tags": {"name": "Oud-Beijerland", "name:nl": "Oud-Beijerland", "name:ru": "\u0410\u0443\u0434-\u0411\u0435\u0439\u0435\u0440\u043b\u0430\u043d\u0434", "place": "town", "population": "24015", "population:date": "2017-01-01", "source:population": "CBS", "wikidata": "Q795623", "wikipedia": "nl:Oud-Beijerland"}}, {"type": "node", "id": 1762567236, "lat": 51.8566651, "lon": 4.5368567, "tags": {"name": "Barendrecht", "name:nl": "Barendrecht", "name:ru": "\u0411\u0430\u0440\u0435\u043d\u0434\u0440\u0435\u0445\u0442", "place": "town", "population": "48344", "population:date": "2017-01-01", "source:population": "CBS", "website": "https://www.barendrecht.nl/", "wikidata": "Q204239", "wikipedia": "nl:Barendrecht"}}, {"type": "node", "id": 1364305828, "lat": 51.8714812, "lon": 4.5999778, "tags": {"name": "Ridderkerk", "name:nl": "Ridderkerk", "name:ru": "\u0420\u0438\u0434\u0434\u0435\u0440\u043a\u0435\u0440\u043a", "place": "town", "population": "25285", "population:date": "2017-01-01", "population:note": "Inwonertal exclusief Slikkerveer, Bolnes, Rijsoord en Oostendam.", "source:population": "CBS Wijk 2017", "state": "Zuid-Holland", "website": "https://www.ridderkerk.nl/", "wikidata": "Q222220", "wikipedia": "nl:Ridderkerk"}}, {"type": "node", "id": 6632436655, "lat": 51.914403, "lon": 4.5887889, "tags": {"name": "Krimpen aan den IJssel", "name:carnaval": "Bulderdonk", "name:ru": "\u041a\u0440\u0438\u043c\u043f\u0435\u043d-\u0430\u043d-\u0434\u0435\u043d-\u042d\u0439\u0441\u0441\u0435\u043b", "name:zh": "\u827e\u745f\u5c14\u6cb3\u7554\u514b\u6797\u5f6d", "place": "town", "population": "29123", "population:date": "2017-01-01", "source:population": "CBS", "website": "https://www.krimpenaandenijssel.nl/", "wikipedia": "nl:Krimpen aan den Ijssel"}}, {"type": "node", "id": 44410812, "lat": 51.9228958, "lon": 4.4631727, "tags": {"name": "Rotterdam", "name:ar": "\u0631\u0648\u062a\u0631\u062f\u0627\u0645", "name:carnaval": "Dwalmdam", "name:de": "Rotterdam", "name:en": "Rotterdam", "name:eo": "Roterdamo", "name:es": "R\u00f3terdam", "name:la": "Roterodamum", "name:lt": "Roterdamas", "name:lv": "Roterdama", "name:mk": "\u0420\u043e\u0442\u0435\u0440\u0434\u0430\u043c", "name:nl": "Rotterdam", "name:oc": "Rotterdam", "name:pt": "Roterd\u00e3o", "name:ru": "\u0420\u043e\u0442\u0442\u0435\u0440\u0434\u0430\u043c", "name:sr": "\u0420\u043e\u0442\u0435\u0440\u0434\u0430\u043c", "name:tt": "\u0420\u043e\u0442\u0442\u0435\u0440\u0434\u0430\u043c", "name:uk": "\u0420\u043e\u0442\u0442\u0435\u0440\u0434\u0430\u043c", "name:zh": "\u9e7f\u7279\u4e39", "place": "city", "population": "572392", "population:date": "2017-01-01", "population:note": "Inwonertal gemeente minus Hoogvliet, Rozenburg, Hoek van Holland en Pernis.", "source:name:oc": "Lo Congr\u00e8s", "source:population": "https://rotterdam.buurtmonitor.nl/jive", "website": "https://www.rotterdam.nl/", "wikidata": "Q34370", "wikipedia": "nl:Rotterdam"}}, {"type": "node", "id": 6173393906, "lat": 52.0200581, "lon": 4.434186, "tags": {"name": "Pijnacker", "name:carnaval": "Trappersgat", "name:ru": "\u041f\u0435\u0439\u043d\u0430\u043a\u043a\u0435\u0440", "place": "town", "population": "24260", "population:date": "2017-01-01", "postal_code": "2641-2642", "source:population": "https://pijnacker-nootdorp.incijfers.nl/jive", "wikidata": "Q968044", "wikipedia": "nl:Pijnacker"}}, {"type": "node", "id": 44759560, "lat": 51.9911323, "lon": 4.4739774, "tags": {"name": "Berkel en Rodenrijs", "place": "town", "population": "30048", "population:date": "2017", "source:population": "https://www.lansingerland.nl/in-de-gemeente/in-cijfers_43407"}}, {"type": "node", "id": 838296138, "lat": 51.9347521, "lon": 4.579397, "tags": {"is_in:country": "The Netherlands", "is_in:country_code": "NL", "is_in:province": "South Holland", "name": "Capelle aan den IJssel", "name:ru": "\u041a\u0430\u043f\u0435\u043b\u043b\u0435-\u0430\u043d-\u0434\u0435\u043d-\u042d\u0439\u0441\u0441\u0435\u043b", "place": "town", "population": "66421", "population:date": "2017-01-01", "source:population": "CBS", "website": "https://www.capelleaandenijssel.nl/", "wikidata": "Q734860", "wikipedia": "nl:Capelle aan den IJssel"}}, {"type": "node", "id": 1447338054, "lat": 51.9675284, "lon": 4.6116776, "tags": {"name": "Nieuwerkerk aan den IJssel", "name:ru": "\u041d\u044c\u0438\u0432\u0435\u0440\u043a\u0435\u0440\u043a-\u0430\u043d-\u0434\u0435\u043d-\u042d\u0439\u0441\u0441\u0435\u043b", "place": "town", "population": "21595", "population:date": "2017-01-01", "source:population": "CBS Wijk 2017", "website": "https://www.zuidplas.nl/", "wikidata": "Q588544", "wikipedia": "nl:Nieuwerkerk aan den IJssel"}}, {"type": "node", "id": 235874404, "lat": 51.7958812, "lon": 4.6779351, "tags": {"loc_name": "Dordt", "name": "Dordrecht", "name:carnaval": "Ooi- en Ramsgat", "name:en": "Dordrecht", "name:fr": "Dort", "name:fy": "Doardt", "name:lt": "Dordrechtas", "name:mk": "\u0414\u043e\u0440\u0434\u0440\u0435\u0445\u0442", "name:nl": "Dordrecht", "name:ru": "\u0414\u043e\u0440\u0434\u0440\u0435\u0445\u0442", "name:sr": "\u0414\u043e\u0440\u0434\u0440\u0435\u0445\u0442", "name:uk": "\u0414\u043e\u0440\u0434\u0440\u0435\u0445\u0442", "place": "city", "population": "118703", "population:date": "2017-01-01", "source:population": "http://www.kerncijfers-drechtsteden.nl/jaar/2017/bevolking", "wikidata": "Q26421", "wikipedia": "nl:Dordrecht"}}, {"type": "node", "id": 3123047179, "lat": 51.6447215, "lon": 4.8608337, "tags": {"name": "Oosterhout", "name:carnaval": "Kaaiendonk", "name:nl": "Oosterhout", "name:ru": "\u041e\u0441\u0442\u0435\u0440\u0445\u0430\u0443\u0442", "place": "town", "population": "49483", "population:date": "2017-01-01", "source:population": "https://www.oosterhout.nl/metamenu/over-de-gemeente/feiten-en-cijfers/kengetallen", "wikidata": "Q12912978", "wikipedia": "nl:Oosterhout (Noord-Brabant)"}}, {"type": "node", "id": 3123083372, "lat": 51.6247384, "lon": 4.9366784, "tags": {"name": "Dongen", "name:carnaval": "Peejenrijk", "name:ru": "\u0414\u043e\u043d\u0433\u0435\u043d", "place": "town", "population": "23175", "population:date": "2017-01-01", "source:population": "https://dongen.incijfers.nl/jive", "wikidata": "Q4507706", "wikipedia": "nl:Dongen (plaats)"}}, {"type": "node", "id": 3123127830, "lat": 51.6598038, "lon": 5.0319484, "tags": {"name": "Kaatsheuvel", "name:carnaval": "Turfstekersland", "name:ru": "\u041a\u0430\u0442\u0441\u0445\u0451\u0432\u0435\u043b", "place": "town", "population": "16441", "population:date": "2017-01-01", "source:population": "https://www.loonopzand.nl/cijfers", "wikidata": "Q2330283", "wikipedia": "nl:Kaatsheuvel"}}, {"type": "node", "id": 3123090922, "lat": 51.8079227, "lon": 4.8987346, "tags": {"is_in": "NL", "is_in:continent": "Europe", "is_in:country": "The Netherlands", "is_in:country_code": "NL", "is_in:province": "North Brabant", "name": "Werkendam", "name:ru": "\u0412\u0435\u0440\u043a\u0435\u043d\u0434\u0430\u043c", "place": "town", "population": "11292", "population:date": "2018-01-01", "postal_code": "4251", "source:population": "https://www.werkendam.nl/Bestuur/Statistische_gegevens", "wikidata": "Q2682753", "wikipedia": "nl:Werkendam (plaats)"}}, {"type": "node", "id": 1523625769, "lat": 51.8162227, "lon": 4.6405166, "tags": {"is_in:country": "The Netherlands", "is_in:country_code": "NL", "is_in:province": "South Holland", "name": "Zwijndrecht", "name:carnaval": "Peebos", "name:nl": "Zwijndrecht", "name:ru": "\u0417\u0432\u0435\u0439\u043d\u0434\u0440\u0435\u0445\u0442", "place": "town", "population": "40635", "population:date": "2017-01-01", "source:population": "https://ocd.buurtmonitor.nl/jive", "website": "https://www.zwijndrecht.nl/", "wikidata": "Q244692", "wikipedia": "nl:Zwijndrecht (Nederland)"}}, {"type": "node", "id": 1506614297, "lat": 51.8438893, "lon": 4.635647, "tags": {"is_in:country": "The Netherlands", "is_in:country_code": "NL", "is_in:province": "South Holland", "name": "Hendrik-Ido-Ambacht", "name:carnaval": "Roestrammerdam", "name:ru": "\u0425\u0435\u043d\u0434\u0440\u0438\u043a-\u0418\u0434\u043e-\u0410\u043c\u0431\u0430\u0445\u0442", "place": "town", "population": "29730", "population:date": "2017-01-01", "postal_code": "3344", "source:population": "https://ocd.buurtmonitor.nl/jive", "website": "https://www.h-i-ambacht.nl/", "wikidata": "Q538725", "wikipedia": "nl:Hendrik-Ido-Ambacht"}}, {"type": "node", "id": 1529225920, "lat": 51.8348695, "lon": 4.6937293, "tags": {"is_in:country": "The Netherlands", "is_in:country_code": "NL", "is_in:province": "South Holland", "name": "Papendrecht", "name:carnaval": "Erwtepellerwaard", "name:ru": "\u041f\u0430\u043f\u0435\u043d\u0434\u0440\u0435\u0445\u0442", "place": "town", "population": "32295", "population:date": "2017-01-01", "postal_code": "3355", "source:population": "https://ocd.buurtmonitor.nl/jive", "website": "https://www.papendrecht.nl/", "wikidata": "Q934511", "wikipedia": "nl:Papendrecht"}}, {"type": "node", "id": 1540416288, "lat": 51.8250939, "lon": 4.7741716, "tags": {"is_in:country": "The Netherlands", "is_in:country_code": "NL", "is_in:province": "South Holland", "name": "Sliedrecht", "name:ru": "\u0421\u043b\u0438\u0434\u0440\u0435\u0445\u0442", "place": "town", "population": "25010", "population:date": "2017-01-01", "source:population": "https://ocd.buurtmonitor.nl/jive", "website": "https://www.sliedrecht.nl/", "wikidata": "Q750760", "wikipedia": "nl:Sliedrecht"}}, {"type": "node", "id": 607388087, "lat": 52.0114922, "lon": 4.7106094, "tags": {"is_in": "NL", "is_in:continent": "Europe", "is_in:country": "The Netherlands", "is_in:country_code": "NL", "is_in:province": "South Holland", "name": "Gouda", "name:carnaval": "Pijpenburg", "name:nl": "Gouda", "name:ru": "\u0413\u0430\u0443\u0434\u0430", "name:uk": "Gouda", "place": "town", "population": "71752", "population:date": "2017-01-01", "source:population": "https://gouda.incijfers.nl", "website": "https://www.gouda.nl/", "wikidata": "Q84125", "wikipedia": "nl:Gouda"}}, {"type": "node", "id": 4639544491, "lat": 51.8296133, "lon": 4.9738743, "tags": {"alt_name": "Gorcum", "name": "Gorinchem", "name:carnaval": "Bliekenstad", "name:fy": "Garkum", "name:nl": "Gorinchem", "name:ru": "\u0413\u043e\u0440\u0438\u043d\u0445\u0435\u043c", "place": "town", "population": "34855", "population:date": "2017-01-01", "postal_code": "4201", "province": "Zuid-Holland", "source:population": "CBS Wijk 2017", "wikidata": "Q244327", "wikipedia": "nl:Gorinchem"}}, {"type": "node", "id": 44556470, "lat": 51.9506681, "lon": 4.8492301, "tags": {"name": "Schoonhoven", "name:ru": "\u0421\u0445\u043e\u043d\u0445\u043e\u0432\u0435\u043d", "place": "town", "population": "12390", "population:date": "2017-01-01", "postal_code": "2871", "source:population": "CBS Wijk 2017", "website": "http://www.schoonhoven.nl", "wikidata": "Q478036", "wikipedia": "nl:Schoonhoven"}}, {"type": "node", "id": 267275296, "lat": 52.0446265, "lon": 4.3188215, "tags": {"name": "Rijswijk", "name:carnaval": "Knotsengat", "name:fr": "Ryswick", "name:ru": "\u0420\u0435\u0439\u0441\u0432\u0435\u0439\u043a", "place": "town", "population": "51027", "population:date": "2017-01-01", "source:population": "https://rijswijk.incijfers.nl/jive", "website": "https://www.rijswijk.nl/", "wikidata": "Q506745", "wikipedia": "nl:Rijswijk (Zuid-Holland)"}}, {"type": "node", "id": 981159429, "lat": 52.0426094, "lon": 4.3930456, "tags": {"is_in": "NL", "is_in:continent": "Europe", "is_in:country": "The Netherlands", "is_in:country_code": "NL", "is_in:province": "South Holland", "name": "Nootdorp", "place": "town", "population": "19160", "population:date": "2017-01-01", "postal_code": "2631", "source:population": "https://pijnacker-nootdorp.incijfers.nl/jive", "wikidata": "Q1615172", "wikipedia": "nl:Nootdorp"}}, {"type": "node", "id": 274251097, "lat": 52.0703201, "lon": 4.3558561, "tags": {"is_in:country": "The Netherlands", "is_in:country_code": "NL", "is_in:province": "South Holland", "name": "Voorburg", "name:ru": "\u0412\u043e\u0440\u0431\u044e\u0440\u0433", "place": "town", "population": "45945", "population:date": "2017-01-01", "source:population": "https://leidschendam-voorburg.buurtmonitor.nl/jive", "url": "www.leidschendam-voorburg.nl", "wikidata": "Q809821", "wikipedia": "nl:Voorburg (Zuid-Holland)"}}, {"type": "node", "id": 235857686, "lat": 52.0799838, "lon": 4.3113461, "tags": {"alt_name": "'s-Gravenhage", "alt_name:ja": "\u30b9\u30d5\u30e9\u30fc\u30d5\u30a7\u30f3\u30cf\u30fc\u30d8", "alt_name:la": "Haga Comitis;Haga Comitum", "capital": "4", "name": "Den Haag", "name:ar": "\u0644\u0627\u0647\u0627\u064a", "name:ca": "La Haia", "name:carnaval": "Kreesiedentie", "name:da": "Haag", "name:de": "Den Haag", "name:el": "\u03a7\u03ac\u03b3\u03b7", "name:en": "The Hague", "name:eo": "Hago", "name:es": "La Haya", "name:et": "Haag", "name:fi": "Haag", "name:fr": "La Haye", "name:fy": "De Haach", "name:he": "\u05d4\u05d0\u05d2", "name:hr": "Hag", "name:it": "L'Aia", "name:ja": "\u30c7\u30f3\u30fb\u30cf\u30fc\u30b0", "name:la": "Haga", "name:lt": "Haga", "name:mk": "\u0425\u0430\u0433", "name:nds": "Den Haag", "name:nl": "Den Haag", "name:pl": "Haga", "name:pt": "A Haia", "name:ru": "\u0413\u0430\u0430\u0433\u0430", "name:sr": "\u0425\u0430\u0433", "name:tt": "\u0413\u0430\u0430\u0433\u0430", "name:tzl": "Scravenac'ha", "name:uk": "\u0413\u0430\u0430\u0433\u0430", "name:vi": "La Hay", "name:zh": "\u6d77\u7259", "place": "city", "population": "525745", "population:date": "2017-01-01", "short_name:ja": "\u30cf\u30fc\u30b0", "source:population": "https://www.denhaag.nl/nl/bestuur-en-organisatie/feiten-en-cijfers.htm", "website": "https://www.denhaag.nl/", "wikidata": "Q36600", "wikipedia": "nl:Den Haag"}}, {"type": "node", "id": 1700240652, "lat": 52.0861654, "lon": 4.3946774, "tags": {"is_in:country": "The Netherlands", "is_in:country_code": "NL", "is_in:province": "South Holland", "name": "Leidschendam", "name:ru": "\u041b\u0435\u0439\u0434\u0441\u0435\u043d\u0434\u0430\u043c", "place": "town", "population": "26335", "population:date": "2017-01-01", "population:note": "Inwonertal exclusief Stompwijk.", "source:population": "https://leidschendam-voorburg.buurtmonitor.nl/jive", "website": "http://www.leidschendam-voorburg.nl", "wikidata": "Q1616233", "wikipedia": "nl:Leidschendam"}}, {"type": "node", "id": 869864910, "lat": 52.1425779, "lon": 4.4012224, "tags": {"is_in:country": "The Netherlands", "is_in:country_code": "NL", "is_in:province": "South Holland", "name": "Wassenaar", "name:ru": "\u0412\u0430\u0441\u0441\u0435\u043d\u0430\u0440", "name:uk": "\u0412\u0430\u0441\u0441\u0435\u043d\u0430\u0430\u0440", "place": "town", "population": "26055", "population:date": "2017-01-01", "source:population": "https://wassenaar.incijfers.nl/jive", "website": "https://www.wassenaar.nl/", "wikidata": "Q505601", "wikipedia": "nl:Wassenaar (gemeente)"}}, {"type": "node", "id": 868039529, "lat": 52.0622531, "lon": 4.4901218, "tags": {"name": "Zoetermeer", "name:fy": "Soetermar", "name:he": "\u05d6\u05d5\u05d8\u05e8\u05de\u05e8", "name:lt": "Zutermeras", "name:nl": "Zoetermeer", "name:ru": "\u0417\u0443\u0442\u0435\u0440\u043c\u0435\u0440", "name:sr": "\u0417\u0443\u0442\u0435\u0440\u043c\u0435\u0440", "name:uk": "\u0417\u0443\u0442\u0435\u0440\u043c\u0435\u0440", "place": "city", "population": "124780", "population:date": "2017-01-01", "source:population": "https://www.zoetermeer.nl/inwoners/feiten-en-cijfers_46421", "website": "https://www.zoetermeer.nl/", "wikidata": "Q26432", "wikipedia": "nl:Zoetermeer"}}, {"type": "node", "id": 873538482, "lat": 52.1275236, "lon": 4.4465727, "tags": {"is_in:country": "The Netherlands", "is_in:country_code": "NL", "is_in:province": "South Holland", "name": "Voorschoten", "name:ru": "\u0412\u043e\u0440\u0441\u0445\u043e\u0442\u0435\u043d", "place": "town", "population": "25315", "population:date": "2017-01-01", "source:population": "https://voorschoten.incijfers.nl/jive", "website": "https://www.voorschoten.nl/", "wikidata": "Q848324", "wikipedia": "nl:Voorschoten"}}, {"type": "node", "id": 235865586, "lat": 52.1594747, "lon": 4.4908843, "tags": {"name": "Leiden", "name:fr": "Leyde", "name:fy": "Leien", "name:it": "Leida", "name:mk": "\u041b\u0430\u0458\u0434\u0435\u043d", "name:nl": "Leiden", "name:pl": "Lejda", "name:pt": "Leida", "name:ru": "\u041b\u0435\u0439\u0434\u0435\u043d", "name:sr": "\u041b\u0430\u0458\u0434\u0435\u043d", "name:zh": "\u83b1\u987f", "name:zh-Hant": "\u840a\u9813", "place": "city", "population": "123753", "population:date": "2017-01-01", "source:population": "https://gemeente.leiden.nl", "website": "https://www.leiden.nl/", "wikidata": "Q43631", "wikipedia": "nl:Leiden"}}, {"type": "node", "id": 875617853, "lat": 52.2005078, "lon": 4.4146372, "tags": {"is_in:country": "The Netherlands", "is_in:country_code": "NL", "is_in:province": "South Holland", "name": "Katwijk", "name:nl": "Katwijk", "name:ru": "\u041a\u0430\u0442\u0432\u0435\u0439\u043a", "place": "town", "population": "43012", "population:date": "2017-01-01", "source:population": "https://www.katwijk.nl/gemeente-en-burgerzaken/kerngegevens-gemeente", "website": "https://www.katwijk.nl/", "wikidata": "Q2921491", "wikipedia": "nl:Katwijk aan Zee"}}, {"type": "node", "id": 60280581, "lat": 52.185433, "lon": 4.4738856, "tags": {"is_in:country": "The Netherlands", "is_in:country_code": "NL", "is_in:province": "South Holland", "name": "Oegstgeest", "name:lt": "Ugstgestas", "name:ru": "\u0423\u0433\u0441\u0442\u0433\u0435\u0441\u0442", "place": "town", "population": "23608", "population:date": "2017-01-01", "postal_code": "2341", "source:population": "CBS", "website": "https://www.oegstgeest.nl/", "wikidata": "Q94747", "wikipedia": "nl:Oegstgeest"}}, {"type": "node", "id": 848405554, "lat": 52.1617952, "lon": 4.5340923, "tags": {"is_in:country": "The Netherlands", "is_in:country_code": "NL", "is_in:province": "South Holland", "name": "Leiderdorp", "name:ru": "\u041b\u0435\u0439\u0434\u0435\u0440\u0434\u043e\u0440\u043f", "name:zh": "\u83b1\u5fb7\u591a\u666e", "place": "town", "population": "27128", "population:date": "2017-01-01", "source:population": "CBS", "website": "https://www.leiderdorp.nl/", "wikidata": "Q1000817", "wikipedia": "nl:Leiderdorp"}}, {"type": "node", "id": 884207056, "lat": 52.2410856, "lon": 4.4461969, "tags": {"name": "Noordwijk", "name:ru": "\u041d\u043e\u0440\u0434\u0432\u0435\u0439\u043a", "place": "town", "population": "25867", "population:date": "2017-01-01", "source:population": "https://www.noordwijk.nl/home/feiten-en-cijfers_43958", "website": "https://www.noordwijk.nl/", "wikidata": "Q455464", "wikipedia": "nl:Noordwijk (Zuid-Holland)"}}, {"type": "node", "id": 877149677, "lat": 52.2576098, "lon": 4.5630329, "tags": {"is_in:country": "The Netherlands", "is_in:country_code": "NL", "is_in:province": "South Holland", "name": "Lisse", "name:fa": "\u062c\u0627\u0645\u0628\u0648", "name:ru": "\u041b\u0438\u0441\u0441\u0435", "name:uk": "\u041b\u0456\u0441\u0441\u0435", "place": "town", "population": "22717", "population:date": "2017-01-01", "source:population": "CBS", "website": "https://www.lisse.nl/", "wikidata": "Q332730", "wikipedia": "nl:Lisse"}}, {"type": "node", "id": 46046752, "lat": 52.2922753, "lon": 4.5834571, "tags": {"name": "Hillegom", "name:ru": "\u0425\u0438\u043b\u043b\u0435\u0433\u043e\u043c", "place": "town", "population": "21316", "population:date": "2017-01-01", "source:population": "CBS", "website": "http://www.hillegom.nl", "wikidata": "Q932116", "wikipedia": "nl:Hillegom"}}, {"type": "node", "id": 392043534, "lat": 52.3713394, "lon": 4.5307624, "tags": {"name": "Zandvoort", "name:fy": "S\u00e2nfoart", "name:ru": "\u0417\u0430\u043d\u0434\u0432\u043e\u0440\u0442", "name:uk": "\u0417\u0430\u043d\u0434\u0432\u043e\u0440\u0442", "place": "town", "population": "15900", "population:date": "2017-01-01", "postal_code": "2041-2042", "source:population": "CBS Wijk 2017", "website": "https://www.zandvoort.nl/", "wikidata": "Q33525262"}}, {"type": "node", "id": 45000798, "lat": 52.0448492, "lon": 4.6552042, "tags": {"is_in:country": "The Netherlands", "is_in:province": "South Holland", "name": "Waddinxveen", "name:carnaval": "Slobberveen", "name:ru": "\u0412\u0430\u0434\u0434\u0438\u043d\u043a\u0441\u0432\u0435\u043d", "place": "town", "population": "29293", "population:date": "2017-01-01", "postal_code": "2741", "source:population": "https://waddinxveen.incijfers.nl/jive", "website": "https://www.waddinxveen.nl/", "wikidata": "Q826048", "wikipedia": "nl:Waddinxveen"}}, {"type": "node", "id": 1277546473, "lat": 52.0742348, "lon": 4.6631166, "tags": {"name": "Boskoop", "name:carnaval": "Kwakveen", "place": "town", "population": "15536", "population:date": "2017-01-01", "postal_code": "2771", "source:population": "https://alphenaandenrijn.incijfers.nl/jive", "url": "www.boskoop.nl"}}, {"type": "node", "id": 45168624, "lat": 52.0834347, "lon": 4.7510872, "tags": {"name": "Bodegraven", "name:nl": "Bodegraven", "name:ru": "\u0411\u043e\u0434\u0435\u0433\u0440\u0430\u0432\u0435\u043d", "place": "town", "population": "18187", "population:date": "2018-01-01", "postal_code": "2411", "source:population": "https://gemeente.bodegraven-reeuwijk.nl/bodegraven-reeuwijk-cijfers", "website": "http://www.bodegraven.nl/", "wikidata": "Q832938", "wikipedia": "nl:Bodegraven"}}, {"type": "node", "id": 235868279, "lat": 52.1343369, "lon": 4.6561357, "tags": {"name": "Alphen aan den Rijn", "name:carnaval": "Het Rijk van Castellum", "name:de": "Alphen am Rhein", "name:fr": "Alphen-sur-le-Rhin", "name:fy": "Alfen oan de Ryn", "name:lt": "Alfenas prie Reino", "name:nl": "Alphen aan den Rijn", "name:ru": "\u0410\u043b\u0444\u0435\u043d-\u0430\u043d-\u0434\u0435\u043d-\u0420\u0435\u0439\u043d", "place": "town", "population": "71428", "population:date": "2017-01-01", "source:population": "https://alphenaandenrijn.incijfers.nl/jive", "website": "https://www.alphenaandenrijn.nl/", "wikidata": "Q15156199", "wikipedia": "nl:Alphen aan den Rijn (plaats)"}}, {"type": "node", "id": 45185104, "lat": 52.0868281, "lon": 4.8913315, "tags": {"name": "Woerden", "name:nl": "Woerden", "name:ru": "\u0412\u0443\u0440\u0434\u0435\u043d", "place": "town", "population": "37195", "population:date": "2017-01-01", "source:population": "CBS Wijk 2017", "website": "https://www.woerden.nl", "wikidata": "Q5128", "wikipedia": "nl:Woerden"}}, {"type": "node", "id": 3134163742, "lat": 52.0801008, "lon": 5.023997, "tags": {"name": "De Meern", "name:ru": "\u0414\u0435-\u041c\u0435\u0440\u043d", "place": "town", "population": "21316", "population:date": "2017-01-01", "source:population": "https://utrecht.buurtmonitor.nl//jive"}}, {"type": "node", "id": 3134163743, "lat": 52.1073555, "lon": 5.0135224, "tags": {"name": "Vleuten", "name:ru": "\u0412\u043b\u0451\u0442\u0435\u043d", "place": "town", "population": "25695", "population:date": "2017-01-01", "source:population": "https://utrecht.buurtmonitor.nl//jive"}}, {"type": "node", "id": 947004770, "lat": 52.2060181, "lon": 4.8648168, "tags": {"is_in:country": "The Netherlands", "is_in:country_code": "NL", "is_in:province": "Utrecht", "name": "Mijdrecht", "name:ru": "\u041c\u0435\u0439\u0434\u0440\u0435\u0445\u0442", "place": "town", "population": "16025", "population:date": "2017-01-01", "source:population": "CBS Wijk 2017", "website": "https://www.derondevenen.nl/", "wikidata": "Q666498", "wikipedia": "nl:Mijdrecht"}}, {"type": "node", "id": 929393459, "lat": 52.2647524, "lon": 4.6335617, "tags": {"name": "Nieuw-Vennep", "name:uk": "\u041d\u044c\u0456\u0432-\u0412\u0435\u043d\u043d\u0435\u043f", "place": "town", "population": "31514", "population:date": "2020-01-01", "source:population": "https://onderzoek.haarlemmermeergemeente.nl/bevolking", "website": "www.haarlemmermeer.nl", "wikidata": "Q545457", "wikipedia": "nl:Nieuw-Vennep"}}, {"type": "node", "id": 936127487, "lat": 52.3054468, "lon": 4.6927278, "tags": {"name": "Hoofddorp", "name:carnaval": "Meerbonkendorp", "name:fy": "Haaddoarp", "name:lt": "Hofdorpas", "name:nl": "Hoofddorp", "name:ru": "\u0425\u043e\u0444\u0434\u0434\u043e\u0440\u043f", "name:sr": "\u0425\u043e\u0444\u0434\u043e\u0440\u043f", "name:uk": "\u0413\u043e\u0444\u0434\u0434\u043e\u0440\u043f", "name:zh": "\u970d\u592b\u591a\u666e", "place": "town", "population": "76638", "population:date": "2020-01-01", "source:population": "https://onderzoek.haarlemmermeergemeente.nl/bevolking", "website": "http://www.haarlemmermeer.nl", "wikidata": "Q995911", "wikipedia": "nl:Hoofddorp"}}, {"type": "node", "id": 943296880, "lat": 52.265986, "lon": 4.7611137, "tags": {"name": "Aalsmeer", "name:fy": "Aalsmear", "name:lt": "Alsmeris", "name:nl": "Aalsmeer", "name:ru": "\u0410\u043b\u0441\u043c\u0435\u0440", "name:uk": "\u0410\u043b\u0441\u043c\u0435\u0440", "name:zh": "\u963f\u5c14\u65af\u6885\u5c14", "place": "town", "population": "22168", "population:date": "2017-01-01", "population:note": "Inwonertal inclusief Oosteinde.", "source:population": "https://www.aalsmeer.nl/bestuur-organisatie/publicatie/feiten-en-cijfers_bevolkings-en-kerncijfers-aalsmeer", "website": "https://www.aalsmeer.nl/", "wikidata": "Q9897", "wikipedia": "nl:Aalsmeer"}}, {"type": "node", "id": 46304120, "lat": 52.3529362, "lon": 4.6215374, "tags": {"name": "Heemstede", "name:carnaval": "Biggenstede", "name:fy": "Hiemstee", "name:lt": "Hemsted\u0117", "name:nl": "Heemstede", "name:ru": "\u0425\u0435\u043c\u0441\u0442\u0435\u0434\u0435", "name:uk": "\u0413\u0435\u043c\u0441\u0442\u0435\u0434\u0435", "place": "town", "population": "26936", "population:date": "2017-01-01", "postal_code": "2100-2106", "source:population": "CBS", "website": "https://www.heemstede.nl/", "wikidata": "Q9928", "wikipedia": "nl:Heemstede (Noord-Holland)"}}, {"type": "node", "id": 296054949, "lat": 52.3885317, "lon": 4.6388048, "tags": {"capital": "4", "name": "Haarlem", "name:ar": "\u0647\u0627\u0631\u0644\u0645", "name:carnaval": "Muggendonk", "name:de": "Haarlem", "name:en": "Haarlem", "name:eo": "Harlemo", "name:es": "Haarlem", "name:fr": "Haarlem", "name:fy": "Haarlim", "name:he": "\u05d4\u05d0\u05e8\u05dc\u05dd", "name:ja": "\u30cf\u30fc\u30eb\u30ec\u30e0", "name:ka": "\u10f0\u10d0\u10d0\u10e0\u10da\u10d4\u10db\u10d8", "name:lt": "Harlemas", "name:nl": "Haarlem", "name:ru": "\u0425\u0430\u0440\u043b\u0435\u043c", "name:sr": "\u0425\u0430\u0440\u043b\u0435\u043c", "name:uk": "\u0413\u0430\u0440\u043b\u0435\u043c", "name:zh": "\u54c8\u52d2\u59c6", "place": "city", "population": "158593", "population:date": "2017-01-01", "population:note": "Inwonertal gemeente minus Spaarndam-West.", "source:population": "https://haarlem.buurtmonitor.nl/jive", "website": "https://www.haarlem.nl/", "wikidata": "Q9920", "wikipedia": "nl:Haarlem"}}, {"type": "node", "id": 951255668, "lat": 52.2411412, "lon": 4.8251096, "tags": {"name": "Uithoorn", "name:fy": "Uthoarn", "name:nl": "Uithoorn", "name:ru": "\u042d\u0439\u0442\u0445\u043e\u0440\u043d", "name:uk": "\u0415\u0439\u0442\u0445\u043e\u0440\u043d", "name:zh": "\u5965\u7279\u970d\u4f26", "place": "town", "population": "24835", "population:date": "2017-01-01", "population:note": "Inwonertal gemeente (CBS) minus De Kwakel (http://de-kwakel.com)", "source:population": "CBS;http://de-kwakel.com", "website": "https://www.uithoorn.nl/", "wikidata": "Q9969", "wikipedia": "nl:Uithoorn"}}, {"type": "node", "id": 4931137843, "lat": 52.3025582, "lon": 4.8467875, "tags": {"name": "Amstelveen", "name:nl": "Amstelveen", "name:ru": "\u0410\u043c\u0441\u0442\u0435\u043b\u0432\u0435\u043d", "name:uk": "\u0410\u043c\u0441\u0442\u0435\u043b\u0432\u0435\u043d", "place": "town", "population": "89321", "population:date": "2017-01-01", "population:note": "Inwonertal inclusief Nes aan de Amstel.", "source:population": "https://amstelveen.incijfers.nl//jive"}}, {"type": "node", "id": 268396336, "lat": 52.3727598, "lon": 4.8936041, "tags": {"admin_level": "2", "alt_name:el": "\u0386\u03bc\u03c3\u03c4\u03b5\u03c1\u03bd\u03c4\u03b1\u03bc", "alt_name:gl": "\u00c1msterdan", "capital": "yes", "capital_ISO3166-1": "yes", "is_capital": "country", "name": "Amsterdam", "name:am": "\u12a0\u121d\u1235\u1270\u122d\u12f3\u121d", "name:ar": "\u0623\u0645\u0633\u062a\u0631\u062f\u0627\u0645", "name:arc": "\u0710\u0721\u0723\u071b\u072a\u0715\u0710\u0721", "name:arz": "\u0627\u0645\u0633\u062a\u0631\u062f\u0627\u0645", "name:ast": "\u00c1msterdam", "name:ba": "\u0410\u043c\u0441\u0442\u0435\u0440\u0434\u0430\u043c", "name:bat-smg": "Amsterdams", "name:be": "\u0410\u043c\u0441\u0442\u044d\u0440\u0434\u0430\u043c", "name:be-tarask": "\u0410\u043c\u0441\u0442\u044d\u0440\u0434\u0430\u043c", "name:bg": "\u0410\u043c\u0441\u0442\u0435\u0440\u0434\u0430\u043c", "name:bn": "\u0986\u09ae\u09b8\u09cd\u099f\u09be\u09b0\u09a1\u09be\u09ae", "name:bo": "\u0f68\u0f7a\u0f58\u0f0b\u0f66\u0f72\u0f0b\u0f4a\u0f62\u0f0b\u0f4c\u0f58\u0f0d", "name:ckb": "\u0626\u06d5\u0645\u0633\u062a\u06d5\u0631\u062f\u0627\u0645", "name:cv": "\u0410\u043c\u0441\u0442\u0435\u0440\u0434\u0430\u043c", "name:de": "Amsterdam", "name:el": "\u0391\u03bc\u03c3\u03c4\u03b5\u03bb\u03cc\u03b4\u03b1\u03bc\u03bf", "name:en": "Amsterdam", "name:eo": "Amsterdamo", "name:es": "\u00c1msterdam", "name:ext": "\u00c1msterdam", "name:fa": "\u0622\u0645\u0633\u062a\u0631\u062f\u0627\u0645", "name:fr": "Amsterdam", "name:ga": "Amstardam", "name:gl": "\u00c1msterdam", "name:he": "\u05d0\u05de\u05e1\u05d8\u05e8\u05d3\u05dd", "name:hi": "\u0910\u092e\u094d\u0938\u094d\u091f\u0930\u094d\u0921\u0948\u092e", "name:ht": "Amst\u00e8dam", "name:hu": "Amszterdam", "name:hy": "\u0531\u0574\u057d\u057f\u0565\u0580\u0564\u0561\u0574", "name:is": "Amsterdam", "name:it": "Amsterdam", "name:ja": "\u30a2\u30e0\u30b9\u30c6\u30eb\u30c0\u30e0", "name:ka": "\u10d0\u10db\u10e1\u10e2\u10d4\u10e0\u10d3\u10d0\u10db\u10d8", "name:kk": "\u0410\u043c\u0441\u0442\u0435\u0440\u0434\u0430\u043c", "name:kn": "\u0c86\u0c82\u0cb8\u0ccd\u0c9f\u0cb0\u0ccd\u0ca1\u0ccd\u0caf\u0cbe\u0cae\u0ccd", "name:ko": "\uc554\uc2a4\ud14c\ub974\ub2f4", "name:koi": "\u0410\u043c\u0441\u0442\u0435\u0440\u0434\u0430\u043c", "name:krc": "\u0410\u043c\u0441\u0442\u0435\u0440\u0434\u0430\u043c", "name:ku": "Amsterdam", "name:kv": "\u0410\u043c\u0441\u0442\u0435\u0440\u0434\u0430\u043c", "name:la": "Amstelodamum", "name:lt": "Amsterdamas", "name:lv": "Amsterdama", "name:lzh": "\u963f\u59c6\u65af\u7279\u4e39", "name:mdf": "\u0410\u043c\u0441\u0442\u0435\u0440\u0434\u0430\u043c", "name:mk": "\u0410\u043c\u0441\u0442\u0435\u0440\u0434\u0430\u043c", "name:ml": "\u0d06\u0d02\u0d38\u0d4d\u0d31\u0d4d\u0d31\u0d7c\u0d21\u0d3e\u0d02", "name:mn": "\u0410\u043c\u0441\u0442\u0435\u0440\u0434\u0430\u043c", "name:mr": "\u0905\u200d\u0945\u092e\u094d\u0938\u094d\u091f\u0930\u0921\u0945\u092e", "name:mrj": "\u0410\u043c\u0441\u0442\u0435\u0440\u0434\u0430\u043c", "name:my": "\u1021\u1019\u103a\u1005\u1010\u102c\u1012\u1019\u103a\u1019\u103c\u102d\u102f\u1037", "name:nds": "Amsterdam", "name:ne": "\u0906\u092e\u094d\u0938\u094d\u091f\u0930\u094d\u0921\u092e", "name:new": "\u090f\u092e\u094d\u0938\u094d\u091f\u0930\u094d\u0921\u094d\u092f\u093e\u092e", "name:nl": "Amsterdam", "name:no": "Amsterdam", "name:oc": "Amsterdam", "name:os": "\u0410\u043c\u0441\u0442\u0435\u0440\u0434\u0430\u043c", "name:pl": "Amsterdam", "name:pms": "\u00c0msterdam", "name:pnb": "\u0627\u06cc\u0645\u0633\u0679\u0631\u0688\u06cc\u0645", "name:ps": "\u0627\u0645\u0633\u067c\u0631\u0689\u0627\u0645", "name:pt": "Amsterd\u00e3o", "name:pt-BR": "Amsterd\u00e3", "name:ru": "\u0410\u043c\u0441\u0442\u0435\u0440\u0434\u0430\u043c", "name:rue": "\u0410\u043c\u0441\u0442\u0435\u0440\u0434\u0430\u043c", "name:sah": "\u0410\u043c\u0441\u0442\u0435\u0440\u0434\u0430\u043c", "name:si": "\u0d88\u0db8\u0dca\u0dc3\u0dca\u0da7\u0dbb\u0dca\u0da9\u0dd1\u0db8\u0dca", "name:sk": "Amsterdam", "name:so": "Amistardam", "name:sq": "Amsterdami", "name:sr": "\u0410\u043c\u0441\u0442\u0435\u0440\u0434\u0430\u043c", "name:srn": "Damsko", "name:sv": "Amsterdam", "name:ta": "\u0b86\u0bae\u0bcd\u0bb8\u0bcd\u0b9f\u0bb0\u0bcd\u0b9f\u0bae\u0bcd", "name:tg": "\u0410\u043c\u0441\u0442\u0435\u0440\u0434\u0430\u043c", "name:th": "\u0e2d\u0e31\u0e21\u0e2a\u0e40\u0e15\u0e2d\u0e23\u0e4c\u0e14\u0e31\u0e21", "name:tt": "\u0410\u043c\u0441\u0442\u0435\u0440\u0434\u0430\u043c", "name:udm": "\u0410\u043c\u0441\u0442\u0435\u0440\u0434\u0430\u043c", "name:ug": "\u0626\u0627\u0645\u0633\u062a\u06d0\u0631\u062f\u0627\u0645", "name:uk": "\u0410\u043c\u0441\u0442\u0435\u0440\u0434\u0430\u043c", "name:ur": "\u0627\u06cc\u0645\u0633\u0679\u0631\u0688\u06cc\u0645", "name:yi": "\u05d0\u05de\u05e1\u05d8\u05e2\u05e8\u05d3\u05d0\u05dd", "name:yue": "\u963f\u59c6\u65af\u7279\u4e39", "name:zh": "\u963f\u59c6\u65af\u7279\u4e39", "name:zu": "I-Amsterdami", "place": "city", "population": "841282", "population:date": "2017-01-01", "population:note": "Municipality population number minus Driemond, Durgerdam, Holysloot, Ransdorp, Schellingwoude and Zunderdorp.", "source:name:oc": "Lo Congr\u00e8s", "source:population": "https://www.ois.amsterdam.nl;CBS", "website": "https://www.amsterdam.nl/", "wikidata": "Q727", "wikipedia": "nl:Amsterdam"}}, {"type": "node", "id": 296053026, "lat": 52.4424926, "lon": 4.8298607, "tags": {"alt_name:ru": "\u0417\u0430\u043d\u0434\u0430\u043c", "is_in": "NL", "is_in:continent": "Europe", "is_in:country": "The Netherlands", "is_in:country_code": "NL", "is_in:province": "North Holland", "name": "Zaandam", "name:carnaval": "Ankerdorp", "name:fy": "Saandam", "name:nl": "Zaandam", "name:ru": "\u0417\u0430\u0430\u043d\u0434\u0430\u043c", "name:uk": "\u0417\u0430\u043d\u0434\u0430\u043c", "old_name:ru": "\u0421\u0430\u0430\u0440\u0434\u0430\u043c", "place": "town", "population": "76804", "population:date": "2017-01-01", "postal_code": "1501-1509", "source:population": "https://zaanstad.incijfers.nl/jive", "wikidata": "Q211260", "wikipedia": "nl:Zaandam"}}, {"type": "node", "id": 4735098031, "lat": 52.4296098, "lon": 4.9136088, "tags": {"is_in": "NL", "is_in:continent": "Europe", "is_in:country": "The Netherlands", "is_in:country_code": "NL", "is_in:province": "North Holland", "name": "Landsmeer", "name:fy": "L\u00e2nsmar", "name:nl": "Landsmeer", "name:ru": "\u041b\u0430\u043d\u0434\u0441\u043c\u0435\u0440", "place": "town", "population": "9910", "population:date": "2017-01-01", "postal_code": "1121", "source:population": "CBS Wijk 2017", "wikidata": "Q9942", "wikipedia": "nl:Landsmeer"}}, {"type": "node", "id": 905766896, "lat": 52.3421489, "lon": 4.960825, "tags": {"is_in": "NL", "is_in:continent": "Europe", "is_in:country": "The Netherlands", "is_in:country_code": "NL", "is_in:province": "North Holland", "name": "Diemen", "name:nl": "Diemen", "name:ru": "\u0414\u0438\u043c\u0435\u043d", "place": "town", "population": "27272", "population:date": "2017-01-01", "postal_code": "1111", "source:population": "CBS", "website": "https://www.diemen.nl/", "wikidata": "Q9913", "wikipedia": "nl:Diemen"}}, {"type": "node", "id": 46661777, "lat": 52.4573438, "lon": 4.6110644, "tags": {"name": "IJmuiden", "name:ru": "\u042d\u0439\u043c\u0451\u0439\u0434\u0435\u043d", "name:uk": "\u0415\u0439\u043c\u044c\u043e\u0439\u0434\u0435\u043d", "place": "town", "population": "31307", "population:date": "2017-01-01", "source:population": "https://velsen.incijfers.nl/jive", "website": "https://www.velsen.nl/", "wikidata": "Q282461", "wikipedia": "nl:IJmuiden"}}, {"type": "node", "id": 46734018, "lat": 52.4876371, "lon": 4.6603502, "tags": {"name": "Beverwijk", "name:fy": "Beverwyk", "name:ru": "\u0411\u0435\u0432\u0435\u0440\u0432\u0435\u0439\u043a", "place": "town", "population": "38535", "population:date": "2017-01-01", "source:population": "CBS Wijk 2017", "wikidata": "Q33424724"}}, {"type": "node", "id": 1263171883, "lat": 52.5104331, "lon": 4.6723536, "tags": {"name": "Heemskerk", "name:fy": "Hiemstsjerk", "name:ru": "\u0425\u0435\u043c\u0441\u043a\u0435\u0440\u043a", "place": "town", "population": "39171", "population:date": "2017-01-01", "source:population": "CBS", "wikidata": "Q9926", "wikipedia": "nl:Heemskerk"}}, {"type": "node", "id": 706791176, "lat": 52.5496739, "lon": 4.6696185, "tags": {"is_in": "NL", "is_in:continent": "Europe", "is_in:country": "The Netherlands", "is_in:country_code": "NL", "is_in:province": "North Holland", "name": "Castricum", "name:carnaval": "Pieperduin", "name:fy": "Kastrikum", "name:nl": "Castricum", "name:ru": "\u041a\u0430\u0441\u0442\u0440\u0438\u043a\u044e\u043c", "place": "town", "population": "19726", "population:date": "2017-01-01", "source:population": "https://www.castricum.nl/wonen/castricum-in-cijfers_42683", "wikidata": "Q9910", "wikipedia": "nl:Castricum"}}, {"type": "node", "id": 46995395, "lat": 52.6016491, "lon": 4.7119266, "tags": {"name": "Heiloo", "name:nl": "Heiloo", "name:ru": "\u0425\u0435\u0439\u043b\u043e", "place": "town", "population": "23104", "population:date": "2018-01-01", "source:population": "https://www.heiloo.nl/bezoekers/feiten-en-cijfers_44952", "wikidata": "Q9932", "wikipedia": "nl:Heiloo"}}, {"type": "node", "id": 3474142743, "lat": 52.6312592, "lon": 4.7503798, "tags": {"name": "Alkmaar", "name:ar": "\u0623\u0644\u0643\u0645\u0627\u0631", "name:ckb": "\u0626\u06d5\u06b5\u06a9\u0645\u0627\u0631", "name:en": "Alkmaar", "name:eo": "Alkmaro", "name:fa": "\u0622\u0644\u06a9\u0645\u0627\u0631", "name:fy": "Alkmar", "name:hu": "Alkmaar", "name:lt": "Alkmaras", "name:nl": "Alkmaar", "name:pt": "Alkmaar", "name:ru": "\u0410\u043b\u043a\u043c\u0430\u0440", "name:uk": "\u0410\u043b\u043a\u043c\u0430\u0440", "name:ur": "\u0627\u0644\u06a9\u0645\u0627\u0631", "name:zh": "\u963f\u5c14\u514b\u9a6c\u5c14", "place": "city", "population": "96460", "population:date": "2017-01-01", "population:note": "Inwonertal inclusief Oudorp en Koedijk, exclusief dorpen voormalige gemeenten Graft-De Rijp en Schermer.", "source:population": "CBS", "website": "https://www.alkmaar.nl/", "wikidata": "Q16977290", "wikipedia": "nl:Alkmaar"}}, {"type": "node", "id": 296050393, "lat": 52.5024789, "lon": 4.9614827, "tags": {"is_in": "North Holland, the Netherlands, EU", "is_in:continent": "Europe", "is_in:country": "The Netherlands", "is_in:country_code": "NL", "is_in:province": "North Holland", "name": "Purmerend", "name:carnaval": "Boemeldam", "name:fy": "Purmerein", "name:ru": "\u041f\u0443\u0440\u043c\u0435\u0440\u0435\u043d\u0434", "place": "town", "population": "79915", "population:date": "2017-01-01", "source:population": "https://purmerend.buurtmonitor.nl/jive", "wikidata": "Q9954", "wikipedia": "nl:Purmerend"}}, {"type": "node", "id": 6948320428, "lat": 52.6702278, "lon": 4.7011616, "tags": {"name": "Bergen", "name:nl": "Bergen", "name:ru": "\u0411\u0435\u0440\u0433\u0435\u043d", "place": "town", "population": "12311", "population:date": "2017-01-01", "source:population": "https://www.bergen-nh.nl/over-ons/feiten-en-cijfers", "wikidata": "Q9901", "wikipedia": "nl:Bergen (Noord-Holland)", "wikipedia:ca": "Bergen (Holanda Septentrional)"}}, {"type": "node", "id": 6162841266, "lat": 52.7008899, "lon": 4.6939819, "tags": {"is_in": "NL", "is_in:continent": "Europe", "is_in:country": "The Netherlands", "is_in:country_code": "NL", "is_in:province": "North Holland", "name": "Schoorl", "place": "town", "population": "4585", "population:date": "2018-01-01", "source:population": "BAG"}}, {"type": "node", "id": 47423767, "lat": 52.7882395, "lon": 4.8044607, "tags": {"name": "Schagen", "name:carnaval": "Muggenburg", "name:fy": "Skagen", "name:ru": "\u0421\u0445\u0430\u0433\u0435\u043d", "place": "town", "population": "18725", "population:date": "2017-01-01", "source:population": "https://schagen.incijfers.nl/jive", "wikidata": "Q465833", "wikipedia": "nl:Schagen (plaats)"}}, {"type": "node", "id": 296046309, "lat": 52.6631484, "lon": 4.8326672, "tags": {"is_in:country": "The Netherlands", "is_in:country_code": "NL", "is_in:province": "North Holland", "name": "Heerhugowaard", "name:carnaval": "Knarrenburg", "name:fy": "Heregeweard", "name:nds": "Heerhugoweerd", "name:ru": "\u0425\u0435\u0440\u0445\u044e\u0433\u043e\u0432\u0430\u0440\u0434", "place": "town", "population": "54950", "population:date": "2017-01-01", "population:note": "Inwonertal inclusief De Noord.", "postal_code": "1701", "source:population": "CBS", "website": "https://www.heerhugowaard.nl/", "wikidata": "Q9930", "wikipedia": "nl:Heerhugowaard"}}, {"type": "node", "id": 47539043, "lat": 52.860219, "lon": 4.8245885, "tags": {"name": "Anna Paulowna", "name:carnaval": "Bollenburg", "name:ru": "\u0410\u043d\u043d\u0430-\u041f\u043e\u043b\u043e\u043d\u0430", "place": "town", "population": "8125", "population:date": "2017-01-01", "postal_code": "1761", "source:population": "https://hollandskroon.incijfers.nl/jive", "wikidata": "Q562876", "wikipedia": "nl:Anna Paulowna (plaats)"}}, {"type": "node", "id": 7170593082, "lat": 52.8907035, "lon": 4.7446131, "tags": {"name": "Julianadorp", "name:carnaval": "Stuivenburg", "name:nl": "Julianadorp", "name:ru": "\u042e\u043b\u0438\u0430\u043d\u0430\u0434\u043e\u0440\u043f", "place": "town", "population": "12916", "population:date": "2017-01-01", "postal_code": "1788", "source": "knowledge", "source:population": "https://www.denhelder.nl/bestuur/publicatie/bevolking", "wikidata": "Q476442", "wikipedia": "nl:Julianadorp (Nederland)"}}, {"type": "node", "id": 296048509, "lat": 52.957976, "lon": 4.760279, "tags": {"name": "Den Helder", "name:carnaval": "Waaienburg", "name:eo": "Heldero", "name:fr": "Le Helder", "name:fy": "De Helder", "name:nl": "Den Helder", "name:ru": "\u0414\u0435\u043d-\u0425\u0435\u043b\u0434\u0435\u0440", "place": "town", "population": "42556", "population:date": "2017-01-01", "source:population": "https://www.denhelder.nl/bestuur/publicatie/bevolking", "wikidata": "Q9911", "wikipedia": "nl:Den Helder"}}, {"type": "node", "id": 3123085911, "lat": 51.6852544, "lon": 5.0705122, "tags": {"name": "Waalwijk", "name:carnaval": "Schoenlapperslaand", "name:nl": "Waalwijk", "name:ru": "\u0412\u0430\u043b\u0432\u0435\u0439\u043a", "place": "town", "population": "29385", "population:date": "2017-01-01", "source:population": "CBS Wijk 2017", "wikidata": "Q9879", "wikipedia": "nl:Waalwijk (stad)"}}, {"type": "node", "id": 3123118269, "lat": 51.6860767, "lon": 5.1313896, "tags": {"name": "Drunen", "name:carnaval": "Dwergoni\u00eb", "name:nl": "Drunen", "name:ru": "\u0414\u0440\u044e\u043d\u0435\u043d", "place": "town", "population": "18278", "population:date": "2018-01-01", "source:population": "https://www.heusden.nl/Over_de_gemeente/Feiten_en_cijfers/Bevolkingscijfers_per_1_januari_2018", "wikidata": "Q2873137", "wikipedia": "nl:Drunen"}}, {"type": "node", "id": 1346371277, "lat": 51.694263, "lon": 5.2091225, "tags": {"name": "Vlijmen", "name:carnaval": "Knotwilgendam", "name:ru": "\u0412\u043b\u0435\u0439\u043c\u0435\u043d", "place": "town", "population": "14225", "population:date": "2018-01-01", "source:population": "https://www.heusden.nl/Over_de_gemeente/Feiten_en_cijfers/Bevolkingscijfers_per_1_januari_2018", "url": "http://www.heusden.nl", "wikidata": "Q1983269", "wikipedia": "nl:Vlijmen"}}, {"type": "node", "id": 43899635, "lat": 51.8066578, "lon": 5.2411204, "tags": {"name": "Zaltbommel", "name:carnaval": "Mispelgat", "name:nl": "Zaltbommel", "name:ru": "\u0417\u0430\u043b\u0442\u0431\u043e\u043b\u043c\u043c\u0435\u043b", "place": "town", "population": "12137", "population:date": "2017-01-01", "source:population": "https://www.zaltbommel.nl/inwoner-en-ondernemer/wonen-en-leven/bevolkingscijfers", "website": "https://www.zaltbommel.nl/", "wikidata": "Q73462", "wikipedia": "nl:Zaltbommel (stad)"}}, {"type": "node", "id": 3123156001, "lat": 51.656821, "lon": 5.2893308, "tags": {"name": "Vught", "name:carnaval": "Dommelbaorzedurp", "name:nl": "Vught", "name:ru": "\u0412\u044e\u0433\u0442", "place": "town", "population": "25355", "population:date": "2017-01-01", "source:population": "https://vught.nl/vught-cijfers", "wikidata": "Q12013510", "wikipedia": "nl:Vught (plaats)"}}, {"type": "node", "id": 60400458, "lat": 51.6889351, "lon": 5.3031044, "tags": {"alt_name": "Den Bosch", "alt_name:ja": "\u30c7\u30f3\u30fb\u30dc\u30b9", "capital": "4", "name": "'s-Hertogenbosch", "name:ar": "\u0633\u064a\u0631\u062a\u0648\u062e\u064a\u0645\u0628\u0648\u0633", "name:carnaval": "Oeteldonk", "name:de": "Herzogenbusch", "name:eo": "Boso", "name:es": "Bolduque", "name:fr": "Bois-le-Duc", "name:fy": "De Bosk", "name:id": "Den Bosch", "name:ja": "\u30b9\u30d8\u30eb\u30c8\u30fc\u30d8\u30f3\u30dc\u30b9", "name:la": "Silva Ducis", "name:li": "De B\u00f3sj", "name:lt": "Hertogenbosas", "name:mk": "\u0425\u0435\u0440\u0442\u043e\u0433\u0435\u043d\u0431\u043e\u0441", "name:nds": "Den Bosch", "name:nl": "'s-Hertogenbosch", "name:ru": "\u0425\u0435\u0440\u0442\u043e\u0433\u0435\u043d\u0431\u043e\u0441", "name:sr": "\u0425\u0435\u0440\u0442\u043e\u0433\u0435\u043d\u0431\u043e\u0441", "name:uk": "\u0413\u0435\u0440\u0442\u043e\u0433\u0435\u043d\u0431\u043e\u0441", "name:zh": "\u65af\u6d77\u5c14\u6258\u4ea8\u535a\u65af", "place": "city", "population": "115903", "population:date": "2017-01-01", "population:note": "Inwonertal gemeente minus Rosmalen, Nuland en Vinkel.", "source:population": "https://www.s-hertogenbosch.nl", "website": "https://www.s-hertogenbosch.nl/", "wikidata": "Q2766547", "wikipedia": "nl:'s-Hertogenbosch"}}, {"type": "node", "id": 1471084176, "lat": 51.7185792, "lon": 5.3617341, "tags": {"name": "Rosmalen", "name:carnaval": "Zandhazendurp", "name:ru": "\u0420\u043e\u0441\u043c\u0430\u043b\u0435\u043d", "place": "town", "population": "29978", "population:date": "2017-01-01", "population:note": "Inwonertal inclusief wijk De Groote Wielen.", "source:population": "https://www.s-hertogenbosch.nl", "url": "www.s-hertogenbosch.nl", "wikidata": "Q2001490", "wikipedia": "nl:Rosmalen (plaats)"}}, {"type": "node", "id": 44285819, "lat": 51.8951373, "lon": 5.0914603, "tags": {"name": "Leerdam", "name:ru": "\u041b\u0435\u0440\u0434\u0430\u043c", "place": "town", "population": "18255", "population:date": "2017-01-01", "source:population": "CBS Wijk & Buurt 2017", "wikidata": "Q388575", "wikipedia": "nl:Leerdam"}}, {"type": "node", "id": 1011618588, "lat": 52.0246381, "lon": 5.0458792, "tags": {"name": "IJsselstein", "name:carnaval": "Apestad", "name:ru": "\u042d\u0439\u0441\u0441\u0435\u043b\u0441\u0442\u0435\u0439\u043d", "place": "town", "population": "34208", "population:date": "2017-01-01", "source:population": "https://www.ijsselstein.nl/mozard/!suite86.scherm0325?mVrg=4636", "website": "https://www.ijsselstein.nl/", "wikidata": "Q10045", "wikipedia": "nl:IJsselstein"}}, {"type": "node", "id": 44749160, "lat": 51.9890128, "lon": 5.0937164, "tags": {"name": "Vianen", "name:ru": "\u0412\u0438\u0430\u043d\u0435\u043d", "place": "town", "population": "16215", "population:date": "2017-01-01", "source:population": "CBS Wijk 2017", "wikidata": "Q10052", "wikipedia": "nl:Vianen (Utrecht)"}}, {"type": "node", "id": 3926093941, "lat": 51.9573504, "lon": 5.2253042, "tags": {"name": "Culemborg", "name:Plaatselijk": "Kuilenburg", "name:carnaval": "Papklokkendam", "name:fr": "Culembourg", "name:ru": "\u041a\u0443\u043b\u0435\u043c\u0431\u043e\u0440\u0433", "place": "town", "population": "27864", "population:date": "2017-01-01", "source:population": "CBS", "wikidata": "Q816699", "wikipedia": "nl:Culemborg"}}, {"type": "node", "id": 6486863966, "lat": 51.879931, "lon": 5.2876361, "tags": {"name": "Geldermalsen", "name:nl": "Geldermalsen", "name:ru": "\u0413\u0438\u043b\u0434\u0435\u0440\u043c\u0430\u043b\u0441\u0435\u043d", "place": "town", "population": "10535", "population:date": "2017-01-01", "postal_code": "4191", "source:population": "https://geldermalsen.incijfers.nl/jive", "wikidata": "Q2216836", "wikipedia": "nl:Geldermalsen (plaats)"}}, {"type": "node", "id": 8181237045, "lat": 51.8874333, "lon": 5.4372681, "tags": {"name": "Tiel", "name:carnaval": "Hotsjekkerstad", "name:ru": "\u0422\u0438\u043b", "place": "town", "population": "39545", "population:date": "2017-01-01", "source:population": "CBS Wijk 2017", "wikidata": "Q73221", "wikipedia": "nl:Tiel"}}, {"type": "node", "id": 44680264, "lat": 51.9751858, "lon": 5.337435, "tags": {"name": "Wijk bij Duurstede", "name:carnaval": "Kaieschaiterstad", "name:fy": "Wyk by Duerstede", "name:ru": "\u0412\u0435\u0439\u043a-\u0431\u0435\u0439-\u0414\u044e\u0440\u0441\u0442\u0435\u0434\u0435", "place": "town", "population": "18095", "population:date": "2017-01-01", "source:population": "https://www.wijkbijduurstede.nl/inwoners/leeftijdsopbouw-gemeente-wijk-bij-duurstede.html", "wikidata": "Q10053", "wikipedia": "nl:Wijk bij Duurstede"}}, {"type": "node", "id": 3123233070, "lat": 51.6134636, "lon": 5.5446455, "tags": {"is_in": "NL", "is_in:continent": "Europe", "is_in:country": "The Netherlands", "is_in:country_code": "NL", "is_in:province": "North Brabant", "name": "Veghel", "name:carnaval": "Kuussegat", "name:ru": "\u0412\u0435\u0433\u0435\u043b", "place": "town", "population": "27065", "population:date": "2017-01-01", "population:note": "Inwonertal exclusief Eerde, Mariaheide en Zijtaart.", "source:population": "CBS Wijk & Buurt 2017", "wikidata": "Q12557060", "wikipedia": "nl:Veghel (plaats)"}}, {"type": "node", "id": 2725072454, "lat": 51.6590888, "lon": 5.6148605, "tags": {"name": "Uden", "name:carnaval": "Knoerissenrijk", "name:eo": "Udeno", "name:nl": "Uden", "name:ru": "\u0423\u0434\u0435\u043d", "place": "town", "population": "36315", "population:date": "2019-01-01", "source:population": "CBS Wijk 2019", "wikidata": "Q528819", "wikipedia": "nl:Uden (plaats)"}}, {"type": "node", "id": 303083174, "lat": 51.73519, "lon": 5.5266331, "tags": {"name": "Heesch", "name:carnaval": "Krullendonk", "name:ru": "\u0425\u0435\u0441", "place": "town", "population": "13370", "population:date": "2017-01-01", "postal_code": "5384", "source:population": "CBS Wijk 2017", "wikidata": "Q993667", "wikipedia": "nl:Heesch"}}, {"type": "node", "id": 3123148337, "lat": 51.7689067, "lon": 5.5223672, "tags": {"name": "Oss", "name:carnaval": "Ossekoppenrijk", "name:ru": "\u041e\u0441\u0441", "place": "town", "population": "57665", "population:date": "2017-01-01", "source:population": "https://oss.incijfers.nl/jive", "wikidata": "Q13971034", "wikipedia": "nl:Oss"}}, {"type": "node", "id": 2717911208, "lat": 51.8099983, "lon": 5.7362233, "tags": {"name": "Wijchen", "name:carnaval": "Urnerijk", "name:eo": "Vi\u0125eno", "name:nl": "Wijchen", "name:ru": "\u0412\u0438\u0445\u0435\u043d", "place": "town", "population": "33800", "population:date": "2017-01-01", "source:population": "CBS Wijk 2017", "website": "https://www.wijchen.nl/", "wikidata": "Q15981302", "wikipedia": "nl:Wijchen (plaats)"}}, {"type": "node", "id": 44237820, "lat": 51.8860729, "lon": 5.602962, "tags": {"name": "Druten", "name:carnaval": "Bokkenrijk", "name:nl": "Druten", "name:ru": "\u0414\u0440\u044e\u0442\u0435\u043d", "place": "town", "population": "12275", "population:date": "2017-01-01", "source:population": "CBS", "wikidata": "Q932142", "wikipedia": "nl:Druten"}}, {"type": "node", "id": 5599205254, "lat": 51.9608761, "lon": 5.5722196, "tags": {"name": "Rhenen", "name:ru": "\u0420\u0435\u043d\u0435\u043d", "place": "town", "population": "19871", "population:date": "2018-05-31", "population:note": "Inwonertal exclusief Achterberg.", "source:population": "CBS Wijk 2017", "wikidata": "Q10040", "wikipedia": "nl:Rhenen"}}, {"type": "node", "id": 44116743, "lat": 51.8586611, "lon": 5.767357, "tags": {"name": "Beuningen", "name:carnaval": "Eikelenburg", "name:nl": "Beuningen", "name:ru": "\u0411\u0451\u043d\u0438\u043d\u0433\u0435\u043d", "place": "town", "population": "17210", "population:date": "2017-01-01", "source:population": "http://www.beuningen.nl/toerisme/feiten_en_cijfers/Inwonersaantallen", "website": "https://www.beuningen.nl/", "wikidata": "Q851244", "wikipedia": "nl:Beuningen (Gelderland)"}}, {"type": "node", "id": 867975219, "lat": 51.8474946, "lon": 5.8637771, "tags": {"name": "Nijmegen", "name:carnaval": "Knotsenburg", "name:de": "Nimwegen", "name:eo": "Nimego", "name:es": "Nimega", "name:eu": "Nimega", "name:fr": "Nim\u00e8gue", "name:fy": "Nymwegen", "name:it": "Nimega", "name:la": "Noviomagus Batavorum", "name:lt": "Neimegenas", "name:nds": "Nimwaege", "name:nl": "Nijmegen", "name:ru": "\u041d\u0435\u0439\u043c\u0435\u0433\u0435\u043d", "name:sr": "\u041d\u0430\u0458\u043c\u0435\u0433\u0435\u043d", "name:uk": "\u041d\u0435\u0439\u043c\u0435\u0433\u0435\u043d", "name:zh": "\u5948\u6885\u4ea8", "old_name:en": "Nimeguen", "place": "city", "population": "176731", "population:date": "2019-01-01", "population:note": "Inwonertal gemeente minus Lent.", "source:population": "https://opendata.cbs.nl/statline/#/CBS/nl/dataset/70648ned/table?ts=1592042694456", "website": "https://nijmegen.nl/", "wikidata": "Q47887", "wikipedia": "nl:Nijmegen"}}, {"type": "node", "id": 44679797, "lat": 51.9750995, "lon": 5.6636754, "tags": {"name": "Wageningen", "name:fr": "Wageningue", "name:nl": "Wageningen", "name:ru": "\u0412\u0430\u0433\u0435\u043d\u0438\u043d\u0433\u0435\u043d", "place": "town", "population": "38458", "population:date": "2017-01-01", "source:population": "https://www.wageningen.nl/inwoners/Feiten_en_cijfers/Algemene_feiten_en_cijfers", "wikidata": "Q1305", "wikipedia": "nl:Wageningen (Nederland)"}}, {"type": "node", "id": 44805762, "lat": 52.0015947, "lon": 5.6756511, "tags": {"name": "Bennekom", "name:ru": "\u0411\u0435\u043d\u043d\u0435\u043a\u043e\u043c", "place": "town", "population": "15080", "population:date": "2019-10-04", "postal_code": "6721", "source:population": "https://www.cbs.nl/nl-nl/maatwerk/2019/31/kerncijfers-wijken-en-buurten-2019"}}, {"type": "node", "id": 57444087, "lat": 51.9884489, "lon": 5.8420484, "tags": {"name": "Oosterbeek", "name:carnaval": "Eusterbeek", "place": "town", "population": "11388", "population:date": "2017-01-01", "source:population": "https://www.renkum.nl/Bezoekers/Over_Renkum/Feiten_en_cijfers"}}, {"type": "node", "id": 994008023, "lat": 52.0367152, "lon": 5.0836117, "tags": {"name": "Nieuwegein", "name:carnaval": "Kolderdonk", "name:ru": "\u041d\u044c\u0438\u0432\u0435\u0433\u0435\u0439\u043d", "place": "town", "population": "61869", "population:date": "2017-01-01", "source:population": "https://cijfers.nieuwegein.nl", "website": "https://www.nieuwegein.nl/", "wikidata": "Q10050", "wikipedia": "nl:Nieuwegein"}}, {"type": "node", "id": 235861650, "lat": 52.0949753, "lon": 5.109708, "tags": {"alt_name:la": "Ultraiectum", "capital": "4", "name": "Utrecht", "name:ar": "\u0623\u0648\u062a\u0631\u062e\u062a", "name:carnaval": "Leemput", "name:de": "Utrecht", "name:en": "Utrecht", "name:eo": "Utre\u0125to", "name:es": "Utrecht", "name:fr": "Utrecht", "name:fy": "Utert", "name:he": "\u05d0\u05d5\u05d8\u05e8\u05db\u05d8", "name:hu": "Utrecht", "name:ja": "\u30e6\u30c8\u30ec\u30d2\u30c8", "name:la": "Traiectum ad Rhenum", "name:lt": "Utrechtas", "name:mk": "\u0423\u0442\u0440\u0435\u0445\u0442", "name:nds": "Utrecht", "name:nl": "Utrecht", "name:ru": "\u0423\u0442\u0440\u0435\u0445\u0442", "name:sr": "\u0423\u0442\u0440\u0435\u0445\u0442", "name:uk": "\u0423\u0442\u0440\u0435\u0445\u0442", "name:zh": "\u4e4c\u7279\u52d2\u652f", "name:zh-Hant": "\u70cf\u7279\u52d2\u652f", "place": "city", "population": "295591", "population:date": "2017-01-01", "population:note": "Inwonertal gemeente minus woonplaatsen Vleuten, De Meern en Haarzuilens", "source:population": "https://utrecht.buurtmonitor.nl//jive", "website": "https://www.utrecht.nl/", "wikidata": "Q803", "wikipedia": "nl:Utrecht (stad)"}}, {"type": "node", "id": 44956610, "lat": 52.027123, "lon": 5.1618241, "tags": {"name": "Houten", "name:nl": "Houten", "name:ru": "\u0425\u0430\u0443\u0442\u0435\u043d", "place": "town", "population": "46050", "population:date": "2017-01-01", "source:population": "CBS Wijk 2017", "wikidata": "Q10044", "wikipedia": "nl:Houten"}}, {"type": "node", "id": 45284363, "lat": 52.1097009, "lon": 5.178706, "tags": {"name": "De Bilt", "name:carnaval": "Speikerreik", "name:nl": "De Bilt", "name:ru": "\u0414\u0435-\u0411\u0438\u043b\u0442", "place": "town", "population": "10795", "population:date": "2018-01-01", "population:note": "Het door de gemeente gegeven inwonertal van 'gemeentedeel' De Bilt is lager in vergelijking met de wijkindeling.", "source:population": "https://debilt.nl/bestuur-en-organisatie/feiten-en-cijfers", "wikipedia": "nl:De Bilt (plaats)"}}, {"type": "node", "id": 45197785, "lat": 52.0892832, "lon": 5.2276307, "tags": {"name": "Zeist", "name:fy": "Seist", "name:ru": "\u0417\u0435\u0439\u0441\u0442", "place": "town", "population": "52715", "population:date": "2017-01-01", "source:population": "CBS Wijk & Buurt 2017", "wikidata": "Q10056", "wikipedia": "nl:Zeist"}}, {"type": "node", "id": 3482828199, "lat": 52.1289693, "lon": 5.2046134, "tags": {"name": "Bilthoven", "name:nl": "Bilthoven", "name:ru": "\u0411\u0438\u043b\u0442\u0445\u043e\u0432\u0435\u043d", "place": "town", "population": "22440", "population:date": "2018-01-01", "population:note": "Het door de gemeente gegeven inwonertal van 'gemeentedeel' Bilthoven is hoger in vergelijking met de wijkindeling.", "source:population": "https://debilt.nl/bestuur-en-organisatie/feiten-en-cijfers", "wikidata": "Q1075656", "wikipedia": "nl:Bilthoven"}}, {"type": "node", "id": 975217108, "lat": 52.1384846, "lon": 5.040082, "tags": {"name": "Maarssen", "name:carnaval": "Kikkerstad", "name:ru": "\u041c\u0430\u0440\u0441\u0435\u043d", "place": "town", "population": "38560", "population:date": "2017-01-01", "population:note": "Inwonertal inclusief Maarssenbroek.", "source:population": "CBS Wijk 2017", "wikidata": "Q932008", "wikipedia": "nl:Maarssen"}}, {"type": "node", "id": 296056871, "lat": 52.2241375, "lon": 5.1719396, "tags": {"is_in:country": "The Netherlands", "is_in:country_code": "NL", "is_in:province": "North Holland", "name": "Hilversum", "name:fy": "Hilfertsom", "name:ru": "\u0425\u0438\u043b\u0432\u0435\u0440\u0441\u044e\u043c", "name:sr": "\u0425\u0438\u043b\u0432\u0435\u0440\u0441\u0443\u043c", "name:uk": "\u0413\u0456\u043b\u0432\u0435\u0440\u0441\u0443\u043c", "place": "town", "population": "88888", "population:date": "2017-01-01", "population:note": "Inwonertal inclusief Hilversumse Meent.", "source:population": "https://hilversum.incijfers.nl/jive", "website": "https://www.hilversum.nl/", "wikidata": "Q9934", "wikipedia": "nl:Hilversum"}}, {"type": "node", "id": 45033881, "lat": 52.0516547, "lon": 5.2836332, "tags": {"name": "Driebergen-Rijsenburg", "name:carnaval": "Sparrenrijck", "name:nl": "Driebergen-Rijsenburg", "place": "town", "population": "18653", "population:date": "2017-01-01", "source:population": "https://www.heuvelrug.nl/inwoner", "wikidata": "Q1258901"}}, {"type": "node", "id": 1469138008, "lat": 52.130355, "lon": 5.4286989, "tags": {"name": "Leusden", "name:ru": "\u041b\u0451\u0441\u0434\u0435\u043d", "place": "town", "population": "26755", "population:date": "2017-01-01", "source:population": "CBS Wijk 2017", "wikidata": "Q10046", "wikipedia": "nl:Leusden"}}, {"type": "node", "id": 45568761, "lat": 52.17461, "lon": 5.29095, "tags": {"is_in": "NL", "is_in:continent": "Europe", "is_in:country": "The Netherlands", "is_in:country_code": "NL", "is_in:province": "Utrecht", "name": "Soest", "name:carnaval": "Knollendam", "name:ru": "\u0421\u0443\u0441\u0442", "place": "town", "population": "39395", "population:date": "2017-01-01", "population:note": "Inwonertal inclusief Soestduinen.", "source:population": "CBS Wijk 2017", "wikidata": "Q10041", "wikipedia": "nl:Soest (Nederland)"}}, {"type": "node", "id": 45720389, "lat": 52.21115, "lon": 5.2931, "tags": {"name": "Baarn", "name:ru": "\u0411\u0430\u0440\u043d", "place": "town", "population": "24235", "population:date": "2017-01-01", "source:population": "CBS Wijk 2017", "wikidata": "Q10027", "wikipedia": "nl:Baarn"}}, {"type": "node", "id": 667889917, "lat": 52.1562499, "lon": 5.3896944, "tags": {"name": "Amersfoort", "name:carnaval": "Trekkersgat", "name:el": "\u0391\u03bc\u03b5\u03c1\u03c3\u03c6\u03cc\u03c1\u03c4", "name:fy": "Amersfoart", "name:lt": "Amersfortas", "name:nl": "Amersfoort", "name:ru": "\u0410\u043c\u0435\u0440\u0441\u0444\u043e\u0440\u0442", "name:sr": "\u0410\u043c\u0435\u0440\u0441\u0444\u043e\u0440\u0442", "name:uk": "\u0410\u043c\u0435\u0440\u0441\u0444\u043e\u0440\u0442", "name:zh": "\u963f\u9ed8\u65af\u798f\u7279", "place": "city", "population": "139259", "population:date": "2017-01-01", "population:note": "Inwonertal gemeente minus Hoogland en Hooglanderveen.", "source:population": "https://amersfoortincijfers.nl//jive", "website": "https://www.amersfoort.nl/", "wikidata": "Q992", "wikipedia": "nl:Amersfoort"}}, {"type": "node", "id": 46125885, "lat": 52.3102843, "lon": 5.0363742, "tags": {"is_in:continent": "Europe", "is_in:country": "The Netherlands", "is_in:country_code": "NL", "is_in:province": "North Holland", "name": "Weesp", "name:carnaval": "Tobbegat", "name:ru": "\u0412\u0435\u0441\u043f", "name:uk": "\u0412\u0435\u0441\u043f", "place": "town", "population": "18751", "population:date": "2017-01-01", "source:population": "CBS", "wikidata": "Q9974", "wikipedia": "nl:Weesp"}}, {"type": "node", "id": 45990885, "lat": 52.2774207, "lon": 5.1627465, "tags": {"is_in": "NL", "is_in:continent": "Europe", "is_in:country": "The Netherlands", "is_in:country_code": "NL", "is_in:province": "North Holland", "name": "Bussum", "name:carnaval": "Erwtenrijk", "name:ru": "\u0411\u044e\u0441\u0441\u044e\u043c", "name:uk": "\u0411\u044e\u0441\u0441\u044e\u043c", "place": "town", "population": "33220", "population:date": "2017-01-01", "source:population": "CBS Wijk 2017", "wikidata": "Q9909", "wikipedia": "nl:Bussum"}}, {"type": "node", "id": 45911069, "lat": 52.2565894, "lon": 5.2251925, "tags": {"name": "Laren", "name:nl": "Laren", "name:ru": "\u041b\u0430\u0440\u0435\u043d", "place": "town", "population": "11088", "population:date": "2017-01-01", "source:population": "CBS", "wikidata": "Q9945", "wikipedia": "nl:Laren (Noord-Holland)"}}, {"type": "node", "id": 5731324538, "lat": 52.3657098, "lon": 5.2210432, "tags": {"name": "Almere", "name:ar": "\u0622\u0644\u0645\u064a\u0631\u0647", "name:carnaval": "Moddergat", "name:el": "\u0391\u03bb\u03bc\u03ad\u03c1\u03b5", "name:fa": "\u0622\u0644\u0645\u06cc\u0631\u0647", "name:fy": "Almeare", "name:lt": "Almer\u0117", "name:nl": "Almere", "name:pnb": "\u0627\u0644\u0645\u06cc\u0631", "name:ru": "\u0410\u043b\u043c\u0435\u0440\u0435", "name:sr": "\u0410\u043b\u043c\u0435\u0440\u0435", "name:uk": "\u0410\u043b\u043c\u0435\u0440\u0435", "name:ur": "\u0627\u0644\u0645\u06cc\u0631\u0627", "place": "city", "population": "200914", "population:date": "2017-01-01", "population:note": "Inwonertal is gelijk aan dat van de gemeente en omvat dus alle stadsdelen.", "source:population": "https://www.almere.nl/over-almere/feiten-en-cijfers", "website": "http://www.almere.nl", "wikidata": "Q83178", "wikipedia": "nl:Almere"}}, {"type": "node", "id": 46065577, "lat": 52.2958122, "lon": 5.2567209, "tags": {"name": "Huizen", "name:carnaval": "Spietendonk", "name:fy": "Huzen", "name:ru": "\u0425\u0451\u0439\u0437\u0435\u043d", "name:uk": "\u0413\u044c\u043e\u0439\u0437\u0435\u043d", "place": "town", "population": "41401", "population:date": "2017-01-01", "source:population": "https://www.huizen.nl/inwoner/kerngegevens_3163", "wikidata": "Q9939", "wikipedia": "nl:Huizen"}}, {"type": "node", "id": 5435880522, "lat": 52.2452013, "lon": 5.3731599, "tags": {"name": "Bunschoten-Spakenburg", "name:ru": "\u0411\u044e\u043d\u0441\u0445\u043e\u0442\u0435\u043d", "place": "town", "population": "20175", "population:date": "2017-01-01", "postal_code": "3752", "source:population": "CBS Wijk & Buurt 2017", "wikidata": "Q10034", "wikipedia": "nl:Bunschoten"}}, {"type": "node", "id": 3579230999, "lat": 52.0259814, "lon": 5.5539239, "tags": {"name": "Veenendaal", "name:nl": "Veenendaal", "name:ru": "\u0412\u0435\u043d\u0435\u043d\u0434\u0430\u043b", "place": "town", "population": "64277", "population:date": "2017-01-01", "source:population": "https://www.veenendaal.nl/statistieken-leeftijdsopbouw-inwoners", "wikidata": "Q1840", "wikipedia": "nl:Veenendaal"}}, {"type": "node", "id": 45572375, "lat": 52.1757138, "lon": 5.4577033, "tags": {"is_in": "NL", "is_in:continent": "Europe", "is_in:country": "The Netherlands", "is_in:country_code": "NL", "is_in:province": "Gelderland", "name": "Hoevelaken", "place": "town", "population": "9365", "population:date": "2017-01-01", "postal_code": "3871", "source:population": "CBS Wijk 2017"}}, {"type": "node", "id": 45772896, "lat": 52.2219471, "lon": 5.4824871, "tags": {"name": "Nijkerk", "name:ru": "\u041d\u0435\u0439\u043a\u0435\u0440\u043a", "place": "town", "population": "28870", "population:date": "2017-01-01", "source:population": "CBS Wijk 2017", "wikidata": "Q16220881", "wikipedia": "nl:Nijkerk (stad)"}}, {"type": "node", "id": 45438049, "lat": 52.142479, "lon": 5.5866392, "tags": {"is_in": "NL", "is_in:continent": "Europe", "is_in:country": "The Netherlands", "is_in:country_code": "NL", "is_in:province": "Gelderland", "name": "Barneveld", "name:carnaval": "Kiependaarp", "name:ru": "\u0411\u0430\u0440\u043d\u0435\u0432\u0435\u043b\u0434", "place": "town", "population": "33215", "population:date": "2017-01-01", "source:population": "https://barneveld.incijfers.nl/jive", "wikidata": "Q2001429", "wikipedia": "nl:Barneveld (dorp)"}}, {"type": "node", "id": 4522927872, "lat": 52.1871648, "lon": 5.6071994, "tags": {"name": "Voorthuizen", "name:ru": "\u0412\u043e\u0440\u0442\u0445\u0451\u0439\u0437\u0435\u043d", "place": "town", "population": "10350", "population:date": "2017-01-01", "postal_code": "3781", "source:population": "https://barneveld.incijfers.nl/jive"}}, {"type": "node", "id": 760382981, "lat": 52.0458265, "lon": 5.6702011, "tags": {"name": "Ede", "name:nl": "Ede", "name:ru": "\u042d\u0434\u0435", "name:sr": "\u0415\u0434\u0435", "name:zh-Hans": "\u57c3\u5fb7", "name:zh-Hant": "\u57c3\u5fb7", "place": "city", "population": "72460", "population:date": "2017-01-01", "source:population": "https://ede.buurtmonitor.nl//jive?cat_open=bevolking", "wikidata": "Q2473978", "wikipedia": "nl:Ede (plaats in Nederland)"}}, {"type": "node", "id": 6363529359, "lat": 52.331111, "lon": 5.5430312, "tags": {"is_in": "NL", "is_in:continent": "Europe", "is_in:country": "The Netherlands", "is_in:country_code": "NL", "is_in:province": "Flevoland", "name": "Zeewolde", "name:fy": "Seew\u00e2ld", "place": "town", "population": "22457", "population:date": "2017-01-01", "source:population": "CBS", "website": "https://www.zeewolde.nl/", "wikidata": "Q184454", "wikipedia": "nl:Zeewolde"}}, {"type": "node", "id": 8226223529, "lat": 52.2608571, "lon": 5.6101591, "tags": {"name": "Putten", "name:ru": "\u041f\u044e\u0442\u0442\u0435\u043d", "place": "town", "population": "24428", "population:date": "2017-01-01", "source:population": "CBS", "wikidata": "Q15881071", "wikipedia": "nl:Putten (plaats)"}}, {"type": "node", "id": 46083724, "lat": 52.300088, "lon": 5.6231259, "tags": {"name": "Ermelo", "name:nl": "Ermelo", "name:ru": "\u042d\u0440\u043c\u0435\u043b\u043e", "place": "town", "population": "26590", "population:date": "2017-01-01", "source:population": "CBS", "wikidata": "Q15874985", "wikipedia": "nl:Ermelo (plaats in Nederland)"}}, {"type": "node", "id": 46280889, "lat": 52.3490693, "lon": 5.618933, "tags": {"name": "Harderwijk", "name:fy": "Hurderwyk", "name:ru": "\u0425\u0430\u0440\u0434\u0435\u0440\u0432\u0435\u0439\u043a", "place": "town", "population": "43260", "population:date": "2017-01-01", "source:population": "https://harderwijk.incijfers.nl/jive", "wikidata": "Q58931", "wikipedia": "nl:Harderwijk"}}, {"type": "node", "id": 46419351, "lat": 52.378571, "lon": 5.780886, "tags": {"name": "Nunspeet", "name:nl": "Nunspeet", "name:ru": "\u041d\u044e\u043d\u0441\u043f\u0435\u0442", "place": "town", "population": "19688", "population:date": "2016-01-01", "source:population": "http://www.nunspeet.nl/over-nunspeet/nunspeet-in-cijfers_44735/item/nunspeet-in-cijfers_42151.html", "wikidata": "Q16070330", "wikipedia": "nl:Nunspeet (plaats)"}}, {"type": "node", "id": 46629803, "lat": 52.4449771, "lon": 5.8403894, "tags": {"name": "Elburg", "name:nl": "Elburg", "name:ru": "\u042d\u043b\u0431\u0443\u0440\u0433", "place": "town", "population": "10231", "population:date": "2017-01-01", "population:note": "Inwonertal exclusief Oostendorp.", "postal_code": "8081 8082", "source:population": "https://www.elburg.nl/Toerisme/Ontdek_de_gemeente/De_kernen_van_Elburg/Statistiek", "wikidata": "Q13188262", "wikipedia": "nl:Elburg (stad)"}}, {"type": "node", "id": 3123234125, "lat": 51.6486483, "lon": 5.9450972, "tags": {"name": "Boxmeer", "name:carnaval": "Boksm\u00ebr", "name:eo": "Boksmero", "name:ru": "\u0411\u043e\u043a\u0441\u043c\u0435\u0440", "place": "town", "population": "12201", "population:date": "2017-01-01", "source:population": "https://www.boxmeer.nl/inwoners/kengetallen_42051", "wikidata": "Q12012490", "wikipedia": "nl:Boxmeer (plaats)"}}, {"type": "node", "id": 1929105107, "lat": 51.6950839, "lon": 5.9734549, "tags": {"name": "Gennep", "name:nl": "Gennep", "name:ru": "\u0413\u0435\u043d\u043d\u0435\u043f", "place": "town", "population": "9167", "population:date": "2018-01-01", "postal_code": "6591", "source:population": "http://www.gennep.nl/recreatie/gemeente-gennep_42968/item/feiten-en-cijfers_35497.html", "wikidata": "Q9800"}}, {"type": "node", "id": 43688088, "lat": 51.729939, "lon": 5.8800458, "tags": {"name": "Cuijk", "name:carnaval": "Nolersriek", "name:nl": "Cuijk", "name:ru": "\u041a\u0451\u0439\u043a", "place": "town", "population": "17295", "population:date": "2017-01-01", "source:population": "CBS Wijk 2017", "website": "https://www.cuijk.nl/", "wikidata": "Q13635419", "wikipedia": "nl:Cuijk (plaats)"}}, {"type": "node", "id": 43809511, "lat": 51.7741022, "lon": 5.9305385, "tags": {"name": "Groesbeek", "name:carnaval": "Keulen van Gelderland", "name:ru": "\u0413\u0440\u0443\u0441\u0431\u0435\u043a", "place": "town", "population": "16692", "population:date": "2017-01-01", "population:note": "Inwonertal inclusief Breedeweg en De Horst.", "source:population": "https://www.bergendal.nl/bestuur-en-organisatie/feiten-en-cijfers_46331", "wikidata": "Q146984", "wikipedia": "nl:Groesbeek"}}, {"type": "node", "id": 6394959708, "lat": 51.9383502, "lon": 5.9393769, "tags": {"is_in": "NL", "is_in:continent": "Europe", "is_in:country": "The Netherlands", "is_in:country_code": "NL", "is_in:province": "Gelderland", "name": "Huissen", "name:carnaval": "'t Zwaonenest", "name:ru": "\u0425\u0451\u0439\u0441\u0441\u0435\u043d", "place": "town", "population": "18947", "population:date": "2017-01-01", "source:population": "https://www.lingewaard.nl/inwoners/feiten-en-cijfers_41799", "wikidata": "Q73084", "wikipedia": "nl:Huissen"}}, {"type": "node", "id": 6394641551, "lat": 51.984257, "lon": 5.9108573, "tags": {"capital": "4", "name": "Arnhem", "name:ar": "\u0623\u0631\u0646\u0647\u064a\u0645", "name:de": "Arnheim", "name:en": "Arnhem", "name:es": "Arnhem", "name:fr": "Arnhem", "name:fy": "Arnhim", "name:he": "\u05d0\u05e8\u05e0\u05d4\u05dd", "name:ja": "\u30a2\u30fc\u30cd\u30e0", "name:la": "Arenacum", "name:lt": "Arnhemas", "name:nds": "Arnem", "name:nl": "Arnhem", "name:ru": "\u0410\u0440\u043d\u0435\u043c", "name:sr": "\u0410\u0440\u043d\u0435\u043c", "name:uk": "\u0410\u0440\u043d\u0435\u043c", "name:zh-Hans": "\u963f\u7eb3\u59c6", "name:zh-Hant": "\u963f\u7d0d\u59c6", "place": "city", "population": "155694", "population:date": "2017-01-01", "population:note": "Inwonertal inclusief Elden en Schaarsbergen", "source:population": "https://arnhem.buurtmonitor.nl//jive", "website": "https://www.arnhem.nl/", "wikidata": "Q1310", "wikipedia": "nl:Arnhem"}}, {"type": "node", "id": 6030464702, "lat": 51.9958671, "lon": 5.9751252, "tags": {"name": "Velp", "name:ru": "\u0412\u0435\u043b\u043f", "place": "town", "population": "18120", "population:date": "2017-01-01", "source:population": "CBS Wijk 2017", "wikidata": "Q2375289"}}, {"type": "node", "id": 44611898, "lat": 51.96159, "lon": 5.98026, "tags": {"name": "Westervoort", "name:carnaval": "Doldorp", "name:nl": "Westervoort", "name:ru": "\u0412\u0435\u0441\u0442\u0435\u0440\u0432\u043e\u0440\u0442", "place": "town", "population": "14991", "population:date": "2017-01-01", "source:population": "CBS", "wikidata": "Q524808", "wikipedia": "nl:Westervoort"}}, {"type": "node", "id": 6482147169, "lat": 51.9495859, "lon": 6.024594, "tags": {"name": "Duiven", "name:nl": "Duiven", "name:ru": "\u0414\u0451\u0439\u0432\u0435\u043d", "place": "town", "population": "22335", "population:date": "2017-01-01", "source:population": "CBS Wijk 2017", "wikidata": "Q2416369", "wikipedia": "nl:Duiven (plaats)"}}, {"type": "node", "id": 44480645, "lat": 51.9357252, "lon": 6.0789395, "tags": {"name": "Zevenaar", "name:carnaval": "Boemelburcht", "name:nl": "Zevenaar", "name:ru": "\u0417\u0435\u0432\u0435\u043d\u0430\u0440", "place": "town", "population": "25219", "population:date": "2018-01-01", "population:note": "Inwonertal inclusief Oud-Zevenaar.", "source:population": "https://www.zevenaar.nl/zevenaar-cijfers", "wikidata": "Q15884208", "wikipedia": "nl:Zevenaar (stad)"}}, {"type": "node", "id": 44816212, "lat": 52.0043836, "lon": 6.0302806, "tags": {"is_in": "NL", "is_in:continent": "Europe", "is_in:country": "The Netherlands", "is_in:country_code": "NL", "is_in:province": "Gelderland", "name": "Rheden", "name:ru": "\u0420\u0435\u0434\u0435\u043d", "place": "town", "population": "7680", "population:date": "2017-01-01", "postal_code": "6991", "source:population": "CBS Wijk & Buurt 2017", "wikidata": "Q13137607", "wikipedia": "nl:Rheden (plaats)"}}, {"type": "node", "id": 44876419, "lat": 52.0139605, "lon": 6.1393699, "tags": {"name": "Doesburg", "name:carnaval": "Mosterdgat", "name:fr": "Doesbourg", "name:nl": "Doesburg", "name:ru": "\u0414\u0443\u0441\u0431\u0443\u0440\u0433", "place": "town", "population": "11341", "population:date": "2017-01-01", "source:population": "CBS", "wikidata": "Q165736", "wikipedia": "nl:Doesburg"}}, {"type": "node", "id": 760709245, "lat": 51.9655192, "lon": 6.2891093, "tags": {"name": "Doetinchem", "name:carnaval": "Leutekum", "name:ru": "\u0414\u0443\u0442\u0438\u043d\u0445\u0435\u043c", "place": "town", "population": "44600", "population:date": "2017-01-01", "source:population": "CBS Wijk 2017", "wikidata": "Q16068685", "wikipedia": "nl:Doetinchem (stad)"}}, {"type": "node", "id": 44439974, "lat": 51.9285963, "lon": 6.5810265, "tags": {"name": "Aalten", "name:nl": "Aalten", "name:ru": "\u0410\u043b\u0442\u0435\u043d", "place": "town", "population": "12870", "population:date": "2020-01-01", "source:population": "https://www.aalten.nl/in-de-gemeente/feiten-en-cijfers_42833", "wikidata": "Q593220", "wikipedia": "nl:Aalten (dorp)"}}, {"type": "node", "id": 4836957099, "lat": 51.9890577, "lon": 6.5716944, "tags": {"name": "Lichtenvoorde", "name:carnaval": "Keistad", "name:ru": "\u041b\u0438\u0445\u0442\u0435\u043d\u0432\u043e\u0440\u0434\u0435", "place": "town", "population": "12889", "population:date": "2020-01-01", "source:population": "https://www.oostgelre.nl/over-de-gemeente-oost-gelre", "wikidata": "Q684984", "wikipedia": "nl:Lichtenvoorde"}}, {"type": "node", "id": 216244216, "lat": 52.2156457, "lon": 5.9639485, "tags": {"name": "Apeldoorn", "name:carnaval": "Knienenburg", "name:de": "Appeldorn", "name:eo": "Apeldorno", "name:fy": "Apeldoarn", "name:nds": "Apeldoorne", "name:nds-nl": "Apeldoorne", "name:nl": "Apeldoorn", "name:ru": "\u0410\u043f\u0435\u043b\u0434\u043e\u0440\u043d", "name:sr": "\u0410\u043f\u0435\u043b\u0434\u043e\u0440\u043d", "name:zh-Hans": "\u963f\u73c0\u5c14\u591a\u4f26", "name:zh-Hant": "\u963f\u73c0\u723e\u591a\u502b", "place": "city", "population": "141107", "population:date": "2017-01-01", "source:population": "https://apeldoorn.incijfers.nl", "website": "https://www.apeldoorn.nl/", "wikidata": "Q3018561", "wikipedia": "nl:Apeldoorn (stad)"}}, {"type": "node", "id": 2979682499, "lat": 52.143222, "lon": 6.2044441, "tags": {"name": "Zutphen", "name:de": "Z\u00fctphen", "name:fy": "Sutfen", "name:nl": "Zutphen", "name:ru": "\u0417\u044e\u0442\u0444\u0435\u043d", "place": "town", "population": "38642", "population:date": "2017-01-01", "population:note": "Inwonertal inclusief De Hoven.", "source:population": "https://www.zutphen.nl/Bezoekers/Feiten_en_cijfers", "wikidata": "Q109535", "wikipedia": "nl:Zutphen (stad)"}}, {"type": "node", "id": 46038152, "lat": 52.2901716, "lon": 5.9686728, "tags": {"name": "Vaassen", "name:carnaval": "Rossumdaerp", "name:nl": "Vaassen", "name:ru": "\u0412\u0430\u0441\u0441\u0435\u043d", "place": "town", "population": "12598", "population:date": "2017-01-01", "source:population": "https://www.epe.nl/in-epe/onderwerpen_41676/product/over-de-gemeente-epe_1228.html"}}, {"type": "node", "id": 46278640, "lat": 52.3484545, "lon": 5.9836383, "tags": {"name": "Epe", "name:carnaval": "Grolle", "name:nl": "Epe", "name:ru": "\u042d\u043f\u0435", "place": "town", "population": "15272", "population:date": "2017-01-01", "source:population": "https://www.epe.nl/in-epe/onderwerpen_41676/product/over-de-gemeente-epe_1228.html", "wikidata": "Q2766701", "wikipedia": "nl:Epe (plaats in Nederland)"}}, {"type": "node", "id": 5480946157, "lat": 52.3896323, "lon": 6.0393181, "tags": {"name": "Heerde", "name:nl": "Heerde", "name:ru": "\u0425\u0435\u0440\u0434\u0435", "place": "town", "population": "11585", "population:date": "2017-01-01", "postal_code": "8181", "source:population": "CBS Wijk & Buurt 2017", "wikidata": "Q16069603", "wikipedia": "nl:Heerde (plaats)"}}, {"type": "node", "id": 45851182, "lat": 52.2356369, "lon": 6.1042772, "tags": {"name": "Twello", "name:nl": "Twello", "name:ru": "\u0422\u0432\u0435\u043b\u043e", "place": "town", "population": "13364", "population:date": "2017-01-01", "postal_code": "7391", "source:population": "https://www.voorst.nl/wonen/leven-en-reizen/voorst-in-cijfers"}}, {"type": "node", "id": 3247433861, "lat": 52.2532272, "lon": 6.1584725, "tags": {"name": "Deventer", "name:carnaval": "Stokvissengat", "name:de": "Deventer", "name:fy": "Dimter", "name:hu": "Deventer", "name:la": "Daventria", "name:nds": "D\u00e8venter", "name:nds-nl": "Deamter", "name:nl": "Deventer", "name:ru": "\u0414\u0435\u0432\u0435\u043d\u0442\u0435\u0440", "name:sr": "\u0414\u0435\u0432\u0435\u043d\u0442\u0435\u0440", "place": "city", "population": "81505", "population:date": "2017-01-01", "population:note": "Inwonertal inclusief (wijk) Dorp Colmschate.", "source:population": "CBS", "wikidata": "Q26296883", "wikipedia": "nl:Deventer"}}, {"type": "node", "id": 46452254, "lat": 52.3857034, "lon": 6.2718277, "tags": {"name": "Raalte", "name:carnaval": "St\u00f6ppelburcht", "name:nl": "Raalte", "name:ru": "\u0420\u0430\u043b\u0442\u0435", "place": "town", "population": "19178", "population:date": "2018-01-01", "source:population": "https://www.raalte.nl/aantal-inwoners", "wikidata": "Q18012068", "wikipedia": "nl:Raalte (plaats)"}}, {"type": "node", "id": 45508317, "lat": 52.158471, "lon": 6.4144888, "tags": {"name": "Lochem", "name:nl": "Lochem", "name:ru": "\u041b\u043e\u0445\u0435\u043c", "place": "town", "population": "13719", "population:date": "2017-01-01", "source:population": "https://www.lochem.nl/bestuur-organisatie-nieuws/over-de-gemeente/onderzoeken-en-cijfers", "wikidata": "Q16069637", "wikipedia": "nl:Lochem (stad)"}}, {"type": "node", "id": 45306242, "lat": 52.1148708, "lon": 6.5181238, "tags": {"is_in": "NL", "is_in:continent": "Europe", "is_in:country": "The Netherlands", "is_in:country_code": "NL", "is_in:province": "Gelderland", "name": "Borculo", "name:ru": "\u0411\u043e\u0440\u043a\u044e\u043b\u043e", "place": "town", "population": "7880", "population:date": "2017-01-01", "postal_code": "7271", "source:population": "https://berkelland.incijfers.nl/jive", "wikidata": "Q1025685", "wikipedia": "nl:Borculo"}}, {"type": "node", "id": 44981687, "lat": 52.0425903, "lon": 6.6170412, "tags": {"name": "Groenlo", "name:carnaval": "Veste Grol", "name:ru": "\u0413\u0440\u0443\u043d\u043b\u043e", "place": "town", "population": "9882", "population:date": "2020-01-01", "source:population": "https://www.oostgelre.nl/over-de-gemeente-oost-gelre"}}, {"type": "node", "id": 45256010, "lat": 52.1032685, "lon": 6.6511683, "tags": {"is_in": "NL", "is_in:continent": "Europe", "is_in:country": "The Netherlands", "is_in:country_code": "NL", "is_in:province": "Gelderland", "name": "Eibergen", "name:carnaval": "Rot'ngat", "name:ru": "\u042d\u0439\u0431\u0435\u0440\u0433\u0435\u043d", "place": "town", "population": "11175", "population:date": "2017-01-01", "source:population": "https://berkelland.incijfers.nl/jive"}}, {"type": "node", "id": 45815457, "lat": 52.2321562, "lon": 6.5809004, "tags": {"name": "Goor", "name:nl": "Goor", "name:ru": "\u0413\u043e\u0440", "place": "town", "population": "12141", "population:date": "2017-01-01", "source:population": "https://www.hofvantwente.nl/bestuur/over-de-gemeente-hof-van-twente/hof-van-twente-in-cijfers.html", "wikidata": "Q2054185", "wikipedia": "nl:Goor"}}, {"type": "node", "id": 1003823602, "lat": 52.359431, "lon": 6.466514, "tags": {"name": "Nijverdal", "name:nl": "Nijverdal", "name:ru": "\u041d\u0435\u0439\u0432\u0435\u0440\u0434\u0430\u043b", "place": "town", "population": "24821", "population:date": "2017-01-01", "source:population": "https://www.hellendoorn.nl/actueel/nieuws/05976", "wikidata": "Q1850290", "wikipedia": "nl:Nijverdal"}}, {"type": "node", "id": 2668210685, "lat": 52.3080276, "lon": 6.5213004, "tags": {"name": "Rijssen", "name:nds-nl": "Riessn", "name:nl": "Rijssen", "name:ru": "\u0420\u0435\u0439\u0441\u0441\u0435\u043d", "place": "town", "population": "28848", "population:date": "2017-01-01", "postal_code": "7461", "source:population": "http://webcache.googleusercontent.com/search?q=cache:TVZ_F8V5I5cJ:www.rijssen-holten.nl/home/nieuws/rijssen-holten-groeit-door", "url": "http://www.rijssen-holten.nl", "wikidata": "Q494359", "wikipedia": "nl:Rijssen"}}, {"type": "node", "id": 3836540472, "lat": 52.3579925, "lon": 6.5921844, "tags": {"is_in": "NL", "is_in:continent": "Europe", "is_in:country": "The Netherlands", "is_in:country_code": "NL", "is_in:province": "Overijssel", "name": "Wierden", "name:fy": "Wierden", "name:ru": "\u0412\u0438\u0440\u0434\u0435\u043d", "place": "town", "population": "14775", "population:date": "2017-01-01", "source:population": "CBS Wijk 2017", "wikidata": "Q10025", "wikipedia": "nl:Wierden"}}, {"type": "node", "id": 3836540470, "lat": 52.3563585, "lon": 6.6636219, "tags": {"name": "Almelo", "name:nl": "Almelo", "name:ru": "\u0410\u043b\u043c\u0435\u043b\u043e", "name:sr": "\u0410\u043b\u043c\u0435\u043b\u043e", "place": "town", "population": "69174", "population:date": "2017-01-01", "population:note": "Inwonertal gemeente minus Bornerbroek en Aadorp.", "source:population": "https://www.kennispunttwente.nl/cijfers-trends", "wikidata": "Q988", "wikipedia": "nl:Almelo"}}, {"type": "node", "id": 46531915, "lat": 52.4086697, "lon": 6.6148049, "tags": {"name": "Vriezenveen", "name:nl": "Vriezenveen", "name:ru": "\u0412\u0440\u0438\u0437\u0435\u043d\u0432\u0435\u043d", "place": "town", "population": "13895", "population:date": "2017-01-01", "source:population": "CBS Wijk 2017", "wikidata": "Q3120872", "wikipedia": "nl:Vriezenveen"}}, {"type": "node", "id": 452500855, "lat": 52.4570766, "lon": 5.0373214, "tags": {"is_in": "Waterland,Noord-Holland,NL", "is_in:continent": "Europe", "is_in:country": "The Netherlands", "is_in:country_code": "NL", "is_in:province": "North Holland", "name": "Monnickendam", "name:ru": "\u041c\u043e\u043d\u043d\u0438\u043a\u0435\u043d\u0434\u0430\u043c", "place": "town", "population": "9790", "population:date": "2017-01-01", "postal_code": "1141", "source:population": "CBS Wijk 2017", "wikidata": "Q81276", "wikipedia": "nl:Monnickendam"}}, {"type": "node", "id": 46757348, "lat": 52.4963695, "lon": 5.0683538, "tags": {"name": "Volendam", "name:fy": "Foalendam", "name:ru": "\u0412\u043e\u043b\u0435\u043d\u0434\u0430\u043c", "place": "town", "population": "22215", "population:date": "2017-01-01", "postal_code": "1131", "source:population": "CBS Wijk 2017", "wikidata": "Q903595", "wikipedia": "nl:Volendam"}}, {"type": "node", "id": 7162633372, "lat": 52.5119116, "lon": 5.0562845, "tags": {"name": "Edam", "name:carnaval": "Sufbrugge", "name:nl": "Edam", "name:ru": "\u042d\u0434\u0430\u043c", "place": "town", "population": "7080", "population:date": "2017-01-01", "source:population": "CBS Wijk 2017", "wikidata": "Q77056", "wikipedia": "nl:Edam"}}, {"type": "node", "id": 240767902, "lat": 52.653272, "lon": 5.0735802, "tags": {"name": "Hoorn", "name:carnaval": "Konkeldonk", "name:ckb": "\u0647\u0648\u0631\u0646", "name:fr": "Horn", "name:fy": "Hoarn", "name:nl": "Hoorn", "name:ru": "\u0425\u043e\u0440\u043d", "place": "town", "population": "72493", "population:date": "2017-01-01", "population:note": "Inwonertal inclusief Blokker en Zwaag.", "source:population": "CBS", "wikidata": "Q9938", "wikipedia": "nl:Hoorn (Noord-Holland)"}}, {"type": "node", "id": 393766958, "lat": 52.768691, "lon": 5.106195, "tags": {"is_in": "Noord-Holland,NL", "is_in:continent": "Europe", "is_in:country": "The Netherlands", "is_in:country_code": "NL", "is_in:province": "North Holland", "name": "Medemblik", "name:ru": "\u041c\u0435\u0434\u0435\u043c\u0431\u043b\u0438\u043a", "place": "town", "population": "8583", "population:date": "2017-01-01", "postal_code": "1671", "source:population": "http://smartmap.nl/lib/gemeentemedia/e-books/Medemblik_20172018/pubData/mobile/index.htm#/27", "wikidata": "Q3303930", "wikipedia": "nl:Medemblik (stad)"}}, {"type": "node", "id": 240765974, "lat": 52.7036282, "lon": 5.2901222, "tags": {"is_in": "NL", "is_in:continent": "Europe", "is_in:country": "The Netherlands", "is_in:country_code": "NL", "is_in:province": "North Holland", "name": "Enkhuizen", "name:carnaval": "Haringdonk", "name:fy": "Inkhuzen", "name:nl": "Enkhuizen", "name:ru": "\u042d\u043d\u043a\u0445\u0451\u0439\u0437\u0435\u043d", "place": "town", "population": "18468", "population:date": "2018-01-01", "population:note": "Inwonertal inclusief Oosterdijk.", "source:population": "https://www.enkhuizen.nl/gemeente-cijfers", "wikidata": "Q9918", "wikipedia": "nl:Enkhuizen"}}, {"type": "node", "id": 243670659, "lat": 52.5150949, "lon": 5.4768915, "tags": {"capital": "4", "name": "Lelystad", "name:ar": "\u0644\u064a\u0644\u064a\u0633\u062a\u0627\u062f", "name:carnaval": "Knarregat", "name:de": "Lelystad", "name:en": "Lelystad", "name:es": "Lelystad", "name:fa": "\u0644\u06cc\u0644\u06cc\u200c\u0627\u0633\u062a\u0627\u062f", "name:fr": "Lelystad", "name:fy": "Lelyst\u00ead", "name:lt": "Lelistadas", "name:nl": "Lelystad", "name:ru": "\u041b\u0435\u043b\u0438\u0441\u0442\u0430\u0434", "name:zh": "\u83b1\u5229\u65af\u5854\u5fb7", "place": "city", "population": "76969", "population:date": "2017-01-01", "postal_code": "8223", "source:population": "https://www.lelystad.nl/onderzoek", "wikidata": "Q166065", "wikipedia": "nl:Lelystad"}}, {"type": "node", "id": 5576108319, "lat": 52.5236608, "lon": 5.7160381, "tags": {"name": "Dronten", "place": "town", "population": "28086", "wikidata": "Q328087", "wikipedia": "nl:Dronten"}}, {"type": "node", "id": 47137733, "lat": 52.6654515, "lon": 5.5987894, "tags": {"name": "Urk", "name:nl": "Urk", "name:ru": "\u0423\u0440\u043a", "place": "town", "population": "20220", "population:date": "2017-01-01", "postal_code": "8321", "source:population": "https://www.urk.nl/portal/veelgestelde-vragen_41931/item/hoeveel-inwoners-heeft-de-gemeente-urk_3482.html", "wikidata": "Q273746", "wikipedia": "nl:Urk"}}, {"type": "node", "id": 5576108318, "lat": 52.7091058, "lon": 5.7477459, "tags": {"name": "Emmeloord", "name:carnaval": "Pierenoord", "name:fy": "Emmeloard", "name:nl": "Emmeloord", "name:ru": "\u042d\u043c\u043c\u0435\u043b\u043e\u0440\u0434", "place": "town", "population": "25700", "population:date": "2017-01-01", "source:population": "CBS Wijk 2017", "wikidata": "Q60705", "wikipedia": "nl:Emmeloord"}}, {"type": "node", "id": 1928769901, "lat": 52.8444859, "lon": 5.7099136, "tags": {"name": "Lemmer", "name:fy": "De Lemmer", "name:nl": "Lemmer", "name:ru": "\u041b\u0435\u043c\u043c\u0435\u0440", "place": "town", "population": "10225", "population:date": "2017-01-01", "source:population": "CBS Wijk 2017", "wikidata": "Q144091", "wikipedia": "nl:Lemmer"}}, {"type": "node", "id": 235273940, "lat": 53.1752103, "lon": 5.4141998, "tags": {"name": "Harlingen", "name:fy": "Harns", "name:ja": "\u30cf\u30eb\u30ea\u30f3\u30b2\u30f3", "name:nl": "Harlingen", "name:ru": "\u0425\u0430\u0440\u043b\u0438\u043d\u0433\u0435\u043d", "place": "town", "population": "14720", "population:date": "2017-01-01", "source:population": "CBS Wijk 2017", "wikidata": "Q60475", "wikipedia": "nl:Harlingen (stad)"}}, {"type": "node", "id": 235883025, "lat": 53.0620178, "lon": 5.5228964, "tags": {"is_in": "NL", "is_in:continent": "Europe", "is_in:country": "The Netherlands", "is_in:province": "Friesland", "name": "Bolsward", "name:fy": "Boalsert", "name:ja": "\u30dc\u30eb\u30b9\u30f4\u30a1\u30eb\u30c8", "name:ru": "\u0411\u043e\u043b\u0441\u0432\u0430\u0440\u0434", "place": "town", "population": "10185", "population:date": "2017-01-01", "source:population": "CBS Wijk 2017", "website": "https://sudwestfryslan.nl/", "wikidata": "Q3291153", "wikipedia": "nl:Bolsward"}}, {"type": "node", "id": 235255139, "lat": 53.033548, "lon": 5.6611029, "tags": {"is_in": "NL", "is_in:continent": "Europe", "is_in:country": "The Netherlands", "is_in:country_code": "NL", "is_in:province": "Friesland", "name": "Sneek", "name:carnaval": "Drabbelterp", "name:fy": "Snits", "name:ja": "\u30b9\u30cd\u30fc\u30af", "name:nl": "Sneek", "name:ru": "\u0421\u043d\u0435\u043a", "place": "town", "population": "32865", "population:date": "2017-01-01", "source:population": "CBS Wijk & Buurt 2017", "website": "https://sudwestfryslan.nl/", "wikidata": "Q23070", "wikipedia": "nl:Sneek (stad)"}}, {"type": "node", "id": 235262358, "lat": 52.9644286, "lon": 5.8026709, "tags": {"name": "Joure", "name:fy": "De Jouwer", "name:ja": "\u30e4\u30a6\u30ec", "name:nl": "Joure", "name:ru": "\u042f\u0443\u0440\u0435", "place": "town", "population": "13090", "population:date": "2017-01-01", "source:population": "CBS Wijk 2017", "wikidata": "Q2317245", "wikipedia": "nl:Joure"}}, {"type": "node", "id": 235270746, "lat": 53.1886564, "lon": 5.5414628, "tags": {"is_in": "NL", "is_in:continent": "Europe", "is_in:country": "The Netherlands", "is_in:province": "Friesland", "name": "Franeker", "name:fy": "Frjentsjer", "name:ja": "\u30d5\u30e9\u30fc\u30cd\u30b1\u30eb", "name:nl": "Franeker", "name:ru": "\u0424\u0440\u0430\u043d\u0435\u043a\u0435\u0440", "place": "town", "population": "12793", "population:date": "2018-01-01", "source:population": "https://www.waadhoeke.nl/bouwen-en-wonen/kernen-en-inwoners.html", "website": "http://www.franekeradeel.nl", "wikidata": "Q41974", "wikipedia": "nl:Franeker"}}, {"type": "node", "id": 5589172618, "lat": 53.2607534, "lon": 5.7642074, "tags": {"name": "Stiens", "name:fy": "Stiens", "name:ru": "\u0421\u0442\u0438\u043d\u0441", "place": "town", "population": "7545", "population:date": "2017-01-01", "postal_code": "9051", "source:population": "CBS Buurt 2017", "wikidata": "Q1915794", "wikipedia": "nl:Stiens"}}, {"type": "node", "id": 235278210, "lat": 53.2005936, "lon": 5.7918548, "tags": {"capital": "4", "name": "Leeuwarden", "name:ar": "\u0644\u064a\u0648\u0648\u0627\u0631\u062f\u0646", "name:de": "Leeuwarden", "name:en": "Leeuwarden", "name:es": "Leeuwarden", "name:fr": "Leeuwarden", "name:fy": "Ljouwert", "name:ja": "\u30ec\u30fc\u30ef\u30eb\u30c7\u30f3", "name:lt": "Leuvardenas", "name:nds": "Liwwadden", "name:ru": "\u041b\u0435\u0443\u0432\u0430\u0440\u0434\u0435\u043d", "name:sr": "\u041b\u0435\u0443\u0432\u0430\u0440\u0434\u0435\u043d", "name:uk": "\u041b\u044c\u043e\u0432\u0435\u0442", "place": "city", "population": "91992", "population:date": "2017-01-01", "population:note": "Inwonertal exclusief dorpen (waaronder ook Goutum, Snakkerburen, Hempens en Teerns).", "source:population": "https://leeuwarden.buurtmonitor.nl", "website": "https://www.leeuwarden.nl/", "wikidata": "Q25390", "wikipedia": "nl:Leeuwarden (stad)"}}, {"type": "node", "id": 46663585, "lat": 52.4579135, "lon": 5.9995423, "tags": {"name": "Wezep", "name:nl": "Wezep", "name:ru": "\u0412\u0435\u0437\u0435\u043f", "place": "town", "population": "12175", "population:date": "2017-01-01", "postal_code": "8091", "source:population": "CBS Wijk & Buurt 2017"}}, {"type": "node", "id": 46714716, "lat": 52.4773176, "lon": 6.0560015, "tags": {"name": "Hattem", "name:carnaval": "Dieckersdonk", "name:nl": "Hattem", "name:ru": "\u0425\u0430\u0442\u0442\u0435\u043c", "place": "town", "population": "12040", "population:date": "2017-01-01", "source:population": "CBS", "wikidata": "Q58797", "wikipedia": "nl:Hattem"}}, {"type": "node", "id": 46922468, "lat": 52.5559484, "lon": 5.9033303, "tags": {"name": "Kampen", "name:carnaval": "Uiendonk", "name:nl": "Kampen", "name:ru": "\u041a\u0430\u043c\u043f\u0435\u043d", "place": "town", "population": "36050", "population:date": "2017-01-01", "source:population": "CBS Wijk 2017", "wikidata": "Q10014", "wikipedia": "nl:Kampen (stad)"}}, {"type": "node", "id": 235886826, "lat": 52.5089759, "lon": 6.0943765, "tags": {"capital": "4", "name": "Zwolle", "name:ar": "\u0632\u0641\u0648\u0644\u0647", "name:carnaval": "Sassendonk", "name:de": "Zwolle", "name:en": "Zwolle", "name:es": "Zwolle", "name:fr": "Zwolle", "name:fy": "Swol", "name:ja": "\u30ba\u30f4\u30a9\u30ec", "name:la": "Suvolla", "name:nds": "Zwolle", "name:nl": "Zwolle", "name:ru": "\u0417\u0432\u043e\u043b\u043b\u0435", "name:sr": "\u0417\u0432\u043e\u043b\u0435", "place": "city", "population": "124505", "population:date": "2017-01-01", "population:note": "Inwonertal gemeente minus Wijthmen en Windesheim.", "source": "AND", "source:population": "https://zwolle.buurtmonitor.nl", "website": "https://www.zwolle.nl/", "wikidata": "Q793", "wikipedia": "nl:Zwolle"}}, {"type": "node", "id": 46804452, "lat": 52.5111721, "lon": 6.253911, "tags": {"name": "Dalfsen", "name:nl": "Dalfsen", "name:ru": "\u0414\u0430\u0444\u043b\u0441\u0435\u043d", "place": "town", "population": "10397", "population:date": "2017-01-01", "source:population": "https://www.dalfsen.nl/OverGemeenteDalfsen/CijfersGemeenteDalfsen.htm", "wikidata": "Q15644904", "wikipedia": "nl:Dalfsen (dorp)"}}, {"type": "node", "id": 46980085, "lat": 52.5914949, "lon": 6.0956717, "tags": {"name": "Hasselt", "name:nl": "Hasselt", "name:ru": "\u0425\u0430\u0441\u0441\u0435\u043b\u0442", "place": "town", "population": "7148", "population:date": "2018-04-01", "postal_code": "8061", "source:population": "https://www.zwartewaterland.nl/inwoners/onderwerpen-a-z_42008/product/aantal-inwoners_1315.html", "wikidata": "Q81159", "wikipedia": "nl:Hasselt (Overijssel)"}}, {"type": "node", "id": 47084115, "lat": 52.647276, "lon": 6.2074792, "tags": {"name": "Staphorst", "name:nl": "Staphorst", "name:ru": "\u0421\u0442\u0430\u043f\u0445\u043e\u0440\u0441\u0442", "place": "town", "population": "10510", "population:date": "2017-01-01", "postal_code": "7951", "source:population": "CBS Wijk 2017", "wikidata": "Q27825699", "wikipedia": "nl:Staphorst (dorp)"}}, {"type": "node", "id": 47214961, "lat": 52.69355, "lon": 6.19776, "tags": {"name": "Meppel", "name:ru": "\u041c\u0435\u043f\u043f\u0435\u043b", "place": "town", "population": "28955", "population:date": "2017-01-01", "source:population": "https://meppel.incijfers.nl/jive", "wikidata": "Q60425", "wikipedia": "nl:Meppel"}}, {"type": "node", "id": 47426993, "lat": 52.7895502, "lon": 6.1210477, "tags": {"name": "Steenwijk", "name:carnaval": "Moatenoord", "name:fy": "Stienwyk", "name:ru": "\u0421\u0442\u0435\u043d\u0432\u0435\u0439\u043a", "place": "town", "population": "18930", "population:date": "2017-01-01", "population:note": "Inwonertal exclusief Tuk en Zuidveen.", "source:population": "CBS Wijk & Buurt 2017", "stadsrecht": "1327", "wikidata": "Q81175", "wikipedia": "nl:Steenwijk"}}, {"type": "node", "id": 46842464, "lat": 52.5208023, "lon": 6.4251941, "tags": {"name": "Ommen", "name:ru": "\u041e\u043c\u043c\u0435\u043d", "place": "town", "population": "12125", "population:date": "2017-01-01", "postal_code": "7731", "source:population": "CBS Wijk 2017", "wikidata": "Q11731607", "wikipedia": "nl:Ommen (stad)"}}, {"type": "node", "id": 1540788244, "lat": 52.5996262, "lon": 6.4593207, "tags": {"name": "Dedemsvaart", "name:carnaval": "Kloetendonk", "name:ru": "\u0414\u0435\u0434\u0435\u043c\u0441\u0432\u0430\u0440\u0442", "place": "town", "population": "12580", "population:date": "2017-01-01", "source:population": "CBS Wijk 2017"}}, {"type": "node", "id": 46665461, "lat": 52.4585213, "lon": 6.5609521, "tags": {"is_in": "NL", "is_in:continent": "Europe", "is_in:country": "The Netherlands", "is_in:country_code": "NL", "is_in:province": "Overijssel", "name": "Vroomshoop", "name:carnaval": "Smoezenland", "name:nl": "Vroomshoop", "name:ru": "\u0412\u0440\u043e\u043c\u0441\u0445\u043e\u043f", "place": "town", "population": "8790", "population:date": "2017-01-01", "postal_code": "7681", "source:population": "CBS Buurt 2017"}}, {"type": "node", "id": 46956871, "lat": 52.5754706, "lon": 6.6188242, "tags": {"name": "Hardenberg", "name:nl": "Hardenberg", "name:ru": "\u0425\u0430\u0440\u0434\u0435\u043d\u0431\u0435\u0440\u0433", "place": "town", "population": "19280", "population:date": "2017-01-01", "source:population": "CBS Wijk 2017", "wikidata": "Q10013", "wikipedia": "nl:Hardenberg (stad)"}}, {"type": "node", "id": 47279925, "lat": 52.7202393, "lon": 6.4759313, "tags": {"name": "Hoogeveen", "name:fy": "Hegefean", "name:nl": "Hoogeveen", "name:ru": "\u0425\u043e\u0433\u0435\u0432\u0435\u043d", "place": "town", "population": "39995", "population:date": "2017-01-01", "source:population": "CBS Wijk 2017", "wikidata": "Q18691547", "wikipedia": "nl:Hoogeveen (plaats)"}}, {"type": "node", "id": 47537682, "lat": 52.8611395, "lon": 6.5122831, "tags": {"name": "Beilen", "name:nl": "Beilen", "name:ru": "\u0411\u0435\u0439\u043b\u0435\u043d", "place": "town", "population": "11091", "population:date": "2017-01-01", "source:population": "https://www.middendrenthe.nl/website/document/docnr/2291870", "wikidata": "Q2034045", "wikipedia": "nl:Beilen"}}, {"type": "node", "id": 47514721, "lat": 52.8492168, "lon": 6.6103067, "tags": {"is_in": "NL", "is_in:continent": "Europe", "is_in:country": "The Netherlands", "is_in:country_code": "NL", "is_in:province": "Drenthe", "name": "Westerbork", "name:ru": "\u0412\u0435\u0441\u0442\u0435\u0440\u0431\u043e\u0440\u043a", "place": "town", "population": "4808", "population:date": "2017-01-01", "postal_code": "9431", "source:population": "https://www.middendrenthe.nl/website/document/docnr/2291870"}}, {"type": "node", "id": 235265692, "lat": 52.9568246, "lon": 5.9270052, "tags": {"is_in:country": "The Netherlands", "is_in:country_code": "NL", "name": "Heerenveen", "name:fy": "It Hearrenfean", "name:ja": "\u30d8\u30fc\u30ec\u30f3\u30d5\u30a7\u30fc\u30f3", "name:nl": "Heerenveen", "name:ru": "\u0425\u0435\u0440\u0435\u043d\u0432\u0435\u043d", "place": "town", "population": "29799", "population:date": "2017-01-01", "source:population": "https://heerenveen.buurtmonitor.nl", "wikidata": "Q1061677", "wikipedia": "nl:Heerenveen (plaats)"}}, {"type": "node", "id": 235281706, "lat": 52.8762872, "lon": 6.001764, "tags": {"name": "Wolvega", "name:fy": "Wolvegea", "name:nl": "Wolvega", "name:ru": "\u0412\u043e\u043b\u0432\u0435\u0433\u0430", "place": "town", "population": "12850", "population:date": "2018-01-01", "source:population": "https://www.weststellingwerf.nl/ontdek-weststellingwerf/kerngegevens-gemeente-weststellingwerf_41292", "wikidata": "Q644366", "wikipedia": "nl:Wolvega"}}, {"type": "node", "id": 47746943, "lat": 53.0059606, "lon": 6.0641634, "tags": {"name": "Gorredijk", "name:fy": "De Gordyk", "name:ru": "\u0413\u043e\u0440\u0440\u0435\u0434\u0435\u0439\u043a", "place": "town", "population": "7349", "population:date": "2018-01-01", "postal_code": "8401", "source:population": "https://www.opsterland.nl/Dit_is_Opsterland/Dit_is_Opsterland/Over_Opsterland/Opsterland_in_cijfers", "wikidata": "Q2103434"}}, {"type": "node", "id": 47718013, "lat": 52.9889778, "lon": 6.2907791, "tags": {"name": "Oosterwolde", "name:fy": "Easterw\u00e2lde", "name:nds-nl": "Oosterwoolde", "name:nl": "Oosterwolde", "name:ru": "\u041e\u0441\u0442\u0435\u0440\u0432\u043e\u043b\u0434\u0435", "place": "town", "population": "9715", "population:date": "2018-01-01", "postal_code": "8431", "source:population": "https://www.ooststellingwerf.nl/bewoners-bezoekers/dorpenkernen_42533", "wikidata": "Q2678235", "wikipedia": "nl:Oosterwolde (Friesland)"}}, {"type": "node", "id": 4744116530, "lat": 53.1954807, "lon": 5.9871063, "tags": {"name": "Burgum", "name:nl": "Bergum", "place": "town", "population": "10058", "population:date": "2017-01-01", "postal_code": "9251", "source:population": "https://www.tytsjerksteradiel.nl/inwoners-t-diel/aantal-inwoners-tytsjerksteradiel_45495", "wikidata": "Q1016068", "wikipedia": "nl:Bergum"}}, {"type": "node", "id": 235259159, "lat": 53.1067171, "lon": 6.0982549, "tags": {"name": "Drachten", "name:fy": "Drachten", "name:ja": "\u30c9\u30e9\u30cf\u30c6\u30f3", "name:nl": "Drachten", "name:ru": "\u0414\u0440\u0430\u0445\u0442\u0435\u043d", "place": "town", "population": "45186", "population:date": "2017-01-01", "source:population": "https://www.smallingerland.nl/Int/Drachten-en-de-dorpen/Bevolkingscijfers.html", "wikidata": "Q60444", "wikipedia": "nl:Drachten"}}, {"type": "node", "id": 48286375, "lat": 53.2540233, "lon": 6.1443119, "tags": {"name": "Buitenpost", "name:fy": "B\u00fbtenpost", "name:nl": "Buitenpost", "name:ru": "\u0411\u0451\u0439\u0442\u0435\u043d\u043f\u043e\u0441\u0442", "place": "town", "population": "5762", "population:date": "2017-01-01", "postal_code": "9285", "source:population": "https://www.achtkarspelen.nl/inwoners-achtkarspelen/dorpen-in-achtkarspelen_44681", "wikidata": "Q181500", "wikipedia": "nl:Buitenpost"}}, {"type": "node", "id": 5639799462, "lat": 53.279805, "lon": 6.148734, "tags": {"name": "Kollum", "name:fy": "Kollum", "name:nl": "Kollum", "name:ru": "\u041a\u043e\u043b\u043b\u044e\u043c", "place": "town", "population": "5529", "population:date": "2017-01-01", "postal_code": "9291", "source:population": "https://www.kollumerland.nl/gemeente/feiten-en-cijfers_3721/item/inwonertal-en-info-2017_6145.html", "wikidata": "Q2204204", "wikipedia": "nl:Kollum"}}, {"type": "node", "id": 29629883, "lat": 52.9953538, "lon": 6.560553, "tags": {"capital": "4", "name": "Assen", "name:ar": "\u0623\u0633\u0646", "name:carnaval": "Pitlo", "name:de": "Assen", "name:en": "Assen", "name:es": "Assen", "name:fr": "Assen", "name:ja": "\u30a2\u30c3\u30bb\u30f3", "name:nl": "Assen", "name:ru": "\u0410\u0441\u0441\u0435\u043d", "name:sr": "\u0410\u0441\u0435\u043d", "place": "city", "population": "66895", "population:date": "2017-01-01", "population:note": "Inwonertal inclusief Witten, Anreep, Schieven en Zeijerveen; exclusief Loon, Ubbena, Ter Aard, Zeijerveld en Rhee.", "source:population": "https://assen.buurtmonitor.nl//Jive", "wikidata": "Q798", "wikipedia": "nl:Assen"}}, {"type": "node", "id": 898037576, "lat": 53.1632327, "lon": 6.377119, "tags": {"name": "Leek", "name:fy": "De Like", "name:nl": "Leek", "name:ru": "\u041b\u0435\u043a", "place": "town", "population": "10946", "population:date": "2017-01-01", "source:population": "https://www.leek.nl/inwoners-en-ondernemers/feiten-en-cijfers_3163", "wikidata": "Q26212170", "wikipedia": "nl:Leek (Groningen)"}}, {"type": "node", "id": 48029270, "lat": 53.1405378, "lon": 6.4275196, "tags": {"name": "Roden", "name:fy": "Roan", "name:ru": "\u0420\u043e\u0434\u0435\u043d", "place": "town", "population": "15595", "population:date": "2017-01-01", "source:population": "CBS Buurt 2017", "wikidata": "Q2405988", "wikipedia": "nl:Roden (Nederland)"}}, {"type": "node", "id": 48274839, "lat": 53.2480055, "lon": 6.4048657, "tags": {"is_in": "NL", "is_in:continent": "Europe", "is_in:country": "The Netherlands", "is_in:country_code": "NL", "is_in:province": "Groningen", "name": "Zuidhorn", "name:fy": "S\u00fadhorn", "name:nds": "Zuudh\u00f6rn", "name:ru": "\u0417\u0451\u0439\u0434\u0445\u043e\u0440\u043d", "place": "town", "population": "7645", "population:date": "2017-01-01", "postal_code": "9801", "source:population": "CBS Buurt 2017", "wikidata": "Q1533735", "wikipedia": "nl:Zuidhorn (plaats)"}}, {"type": "node", "id": 7563081402, "lat": 53.1346105, "lon": 6.5633884, "tags": {"name": "Eelde", "name:ru": "\u0415\u043b\u0434\u0435", "place": "town", "population": "6840", "population:date": "2017-01-01", "postal_code": "9761", "source:population": "https://tynaarlo.incijfers.nl/jive"}}, {"type": "node", "id": 47929816, "lat": 53.0940808, "lon": 6.6871992, "tags": {"is_in:country": "The Netherlands", "is_in:country_code": "NL", "is_in:province": "Drenthe", "name": "Zuidlaren", "name:fy": "S\u00fadlaren", "name:ru": "\u0417\u0451\u0439\u0434\u043b\u0430\u0440\u0435\u043d", "place": "town", "population": "10210", "population:date": "2017-01-01", "source:population": "https://tynaarlo.incijfers.nl/jive", "wikidata": "Q228666", "wikipedia": "nl:Zuidlaren"}}, {"type": "node", "id": 7162633371, "lat": 53.1709841, "lon": 6.6061413, "tags": {"name": "Haren", "name:nl": "Haren", "name:ru": "\u0425\u0430\u0440\u0435\u043d", "place": "town", "population": "17108", "population:date": "2017-08-15", "source:population": "https://www.haren.nl/inwoners/kerngegevens_43100", "wikidata": "Q33443174", "wikipedia": "nl:Haren (Groningen)"}}, {"type": "node", "id": 3125538288, "lat": 53.2190652, "lon": 6.5680077, "tags": {"capital": "4", "loc_name": "Stad", "name": "Groningen", "name:ar": "\u062e\u0631\u0648\u0646\u064a\u0646\u063a\u0646", "name:de": "Groningen", "name:en": "Groningen", "name:eo": "Groningo", "name:es": "Groninga", "name:fr": "Groningue", "name:fy": "Grins", "name:hu": "Groningen", "name:it": "Groninga", "name:ja": "\u30d5\u30ed\u30fc\u30cb\u30f3\u30b2\u30f3", "name:la": "Groninga", "name:nds": "Grunnen", "name:nl": "Groningen", "name:pt": "Groninga", "name:ru": "\u0413\u0440\u043e\u043d\u0438\u043d\u0433\u0435\u043d", "name:sr": "\u0413\u0440\u043e\u043d\u0438\u043d\u0433\u0435\u043d", "name:uk": "\u0413\u0440\u043e\u043d\u0456\u043d\u0433\u0435\u043d", "place": "city", "population": "201242", "population:date": "2017-01-01", "population:note": "Inwonertal inclusief Hoogkerk, Noorddijk en Meerstad;exclusief Engelbert, Middelbert, Dorkwerd, Harkstede GN en Lageland GN.", "source:population": "https://os-groningen.nl/statistische-overzichten;CBS buurt 2017", "website": "https://gemeente.groningen.nl/", "wikidata": "Q749", "wikipedia": "nl:Groningen (stad)"}}, {"type": "node", "id": 48381378, "lat": 53.322508, "lon": 6.0009887, "tags": {"name": "Dokkum", "name:fy": "Dokkum", "name:ja": "\u30c9\u30c3\u30af\u30e0", "name:ru": "\u0414\u043e\u043a\u043a\u044e\u043c", "place": "town", "population": "12576", "population:date": "2017-01-01", "source:population": "https://www.dongeradeel.nl/gemeente-dongeradeel/aantal-inwoners_41858", "wikidata": "Q41976", "wikipedia": "nl:Dokkum"}}, {"type": "node", "id": 48391370, "lat": 53.3283335, "lon": 6.5162773, "tags": {"name": "Winsum", "name:nds": "Winzum", "name:ru": "\u0412\u0438\u043d\u0441\u044e\u043c", "place": "town", "population": "7471", "population:date": "2017-01-01", "postal_code": "9951", "source:population": "https://www.winsum.nl/wonen_en_leven/dorp_en_buurt/inwonersaantal", "wikidata": "Q9385034", "wikipedia": "nl:Winsum (dorp in Groningen)"}}, {"type": "node", "id": 48348797, "lat": 53.3004869, "lon": 6.596417, "tags": {"is_in": "NL", "is_in:continent": "Europe", "is_in:country": "The Netherlands", "is_in:country_code": "NL", "is_in:province": "Groningen", "name": "Bedum", "name:ru": "\u0411\u0435\u0434\u044e\u043c", "place": "town", "population": "8580", "population:date": "2017-01-01", "source:population": "CBS Buurt 2017", "wikidata": "Q2690942", "wikipedia": "nl:Bedum (plaats)"}}, {"type": "node", "id": 48473773, "lat": 53.4074521, "lon": 6.6732041, "tags": {"name": "Uithuizen", "name:nl": "Uithuizen", "name:ru": "\u042d\u0439\u0442\u0445\u0451\u0439\u0437\u0435\u043d", "place": "town", "population": "5105", "population:date": "2019-10", "population:note": "Inwonertal inclusief 't Lage van de Weg.", "postal_code": "9981", "source:population": "CBS Statline", "wikidata": "Q2223679", "wikipedia": "nl:Uithuizen"}}, {"type": "node", "id": 44678480, "lat": 51.9746432, "lon": 6.7224185, "tags": {"name": "Winterswijk", "name:de": "Winterswick", "name:nl": "Winterswijk", "name:ru": "\u0412\u0438\u043d\u0442\u0435\u0440\u0441\u0432\u0435\u0439\u043a", "place": "town", "population": "23593", "population:date": "2019-01-01", "source:population": "https://www.winterswijk.nl/Inwoners_Ondernemers/Wonen_ver_bouwen_verhuizen/Wonen/Bevolkingsgegevens", "wikidata": "Q15910469", "wikipedia": "nl:Winterswijk (plaats)"}}, {"type": "node", "id": 5983333596, "lat": 52.1564581, "lon": 6.740239, "tags": {"name": "Haaksbergen", "name:carnaval": "'t Asschedorp", "name:nl": "Haaksbergen", "name:ru": "\u0425\u0430\u043a\u0441\u0431\u0435\u0440\u0433\u0435\u043d", "place": "town", "population": "21605", "population:date": "2017-01-01", "population:note": "Inwonertal exclusief Buurse en Sint Isidorushoeve.", "source:population": "CBS Wijk 2017", "wikidata": "Q10003", "wikipedia": "nl:Haaksbergen"}}, {"type": "node", "id": 3836540471, "lat": 52.2209855, "lon": 6.8940537, "tags": {"alt_name:de": "Enscheid", "ele": "42", "name": "Enschede", "name:ar": "\u0623\u0646\u0633\u062e\u062f\u064a\u0647", "name:carnaval": "Krekkelstad", "name:de": "Enschede", "name:fa": "\u0627\u0646\u0633\u062e\u062f\u0647", "name:fy": "Ynskedee", "name:nds": "Eanske", "name:nl": "Enschede", "name:pnb": "\u0627\u0646\u0634\u06cc\u062f\u06d2", "name:ru": "\u042d\u043d\u0441\u0445\u0435\u0434\u0435", "name:sr": "\u0415\u043d\u0441\u0445\u0435\u0434\u0435", "name:ur": "\u0627\u0646\u0633\u062e\u062f\u0626\u06d2", "place": "city", "population": "148874", "population:date": "2017-01-01", "population:note": "Inwonertal gemeente inclusief Glanerbrug, exclusief wijk Landelijk gebied en kernen.", "source:population": "https://www.kennispunttwente.nl/cijfers-trends", "website": "https://cityofenschede.com/", "wikidata": "Q10002", "wikipedia": "nl:Enschede"}}, {"type": "node", "id": 45952041, "lat": 52.2658726, "lon": 6.7924049, "tags": {"name": "Hengelo", "name:carnaval": "Windbuul'nstad", "name:nds": "Hengel", "name:nl": "Hengelo", "name:ru": "\u0425\u0435\u043d\u0433\u0435\u043b\u043e", "name:sr": "\u0425\u0435\u043d\u0433\u0435\u043b\u043e", "place": "town", "population": "79798", "population:date": "2017-01-01", "population:note": "Inwonertal exclusief Beckum.", "source:population": "https://www.kennispunttwente.nl/cijfers-trends", "wikidata": "Q10006", "wikipedia": "nl:Hengelo (Overijssel)"}}, {"type": "node", "id": 46090762, "lat": 52.3018287, "lon": 6.7502395, "tags": {"name": "Borne", "name:nl": "Borne", "name:ru": "\u0411\u043e\u0440\u043d\u0435", "place": "town", "population": "20930", "population:date": "2017-01-01", "source:population": "CBS Wijk & Buurt 2017", "wikidata": "Q9997", "wikipedia": "nl:Borne (Overijssel)"}}, {"type": "node", "id": 46529937, "lat": 52.4081084, "lon": 6.7818694, "tags": {"name": "Tubbergen", "name:carnaval": "B\u00f6llekesdoarp", "name:nl": "Tubbergen", "name:ru": "\u0422\u044e\u0431\u0431\u0435\u0440\u0433\u0435\u043d", "place": "town", "population": "6374", "population:date": "2017-01-01", "postal_code": "7651", "source:population": "https://noaberkracht.incijfers.nl/jive", "wikidata": "Q27825709", "wikipedia": "nl:Tubbergen (dorp)"}}, {"type": "node", "id": 45932078, "lat": 52.2620369, "lon": 7.0046452, "tags": {"name": "Losser", "name:carnaval": "'t A\u00f6skes dorp", "name:nl": "Losser", "name:ru": "\u041b\u043e\u0441\u0441\u0435\u0440", "place": "town", "population": "13130", "population:date": "2017-01-01", "source:population": "CBS Wijk 2017", "wikidata": "Q2184767", "wikipedia": "nl:Losser (plaats)"}}, {"type": "node", "id": 46130993, "lat": 52.3116616, "lon": 6.9241615, "tags": {"name": "Oldenzaal", "name:carnaval": "Boeskoolstad", "name:fy": "Oldenseal", "name:nl": "Oldenzaal", "name:ru": "\u041e\u043b\u0434\u0435\u043d\u0437\u0430\u043b", "place": "town", "population": "32006", "population:date": "2017-01-01", "source:population": "CBS", "wikidata": "Q10016", "wikipedia": "nl:Oldenzaal"}}, {"type": "node", "id": 46417470, "lat": 52.3746713, "lon": 7.0055192, "tags": {"name": "Denekamp", "name:carnaval": "K\u00f6ttelpeer'ndoarp", "name:nl": "Denekamp", "name:ru": "\u0414\u0435\u043d\u0435\u043a\u0430\u043c\u043f", "place": "town", "population": "9004", "population:date": "2017-01-01", "postal_code": "7591", "source:population": "https://noaberkracht.incijfers.nl/jive", "wikidata": "Q3022448", "wikipedia": "nl:Denekamp"}}, {"type": "node", "id": 824854213, "lat": 52.6612281, "lon": 6.7407359, "tags": {"is_in": "NL", "is_in:continent": "Europe", "is_in:country": "The Netherlands", "is_in:country_code": "NL", "is_in:province": "Drenthe", "name": "Coevorden", "name:ru": "\u041a\u0443\u0432\u043e\u0440\u0434\u0435\u043d", "place": "town", "population": "14355", "population:date": "2017-01-01", "source:population": "CBS Wijk 2017", "wikidata": "Q60453", "wikipedia": "nl:Coevorden"}}, {"type": "node", "id": 868430925, "lat": 52.788937, "lon": 6.8939001, "tags": {"ele": "23", "name": "Emmen", "name:ar": "\u0625\u0645\u0646", "name:fa": "\u0627\u0645\u0646", "name:la": "Emn", "name:lt": "Emenas", "name:ru": "\u042d\u043c\u043c\u0435\u043d", "name:sr": "\u0415\u043c\u0435\u043d", "old_name": "Curtis Emne", "place": "city", "population": "56113", "population:date": "2017-01-01", "population:note": "Inwonertal exclusief Weerdinge.", "source:population": "https://emmen.buurtmonitor.nl", "website": "https://www.emmen.nl/", "wikidata": "Q6807568", "wikipedia": "nl:Emmen (Drenthe)"}}, {"type": "node", "id": 47296467, "lat": 52.725393, "lon": 6.9852072, "tags": {"name": "Klazienaveen", "name:ru": "\u041a\u043b\u0430\u0437\u0438\u043d\u0430\u0432\u0435\u043d", "place": "town", "population": "12111", "population:date": "2017-01-01", "source:population": "https://emmen.buurtmonitor.nl"}}, {"type": "node", "id": 47622731, "lat": 52.9240151, "lon": 6.7943868, "tags": {"name": "Borger", "name:ru": "\u0411\u043e\u0440\u0433\u0435\u0440", "place": "town", "population": "4720", "population:date": "2017-01-01", "postal_code": "9531", "source:population": "https://www.borger-odoorn.nl/over-de-gemeente/de-25-dorpen.html"}}, {"type": "node", "id": 47741580, "lat": 53.0033118, "lon": 6.7639081, "tags": {"name": "Gieten", "name:ru": "\u0413\u0438\u0442\u0435\u043d", "place": "town", "population": "5061", "population:date": "2016-01-01", "postal_code": "9461", "source:population": "https://www.aaenhunze.nl/Inwoners_verenigingen/Wonen_en_ver_bouwen/Dorpen_in_Aa_en_Hunze", "wikidata": "Q3025896", "wikipedia": "nl:Gieten (Drenthe)"}}, {"type": "node", "id": 47557322, "lat": 52.8738918, "lon": 7.0625019, "tags": {"is_in": "NL", "is_in:continent": "Europe", "is_in:country": "The Netherlands", "is_in:country_code": "NL", "is_in:province": "Groningen", "name": "Ter Apel", "name:carnaval": "Kloosterwiekers", "name:ru": "\u0422\u0435\u0440-\u0410\u043f\u0435\u043b", "place": "town", "population": "8545", "population:date": "2017-01-01", "population:note": "Exclusief Ter Apelkanaal, Jipsingboermussel en Zandberg (ged.).", "postal_code": "9561", "source:population": "CBS Buurt 2017"}}, {"type": "node", "id": 47723534, "lat": 52.9925618, "lon": 6.9624466, "tags": {"name": "Stadskanaal", "name:ru": "\u0421\u0442\u0430\u0434\u0441\u043a\u0430\u043d\u0430\u043b", "place": "town", "population": "19404", "population:date": "2017-01-01", "source:population": "https://www.stadskanaal.nl/Over-de-gemeente/Over-Stadskanaal/Statistieken/Statistisch-jaarboek-2016", "wikidata": "Q485699", "wikipedia": "nl:Stadskanaal (plaats)"}}, {"type": "node", "id": 7188616574, "lat": 53.1638192, "lon": 6.7556852, "tags": {"name": "Hoogezand", "name:fy": "Heges\u00e2n", "name:nds": "Hoogezaand", "name:ru": "\u0425\u043e\u0433\u0435\u0437\u0430\u043d\u0434", "place": "town", "population": "21805", "population:date": "2018-01-01", "source:population": "https://www.midden-groningen.nl/inwoner/publicatie/midden-groningen-in-kaart", "wikidata": "Q1627411", "wikipedia": "nl:Hoogezand"}}, {"type": "node", "id": 47954167, "lat": 53.1028443, "lon": 6.8694863, "tags": {"is_in": "NL", "name": "Veendam", "name:fy": "Feandam", "name:ru": "\u0412\u0435\u043d\u0434\u0430\u043c", "place": "town", "population": "19920", "population:date": "2017-01-01", "source:population": "CBS Wijk 2017", "wikidata": "Q14212973", "wikipedia": "nl:Veendam (plaats)"}}, {"type": "node", "id": 47964504, "lat": 53.1073529, "lon": 7.013686, "tags": {"is_in:country": "The Netherlands", "is_in:province": "Groningen", "name": "Oude Pekela", "name:fy": "Alde Pekela", "name:ru": "\u0410\u0443\u0434\u0435-\u041f\u0435\u043a\u0435\u043b\u0430", "place": "town", "population": "7955", "population:date": "2017-01-01", "postal_code": "9665", "source:population": "CBS Wijk & Buurt 2017", "wikidata": "Q2096106", "wikipedia": "nl:Oude Pekela"}}, {"type": "node", "id": 48034485, "lat": 53.1429957, "lon": 7.0381231, "tags": {"name": "Winschoten", "name:fy": "Wynskoat", "name:nds": "Winschoot", "name:ru": "\u0412\u0438\u043d\u0441\u0445\u043e\u0442\u0435\u043d", "place": "town", "population": "18130", "population:date": "2017-01-01", "source:population": "CBS Wijk 2017", "wikidata": "Q73817", "wikipedia": "nl:Winschoten"}}, {"type": "node", "id": 48371394, "lat": 53.3203563, "lon": 6.8577654, "tags": {"is_in": "NL", "is_in:continent": "Europe", "is_in:country": "The Netherlands", "is_in:country_code": "NL", "is_in:province": "Groningen", "name": "Appingedam", "name:carnaval": "Narrenstad", "name:nds": "N Daam", "name:ru": "\u0410\u043f\u043f\u0438\u043d\u0433\u0435\u0434\u0430\u043c", "place": "town", "population": "11971", "population:date": "2017-01-01", "source:population": "https://www.appingedam.nl/over-de-gemeente/feiten-en-cijfers_43058/item/inwoneraantal_69745.html", "wikidata": "Q995", "wikipedia": "nl:Appingedam"}}, {"type": "node", "id": 48398676, "lat": 53.3325644, "lon": 6.9135144, "tags": {"name": "Delfzijl", "name:carnaval": "Krabbeziel", "name:de": "Delfsiel", "name:fy": "Delfsyl", "name:nds": "Delfziel", "name:nl": "Delfzijl", "name:ru": "\u0414\u0435\u043b\u0444\u0437\u0435\u0439\u043b", "place": "town", "population": "16820", "population:date": "2017-01-01", "source:population": "https://www.delfzijl.nl/over-de-gemeente/feiten-en-cijfers_43565/item/inwoneraantal_101023.html", "wikidata": "Q322986", "wikipedia": "nl:Delfzijl"}}]}