{"type": "FeatureCollection", "features": [{"type": "Feature", "properties": {"type": "node", "id": 24934622, "tags": {"capital": "7", "name": "Castro Daire", "place": "town", "source": "Bing", "wikidata": "Q861199"}}, "geometry": {"type": "Point", "coordinates": [-7.9311761, 40.9014091]}}, {"type": "Feature", "properties": {"type": "node", "id": 24960091, "tags": {"alt_name:el": "\u0392\u03b9\u03c3\u03ad\u03bf\u03c5", "capital": "6", "name": "Viseu", "name:ar": "\u0641\u064a\u0633\u064a\u0648", "name:el": "\u0392\u03b9\u03b6\u03ad\u03bf\u03c5", "name:hu": "Viseu", "name:lt": "Viz\u0117jus", "name:ru": "\u0412\u0438\u0437\u0435\u0443", "note": "\u00c9 classificada como \"place = city\" pois \u00e9 capital de distrito.", "place": "city", "population": "57975", "population:date": "2011", "wikidata": "Q117676", "wikipedia": "pt:Viseu"}}, "geometry": {"type": "Point", "coordinates": [-7.9138664, 40.6574713]}}, {"type": "Feature", "properties": {"type": "node", "id": 24960107, "tags": {"capital": "6", "name": "Braga", "name:ar": "\u0628\u0631\u0627\u063a\u0627", "name:ckb": "\u0628\u0631\u0627\u06af\u0627", "name:el": "\u039c\u03c0\u03c1\u03ac\u03b3\u03ba\u03b1", "name:he": "\u05d1\u05e8\u05d0\u05d2\u05d4", "name:hu": "Braga", "name:ja": "\u30d6\u30e9\u30ac", "name:la": "Bracara Augusta", "name:lt": "Braga", "name:ru": "\u0411\u0440\u0430\u0433\u0430", "name:sr": "\u0411\u0440\u0430\u0433\u0430", "name:uk": "\u0411\u0440\u0430\u0433\u0430", "name:zh": "\u5e03\u62c9\u52a0", "note": "\u00c9 classificada como \"place = city\" pois \u00e9 capital de distrito.", "old_name": "Bracara Augusta", "place": "city", "population": "136885", "population:date": "2011", "wikidata": "Q83247", "wikipedia": "pt:Braga"}}, "geometry": {"type": "Point", "coordinates": [-8.4280045, 41.5510583]}}, {"type": "Feature", "properties": {"type": "node", "id": 25254928, "tags": {"alt_name:ar": "\u064a\u0628\u0648\u0631\u0629;\u0625\u064a\u0641\u0648\u0631\u0627;\u0627\u064a\u0641\u0648\u0631\u0627;\u064a\u0627\u0628\u0631\u0627", "capital": "6", "name": "\u00c9vora", "name:ar": "\u064a\u0627\u0628\u0631\u0629", "name:fa": "\u0627\u0648\u0648\u0631\u0627", "name:hu": "\u00c9vora", "name:lt": "Evora", "name:ru": "\u042d\u0432\u043e\u0440\u0430", "note": "\u00c9 classificada como \"place = city\" pois \u00e9 capital de distrito.", "place": "city", "population": "41898", "population:date": "2011", "wikidata": "Q179948", "wikipedia": "pt:\u00c9vora"}}, "geometry": {"type": "Point", "coordinates": [-7.9092808, 38.5707742]}}, {"type": "Feature", "properties": {"type": "node", "id": 25254929, "tags": {"alt_name:ar": "\u0641\u064a\u0627 \u0631\u064a\u0627\u0644", "capital": "6", "name": "Vila Real", "name:ar": "\u0641\u064a\u0644\u0627 \u0631\u064a\u0627\u0644", "name:hu": "Vila Real", "name:lt": "Vila Realas", "name:ru": "\u0412\u0438\u043b\u0430-\u0420\u0435\u0430\u043b", "name:zh": "\u96f7\u963f\u723e\u57ce", "note": "\u00c9 classificada como \"place = city\" pois \u00e9 capital de distrito.", "place": "city", "population": "27735", "population:date": "2011", "wikidata": "Q503856", "wikipedia": "pt:Vila Real"}}, "geometry": {"type": "Point", "coordinates": [-7.744898, 41.3021183]}}, {"type": "Feature", "properties": {"type": "node", "id": 25254931, "tags": {"alt_name:ar": "\u0633\u064a\u062a\u0648\u0628\u0627\u0644", "capital": "6", "is_in": "Set\u00fabal, Lisboa e Vale do Tejo, Portugal, EU", "is_in:continent": "Europe", "name": "Set\u00fabal", "name:ar": "\u0634\u0637\u0648\u0628\u0631", "name:el": "\u03a3\u03b5\u03c4\u03bf\u03cd\u03bc\u03c0\u03b1\u03bb", "name:en": "Set\u00fabal", "name:fa": "\u0633\u062a\u0648\u0628\u0627\u0644", "name:hu": "Set\u00fabal", "name:ru": "\u0421\u0435\u0442\u0443\u0431\u0430\u043b", "name:sr": "\u0421\u0435\u0442\u0443\u0431\u0430\u043b", "name:ur": "\u0633\u06cc\u062a\u0648\u0628\u0627\u0644", "note": "\u00c9 classificada como \"place = city\" pois \u00e9 capital de distrito.", "place": "city", "population": "98131", "population:date": "2011", "wikidata": "Q173699"}}, "geometry": {"type": "Point", "coordinates": [-8.8926172, 38.524321]}}, {"type": "Feature", "properties": {"type": "node", "id": 25254932, "tags": {"alt_name:ar": "\u0628\u0648\u0631\u062a\u0627\u0644\u064a\u062c\u0631\u064a", "capital": "6", "name": "Portalegre", "name:ar": "\u0628\u0648\u0631\u062a\u0627\u0644\u064a\u063a\u0631\u064a", "name:el": "\u03a0\u03bf\u03c1\u03c4\u03b1\u03bb\u03ad\u03b3\u03ba\u03c1\u03b5", "name:fa": "\u067e\u0631\u062a\u0627\u0644\u06af\u0631\u0647", "name:hu": "Portalegre", "name:lt": "Portalegr\u0117", "name:ur": "\u067e\u0648\u0631\u062a\u0627\u0644\u06cc\u06af\u0631\u06d2", "note:pt": "\u00c9 classificada como \"place = city\" pois \u00e9 capital de distrito.", "place": "city", "population": "15374", "population:date": "2011", "wikidata": "Q622819", "wikipedia": "pt:Portalegre (Portugal)"}}, "geometry": {"type": "Point", "coordinates": [-7.4333887, 39.2911347]}}, {"type": "Feature", "properties": {"type": "node", "id": 25254933, "tags": {"admin_level": "7", "capital": "6", "name": "Santar\u00e9m", "name:ar": "\u0634\u0646\u062a\u0631\u064a\u0646", "name:el": "\u03a3\u03b1\u03bd\u03c4\u03b1\u03c1\u03ad\u03bc", "name:hu": "Santar\u00e9m", "name:lt": "Santarenas", "name:ru": "\u0421\u0430\u043d\u0442\u0430\u0440\u0435\u043d", "name:sr": "\u0421\u0430\u043d\u0442\u0430\u0440\u0435\u043c", "note": "\u00c9 classificada como \"place = city\" pois \u00e9 capital de distrito.", "place": "city", "population": "29777", "population:date": "2011", "source": "DGT - CAOP 2015", "wikidata": "Q273877", "wikipedia": "pt:Santar\u00e9m (Portugal)"}}, "geometry": {"type": "Point", "coordinates": [-8.6867081, 39.2363637]}}, {"type": "Feature", "properties": {"type": "node", "id": 25254934, "tags": {"capital": "6", "is_in": "Leiria, Centro, Portugal, EU", "name": "Leiria", "name:ar": "\u0644\u064a\u0631\u064a\u0627", "name:el": "\u039b\u03b5\u03ca\u03c1\u03af\u03b1", "name:hu": "Leiria", "name:lt": "Leirija", "name:uk": "Leiria", "note": "\u00c9 classificada como \"place = city\" pois \u00e9 capital de distrito.", "place": "city", "population": "50533", "population:date": "2011", "wikidata": "Q206933", "wikipedia": "pt:Leiria"}}, "geometry": {"type": "Point", "coordinates": [-8.8071119, 39.7437902]}}, {"type": "Feature", "properties": {"type": "node", "id": 25254935, "tags": {"capital": "6", "name": "Bragan\u00e7a", "name:ar": "\u0628\u0631\u0627\u063a\u0627\u0646\u0632\u0627", "name:ast": "Bregancia", "name:el": "\u039c\u03c0\u03c1\u03b1\u03b3\u03ba\u03ac\u03bd\u03c4\u03c3\u03b1", "name:es": "Braganza", "name:fr": "Bragance", "name:hu": "Braganca", "name:lt": "Bragansa", "name:mwl": "Bergan\u00e7a", "name:ru": "\u0411\u0440\u0430\u0433\u0430\u043d\u0441\u0430", "name:uk": "Bragance", "name:zh": "\u5e03\u62c9\u5e72\u85a9", "note": "\u00c9 classificada como \"place = city\" pois \u00e9 capital de distrito.", "place": "city", "population": "23186", "population:date": "2011", "wikidata": "Q768261", "wikipedia": "pt:Bragan\u00e7a (Portugal)"}}, "geometry": {"type": "Point", "coordinates": [-6.7589839, 41.8071182]}}, {"type": "Feature", "properties": {"type": "node", "id": 25254936, "tags": {"capital": "6", "is_in": "Faro, Algarve, Portugal, EU", "name": "Faro", "name:ar": "\u0641\u0627\u0631\u0648", "name:en": "Faro", "name:fa": "\u0641\u0627\u0631\u0648", "name:hu": "Faro", "name:ru": "\u0424\u0430\u0440\u0443", "name:uk": "\u0424\u0430\u0440\u0443", "name:ur": "\u0641\u0627\u0631\u0648", "name:zh": "\u6cd5\u9b6f", "note": "\u00c9 classificada como \"place = city\" pois \u00e9 capital de distrito.", "old_name:ar": "\u0634\u0646\u062a\u0645\u0631\u064a\u0629 \u0627\u0644\u063a\u0631\u0628", "place": "city", "population": "47575", "population:date": "2011", "reg_name:ar": "\u0634\u0646\u062a\u0645\u0631\u064a\u0629 \u0627\u0644\u063a\u0631\u0628", "wikidata": "Q159457"}}, "geometry": {"type": "Point", "coordinates": [-7.9351771, 37.0162727]}}, {"type": "Feature", "properties": {"type": "node", "id": 25255070, "tags": {"alt_name": "Angra", "capital": "7", "is_in:archipelago": "Azores", "is_in:country": "Portugal", "is_in:country_code": "PT", "is_in:island": "Terceira Island", "is_in:ocean": "Atlantic", "is_in:state": "Azores", "name": "Angra do Hero\u00edsmo", "name:ar": "\u0622\u0646\u063a\u0631\u0627 \u062f\u0648 \u0647\u0631\u0648\u0626\u064a\u0633\u0645\u0648", "name:hu": "Angra do Heroismo", "name:lt": "Angra do Heroi\u0161mas", "name:ru": "\u0410\u043d\u0433\u0440\u0430-\u0434\u0443-\u042d\u0440\u043e\u0438\u0436\u043c\u0443", "name:sr": "\u0410\u043d\u0433\u0440\u0430 \u0434\u043e \u0415\u0440\u043e\u0438\u0437\u043c\u043e", "note": "\u00c9 classificada como \"place = city\" pois \u00e9 capital de distrito.", "place": "city", "population": "8654", "population:date": "2011", "wikidata": "Q193677", "wikipedia": "pt:Angra do Hero\u00edsmo"}}, "geometry": {"type": "Point", "coordinates": [-27.2195578, 38.6593167]}}, {"type": "Feature", "properties": {"type": "node", "id": 25255071, "tags": {"capital": "4", "name": "Funchal", "name:ar": "\u0641\u0648\u0646\u0634\u0627\u0644", "name:hu": "Funchal", "name:lt": "Fun\u0161alis", "name:ru": "\u0424\u0443\u043d\u0448\u0430\u043b", "name:sr": "\u0424\u0443\u043d\u0448\u0430\u043b", "name:uk": "\u0424\u0443\u043d\u0448\u0430\u043b", "place": "city", "population": "111541", "population:date": "2011", "wikidata": "Q25444", "wikipedia": "pt:Funchal"}}, "geometry": {"type": "Point", "coordinates": [-16.9086783, 32.6496497]}}, {"type": "Feature", "properties": {"type": "node", "id": 25256107, "tags": {"capital": "7", "name": "Lamego", "place": "town", "population": "11194", "population:date": "2011"}}, "geometry": {"type": "Point", "coordinates": [-7.8105708, 41.098527]}}, {"type": "Feature", "properties": {"type": "node", "id": 25256108, "tags": {"capital": "7", "name": "Penalva do Castelo", "place": "town", "wikidata": "Q780374"}}, "geometry": {"type": "Point", "coordinates": [-7.69997, 40.67436]}}, {"type": "Feature", "properties": {"type": "node", "id": 25256109, "tags": {"capital": "7", "name": "Moimenta da Beira", "place": "town", "source": "Bing", "wikidata": "Q862822"}}, "geometry": {"type": "Point", "coordinates": [-7.6185527, 40.9846411]}}, {"type": "Feature", "properties": {"type": "node", "id": 25256110, "tags": {"capital": "7", "is_in:country_code": "PT", "name": "S\u00e1t\u00e3o", "name:ru": "\u0421\u0430\u0442\u0430\u043d", "place": "town", "website": "https://www.cm-satao.pt/", "wikidata": "Q923784", "wikipedia": "pt:S\u00e1t\u00e3o"}}, "geometry": {"type": "Point", "coordinates": [-7.7336741, 40.7426067]}}, {"type": "Feature", "properties": {"type": "node", "id": 25256111, "tags": {"capital": "7", "name": "Tabua\u00e7o", "place": "town", "wikidata": "Q1010659"}}, "geometry": {"type": "Point", "coordinates": [-7.5662701, 41.1173591]}}, {"type": "Feature", "properties": {"type": "node", "id": 25256112, "tags": {"capital": "7", "name": "Penedono", "place": "town", "wikidata": "Q861589", "wikipedia": "en:Penedono"}}, "geometry": {"type": "Point", "coordinates": [-7.3941885, 40.9899414]}}, {"type": "Feature", "properties": {"type": "node", "id": 25256113, "tags": {"capital": "7", "name": "Mort\u00e1gua", "place": "town", "source": "Bing", "wikidata": "Q861592"}}, "geometry": {"type": "Point", "coordinates": [-8.2287169, 40.3972486]}}, {"type": "Feature", "properties": {"type": "node", "id": 25256114, "tags": {"capital": "7", "name": "Mangualde", "place": "town", "population": "6672", "population:date": "2011", "source": "Bing", "wikidata": "Q597789"}}, "geometry": {"type": "Point", "coordinates": [-7.7656, 40.60354]}}, {"type": "Feature", "properties": {"type": "node", "id": 25256118, "tags": {"capital": "7", "name": "Santa Comba D\u00e3o", "place": "town", "population": "3279", "population:date": "2011", "wikidata": "Q861208", "wikipedia": "pt:Santa Comba D\u00e3o"}}, "geometry": {"type": "Point", "coordinates": [-8.1305121, 40.3957876]}}, {"type": "Feature", "properties": {"type": "node", "id": 25256119, "tags": {"capital": "7", "name": "Resende", "place": "town"}}, "geometry": {"type": "Point", "coordinates": [-7.9644114, 41.105831]}}, {"type": "Feature", "properties": {"type": "node", "id": 25256120, "tags": {"capital": "7", "name": "Tarouca", "place": "town", "population": "3055", "population:date": "2011"}}, "geometry": {"type": "Point", "coordinates": [-7.7752378, 41.01624]}}, {"type": "Feature", "properties": {"type": "node", "id": 25256123, "tags": {"capital": "7", "name": "Tondela", "place": "town", "population": "8854", "population:date": "2011", "wikidata": "Q796656", "wikipedia": "en:Tondela"}}, "geometry": {"type": "Point", "coordinates": [-8.08053, 40.51642]}}, {"type": "Feature", "properties": {"type": "node", "id": 25256125, "tags": {"capital": "7", "name": "Sernancelhe", "place": "town", "wikidata": "Q2450364"}}, "geometry": {"type": "Point", "coordinates": [-7.4947825, 40.9001611]}}, {"type": "Feature", "properties": {"type": "node", "id": 25256126, "tags": {"capital": "7", "name": "Nelas", "place": "town", "source": "Bing", "wikidata": "Q687790"}}, "geometry": {"type": "Point", "coordinates": [-7.8550987, 40.5299888]}}, {"type": "Feature", "properties": {"type": "node", "id": 25256127, "tags": {"capital": "7", "name": "S\u00e3o Jo\u00e3o da Pesqueira", "place": "town", "wikidata": "Q1010466"}}, "geometry": {"type": "Point", "coordinates": [-7.4038806, 41.147872]}}, {"type": "Feature", "properties": {"type": "node", "id": 25256128, "tags": {"capital": "7", "name": "Oliveira de Frades", "place": "town", "wikidata": "Q861584"}}, "geometry": {"type": "Point", "coordinates": [-8.1739059, 40.7322108]}}, {"type": "Feature", "properties": {"type": "node", "id": 25264014, "tags": {"capital": "7", "name": "S\u00e3o Jo\u00e3o da Madeira", "place": "town", "population": "21713", "population:date": "2011", "source": "Bing", "wikidata": "Q565287"}}, "geometry": {"type": "Point", "coordinates": [-8.4896358, 40.9020813]}}, {"type": "Feature", "properties": {"type": "node", "id": 25264015, "tags": {"capital": "7", "name": "Oliveira de Azem\u00e9is", "name:uk": "\u041e\u043b\u0456\u0432\u0435\u0439\u0440\u0430-\u0434\u0435-\u0410\u0437\u0435\u043c\u0435\u0439\u0448", "place": "town", "population": "15071", "population:date": "2011", "source": "Bing", "wikidata": "Q405252"}}, "geometry": {"type": "Point", "coordinates": [-8.4777807, 40.8390118]}}, {"type": "Feature", "properties": {"type": "node", "id": 25264018, "tags": {"capital": "7", "name": "Santa Maria da Feira", "name:pt": "Santa Maria da Feira", "name:ru": "\u0421\u0430\u043d\u0442\u0430-\u041c\u0430\u0440\u0438\u044f-\u0434\u0430-\u0424\u0435\u0439\u0440\u0430", "place": "town", "population": "18194", "population:date": "2011", "source": "Bing", "wikidata": "Q564813", "wikipedia": "pt:Santa Maria da Feira"}}, "geometry": {"type": "Point", "coordinates": [-8.5426688, 40.9254179]}}, {"type": "Feature", "properties": {"type": "node", "id": 25264019, "tags": {"capital": "7", "name": "Vagos", "place": "town", "source": "Bing", "wikidata": "Q404220"}}, "geometry": {"type": "Point", "coordinates": [-8.680915, 40.5538919]}}, {"type": "Feature", "properties": {"type": "node", "id": 25264845, "tags": {"capital": "7", "name": "Vidigueira", "place": "town", "wikidata": "Q551672"}}, "geometry": {"type": "Point", "coordinates": [-7.8014517, 38.2101595]}}, {"type": "Feature", "properties": {"type": "node", "id": 25264846, "tags": {"capital": "7", "name": "Alvito", "place": "town"}}, "geometry": {"type": "Point", "coordinates": [-7.9918028, 38.255967]}}, {"type": "Feature", "properties": {"type": "node", "id": 25264847, "tags": {"capital": "7", "name": "Cuba", "place": "town", "wikidata": "Q552580"}}, "geometry": {"type": "Point", "coordinates": [-7.89253, 38.16521]}}, {"type": "Feature", "properties": {"type": "node", "id": 25264848, "tags": {"capital": "7", "name": "Almod\u00f4var", "name:ar": "\u0627\u0644\u0645\u062f\u0648\u0631\u200e", "name:fa": "\u0627\u0644\u0645\u062f\u0648\u0631\u200e", "name:ur": "\u0627\u0644\u0645\u062f\u0648\u0631\u200e", "place": "town", "population": "7449"}}, "geometry": {"type": "Point", "coordinates": [-8.0603168, 37.511607]}}, {"type": "Feature", "properties": {"type": "node", "id": 25264849, "tags": {"alt_name:ar": "\u0623\u0648\u0631\u064a\u0643\u064a", "capital": "7", "name": "Ourique", "name:ar": "\u0623\u0648\u0631\u064a\u0643", "place": "town", "wikidata": "Q519052"}}, "geometry": {"type": "Point", "coordinates": [-8.2237262, 37.651112]}}, {"type": "Feature", "properties": {"type": "node", "id": 25264850, "tags": {"capital": "7", "name": "Castro Verde", "name:ar": "\u0643\u0627\u0633\u062a\u0631\u0648 \u0641\u064a\u0631\u062f\u064a", "place": "town", "wikidata": "Q551696"}}, "geometry": {"type": "Point", "coordinates": [-8.082275, 37.697995]}}, {"type": "Feature", "properties": {"type": "node", "id": 25264852, "tags": {"alt_name": "N\u00facleo urbano da cidade de Serpa;N\u00facleo intramuros de Serpa", "capital": "7", "description": "N\u00facleo urbano sede municipal. Vila situada em peneplan\u00edcie. Vila de funda\u00e7\u00e3o r\u00e9gia com castelo e cerca urbana.", "heritage:website": "http://monumentos.pt/Site/APP_PagesUser/SIPA.aspx?id=5859", "name": "Serpa", "name:ar": "\u0633\u0631\u0628\u0627", "name:fa": "\u0633\u0631\u067e\u0627", "name:ur": "\u0633\u0631\u067e\u0627", "place": "town", "population": "5164", "population:date": "2011", "ref:ipa": "5859"}}, "geometry": {"type": "Point", "coordinates": [-7.5966902, 37.9436517]}}, {"type": "Feature", "properties": {"type": "node", "id": 25264853, "tags": {"capital": "7", "name": "Moura", "name:ar": "\u0645\u0648\u0631\u0627", "name:fa": "\u0645\u0648\u0631\u0627", "name:ur": "\u0645\u0648\u0631\u0627", "place": "town", "population": "8016", "population:date": "2011"}}, "geometry": {"type": "Point", "coordinates": [-7.4500699, 38.1409785]}}, {"type": "Feature", "properties": {"type": "node", "id": 25264854, "tags": {"capital": "7", "name": "Odemira", "name:ar": "\u0623\u0648\u062f\u064a\u0645\u064a\u0631\u0627", "place": "town", "wikidata": "Q551669"}}, "geometry": {"type": "Point", "coordinates": [-8.6422, 37.5976]}}, {"type": "Feature", "properties": {"type": "node", "id": 25264985, "tags": {"alt_name": "Moimenta", "capital": "7", "name": "Terras de Bouro", "name:ru": "\u0422\u0435\u0440\u0440\u0430\u0448-\u0434\u0438-\u0411\u043e\u0440\u0443", "name:uk": "\u0422\u0435\u0440\u0440\u0430\u0448-\u0434\u0456-\u0411\u043e\u0440\u0443", "official_name": "Vila de Terras de Bouro", "old_name": "Vila de Covas", "place": "town", "source": "Bing", "wikidata": "Q551639", "wikipedia": "pt:Terras de Bouro"}}, "geometry": {"type": "Point", "coordinates": [-8.3082631, 41.7186891]}}, {"type": "Feature", "properties": {"type": "node", "id": 25264991, "tags": {"capital": "7", "name": "Barcelos", "name:lt": "Barselosas", "name:ru": "\u0411\u0430\u0440\u0441\u0435\u043b\u0443\u0441", "name:sr": "\u0411\u0430\u0440\u0441\u0435\u043b\u043e\u0441", "name:uk": "\u0411\u0430\u0440\u0441\u0435\u043b\u0443\u0448", "place": "town", "population": "20579", "population:date": "2011", "source": "Bing", "wikidata": "Q213242", "wikipedia": "pt:Barcelos"}}, "geometry": {"type": "Point", "coordinates": [-8.6192306, 41.5314496]}}, {"type": "Feature", "properties": {"type": "node", "id": 25264992, "tags": {"capital": "7", "name": "Amares", "name:uk": "\u0410\u043c\u0430\u0440\u0456\u0448", "place": "town", "wikidata": "Q455012", "wikipedia": "pt:Amares"}}, "geometry": {"type": "Point", "coordinates": [-8.3510599, 41.6309663]}}, {"type": "Feature", "properties": {"type": "node", "id": 25264993, "tags": {"capital": "7", "name": "Vieira do Minho", "name:uk": "\u0412\u0456\u0435\u0439\u0440\u0430-\u0434\u0443-\u041c\u0456\u043d\u044c\u044e", "place": "town", "wikidata": "Q551109", "wikipedia": "pt:Vieira do Minho"}}, "geometry": {"type": "Point", "coordinates": [-8.1425725, 41.6347151]}}, {"type": "Feature", "properties": {"type": "node", "id": 25264994, "tags": {"capital": "7", "name": "Vila Verde", "place": "town", "wikidata": "Q551676"}}, "geometry": {"type": "Point", "coordinates": [-8.4362569, 41.6488247]}}, {"type": "Feature", "properties": {"type": "node", "id": 25264995, "tags": {"capital": "7", "name": "Vizela", "place": "town", "population": "10633", "population:date": "2011", "wikidata": "Q551955"}}, "geometry": {"type": "Point", "coordinates": [-8.3083651, 41.3767158]}}, {"type": "Feature", "properties": {"type": "node", "id": 25264996, "tags": {"alt_name": "Britelo", "capital": "7", "name": "Celorico de Basto", "place": "town", "source": "Bing", "wikidata": "Q551653"}}, "geometry": {"type": "Point", "coordinates": [-8.0002089, 41.3879363]}}, {"type": "Feature", "properties": {"type": "node", "id": 25268778, "tags": {"capital": "7", "name": "Carrazeda de Ansi\u00e3es", "place": "town", "source": "Bing", "wikidata": "Q551666"}}, "geometry": {"type": "Point", "coordinates": [-7.3054015, 41.2435491]}}, {"type": "Feature", "properties": {"type": "node", "id": 25268780, "tags": {"capital": "7", "name": "Freixo de Espada \u00e0 Cinta", "place": "town", "source": "Bing", "wikidata": "Q551684"}}, "geometry": {"type": "Point", "coordinates": [-6.8078692, 41.0913764]}}, {"type": "Feature", "properties": {"type": "node", "id": 25268781, "tags": {"capital": "7", "name": "Macedo de Cavaleiros", "name:mwl": "Macedo de Cabalheiros", "name:ru": "\u041c\u0430\u0441\u0435\u0434\u0443-\u0434\u0438-\u041a\u0430\u0432\u0430\u043b\u0435\u0439\u0440\u0443\u0448", "name:uk": "\u041c\u0430\u0441\u0435\u0434\u0443-\u0434\u0456-\u041a\u0430\u0432\u0430\u043b\u0435\u0439\u0440\u0443\u0448", "name:zh": "\u99ac\u585e\u675c-\u8fea\u5361\u74e6\u840a\u9b6f\u4ec0", "place": "town", "population": "6054", "population:date": "2011", "source": "Bing", "wikidata": "Q551693"}}, "geometry": {"type": "Point", "coordinates": [-6.9560267, 41.5362124]}}, {"type": "Feature", "properties": {"type": "node", "id": 25268782, "tags": {"capital": "7", "name": "Mogadouro", "name:uk": "\u041c\u043e\u0433\u0430\u0434\u043e\u0440\u0443", "place": "town", "source": "Bing", "wikidata": "Q551680"}}, "geometry": {"type": "Point", "coordinates": [-6.7121674, 41.3418708]}}, {"type": "Feature", "properties": {"type": "node", "id": 25268783, "tags": {"capital": "7", "name": "Vila Flor", "name:mwl": "Bila Flor", "name:uk": "\u0412\u0456\u043b\u0430-\u0424\u043b\u043e\u0440", "place": "town", "source": "Bing", "wikidata": "Q552556"}}, "geometry": {"type": "Point", "coordinates": [-7.1517712, 41.3067941]}}, {"type": "Feature", "properties": {"type": "node", "id": 25268784, "tags": {"capital": "7", "name": "Mirandela", "name:ru": "\u041c\u0438\u0440\u0430\u043d\u0434\u0435\u043b\u0430", "name:uk": "\u041c\u0456\u0440\u0430\u043d\u0434\u0435\u043b\u0430", "place": "town", "population": "11579", "population:date": "2011", "source": "Bing", "wikidata": "Q551502"}}, "geometry": {"type": "Point", "coordinates": [-7.1774792, 41.489615]}}, {"type": "Feature", "properties": {"type": "node", "id": 25268786, "tags": {"capital": "7", "name": "Alf\u00e2ndega da F\u00e9", "name:mwl": "Alf\u00e1ndiga de la F\u00e9", "name:uk": "\u0410\u043b\u0444\u0430\u043d\u0434\u0435\u0433\u0430-\u0434\u0430-\u0424\u0435", "place": "town", "source": "Bing", "wikidata": "Q551059", "wikipedia": "pt:Alf\u00e2ndega da F\u00e9"}}, "geometry": {"type": "Point", "coordinates": [-6.9611439, 41.3419743]}}, {"type": "Feature", "properties": {"type": "node", "id": 25269007, "tags": {"capital": "7", "name": "Vila de Rei", "place": "town"}}, "geometry": {"type": "Point", "coordinates": [-8.1442213, 39.6759822]}}, {"type": "Feature", "properties": {"type": "node", "id": 25269008, "tags": {"capital": "7", "name": "Idanha-a-Nova", "place": "town"}}, "geometry": {"type": "Point", "coordinates": [-7.2436356, 39.9260883]}}, {"type": "Feature", "properties": {"type": "node", "id": 25269009, "tags": {"capital": "7", "name": "Vila Velha de R\u00f3d\u00e3o", "place": "town", "wikidata": "Q995188"}}, "geometry": {"type": "Point", "coordinates": [-7.6723114, 39.6545418]}}, {"type": "Feature", "properties": {"type": "node", "id": 25269011, "tags": {"capital": "7", "name": "Proen\u00e7a-a-Nova", "place": "town"}}, "geometry": {"type": "Point", "coordinates": [-7.92494, 39.74995]}}, {"type": "Feature", "properties": {"type": "node", "id": 25269012, "tags": {"capital": "7", "name": "Oleiros", "place": "town"}}, "geometry": {"type": "Point", "coordinates": [-7.9140153, 39.9189303]}}, {"type": "Feature", "properties": {"type": "node", "id": 25269013, "tags": {"capital": "7", "name": "Covilh\u00e3", "place": "town", "population": "34481", "population:date": "2011", "wikidata": "Q849026"}}, "geometry": {"type": "Point", "coordinates": [-7.5043211, 40.2805658]}}, {"type": "Feature", "properties": {"type": "node", "id": 25269014, "tags": {"capital": "7", "name": "Belmonte", "place": "town"}}, "geometry": {"type": "Point", "coordinates": [-7.3512742, 40.3583264]}}, {"type": "Feature", "properties": {"type": "node", "id": 25269211, "tags": {"capital": "7", "is_in": "Coimbra", "name": "Vila Nova de Poiares", "place": "town", "wikidata": "Q425817"}}, "geometry": {"type": "Point", "coordinates": [-8.2562951, 40.2106048]}}, {"type": "Feature", "properties": {"type": "node", "id": 25269212, "tags": {"capital": "7", "name": "Soure", "place": "town", "wikidata": "Q543993"}}, "geometry": {"type": "Point", "coordinates": [-8.6263897, 40.0594845]}}, {"type": "Feature", "properties": {"type": "node", "id": 25269213, "tags": {"capital": "7", "name": "Penela", "name:ru": "\u041f\u0435\u043d\u0435\u043b\u0430", "place": "town", "website": "http://www.cm-penela.pt", "wikidata": "Q576924", "wikipedia": "pt:Penela"}}, "geometry": {"type": "Point", "coordinates": [-8.3902395, 40.029442]}}, {"type": "Feature", "properties": {"type": "node", "id": 25269214, "tags": {"capital": "7", "name": "T\u00e1bua", "place": "town", "wikidata": "Q988846"}}, "geometry": {"type": "Point", "coordinates": [-8.0284641, 40.3602946]}}, {"type": "Feature", "properties": {"type": "node", "id": 25269215, "tags": {"capital": "7", "is_in": "Coimbra", "name": "Penacova", "place": "town", "wikidata": "Q1005038"}}, "geometry": {"type": "Point", "coordinates": [-8.2810743, 40.2702086]}}, {"type": "Feature", "properties": {"type": "node", "id": 25269216, "tags": {"capital": "7", "is_in": "Coimbra", "name": "Lous\u00e3", "place": "town"}}, "geometry": {"type": "Point", "coordinates": [-8.2445743, 40.1111307]}}, {"type": "Feature", "properties": {"type": "node", "id": 25269217, "tags": {"capital": "7", "description": "Sede de Concelho de Pampilhosa da Serra", "name": "Pampilhosa da Serra", "place": "town", "website": "http://www.cm-pampilhosadaserra.pt", "wikidata": "Q1000099", "wikipedia": "pt:Pampilhosa da Serra"}}, "geometry": {"type": "Point", "coordinates": [-7.951515, 40.0460143]}}, {"type": "Feature", "properties": {"type": "node", "id": 25269219, "tags": {"capital": "7", "name": "Arganil", "place": "town", "wikidata": "Q1915481"}}, "geometry": {"type": "Point", "coordinates": [-8.0549084, 40.2175226]}}, {"type": "Feature", "properties": {"type": "node", "id": 25269220, "tags": {"capital": "7", "name": "Oliveira do Hospital", "place": "town", "population": "5572", "population:date": "2011"}}, "geometry": {"type": "Point", "coordinates": [-7.8617453, 40.3595402]}}, {"type": "Feature", "properties": {"type": "node", "id": 25269221, "tags": {"capital": "7", "name": "G\u00f3is", "place": "town", "website": "http://www.cm-gois.pt", "wikidata": "Q425410", "wikipedia": "pt:G\u00f3is"}}, "geometry": {"type": "Point", "coordinates": [-8.1099454, 40.1546195]}}, {"type": "Feature", "properties": {"type": "node", "id": 25269222, "tags": {"capital": "7", "is_in": "Coimbra", "name": "Condeixa-a-Nova", "place": "town", "wikidata": "Q138830", "wikipedia": "pt:Condeixa-a-Nova"}}, "geometry": {"type": "Point", "coordinates": [-8.4998828, 40.1153481]}}, {"type": "Feature", "properties": {"type": "node", "id": 25269225, "tags": {"capital": "7", "is_in": "Coimbra", "name": "Miranda do Corvo", "place": "town", "wikidata": "Q370187"}}, "geometry": {"type": "Point", "coordinates": [-8.3336555, 40.0941517]}}, {"type": "Feature", "properties": {"type": "node", "id": 25269562, "tags": {"capital": "7", "name": "Mour\u00e3o", "name:ar": "\u0645\u0648\u0631\u0627\u0648", "place": "town"}}, "geometry": {"type": "Point", "coordinates": [-7.3420448, 38.3816761]}}, {"type": "Feature", "properties": {"type": "node", "id": 25269563, "tags": {"capital": "7", "name": "Borba", "place": "town", "population": "4026", "population:date": "2011", "wikidata": "Q893339", "wikipedia": "pt:Borba (Portugal)"}}, "geometry": {"type": "Point", "coordinates": [-7.4575549, 38.8051059]}}, {"type": "Feature", "properties": {"type": "node", "id": 25269564, "tags": {"capital": "7", "name": "Mora", "place": "town", "wikidata": "Q174800", "wikipedia": "pt:Mora (Portugal)"}}, "geometry": {"type": "Point", "coordinates": [-8.1654674, 38.9441885]}}, {"type": "Feature", "properties": {"type": "node", "id": 25269565, "tags": {"capital": "7", "name": "Estremoz", "name:lt": "Estremosas", "place": "town", "population": "7483", "population:date": "2011", "wikidata": "Q625157", "wikipedia": "pt:Estremoz"}}, "geometry": {"type": "Point", "coordinates": [-7.586907, 38.8432944]}}, {"type": "Feature", "properties": {"type": "node", "id": 25269566, "tags": {"capital": "7", "name": "Arraiolos", "place": "town", "wikidata": "Q699141"}}, "geometry": {"type": "Point", "coordinates": [-7.9853053, 38.7227289]}}, {"type": "Feature", "properties": {"type": "node", "id": 25269567, "tags": {"capital": "7", "name": "Alandroal", "place": "town"}}, "geometry": {"type": "Point", "coordinates": [-7.4038313, 38.7020061]}}, {"type": "Feature", "properties": {"type": "node", "id": 25269571, "tags": {"capital": "7", "name": "Ponta do Sol", "place": "town", "wikidata": "Q943911", "wikipedia": "en:Ponta do Sol, Madeira"}}, "geometry": {"type": "Point", "coordinates": [-17.104073, 32.681067]}}, {"type": "Feature", "properties": {"type": "node", "id": 25269573, "tags": {"capital": "7", "name": "Machico", "place": "town", "population": "11505", "population:date": "2011", "wikidata": "Q693243"}}, "geometry": {"type": "Point", "coordinates": [-16.7659069, 32.722875]}}, {"type": "Feature", "properties": {"type": "node", "id": 25269574, "tags": {"capital": "7", "name": "Calheta", "place": "town", "wikidata": "Q757078", "wikipedia": "pt:Calheta (Madeira)"}}, "geometry": {"type": "Point", "coordinates": [-17.1782577, 32.7219412]}}, {"type": "Feature", "properties": {"type": "node", "id": 25269575, "tags": {"capital": "7", "name": "S\u00e3o Vicente", "place": "town", "wikidata": "Q304464"}}, "geometry": {"type": "Point", "coordinates": [-17.0472397, 32.8022756]}}, {"type": "Feature", "properties": {"type": "node", "id": 25269577, "tags": {"capital": "7", "name": "Ribeira Brava", "place": "town", "wikidata": "Q250139"}}, "geometry": {"type": "Point", "coordinates": [-17.0650395, 32.6700921]}}, {"type": "Feature", "properties": {"type": "node", "id": 25270672, "tags": {"capital": "7", "name": "Vila do Corvo", "place": "town"}}, "geometry": {"type": "Point", "coordinates": [-31.1137067, 39.6732365]}}, {"type": "Feature", "properties": {"type": "node", "id": 25270673, "tags": {"capital": "7", "name": "Santa Cruz das Flores", "place": "town"}}, "geometry": {"type": "Point", "coordinates": [-31.1285157, 39.4537806]}}, {"type": "Feature", "properties": {"type": "node", "id": 25270674, "tags": {"capital": "7", "name": "S\u00e3o Roque do Pico", "place": "town", "wikidata": "Q1019042", "wikipedia": "pt:S\u00e3o Roque do Pico"}}, "geometry": {"type": "Point", "coordinates": [-28.3201553, 38.5134299]}}, {"type": "Feature", "properties": {"type": "node", "id": 25270675, "tags": {"capital": "7", "name": "Lagoa", "place": "town", "population": "8080", "population:date": "2011"}}, "geometry": {"type": "Point", "coordinates": [-25.578405, 37.747009]}}, {"type": "Feature", "properties": {"type": "node", "id": 25270676, "tags": {"capital": "7", "name": "Povoa\u00e7\u00e3o", "name:uk": "\u0412\u0456\u043b\u0430-\u0434\u0430-\u041f\u043e\u0432\u0443\u0430\u0441\u0430\u043d", "place": "town", "wikidata": "Q565726", "wikipedia": "pt:Povoa\u00e7\u00e3o (A\u00e7ores)"}}, "geometry": {"type": "Point", "coordinates": [-25.2451613, 37.7468829]}}, {"type": "Feature", "properties": {"type": "node", "id": 25270677, "tags": {"capital": "7", "name": "Vila Franca do Campo", "place": "town", "wikidata": "Q565290", "wikipedia": "de:Vila Franca do Campo"}}, "geometry": {"type": "Point", "coordinates": [-25.4347283, 37.717417]}}, {"type": "Feature", "properties": {"type": "node", "id": 25270678, "tags": {"capital": "7", "name": "Vila do Porto", "place": "town"}}, "geometry": {"type": "Point", "coordinates": [-25.1453503, 36.9480734]}}, {"type": "Feature", "properties": {"type": "node", "id": 25270679, "tags": {"capital": "7", "name": "Lajes das Flores", "place": "town"}}, "geometry": {"type": "Point", "coordinates": [-31.1770926, 39.3779504]}}, {"type": "Feature", "properties": {"type": "node", "id": 25270680, "tags": {"capital": "7", "ele": "27", "name": "Velas", "name:lt": "Vela\u0161as", "place": "town", "wikidata": "Q1010468", "wikipedia": "en:Velas"}}, "geometry": {"type": "Point", "coordinates": [-28.2052961, 38.6797531]}}, {"type": "Feature", "properties": {"type": "node", "id": 25270681, "tags": {"capital": "7", "name": "Nordeste", "place": "town"}}, "geometry": {"type": "Point", "coordinates": [-25.1468598, 37.8334876]}}, {"type": "Feature", "properties": {"type": "node", "id": 25270682, "tags": {"capital": "4", "is_in:country": "Portugal", "is_in:country_code": "PT", "name": "Ponta Delgada", "name:ar": "\u0628\u0648\u0646\u062a\u0627 \u062f\u064a\u0644\u063a\u0627\u062f\u0627", "name:hu": "Ponta Delgada", "name:pt": "Ponta Delgada", "name:ru": "\u041f\u043e\u043d\u0442\u0430-\u0414\u0435\u043b\u0433\u0430\u0434\u0430", "name:sr": "\u041f\u043e\u043d\u0442\u0430 \u0414\u0435\u043b\u0433\u0430\u0434\u0430", "name:uk": "\u041f\u043e\u043d\u0442\u0430-\u0414\u0435\u043b\u0433\u0430\u0434\u0430", "note": "\u00c9 classificada como \"place = city\" pois \u00e9 capital de distrito.", "place": "city", "population": "40661", "population:date": "2011", "postal_code": "9545", "website": "http://www.cm-pontadelgada.pt/", "wikidata": "Q208149", "wikipedia": "pt:Ponta Delgada"}}, "geometry": {"type": "Point", "coordinates": [-25.6683618, 37.7394344]}}, {"type": "Feature", "properties": {"type": "node", "id": 25270683, "tags": {"capital": "7", "is_in": "Pico Azores", "name": "Madalena", "name:ru": "\u041c\u0430\u0434\u0430\u043b\u0435\u043d\u0430", "place": "town", "wikidata": "Q1002565", "wikipedia": "pt:Madalena (A\u00e7ores)"}}, "geometry": {"type": "Point", "coordinates": [-28.5243488, 38.5363166]}}, {"type": "Feature", "properties": {"type": "node", "id": 25270684, "tags": {"capital": "7", "name": "Horta", "name:hu": "Horta", "name:lt": "Horta", "note": "\u00c9 classificada como \"place = city\" pois \u00e9 capital de administrativa.", "place": "city", "population": "5553", "population:date": "2011", "wikidata": "Q990385", "wikipedia": "pt:Horta"}}, "geometry": {"type": "Point", "coordinates": [-28.630109, 38.5368032]}}, {"type": "Feature", "properties": {"type": "node", "id": 25270685, "tags": {"capital": "7", "name": "Santa Cruz da Graciosa", "place": "town"}}, "geometry": {"type": "Point", "coordinates": [-28.0009441, 39.0832263]}}, {"type": "Feature", "properties": {"type": "node", "id": 25270686, "tags": {"capital": "7", "name": "Ribeira Grande", "place": "city", "population": "12663", "population:date": "2011", "wikidata": "Q565312"}}, "geometry": {"type": "Point", "coordinates": [-25.5194914, 37.8225227]}}, {"type": "Feature", "properties": {"type": "node", "id": 25270687, "tags": {"capital": "7", "name": "Calheta", "place": "town", "wikidata": "Q1019047", "wikipedia": "pt:Calheta (A\u00e7ores)"}}, "geometry": {"type": "Point", "coordinates": [-28.0187906, 38.6055151]}}, {"type": "Feature", "properties": {"type": "node", "id": 25270688, "tags": {"capital": "7", "name": "Praia da Vit\u00f3ria", "place": "town", "population": "3958", "population:date": "2011"}}, "geometry": {"type": "Point", "coordinates": [-27.0603527, 38.7309841]}}, {"type": "Feature", "properties": {"type": "node", "id": 25270689, "tags": {"capital": "7", "name": "Lajes do Pico", "place": "town", "wikidata": "Q1019053", "wikipedia": "pt:Lajes do Pico"}}, "geometry": {"type": "Point", "coordinates": [-28.2522218, 38.3944509]}}, {"type": "Feature", "properties": {"type": "node", "id": 25270771, "tags": {"capital": "7", "name": "Reguengos de Monsaraz", "name:ar": "\u0631\u064a\u063a\u0648\u064a\u0646\u063a\u0648\u0633", "place": "town", "population": "6135", "population:date": "2011", "wikidata": "Q990439", "wikipedia": "pt:Reguengos de Monsaraz"}}, "geometry": {"type": "Point", "coordinates": [-7.5347109, 38.4243996]}}, {"type": "Feature", "properties": {"type": "node", "id": 25270772, "tags": {"capital": "7", "name": "Vila Vi\u00e7osa", "place": "town"}}, "geometry": {"type": "Point", "coordinates": [-7.4166909, 38.7774063]}}, {"type": "Feature", "properties": {"type": "node", "id": 25270773, "tags": {"capital": "7", "name": "Viana do Alentejo", "place": "town", "wikidata": "Q1022265"}}, "geometry": {"type": "Point", "coordinates": [-8.0043972, 38.3347679]}}, {"type": "Feature", "properties": {"type": "node", "id": 25270774, "tags": {"capital": "7", "name": "Vendas Novas", "place": "town", "population": "9681", "population:date": "2011"}}, "geometry": {"type": "Point", "coordinates": [-8.4552427, 38.6773855]}}, {"type": "Feature", "properties": {"type": "node", "id": 25270776, "tags": {"capital": "7", "name": "Portel", "place": "town"}}, "geometry": {"type": "Point", "coordinates": [-7.70497, 38.30859]}}, {"type": "Feature", "properties": {"type": "node", "id": 25277555, "tags": {"capital": "7", "name": "Castro Marim", "name:ar": "\u0643\u0627\u0633\u062a\u0631\u0648 \u0645\u0627\u0631\u064a\u0645", "name:uk": "\u041a\u0430\u0448\u0442\u0440\u0443-\u041c\u0430\u0440\u0456\u043d", "place": "town", "wikidata": "Q986079", "wikipedia": "pt:Castro Marim"}}, "geometry": {"type": "Point", "coordinates": [-7.4457102, 37.2179367]}}, {"type": "Feature", "properties": {"type": "node", "id": 25277556, "tags": {"capital": "7", "name": "S\u00e3o Br\u00e1s de Alportel", "name:ar": "\u0633\u0627\u0648 \u0628\u0631\u0627\u0633 \u062f\u0647 \u0627\u0644\u0628\u0648\u0631\u062a\u0627\u0644", "place": "town", "wikidata": "Q988667"}}, "geometry": {"type": "Point", "coordinates": [-7.8879138, 37.1529622]}}, {"type": "Feature", "properties": {"type": "node", "id": 25277557, "tags": {"capital": "7", "name": "Silves", "name:ar": "\u0634\u0644\u0628", "name:fa": "\u0633\u06cc\u0644\u0648\u0633", "place": "town", "population": "6307", "population:date": "2011", "wikidata": "Q49290226"}}, "geometry": {"type": "Point", "coordinates": [-8.4395781, 37.1894106]}}, {"type": "Feature", "properties": {"type": "node", "id": 25277559, "tags": {"alt_name:ar": "\u0627\u062c\u0648\u0627", "capital": "7", "name": "Lagoa", "name:ar": "\u0644\u0627\u062c\u0648\u0627", "name:fa": "\u0644\u0627\u06af\u0648\u0622", "name:ur": "\u0644\u0627\u06af\u0648\u0627", "place": "town", "population": "5902", "population:date": "2011", "wikidata": "Q2652722"}}, "geometry": {"type": "Point", "coordinates": [-8.4540842, 37.1362908]}}, {"type": "Feature", "properties": {"type": "node", "id": 25277563, "tags": {"capital": "7", "name": "Alcoutim", "name:ar": "\u0627\u0644\u0642\u0637\u0627\u0645\u064a", "name:fa": "\u0627\u0644\u06a9\u0648\u062a\u06cc\u0645", "place": "town"}}, "geometry": {"type": "Point", "coordinates": [-7.4725535, 37.4700144]}}, {"type": "Feature", "properties": {"type": "node", "id": 25277566, "tags": {"alt_name:ar": "\u062a\u0627\u0648\u064a\u0631\u0627", "capital": "7", "name": "Tavira", "name:ar": "\u0637\u0628\u064a\u0631\u0629", "name:fa": "\u062a\u0627\u0648\u06cc\u0631\u0627", "name:uk": "\u0422\u0430\u0432\u0456\u0440\u0430", "place": "town", "population": "13312", "population:date": "2011", "wikidata": "Q372840", "wikipedia": "pt:Tavira"}}, "geometry": {"type": "Point", "coordinates": [-7.6499121, 37.1262493]}}, {"type": "Feature", "properties": {"type": "node", "id": 25277569, "tags": {"capital": "7", "name": "Vila do Bispo", "name:ar": "\u0641\u064a\u0644\u0627 \u062f\u0648 \u0628\u064a\u0633\u0628\u0648", "place": "town", "wikidata": "Q206320"}}, "geometry": {"type": "Point", "coordinates": [-8.9096544, 37.0831666]}}, {"type": "Feature", "properties": {"type": "node", "id": 25277573, "tags": {"alt_name:ar": "\u0623\u0648\u0644\u0647\u0627\u0648", "capital": "7", "name": "Olh\u00e3o", "name:ar": "\u0623\u0648\u0644\u0627\u0648", "name:fa": "\u0627\u0648\u0644\u0627\u0648", "place": "town", "population": "28630", "population:date": "2011", "wikidata": "Q2125856"}}, "geometry": {"type": "Point", "coordinates": [-7.8411287, 37.0270369]}}, {"type": "Feature", "properties": {"type": "node", "id": 25277576, "tags": {"capital": "7", "name": "Loul\u00e9", "name:ar": "\u0644\u0648\u0644\u064a", "name:fa": "\u0644\u0648\u0644\u0647", "place": "town", "population": "14900", "population:date": "2011"}}, "geometry": {"type": "Point", "coordinates": [-8.0235513, 37.1383984]}}, {"type": "Feature", "properties": {"type": "node", "id": 25277577, "tags": {"capital": "7", "is_in": "Algarve", "name": "Lagos", "name:ar": "\u0644\u0627\u063a\u0648\u0633", "name:fa": "\u0644\u0627\u06af\u0648\u0633", "name:la": "Laccobriga", "note": "City \u00e9 para capitais de distrito", "place": "town", "population": "18474", "population:date": "2011"}}, "geometry": {"type": "Point", "coordinates": [-8.6724909, 37.1010903]}}, {"type": "Feature", "properties": {"type": "node", "id": 25277578, "tags": {"capital": "7", "name": "Monchique", "name:ar": "\u0645\u0648\u0646\u0634\u064a\u0643", "place": "town", "source": "interpolation;wikipedia", "wikidata": "Q957663"}}, "geometry": {"type": "Point", "coordinates": [-8.5558655, 37.3179725]}}, {"type": "Feature", "properties": {"type": "node", "id": 25277730, "tags": {"capital": "7", "name": "Aguiar da Beira", "place": "town"}}, "geometry": {"type": "Point", "coordinates": [-7.54312, 40.81718]}}, {"type": "Feature", "properties": {"type": "node", "id": 25277732, "tags": {"capital": "7", "name": "Sabugal", "place": "town", "population": "2231", "population:date": "2011", "wikidata": "Q33849724"}}, "geometry": {"type": "Point", "coordinates": [-7.0896479, 40.3518321]}}, {"type": "Feature", "properties": {"type": "node", "id": 25277734, "tags": {"capital": "7", "name": "Manteigas", "place": "town", "wikidata": "Q986093", "wikipedia": "pt:Manteigas"}}, "geometry": {"type": "Point", "coordinates": [-7.5408682, 40.4005617]}}, {"type": "Feature", "properties": {"type": "node", "id": 25277735, "tags": {"alt_name": "N\u00facleo urbano da cidade de Trancoso", "capital": "7", "heritage:website": "http://monumentos.pt/Site/APP_PagesUser/SIPA.aspx?id=2996", "name": "Trancoso", "place": "town", "population": "2721", "population:date": "2011", "ref:ipa": "2996"}}, "geometry": {"type": "Point", "coordinates": [-7.34908, 40.77847]}}, {"type": "Feature", "properties": {"type": "node", "id": 25277736, "tags": {"capital": "7", "name": "Seia", "place": "town", "population": "5383", "population:date": "2011"}}, "geometry": {"type": "Point", "coordinates": [-7.7028054, 40.4200998]}}, {"type": "Feature", "properties": {"type": "node", "id": 25277738, "tags": {"capital": "7", "name": "Figueira de Castelo Rodrigo", "place": "town", "wikidata": "Q644782", "wikipedia": "pt:Figueira de Castelo Rodrigo"}}, "geometry": {"type": "Point", "coordinates": [-6.96279, 40.89751]}}, {"type": "Feature", "properties": {"type": "node", "id": 25277740, "tags": {"capital": "7", "name": "Almeida", "name:ar": "\u0627\u0644\u0645\u0627\u0626\u062f\u0629", "place": "town", "wikidata": "Q617889"}}, "geometry": {"type": "Point", "coordinates": [-6.9067513, 40.7263333]}}, {"type": "Feature", "properties": {"type": "node", "id": 25277742, "tags": {"capital": "7", "name": "Fornos de Algodres", "place": "town", "wikidata": "Q1997892", "wikipedia": "pt:Fornos de Algodres (freguesia)"}}, "geometry": {"type": "Point", "coordinates": [-7.5374913, 40.6224919]}}, {"type": "Feature", "properties": {"type": "node", "id": 25278373, "tags": {"capital": "7", "name": "Pedr\u00f3g\u00e3o Grande", "place": "town"}}, "geometry": {"type": "Point", "coordinates": [-8.145564, 39.9169584]}}, {"type": "Feature", "properties": {"type": "node", "id": 25278374, "tags": {"capital": "7", "name": "Nazar\u00e9", "place": "town", "wikidata": "Q497179", "wikipedia": "pt:Nazar\u00e9 (Portugal)"}}, "geometry": {"type": "Point", "coordinates": [-9.0701572, 39.6029108]}}, {"type": "Feature", "properties": {"type": "node", "id": 25278375, "tags": {"capital": "7", "name": "Bombarral", "place": "town"}}, "geometry": {"type": "Point", "coordinates": [-9.1583288, 39.2667959]}}, {"type": "Feature", "properties": {"type": "node", "id": 25278379, "tags": {"capital": "7", "name": "Peniche", "place": "town", "population": "14822", "population:date": "2011"}}, "geometry": {"type": "Point", "coordinates": [-9.3812853, 39.3566221]}}, {"type": "Feature", "properties": {"type": "node", "id": 25278380, "tags": {"capital": "7", "name": "Figueir\u00f3 dos Vinhos", "place": "town", "wikidata": "Q679642"}}, "geometry": {"type": "Point", "coordinates": [-8.2753006, 39.9024537]}}, {"type": "Feature", "properties": {"type": "node", "id": 25278381, "tags": {"capital": "7", "name": "Marinha Grande", "place": "town", "population": "10560", "population:date": "2011"}}, "geometry": {"type": "Point", "coordinates": [-8.9298895, 39.7495952]}}, {"type": "Feature", "properties": {"type": "node", "id": 25278382, "tags": {"capital": "7", "name": "Alvai\u00e1zere", "place": "town", "wikidata": "Q448229"}}, "geometry": {"type": "Point", "coordinates": [-8.3811051, 39.8251849]}}, {"type": "Feature", "properties": {"type": "node", "id": 25278385, "tags": {"capital": "7", "name": "Pombal", "place": "town", "population": "12125", "population:date": "2011", "wikidata": "Q966825", "wikipedia": "pt:Pombal (Portugal)"}}, "geometry": {"type": "Point", "coordinates": [-8.6279171, 39.9161851]}}, {"type": "Feature", "properties": {"type": "node", "id": 25278387, "tags": {"capital": "7", "name": "Batalha", "place": "town", "wikidata": "Q810715"}}, "geometry": {"type": "Point", "coordinates": [-8.8244098, 39.6579329]}}, {"type": "Feature", "properties": {"type": "node", "id": 25278424, "tags": {"capital": "7", "name": "Arcos de Valdevez", "name:ar": "\u0623\u0631\u0643\u0648\u0633 \u062f\u064a \u0641\u0627\u0644\u062f\u064a\u0641\u064a\u0632", "name:ru": "\u0410\u0440\u043a\u0443\u0448-\u0434\u0438-\u0412\u0430\u043b\u0434\u0435\u0432\u0435\u0448", "place": "town", "source": "Bing", "wikidata": "Q490302", "wikipedia": "pt:Arcos de Valdevez"}}, "geometry": {"type": "Point", "coordinates": [-8.417882, 41.8471981]}}, {"type": "Feature", "properties": {"type": "node", "id": 25278425, "tags": {"capital": "7", "name": "Caminha", "name:ru": "\u041a\u0430\u043c\u0438\u043d\u044c\u044f", "place": "town", "source": "Bing", "wikidata": "Q1029544", "wikipedia": "pt:Caminha"}}, "geometry": {"type": "Point", "coordinates": [-8.8388375, 41.8757598]}}, {"type": "Feature", "properties": {"type": "node", "id": 25278426, "tags": {"admin_level": "7", "capital": "7", "name": "Melga\u00e7o", "name:ru": "\u041c\u0435\u043b\u0433\u0430\u0441\u0443", "name:uk": "\u041c\u0435\u043b\u0433\u0430\u0441\u0443", "official_name": "Vila de Melga\u00e7o", "place": "town", "wikidata": "Q491888"}}, "geometry": {"type": "Point", "coordinates": [-8.2593422, 42.1130412]}}, {"type": "Feature", "properties": {"type": "node", "id": 25278427, "tags": {"alt_name": "Cerveira", "capital": "7", "name": "Vila Nova de Cerveira", "name:ru": "\u0412\u0438\u043b\u0430-\u041d\u043e\u0432\u0430-\u0434\u0438-\u0421\u0435\u0440\u0432\u0435\u0439\u0440\u0430", "name:uk": "\u0412\u0456\u043b\u0430-\u041d\u043e\u0432\u0430-\u0434\u0435-\u0421\u0435\u0440\u0432\u0435\u0439\u0440\u0430", "place": "town", "source": "Bing", "wikidata": "Q164434", "wikipedia": "pt:Vila Nova de Cerveira"}}, "geometry": {"type": "Point", "coordinates": [-8.7436068, 41.9403912]}}, {"type": "Feature", "properties": {"type": "node", "id": 25278428, "tags": {"capital": "7", "name": "Paredes de Coura", "place": "town"}}, "geometry": {"type": "Point", "coordinates": [-8.55959, 41.91106]}}, {"type": "Feature", "properties": {"type": "node", "id": 25278429, "tags": {"capital": "7", "name": "Ponte da Barca", "name:ru": "\u041f\u043e\u043d\u0442\u0435-\u0434\u0430-\u0411\u0430\u0440\u043a\u0430", "place": "town", "source": "Bing", "wikidata": "Q491484", "wikipedia": "pt:Ponte da Barca"}}, "geometry": {"type": "Point", "coordinates": [-8.416428, 41.8076477]}}, {"type": "Feature", "properties": {"type": "node", "id": 25278430, "tags": {"capital": "7", "name": "Mon\u00e7\u00e3o", "name:ru": "\u041c\u043e\u043d\u0441\u0430\u043d", "name:uk": "\u041c\u043e\u043d\u0441\u0430\u043d", "place": "town", "wikidata": "Q425738", "wikipedia": "pt:Mon\u00e7\u00e3o (Portugal)"}}, "geometry": {"type": "Point", "coordinates": [-8.4813901, 42.0787023]}}, {"type": "Feature", "properties": {"type": "node", "id": 25278431, "tags": {"alt_name": "Valen\u00e7a do Minho", "alt_name:gl": "Valen\u00e7a de Arag\u00e3o", "capital": "7", "name": "Valen\u00e7a", "place": "town", "population": "6542", "population:date": "2011", "wikidata": "Q492475", "wikipedia": "pt:Valen\u00e7a (Portugal)"}}, "geometry": {"type": "Point", "coordinates": [-8.6428831, 42.0270455]}}, {"type": "Feature", "properties": {"type": "node", "id": 25278432, "tags": {"capital": "7", "name": "Ponte de Lima", "name:ar": "\u0628\u0648\u0646\u062a\u064a \u062f\u064a \u0644\u064a\u0645\u0627", "name:ru": "\u041f\u043e\u043d\u0442\u0438-\u0434\u0438-\u041b\u0438\u043c\u0430", "name:uk": "\u041f\u043e\u043d\u0442\u0435-\u0434\u0435-\u041b\u0456\u043c\u0430", "place": "town", "source": "Bing", "wikidata": "Q490180", "wikipedia": "pt:Ponte de Lima"}}, "geometry": {"type": "Point", "coordinates": [-8.5830992, 41.7675021]}}, {"type": "Feature", "properties": {"type": "node", "id": 25278433, "tags": {"capital": "7", "name": "Alij\u00f3", "place": "town", "website": "http://www.cm-alijo.pt/", "wikidata": "Q712064"}}, "geometry": {"type": "Point", "coordinates": [-7.4753795, 41.2768619]}}, {"type": "Feature", "properties": {"type": "node", "id": 25611733, "tags": {"capital": "7", "name": "Sintra", "name:en": "Sintra", "place": "town"}}, "geometry": {"type": "Point", "coordinates": [-9.3881, 38.79846]}}, {"type": "Feature", "properties": {"type": "node", "id": 25611735, "tags": {"capital": "7", "name": "Vila Franca de Xira", "note": "city \u00e9 para capital de distrito", "place": "town", "population": "16129", "population:date": "2011", "wikidata": "Q2183627"}}, "geometry": {"type": "Point", "coordinates": [-8.9897039, 38.954278]}}, {"type": "Feature", "properties": {"type": "node", "id": 25611736, "tags": {"capital": "7", "name": "Cascais", "place": "town"}}, "geometry": {"type": "Point", "coordinates": [-9.4204495, 38.6968919]}}, {"type": "Feature", "properties": {"type": "node", "id": 25611737, "tags": {"capital": "7", "name": "Lourinh\u00e3", "place": "town"}}, "geometry": {"type": "Point", "coordinates": [-9.3119326, 39.2433932]}}, {"type": "Feature", "properties": {"type": "node", "id": 25611738, "tags": {"capital": "7", "name": "Mafra", "note": "Dados da popula\u00e7\u00e3o dos Censos 2011", "place": "town", "wikidata": "Q986419"}}, "geometry": {"type": "Point", "coordinates": [-9.3282374, 38.9369782]}}, {"type": "Feature", "properties": {"type": "node", "id": 25611739, "tags": {"capital": "7", "name": "Sobral de Monte Agra\u00e7o", "place": "town", "wikidata": "Q1005105"}}, "geometry": {"type": "Point", "coordinates": [-9.15171, 39.01835]}}, {"type": "Feature", "properties": {"type": "node", "id": 25611741, "tags": {"capital": "7", "name": "Arruda dos Vinhos", "place": "town", "wikidata": "Q703854"}}, "geometry": {"type": "Point", "coordinates": [-9.07763, 38.98303]}}, {"type": "Feature", "properties": {"type": "node", "id": 25611742, "tags": {"capital": "7", "name": "Odivelas", "place": "town", "population": "56847", "population:date": "2011"}}, "geometry": {"type": "Point", "coordinates": [-9.1792617, 38.7904338]}}, {"type": "Feature", "properties": {"type": "node", "id": 25611743, "tags": {"capital": "7", "name": "Torres Vedras", "place": "town", "population": "17837", "population:date": "2011"}}, "geometry": {"type": "Point", "coordinates": [-9.260741, 39.0930856]}}, {"type": "Feature", "properties": {"type": "node", "id": 25611744, "tags": {"capital": "7", "name": "Loures", "place": "town", "population": "43127", "population:date": "2011"}}, "geometry": {"type": "Point", "coordinates": [-9.1684512, 38.8308741]}}, {"type": "Feature", "properties": {"type": "node", "id": 25611745, "tags": {"capital": "7", "name": "Azambuja", "name:uk": "\u0410\u0437\u0430\u043c\u0431\u0443\u0436\u0430", "place": "town", "wikidata": "Q634164", "wikipedia": "pt:Azambuja"}}, "geometry": {"type": "Point", "coordinates": [-8.8684921, 39.0689884]}}, {"type": "Feature", "properties": {"type": "node", "id": 25612845, "tags": {"capital": "7", "name": "Elvas", "place": "town", "population": "16640", "population:date": "2011", "website": "http://www.cm-elvas.pt/", "wikidata": "Q243849", "wikipedia": "pt:Elvas"}}, "geometry": {"type": "Point", "coordinates": [-7.1637495, 38.8811828]}}, {"type": "Feature", "properties": {"type": "node", "id": 25612846, "tags": {"capital": "7", "name": "Arronches", "place": "town"}}, "geometry": {"type": "Point", "coordinates": [-7.2853362, 39.122106]}}, {"type": "Feature", "properties": {"type": "node", "id": 25612847, "tags": {"capital": "7", "name": "Monforte", "place": "town", "wikidata": "Q769062", "wikipedia": "pt:Monforte"}}, "geometry": {"type": "Point", "coordinates": [-7.4389355, 39.0531482]}}, {"type": "Feature", "properties": {"type": "node", "id": 25612848, "tags": {"capital": "7", "name": "Gavi\u00e3o", "place": "town"}}, "geometry": {"type": "Point", "coordinates": [-7.93679, 39.46494]}}, {"type": "Feature", "properties": {"type": "node", "id": 25612849, "tags": {"capital": "7", "name": "Marv\u00e3o", "name:zh": "\u99ac\u723e\u65fa\u6751", "place": "town", "population": "486"}}, "geometry": {"type": "Point", "coordinates": [-7.3775491, 39.394765]}}, {"type": "Feature", "properties": {"type": "node", "id": 25612850, "tags": {"capital": "7", "name": "Sousel", "place": "town", "wikidata": "Q7565244", "wikipedia": "pt:Sousel"}}, "geometry": {"type": "Point", "coordinates": [-7.67603, 38.95224]}}, {"type": "Feature", "properties": {"type": "node", "id": 25612851, "tags": {"capital": "7", "name": "Alter do Ch\u00e3o", "place": "town"}}, "geometry": {"type": "Point", "coordinates": [-7.659037, 39.2001177]}}, {"type": "Feature", "properties": {"type": "node", "id": 25612852, "tags": {"capital": "7", "name": "Campo Maior", "place": "town", "wikidata": "Q995297"}}, "geometry": {"type": "Point", "coordinates": [-7.0692642, 39.0122924]}}, {"type": "Feature", "properties": {"type": "node", "id": 25612853, "tags": {"capital": "7", "name": "Crato", "place": "town", "website": "http://www.cm-crato.pt", "wikidata": "Q1005138", "wikipedia": "pt:Crato (Portugal)"}}, "geometry": {"type": "Point", "coordinates": [-7.6454266, 39.2851221]}}, {"type": "Feature", "properties": {"type": "node", "id": 25612855, "tags": {"capital": "7", "name": "Avis", "place": "town"}}, "geometry": {"type": "Point", "coordinates": [-7.8897441, 39.0559501]}}, {"type": "Feature", "properties": {"type": "node", "id": 25612856, "tags": {"capital": "7", "name": "Fronteira", "place": "town", "wikidata": "Q647467", "wikipedia": "pt:Fronteira (Portugal)"}}, "geometry": {"type": "Point", "coordinates": [-7.6478657, 39.0558091]}}, {"type": "Feature", "properties": {"type": "node", "id": 25612857, "tags": {"capital": "7", "name": "Nisa", "place": "town"}}, "geometry": {"type": "Point", "coordinates": [-7.6492263, 39.5149978]}}, {"type": "Feature", "properties": {"type": "node", "id": 25613456, "tags": {"capital": "7", "name": "Pa\u00e7os de Ferreira", "place": "town", "population": "14486", "population:date": "2011", "source": "Bing", "wikidata": "Q2258832"}}, "geometry": {"type": "Point", "coordinates": [-8.376875, 41.2760689]}}, {"type": "Feature", "properties": {"type": "node", "id": 25613457, "tags": {"capital": "7", "name": "Felgueiras", "place": "town", "population": "16094", "population:date": "2011", "wikidata": "Q936904", "wikipedia": "pt:Felgueiras"}}, "geometry": {"type": "Point", "coordinates": [-8.1989321, 41.3647716]}}, {"type": "Feature", "properties": {"type": "node", "id": 25613458, "tags": {"capital": "7", "name": "P\u00f3voa de Varzim", "place": "town", "population": "40053", "population:date": "2011", "source": "Bing", "wikidata": "Q200459"}}, "geometry": {"type": "Point", "coordinates": [-8.7598689, 41.3794188]}}, {"type": "Feature", "properties": {"type": "node", "id": 25613459, "tags": {"capital": "7", "name": "Maia", "old_name": "Barreiros", "place": "town", "population": "40134", "population:date": "2011", "source": "Bing", "wikidata": "Q17488862", "wikipedia": "pt:Cidade da Maia"}}, "geometry": {"type": "Point", "coordinates": [-8.6273183, 41.232208]}}, {"type": "Feature", "properties": {"type": "node", "id": 25613461, "tags": {"alt_name": "Amarante de S\u00e3o Gon\u00e7alo", "capital": "7", "loc_name": "S\u00e3o Gon\u00e7alo de Amarante", "name": "Amarante", "official_name": "Amarante (S\u00e3o Gon\u00e7alo)", "place": "town", "population": "12660", "population:date": "2011", "source": "Bing", "wikidata": "Q1023237", "wikipedia": "pt:Amarante (Portugal)"}}, "geometry": {"type": "Point", "coordinates": [-8.0804563, 41.2699316]}}, {"type": "Feature", "properties": {"type": "node", "id": 25613462, "tags": {"capital": "7", "name": "Gondomar", "old_name": "S\u00e3o Cosme", "place": "town", "population": "27047", "population:date": "2011", "wikidata": "Q983483"}}, "geometry": {"type": "Point", "coordinates": [-8.5326269, 41.1398199]}}, {"type": "Feature", "properties": {"type": "node", "id": 25613463, "tags": {"capital": "7", "name": "Marco de Canaveses", "place": "town", "population": "10336", "population:date": "2011"}}, "geometry": {"type": "Point", "coordinates": [-8.1493798, 41.1835352]}}, {"type": "Feature", "properties": {"type": "node", "id": 25613464, "tags": {"capital": "7", "name": "Trofa", "place": "town", "population": "17389", "population:date": "2011", "source": "Bing", "wikidata": "Q987964"}}, "geometry": {"type": "Point", "coordinates": [-8.5585061, 41.3363471]}}, {"type": "Feature", "properties": {"type": "node", "id": 25613467, "tags": {"capital": "7", "name": "Vila do Conde", "name:zh": "\u5b54\u8fea\u9547", "place": "town", "population": "28636", "population:date": "2011", "source": "Bing", "wikidata": "Q917313"}}, "geometry": {"type": "Point", "coordinates": [-8.7475631, 41.3580981]}}, {"type": "Feature", "properties": {"type": "node", "id": 25613471, "tags": {"capital": "7", "name": "Lousada", "place": "town", "wikidata": "Q986741"}}, "geometry": {"type": "Point", "coordinates": [-8.2826293, 41.2773789]}}, {"type": "Feature", "properties": {"type": "node", "id": 25613472, "tags": {"capital": "7", "name": "Bai\u00e3o", "place": "town"}}, "geometry": {"type": "Point", "coordinates": [-8.0355439, 41.1616306]}}, {"type": "Feature", "properties": {"type": "node", "id": 25615630, "tags": {"capital": "7", "name": "Alcanena", "place": "town"}}, "geometry": {"type": "Point", "coordinates": [-8.6697497, 39.4585519]}}, {"type": "Feature", "properties": {"type": "node", "id": 25615631, "tags": {"capital": "7", "name": "Almeirim", "place": "town", "population": "11881", "population:date": "2011"}}, "geometry": {"type": "Point", "coordinates": [-8.6340173, 39.2107506]}}, {"type": "Feature", "properties": {"type": "node", "id": 25615632, "tags": {"capital": "7", "name": "Sardoal", "place": "town", "wikidata": "Q635165"}}, "geometry": {"type": "Point", "coordinates": [-8.16034, 39.53347]}}, {"type": "Feature", "properties": {"type": "node", "id": 25615633, "tags": {"capital": "7", "name": "Chamusca", "place": "town", "wikidata": "Q1000093"}}, "geometry": {"type": "Point", "coordinates": [-8.4802892, 39.3560025]}}, {"type": "Feature", "properties": {"type": "node", "id": 25615634, "tags": {"capital": "7", "name": "Ferreira do Z\u00eazere", "place": "town", "wikidata": "Q995202"}}, "geometry": {"type": "Point", "coordinates": [-8.2905545, 39.6934308]}}, {"type": "Feature", "properties": {"type": "node", "id": 25615636, "tags": {"capital": "7", "name": "Coruche", "place": "town", "wikidata": "Q1000052"}}, "geometry": {"type": "Point", "coordinates": [-8.5285, 38.95778]}}, {"type": "Feature", "properties": {"type": "node", "id": 25615637, "tags": {"admin_level": "7", "capital": "7", "name": "Cartaxo", "place": "town", "population": "10898", "population:date": "2011", "wikidata": "Q841304", "wikipedia": "pt:Cartaxo"}}, "geometry": {"type": "Point", "coordinates": [-8.7862444, 39.1619192]}}, {"type": "Feature", "properties": {"type": "node", "id": 25615638, "tags": {"capital": "7", "name": "Rio Maior", "place": "town", "population": "7948", "population:date": "2011"}}, "geometry": {"type": "Point", "coordinates": [-8.9364098, 39.3365387]}}, {"type": "Feature", "properties": {"type": "node", "id": 25615639, "tags": {"capital": "7", "name": "Const\u00e2ncia", "place": "town", "wikidata": "Q1003157"}}, "geometry": {"type": "Point", "coordinates": [-8.33819, 39.4750609]}}, {"type": "Feature", "properties": {"type": "node", "id": 25615640, "tags": {"capital": "7", "name": "Entroncamento", "place": "town", "population": "20206", "population:date": "2011"}}, "geometry": {"type": "Point", "coordinates": [-8.4682137, 39.4652196]}}, {"type": "Feature", "properties": {"type": "node", "id": 25615642, "tags": {"capital": "7", "name": "Benavente", "place": "town", "wikidata": "Q571140"}}, "geometry": {"type": "Point", "coordinates": [-8.8120694, 38.9741643]}}, {"type": "Feature", "properties": {"type": "node", "id": 25615644, "tags": {"capital": "7", "name": "Tomar", "name:it": "Tomar", "name:pt": "Tomar", "name:sr": "\u0422\u043e\u043c\u0430\u0440", "place": "town", "population": "15065", "population:date": "2011", "wikidata": "Q622817"}}, "geometry": {"type": "Point", "coordinates": [-8.4150492, 39.6036596]}}, {"type": "Feature", "properties": {"type": "node", "id": 25615645, "tags": {"capital": "7", "name": "Our\u00e9m", "old_name": "Vila Nova d'Our\u00e9m", "place": "town", "population": "5933", "population:date": "2011"}}, "geometry": {"type": "Point", "coordinates": [-8.57963, 39.65679]}}, {"type": "Feature", "properties": {"type": "node", "id": 25615646, "tags": {"capital": "7", "name": "Abrantes", "place": "town", "population": "18450", "population:date": "2011"}}, "geometry": {"type": "Point", "coordinates": [-8.1973618, 39.4631905]}}, {"type": "Feature", "properties": {"type": "node", "id": 25615647, "tags": {"capital": "7", "name": "Salvaterra de Magos", "place": "town", "wikidata": "Q1027809"}}, "geometry": {"type": "Point", "coordinates": [-8.7929278, 39.0249942]}}, {"type": "Feature", "properties": {"type": "node", "id": 25615648, "tags": {"capital": "7", "name": "Alpiar\u00e7a", "place": "town"}}, "geometry": {"type": "Point", "coordinates": [-8.5845144, 39.2599352]}}, {"type": "Feature", "properties": {"type": "node", "id": 25619063, "tags": {"capital": "7", "name": "Alcochete", "place": "town", "wikidata": "Q605319"}}, "geometry": {"type": "Point", "coordinates": [-8.9608437, 38.7560499]}}, {"type": "Feature", "properties": {"type": "node", "id": 25619068, "tags": {"capital": "7", "name": "Sines", "place": "town", "population": "12463", "population:date": "2011"}}, "geometry": {"type": "Point", "coordinates": [-8.8689639, 37.956549]}}, {"type": "Feature", "properties": {"type": "node", "id": 25619069, "tags": {"capital": "7", "is_in": "Portugal", "name": "Barreiro", "name:en": "Barreiro", "name:es": "Barreiro", "name:fa": "\u0628\u0627\u0631\u06cc\u0631\u0648", "name:kk": "\u0411\u0430\u0440\u0440\u0435\u0439\u0440\u0443", "name:lt": "Bareiras", "name:nl": "Barreiro", "name:ru": "\u0411\u0430\u0440\u0440\u0435\u0439\u0440\u0443", "place": "town", "population": "63353", "population:date": "2011", "wikidata": "Q2392504", "wikipedia": "pt:Barreiro (freguesia)"}}, "geometry": {"type": "Point", "coordinates": [-9.07651, 38.6642226]}}, {"type": "Feature", "properties": {"type": "node", "id": 25619071, "tags": {"capital": "7", "name": "Seixal", "place": "town", "population": "29373", "population:date": "2011", "wikidata": "Q990448", "wikipedia": "pt:Seixal"}}, "geometry": {"type": "Point", "coordinates": [-9.1072662, 38.6422246]}}, {"type": "Feature", "properties": {"type": "node", "id": 25619073, "tags": {"capital": "7", "name": "Almada", "name:el": "\u0391\u03bb\u03bc\u03ac\u03bd\u03c4\u03b1", "name:uk": "\u0410\u043b\u043c\u0430\u0434\u0430", "place": "town", "population": "96404", "population:date": "2011", "wikidata": "Q328015", "wikipedia": "pt:Almada"}}, "geometry": {"type": "Point", "coordinates": [-9.1649974, 38.6764302]}}, {"type": "Feature", "properties": {"type": "node", "id": 25619074, "tags": {"alt_name:ar": "\u0627\u0644\u0642\u0635\u0631;\u0627\u0644\u0642\u0635\u0631 \u0627\u0644\u0645\u0644\u062d;\u0627\u0644\u0643\u0627\u0633\u0631 \u062f\u0648 \u0633\u0627\u0644", "alt_name:fa": "\u0627\u0644\u06a9\u0627\u0633\u0631 \u062f\u0648\u0633\u0627\u0644", "capital": "7", "name": "Alc\u00e1cer do Sal", "name:ar": "\u0642\u0635\u0631 \u0627\u0644\u0645\u0644\u062d", "name:fa": "\u0622\u0644\u06a9\u0627\u0633\u0631 \u062f\u0648\u0633\u0627\u0644", "name:la": "Salacia Imperiatoria", "old_name:ar": "\u0642\u0635\u0631 \u0623\u0628\u064a \u062f\u0627\u0646\u0633", "place": "town", "population": "6679", "population:date": "2011"}}, "geometry": {"type": "Point", "coordinates": [-8.5122705, 38.3729735]}}, {"type": "Feature", "properties": {"type": "node", "id": 25623864, "tags": {"capital": "7", "name": "Espinho", "place": "town", "population": "21185", "population:date": "2011", "source": "Bing", "wikidata": "Q13225053"}}, "geometry": {"type": "Point", "coordinates": [-8.6394111, 41.0083643]}}, {"type": "Feature", "properties": {"type": "node", "id": 25623865, "tags": {"capital": "7", "name": "Barrancos", "name:ar": "\u0628\u0627\u0631\u0627\u0646\u0643\u0648\u0633", "name:ru": "\u0411\u0430\u0440\u0440\u0430\u043d\u043a\u0443\u0448", "place": "town", "wikidata": "Q368867", "wikipedia": "pt:Barrancos"}}, "geometry": {"type": "Point", "coordinates": [-6.9779893, 38.1315902]}}, {"type": "Feature", "properties": {"type": "node", "id": 25623866, "tags": {"capital": "7", "name": "Vinhais", "name:mwl": "Binhais", "name:ru": "\u0412\u0438\u043d\u044c\u044f\u0439\u0448", "name:uk": "\u0412\u0456\u043d\u044c\u044f\u0439\u0448", "place": "town", "source": "Bing", "wikidata": "Q551103"}}, "geometry": {"type": "Point", "coordinates": [-7.007716, 41.8336062]}}, {"type": "Feature", "properties": {"type": "node", "id": 25623904, "tags": {"alt_name:ar": "\u0642\u0644\u0646\u0628\u0631\u064a\u0629;\u0643\u0648\u064a\u0645\u0628\u0631\u0627", "capital": "6", "int_name": "Coimbra", "is_in:country": "Portugal", "name": "Coimbra", "name:ar": "\u0642\u0644\u0645\u0631\u064a\u0629", "name:el": "\u039a\u03bf\u0390\u03bc\u03c0\u03c1\u03b1", "name:es": "Co\u00edmbra", "name:fr": "Co\u00efmbre", "name:he": "\u05e7\u05d5\u05d9\u05de\u05d1\u05e8\u05d4", "name:hu": "Coimbra", "name:lt": "Koimbra", "name:ru": "\u041a\u043e\u0438\u043c\u0431\u0440\u0430", "name:sr": "\u041a\u043e\u0438\u043c\u0431\u0440\u0430", "name:uk": "\u041a\u043e\u0457\u043c\u0431\u0440\u0430", "note": "\u00c9 classificada como \"place = city\" pois \u00e9 capital de distrito.", "place": "city", "population": "105842", "population:date": "2011", "wikidata": "Q45412", "wikipedia": "pt:Coimbra"}}, "geometry": {"type": "Point", "coordinates": [-8.4292057, 40.2109801]}}, {"type": "Feature", "properties": {"type": "node", "id": 25623905, "tags": {"capital": "7", "name": "Ponte de Sor", "place": "town", "population": "7752", "population:date": "2011", "wikidata": "Q990365", "wikipedia": "pt:Ponte de Sor"}}, "geometry": {"type": "Point", "coordinates": [-8.008997, 39.2519303]}}, {"type": "Feature", "properties": {"type": "node", "id": 25624117, "tags": {"alt_name": "Salvador", "capital": "7", "name": "Ribeira de Pena", "place": "town", "wikidata": "Q1006378", "wikipedia": "pt:Ribeira de Pena"}}, "geometry": {"type": "Point", "coordinates": [-7.7936942, 41.5196507]}}, {"type": "Feature", "properties": {"type": "node", "id": 25624118, "tags": {"capital": "7", "name": "Boticas", "name:ru": "\u0411\u043e\u0442\u0438\u043a\u0430\u0448", "place": "town", "wikidata": "Q894746", "wikipedia": "pt:Boticas"}}, "geometry": {"type": "Point", "coordinates": [-7.6645346, 41.6881921]}}, {"type": "Feature", "properties": {"type": "node", "id": 25624119, "tags": {"alt_name": "S\u00e3o Crist\u00f3v\u00e3o de Mondim de Basto", "capital": "7", "name": "Mondim de Basto", "place": "town", "tourism": "information", "wikidata": "Q932771", "wikipedia": "pt:Mondim de Basto"}}, "geometry": {"type": "Point", "coordinates": [-7.9524216, 41.4111525]}}, {"type": "Feature", "properties": {"type": "node", "id": 25624120, "tags": {"capital": "7", "name": "Sabrosa", "name:ru": "\u0421\u0430\u0431\u0440\u043e\u0437\u0430", "place": "town", "source": "Bing", "wikidata": "Q1006389", "wikipedia": "pt:Sabrosa"}}, "geometry": {"type": "Point", "coordinates": [-7.5757615, 41.2663847]}}, {"type": "Feature", "properties": {"type": "node", "id": 25624121, "tags": {"capital": "7", "name": "Montalegre", "place": "town", "wikidata": "Q757860"}}, "geometry": {"type": "Point", "coordinates": [-7.7923142, 41.8232206]}}, {"type": "Feature", "properties": {"type": "node", "id": 25624122, "tags": {"capital": "7", "name": "Santa Marta de Penagui\u00e3o", "place": "town", "wikidata": "Q1006372"}}, "geometry": {"type": "Point", "coordinates": [-7.78473, 41.2100446]}}, {"type": "Feature", "properties": {"type": "node", "id": 25624123, "tags": {"capital": "7", "name": "Valpa\u00e7os", "name:ru": "\u0412\u0430\u043b\u043f\u0430\u0441\u0443\u0448", "place": "town", "population": "4012", "population:date": "2011", "wikidata": "Q757856", "wikipedia": "pt:Valpa\u00e7os"}}, "geometry": {"type": "Point", "coordinates": [-7.3108525, 41.6067883]}}, {"type": "Feature", "properties": {"type": "node", "id": 25624124, "tags": {"alt_name": "R\u00e9gua", "capital": "7", "name": "Peso da R\u00e9gua", "place": "town", "population": "9530", "population:date": "2011", "wikidata": "Q757858"}}, "geometry": {"type": "Point", "coordinates": [-7.7875821, 41.1637043]}}, {"type": "Feature", "properties": {"type": "node", "id": 25624125, "tags": {"capital": "7", "name": "Mur\u00e7a", "place": "town"}}, "geometry": {"type": "Point", "coordinates": [-7.4538949, 41.4081543]}}, {"type": "Feature", "properties": {"type": "node", "id": 25624126, "tags": {"capital": "7", "name": "Mes\u00e3o Frio", "place": "town", "wikidata": "Q1006385"}}, "geometry": {"type": "Point", "coordinates": [-7.8883733, 41.1604717]}}, {"type": "Feature", "properties": {"type": "node", "id": 25624127, "tags": {"capital": "7", "name": "Chaves", "name:la": "Aquae Flaviae", "name:lt": "\u0160avesas", "name:ru": "\u0428\u0430\u0432\u0438\u0448", "place": "town", "population": "22363", "population:date": "2011", "wikidata": "Q504580", "wikipedia": "pt:Chaves (Portugal)"}}, "geometry": {"type": "Point", "coordinates": [-7.471477, 41.7399453]}}, {"type": "Feature", "properties": {"type": "node", "id": 130035599, "tags": {"capital": "8", "is_in": "Portugal", "name": "Ericeira", "place": "town", "wikidata": "Q1351868"}}, "geometry": {"type": "Point", "coordinates": [-9.4170098, 38.9631655]}}, {"type": "Feature", "properties": {"type": "node", "id": 254916545, "tags": {"capital": "7", "name": "Montijo", "place": "town", "population": "36159", "population:date": "2011"}}, "geometry": {"type": "Point", "coordinates": [-8.9652359, 38.7071295]}}, {"type": "Feature", "properties": {"type": "node", "id": 255654259, "tags": {"alt_name:ar": "\u0645\u0631\u062a\u0648\u0644\u0627", "capital": "7", "name": "M\u00e9rtola", "name:ar": "\u0645\u0627\u0631\u062a\u0644\u0629", "name:la": "Iulia Myrtilis", "name:sr-Latn": "Mertola", "place": "town", "wikidata": "Q551056"}}, "geometry": {"type": "Point", "coordinates": [-7.6606447, 37.642043]}}, {"type": "Feature", "properties": {"type": "node", "id": 260140539, "tags": {"capital": "6", "name": "Beja", "name:ar": "\u0628\u0627\u062c\u0629", "name:el": "\u039c\u03c0\u03ad\u03c7\u03b1", "name:la": "Pax J\u00falia", "name:lt": "Be\u017ea", "name:ru": "\u0411\u0435\u0436\u0430", "name:zh": "\u8c9d\u96c5", "note": "\u00c9 classificada como \"place = city\" pois \u00e9 capital de distrito.", "place": "city", "population": "22595", "population:date": "2011", "wikidata": "Q213251", "wikipedia": "pt:Beja"}}, "geometry": {"type": "Point", "coordinates": [-7.8650368, 38.0154479]}}, {"type": "Feature", "properties": {"type": "node", "id": 265958490, "tags": {"admin_level": "2", "alt_name:ku": "L\u00eezbon", "capital": "yes", "ele": "2", "int_name": "Lisbon", "name": "Lisboa", "name:ar": "\u0623\u0634\u0628\u0648\u0646\u0629", "name:be": "\u041b\u0456\u0441\u0430\u0431\u043e\u043d", "name:ckb": "\u0644\u06cc\u0633\u0628\u06c6\u0646", "name:cs": "Lisabon", "name:de": "Lissabon", "name:el": "\u039b\u03b9\u03c3\u03b1\u03b2\u03cc\u03bd\u03b1", "name:en": "Lisbon", "name:eo": "Lisbono", "name:es": "Lisboa", "name:et": "Lissabon", "name:fa": "\u0644\u06cc\u0633\u0628\u0648\u0646", "name:fi": "Lissabon", "name:fr": "Lisbonne", "name:hr": "Lisabon", "name:hu": "Lisszabon", "name:ia": "Lisbona", "name:it": "Lisbona", "name:ku": "L\u00eesabon", "name:mi": "Rihipane", "name:mk": "\u041b\u0438\u0441\u0430\u0431\u043e\u043d", "name:nl": "Lissabon", "name:oc": "Lisbona", "name:pl": "Lizbona", "name:pt": "Lisboa", "name:ru": "\u041b\u0438\u0441\u0441\u0430\u0431\u043e\u043d", "name:sk": "Lisabon", "name:sr": "\u041b\u0438\u0441\u0430\u0431\u043e\u043d", "name:sv": "Lissabon", "name:zh": "\u91cc\u65af\u672c", "old_name:-400": "Olissipo Felicitas Julia", "place": "city", "population": "552700", "population:date": "2011", "source:name:oc": "Lo Congr\u00e8s", "wikidata": "Q597", "wikipedia": "en:Lisbon"}}, "geometry": {"type": "Point", "coordinates": [-9.1365919, 38.7077507]}}, {"type": "Feature", "properties": {"type": "node", "id": 288754326, "tags": {"capital": "7", "name": "Porto Moniz", "place": "town", "wikidata": "Q221412"}}, "geometry": {"type": "Point", "coordinates": [-17.1666328, 32.8669649]}}, {"type": "Feature", "properties": {"type": "node", "id": 292479061, "tags": {"name": "S\u00e3o Mamede de Infesta", "place": "town", "population": "23122", "population:date": "2011", "source": "Bing", "wikidata": "Q200414"}}, "geometry": {"type": "Point", "coordinates": [-8.6106388, 41.1912232]}}, {"type": "Feature", "properties": {"type": "node", "id": 293152956, "tags": {"capital": "8", "name": "\u00c1gua de Pau", "place": "town", "wikidata": "Q1999047", "wikipedia": "pt:\u00c1gua de Pau"}}, "geometry": {"type": "Point", "coordinates": [-25.5112463, 37.7204455]}}, {"type": "Feature", "properties": {"type": "node", "id": 314916142, "tags": {"capital": "8", "is_in": "Madeira", "name": "Cani\u00e7o", "place": "town", "population": "20163", "population:date": "2011", "website": "https://www.jf-canico.pt/", "wikidata": "Q857346", "wikipedia": "pt:Canico"}}, "geometry": {"type": "Point", "coordinates": [-16.8409696, 32.65238]}}, {"type": "Feature", "properties": {"type": "node", "id": 374209292, "tags": {"capital": "7", "name": "Ferreira do Alentejo", "place": "town", "wikidata": "Q552015"}}, "geometry": {"type": "Point", "coordinates": [-8.1138197, 38.0585086]}}, {"type": "Feature", "properties": {"type": "node", "id": 376604600, "tags": {"capital": "7", "name": "Redondo", "name:de": "Redondo", "name:ru": "\u0420\u0435\u0434\u043e\u043d\u0434\u0443", "place": "town", "wikidata": "Q997608", "wikipedia": "en:Redondo, Portugal"}}, "geometry": {"type": "Point", "coordinates": [-7.5467636, 38.6466891]}}, {"type": "Feature", "properties": {"type": "node", "id": 380690733, "tags": {"capital": "8", "name": "Rabo de Peixe", "place": "town"}}, "geometry": {"type": "Point", "coordinates": [-25.5851115, 37.8083497]}}, {"type": "Feature", "properties": {"type": "node", "id": 418986791, "tags": {"capital": "8", "name": "Quarteira", "name:ar": "\u0643\u0648\u0627\u0631\u062a\u064a\u0631\u0627", "name:fa": "\u06a9\u0648\u0627\u0631\u062a\u06cc\u0631\u0627", "place": "town", "population": "15618", "population:date": "2011"}}, "geometry": {"type": "Point", "coordinates": [-8.1022591, 37.0712719]}}, {"type": "Feature", "properties": {"type": "node", "id": 430350649, "tags": {"capital": "7", "name": "Ansi\u00e3o", "place": "town", "wikidata": "Q569929"}}, "geometry": {"type": "Point", "coordinates": [-8.4359857, 39.9113771]}}, {"type": "Feature", "properties": {"type": "node", "id": 432972947, "tags": {"capital": "7", "name": "Gouveia", "place": "town", "population": "3380", "population:date": "2011"}}, "geometry": {"type": "Point", "coordinates": [-7.5917814, 40.4940078]}}, {"type": "Feature", "properties": {"type": "node", "id": 439761724, "tags": {"name": "Rosmaninhal", "place": "town"}}, "geometry": {"type": "Point", "coordinates": [-7.090735, 39.7281391]}}, {"type": "Feature", "properties": {"type": "node", "id": 480436639, "tags": {"alt_name": "Vila das Aves", "capital": "8", "name": "Aves", "old_name": "S\u00e3o Miguel das Aves", "place": "town", "source": "Bing", "wikidata": "Q1751766"}}, "geometry": {"type": "Point", "coordinates": [-8.407702, 41.3606851]}}, {"type": "Feature", "properties": {"type": "node", "id": 493844955, "tags": {"capital": "7", "name": "Santo Tirso", "name:lt": "Santo Tirsas", "name:ru": "\u0421\u0430\u043d\u0442\u0443-\u0422\u0438\u0440\u0441\u0443", "place": "town", "population": "28333", "population:date": "2011", "source": "Bing", "wikidata": "Q917330"}}, "geometry": {"type": "Point", "coordinates": [-8.4772021, 41.3440057]}}, {"type": "Feature", "properties": {"type": "node", "id": 536442174, "tags": {"capital": "7", "name": "Santiago do Cac\u00e9m", "place": "town", "population": "5914", "population:date": "2011"}}, "geometry": {"type": "Point", "coordinates": [-8.6937882, 38.0184581]}}, {"type": "Feature", "properties": {"type": "node", "id": 563654845, "tags": {"capital": "8", "is_in": "Batalha", "name": "S\u00e3o Mamede", "place": "town", "population": "3 560"}}, "geometry": {"type": "Point", "coordinates": [-8.7172118, 39.622747]}}, {"type": "Feature", "properties": {"type": "node", "id": 563655196, "tags": {"capital": "8", "name": "F\u00e1tima", "place": "town", "population": "8880", "population:date": "2011"}}, "geometry": {"type": "Point", "coordinates": [-8.6658028, 39.6255007]}}, {"type": "Feature", "properties": {"type": "node", "id": 604385697, "tags": {"capital": "7", "name": "S\u00e3o Pedro do Sul", "place": "town", "population": "2528", "population:date": "2011"}}, "geometry": {"type": "Point", "coordinates": [-8.0657325, 40.7610407]}}, {"type": "Feature", "properties": {"type": "node", "id": 609355095, "tags": {"capital": "7", "name": "Miranda do Douro", "name:lt": "Miranda do Doras", "name:mwl": "Miranda de l Douro", "name:uk": "\u041c\u0456\u0440\u0430\u043d\u0434\u0430-\u0434\u0443-\u0414\u043e\u0440\u0443", "place": "town", "population": "2085", "population:date": "2011", "source": "Bing", "wikidata": "Q373475", "wikipedia": "pt:Miranda do Douro"}}, "geometry": {"type": "Point", "coordinates": [-6.271331, 41.5000816]}}, {"type": "Feature", "properties": {"type": "node", "id": 650795492, "tags": {"capital": "8", "name": "Alfena", "place": "town", "population": "14397", "population:date": "2011", "source": "Bing", "wikidata": "Q1971893"}}, "geometry": {"type": "Point", "coordinates": [-8.5277489, 41.237635]}}, {"type": "Feature", "properties": {"type": "node", "id": 658948610, "tags": {"capital": "8", "is_in": "Leiria", "name": "Caranguejeira", "note": "Elevada a vila em 12 de julho de 2001.", "place": "town", "population": "4 691"}}, "geometry": {"type": "Point", "coordinates": [-8.7084194, 39.7438071]}}, {"type": "Feature", "properties": {"type": "node", "id": 669261769, "tags": {"capital": "8", "name": "Roriz", "place": "town", "source": "Bing", "wikidata": "Q1247720"}}, "geometry": {"type": "Point", "coordinates": [-8.3829071, 41.3515405]}}, {"type": "Feature", "properties": {"type": "node", "id": 688100260, "tags": {"capital": "7", "name": "Valongo", "name:ru": "\u0412\u0430\u043b\u043e\u043d\u0433\u0443", "name:sr": "\u0412\u0430\u043b\u043e\u043d\u0433\u043e", "place": "town", "population": "23564", "population:date": "2011", "source": "Bing", "wikidata": "Q604262"}}, "geometry": {"type": "Point", "coordinates": [-8.4980511, 41.1909794]}}, {"type": "Feature", "properties": {"type": "node", "id": 694526751, "tags": {"capital": "8", "is_in": "Leiria;Portugal;Europe", "is_in:continent": "Europe", "is_in:country": "Portugal", "name": "Mira de Aire", "place": "town", "population": "3775"}}, "geometry": {"type": "Point", "coordinates": [-8.7124624, 39.5419125]}}, {"type": "Feature", "properties": {"type": "node", "id": 758006770, "tags": {"capital": "8", "name": "Alfeizer\u00e3o", "place": "town", "population": "3 854", "wikidata": "Q2035332", "wikipedia": "pt:Alfeizer\u00e3o"}}, "geometry": {"type": "Point", "coordinates": [-9.1047103, 39.5007883]}}, {"type": "Feature", "properties": {"type": "node", "id": 772915167, "tags": {"capital": "8", "name": "Esmoriz", "place": "town", "population": "11448", "population:date": "2011", "source": "Bing", "wikidata": "Q1020815"}}, "geometry": {"type": "Point", "coordinates": [-8.6228198, 40.9602526]}}, {"type": "Feature", "properties": {"type": "node", "id": 814239919, "tags": {"capital": "8", "is_in": "Pombal;Portugal", "name": "Guia", "place": "town", "population": "2 672"}}, "geometry": {"type": "Point", "coordinates": [-8.7849203, 39.9468816]}}, {"type": "Feature", "properties": {"type": "node", "id": 823829737, "tags": {"addr:city": "Pai\u00e3o", "addr:housenumber": "17", "addr:postcode": "3090-495", "addr:street": "Rua 25 de Abril", "capital": "8", "is_in": "Figueira da Foz", "name": "Pai\u00e3o", "place": "town", "population": "3115", "start_date": "1989-06-30", "website": "http://www.freguesiadepaiao.pt", "wikidata": "Q254859", "wikipedia": "pt:Pai\u00e3o"}}, "geometry": {"type": "Point", "coordinates": [-8.8045831, 40.0678744]}}, {"type": "Feature", "properties": {"type": "node", "id": 839817294, "tags": {"capital": "7", "name": "Vila Baleira", "name:uk": "\u0412\u0456\u043b\u0430-\u0411\u0430\u043b\u0435\u0439\u0440\u0430", "place": "town", "population": "5245", "population:date": "2011", "wikidata": "Q990356", "wikipedia": "pt:Vila Baleira"}}, "geometry": {"type": "Point", "coordinates": [-16.3316453, 33.0605359]}}, {"type": "Feature", "properties": {"type": "node", "id": 861065330, "tags": {"capital": "8", "is_in": "Almeida, Portugal", "name": "Vilar Formoso", "place": "town", "wikidata": "Q746308", "wikipedia": "en:Vilar Formoso"}}, "geometry": {"type": "Point", "coordinates": [-6.833474, 40.6083718]}}, {"type": "Feature", "properties": {"type": "node", "id": 872787704, "tags": {"capital": "8", "name": "Praia (S\u00e3o Mateus)", "name:ru": "\u041f\u0440\u0430\u0439\u0430", "place": "town", "wikidata": "Q2454596", "wikipedia": "en:Praia (Santa Cruz da Graciosa)"}}, "geometry": {"type": "Point", "coordinates": [-27.9717011, 39.0532491]}}, {"type": "Feature", "properties": {"type": "node", "id": 891706103, "tags": {"capital": "7", "name": "Oeiras", "place": "town"}}, "geometry": {"type": "Point", "coordinates": [-9.3123076, 38.6925777]}}, {"type": "Feature", "properties": {"type": "node", "id": 907098534, "tags": {"alt_name": "Santo Andr\u00e9", "capital": "8", "name": "Vila Nova de Santo Andr\u00e9", "place": "town", "population": "8710", "population:date": "2011"}}, "geometry": {"type": "Point", "coordinates": [-8.7855011, 38.0619858]}}, {"type": "Feature", "properties": {"type": "node", "id": 919031952, "tags": {"capital": "7", "name": "Vila Pouca de Aguiar", "place": "town", "website": "http://www.cm-vpaguiar.pt/", "wikidata": "Q1006397", "wikipedia": "pt:Vila Pouca de Aguiar"}}, "geometry": {"type": "Point", "coordinates": [-7.6442868, 41.5007614]}}, {"type": "Feature", "properties": {"type": "node", "id": 920003264, "tags": {"capital": "8", "name": "Samora Correia", "place": "town", "population": "11502", "population:date": "2011"}}, "geometry": {"type": "Point", "coordinates": [-8.8689911, 38.9348747]}}, {"type": "Feature", "properties": {"type": "node", "id": 975761089, "tags": {"capital": "7", "name": "Santana", "place": "town", "population": "1258", "population:date": "2011", "wikidata": "Q752123"}}, "geometry": {"type": "Point", "coordinates": [-16.8813015, 32.804907]}}, {"type": "Feature", "properties": {"type": "node", "id": 988897941, "tags": {"capital": "8", "name": "Louri\u00e7al", "place": "town", "population": "4720", "wikidata": "Q1872318"}}, "geometry": {"type": "Point", "coordinates": [-8.7393666, 40.0048395]}}, {"type": "Feature", "properties": {"type": "node", "id": 1084227094, "tags": {"alt_name:ar": "\u063a\u0648\u0627\u0631\u062f\u0627", "capital": "6", "name": "Guarda", "name:ar": "\u063a\u0648\u0622\u0631\u062f\u0627", "name:el": "\u0393\u03ba\u03bf\u03c5\u03ac\u03c1\u03bd\u03c4\u03b1", "name:lt": "Gvarda", "name:sr": "\u0413\u0432\u0430\u0440\u0434\u0430", "note": "\u00c9 classificada como \"place = city\" pois \u00e9 capital de distrito.", "place": "city", "population": "25993", "population:date": "2011", "wikidata": "Q750594", "wikipedia": "pt:Guarda"}}, "geometry": {"type": "Point", "coordinates": [-7.2662964, 40.5378408]}}, {"type": "Feature", "properties": {"type": "node", "id": 1086486493, "tags": {"capital": "8", "is_in": "Leiria", "name": "Monte Real", "place": "town", "population": "4 398", "wikidata": "Q1945916"}}, "geometry": {"type": "Point", "coordinates": [-8.8646054, 39.8508646]}}, {"type": "Feature", "properties": {"type": "node", "id": 1107469629, "tags": {"capital": "7", "name": "Carregal do Sal", "place": "town", "wikidata": "Q796938", "wikipedia": "pt:Carregal do Sal"}}, "geometry": {"type": "Point", "coordinates": [-8.0030203, 40.4334074]}}, {"type": "Feature", "properties": {"type": "node", "id": 1107637847, "tags": {"capital": "7", "name": "Armamar", "place": "town", "source": "Bing", "wikidata": "Q558610"}}, "geometry": {"type": "Point", "coordinates": [-7.691601, 41.1077323]}}, {"type": "Feature", "properties": {"type": "node", "id": 1107752013, "tags": {"capital": "7", "name": "Cinf\u00e3es", "place": "town", "source": "Bing", "wikidata": "Q1926580"}}, "geometry": {"type": "Point", "coordinates": [-8.0894728, 41.0721651]}}, {"type": "Feature", "properties": {"type": "node", "id": 1162458625, "tags": {"alt_name:ar": "\u0628\u0627\u0644\u0645\u064a\u0644\u0627", "capital": "7", "name": "Palmela", "name:ar": "\u0628\u0627\u0644\u0645\u0644\u0627", "name:fa": "\u067e\u0627\u0644\u0645\u0644\u0627", "name:ur": "\u067e\u0627\u0644\u0645\u0644\u0627", "place": "town", "wikidata": "Q850855"}}, "geometry": {"type": "Point", "coordinates": [-8.9011653, 38.569601]}}, {"type": "Feature", "properties": {"type": "node", "id": 1174117042, "tags": {"capital": "8", "name": "Ermesinde", "place": "town", "population": "38869", "population:date": "2011", "source": "Bing", "wikidata": "Q1020811"}}, "geometry": {"type": "Point", "coordinates": [-8.5515798, 41.2170785]}}, {"type": "Feature", "properties": {"type": "node", "id": 1198744036, "tags": {"capital": "8", "name": "Rio Tinto", "place": "town", "population": "64815", "population:date": "2011", "source": "Bing", "wikidata": "Q1020836"}}, "geometry": {"type": "Point", "coordinates": [-8.5575691, 41.1807166]}}, {"type": "Feature", "properties": {"type": "node", "id": 1203937257, "tags": {"capital": "8", "name": "Fi\u00e3es", "place": "town", "population": "7991", "population:date": "2011", "source": "Bing", "wikidata": "Q1257752", "wikipedia": "pt:Fi\u00e3es (Santa Maria da Feira)"}}, "geometry": {"type": "Point", "coordinates": [-8.5247192, 40.9945859]}}, {"type": "Feature", "properties": {"type": "node", "id": 1207711237, "tags": {"capital": "7", "name": "Arouca", "place": "town", "source": "Bing", "wikidata": "Q565302"}}, "geometry": {"type": "Point", "coordinates": [-8.2441746, 40.9289214]}}, {"type": "Feature", "properties": {"type": "node", "id": 1227299962, "tags": {"capital": "7", "name": "Vila Nova de Foz C\u00f4a", "place": "town", "population": "3030", "population:date": "2011", "wikidata": "Q537471", "wikipedia": "pt:Vila Nova de Foz Coa"}}, "geometry": {"type": "Point", "coordinates": [-7.1424138, 41.0818397]}}, {"type": "Feature", "properties": {"type": "node", "id": 1240982837, "tags": {"capital": "8", "name": "Rebordosa", "place": "town", "population": "9106", "population:date": "2011", "source": "Bing", "wikidata": "Q1023518"}}, "geometry": {"type": "Point", "coordinates": [-8.4112601, 41.2202567]}}, {"type": "Feature", "properties": {"type": "node", "id": 1261373147, "tags": {"capital": "7", "name": "Alenquer", "place": "town", "wikidata": "Q988830"}}, "geometry": {"type": "Point", "coordinates": [-9.0076057, 39.056633]}}, {"type": "Feature", "properties": {"type": "node", "id": 1297322484, "tags": {"capital": "8", "name": "Alverca do Ribatejo", "place": "town", "population": "30586", "population:date": "2011"}}, "geometry": {"type": "Point", "coordinates": [-9.0396136, 38.8935253]}}, {"type": "Feature", "properties": {"type": "node", "id": 1325870037, "tags": {"capital": "7", "name": "Albergaria-a-Velha", "name:uk": "\u0410\u043b\u0431\u0435\u0440\u0433\u0430\u0440\u0456\u044f-\u0430-\u0412\u0435\u043b\u044c\u044f", "place": "town", "population": "8220", "population:date": "2011", "source": "Bing", "wikidata": "Q337425", "wikipedia": "pt:Albergaria-a-Velha"}}, "geometry": {"type": "Point", "coordinates": [-8.4792205, 40.6906888]}}, {"type": "Feature", "properties": {"type": "node", "id": 1346179416, "tags": {"capital": "7", "name": "Fafe", "name:lt": "Faf\u0117", "name:uk": "\u0424\u0430\u0444\u0435", "place": "town", "population": "15703", "population:date": "2011", "wikidata": "Q551080", "wikipedia": "pt:Fafe"}}, "geometry": {"type": "Point", "coordinates": [-8.1708502, 41.451406]}}, {"type": "Feature", "properties": {"type": "node", "id": 1368465286, "tags": {"alt_name": "Barquinha", "capital": "7", "name": "Vila Nova da Barquinha", "place": "town"}}, "geometry": {"type": "Point", "coordinates": [-8.4309231, 39.4582764]}}, {"type": "Feature", "properties": {"type": "node", "id": 1371991341, "tags": {"capital": "7", "name": "Paredes", "place": "town", "population": "19834", "population:date": "2011", "source": "Bing", "wikidata": "Q631788", "wikipedia": "pt:Paredes"}}, "geometry": {"type": "Point", "coordinates": [-8.3332321, 41.2078862]}}, {"type": "Feature", "properties": {"type": "node", "id": 1394086786, "tags": {"name": "Valbom", "place": "town", "population": "14407", "population:date": "2011", "source": "Bing", "wikidata": "Q993906"}}, "geometry": {"type": "Point", "coordinates": [-8.5613183, 41.1362281]}}, {"type": "Feature", "properties": {"type": "node", "id": 1429439599, "tags": {"alt_name:ar": "\u0623\u0644\u0628\u0648\u0641\u064a\u0631\u0627", "capital": "7", "name": "Albufeira", "name:ar": "\u0627\u0644\u0628\u062d\u064a\u0631\u0629", "name:fa": "\u0622\u0644\u0628\u0648\u0641\u06cc\u0631\u0627", "name:sr": "\u0410\u043b\u0431\u0443\u0444\u0435\u0438\u0440\u0430", "place": "town", "population": "19879", "population:date": "2011"}}, "geometry": {"type": "Point", "coordinates": [-8.2455958, 37.0903678]}}, {"type": "Feature", "properties": {"type": "node", "id": 1435696916, "tags": {"capital": "7", "name": "Goleg\u00e3", "place": "town", "wikidata": "Q1012522"}}, "geometry": {"type": "Point", "coordinates": [-8.4867361, 39.4017959]}}, {"type": "Feature", "properties": {"type": "node", "id": 1461563731, "tags": {"alt_name": "Costa de Caparica", "capital": "8", "name": "Costa da Caparica", "place": "town", "population": "12211", "population:date": "2011", "wikidata": "Q598662", "wikipedia": "pt:Costa da Caparica"}}, "geometry": {"type": "Point", "coordinates": [-9.2336068, 38.6445165]}}, {"type": "Feature", "properties": {"type": "node", "id": 1487887227, "tags": {"addr:country": "PT", "capital": "7", "name": "Guimar\u00e3es", "old_name": "Vimaranes", "place": "town", "population": "47588", "population:date": "2011", "website": "https://www.cm-guimaraes.pt/", "wikidata": "Q170903", "wikipedia": "en:Guimar\u00e3es"}}, "geometry": {"type": "Point", "coordinates": [-8.2955712, 41.4417677]}}, {"type": "Feature", "properties": {"type": "node", "id": 1493262320, "tags": {"capital": "8", "name": "Carnaxide", "place": "town"}}, "geometry": {"type": "Point", "coordinates": [-9.2465597, 38.7255103]}}, {"type": "Feature", "properties": {"type": "node", "id": 1517254836, "tags": {"alt_name": "Santa Maria", "capital": "8", "loc_name": "Evoramonte", "name": "\u00c9vora Monte", "official_name": "\u00c9vora Monte (Santa Maria)", "place": "town"}}, "geometry": {"type": "Point", "coordinates": [-7.7162182, 38.7654683]}}, {"type": "Feature", "properties": {"type": "node", "id": 1520839645, "tags": {"capital": "7", "name": "Murtosa", "place": "town", "source": "Bing", "wikidata": "Q380589"}}, "geometry": {"type": "Point", "coordinates": [-8.638451, 40.7367759]}}, {"type": "Feature", "properties": {"type": "node", "id": 1523476136, "tags": {"capital": "8", "name": "Maceira", "place": "town", "population": "9 914"}}, "geometry": {"type": "Point", "coordinates": [-8.8944977, 39.6847926]}}, {"type": "Feature", "properties": {"type": "node", "id": 1538877034, "tags": {"capital": "8", "name": "Benedita", "place": "town"}}, "geometry": {"type": "Point", "coordinates": [-8.9800702, 39.4257209]}}, {"type": "Feature", "properties": {"type": "node", "id": 1548223132, "tags": {"capital": "7", "name": "Figueira da Foz", "name:lt": "Figeira da Fosas", "place": "town", "population": "30012", "population:date": "2011", "wikidata": "Q428459", "wikipedia": "pt:Figueira da Foz"}}, "geometry": {"type": "Point", "coordinates": [-8.855655, 40.1485808]}}, {"type": "Feature", "properties": {"type": "node", "id": 1564087922, "tags": {"capital": "7", "name": "Cabeceiras de Basto", "name:uk": "\u041a\u0430\u0431\u0435\u0441\u0435\u0439\u0440\u0430\u0448-\u0434\u0456-\u0411\u0430\u0448\u0442\u0443", "place": "town", "wikidata": "Q551048", "wikipedia": "pt:Cabeceiras de Basto"}}, "geometry": {"type": "Point", "coordinates": [-7.9878132, 41.5136392]}}, {"type": "Feature", "properties": {"type": "node", "id": 1603859366, "tags": {"capital": "8", "name": "Amora", "place": "town", "population": "40513", "population:date": "2011", "wikidata": "Q474039", "wikipedia": "pt:Amora (Seixal)"}}, "geometry": {"type": "Point", "coordinates": [-9.1160023, 38.6297097]}}, {"type": "Feature", "properties": {"type": "node", "id": 1605395097, "tags": {"capital": "7", "name": "Amadora", "place": "town", "population": "175136", "population:date": "2011"}}, "geometry": {"type": "Point", "coordinates": [-9.2365233, 38.758959]}}, {"type": "Feature", "properties": {"type": "node", "id": 1606560920, "tags": {"capital": "8", "name": "P\u00f3voa de Santa Iria", "place": "town", "population": "29348", "population:date": "2011"}}, "geometry": {"type": "Point", "coordinates": [-9.0709905, 38.8620887]}}, {"type": "Feature", "properties": {"type": "node", "id": 1642092112, "tags": {"capital": "8", "name": "Turquel", "place": "town", "population": "4 544"}}, "geometry": {"type": "Point", "coordinates": [-8.978024, 39.4643031]}}, {"type": "Feature", "properties": {"type": "node", "id": 1648809570, "tags": {"capital": "7", "name": "Estarreja", "place": "town", "population": "7492", "population:date": "2011", "source": "Bing", "wikidata": "Q381337"}}, "geometry": {"type": "Point", "coordinates": [-8.5703455, 40.7523494]}}, {"type": "Feature", "properties": {"type": "node", "id": 1667120361, "tags": {"capital": "7", "name": "Aljustrel", "name:ar": "\u0627\u0644\u062c\u0648\u0633\u062a\u0631\u0644", "name:fa": "\u0627\u0644\u062c\u0627\u0633\u062a\u0631\u0644", "place": "town"}}, "geometry": {"type": "Point", "coordinates": [-8.164752, 37.8770563]}}, {"type": "Feature", "properties": {"type": "node", "id": 1704445245, "tags": {"capital": "8", "is_in": "Portugal;Europe", "is_in:continent": "Europe", "is_in:country": "Portugal", "name": "Juncal", "place": "town"}}, "geometry": {"type": "Point", "coordinates": [-8.9019782, 39.6027438]}}, {"type": "Feature", "properties": {"type": "node", "id": 1705303602, "tags": {"capital": "8", "name": "Vieira de Leiria", "place": "town"}}, "geometry": {"type": "Point", "coordinates": [-8.9338519, 39.8695841]}}, {"type": "Feature", "properties": {"type": "node", "id": 1712466619, "tags": {"name": "Lixa", "place": "town", "population": "4944", "population:date": "2011", "wikidata": "Q485225", "wikipedia": "pt:Lixa (Portugal)"}}, "geometry": {"type": "Point", "coordinates": [-8.1455091, 41.3212197]}}, {"type": "Feature", "properties": {"type": "node", "id": 1744103170, "tags": {"capital": "8", "name": "Valado dos Frades", "place": "town"}}, "geometry": {"type": "Point", "coordinates": [-9.0222757, 39.5856715]}}, {"type": "Feature", "properties": {"type": "node", "id": 1750333914, "tags": {"capital": "7", "name": "Sesimbra", "place": "town", "wikidata": "Q1006408"}}, "geometry": {"type": "Point", "coordinates": [-9.0996273, 38.4436932]}}, {"type": "Feature", "properties": {"type": "node", "id": 1798338232, "tags": {"capital": "8", "name": "Freamunde", "place": "town", "population": "10443", "population:date": "2011", "source": "Bing", "wikidata": "Q1020833"}}, "geometry": {"type": "Point", "coordinates": [-8.3401591, 41.2885918]}}, {"type": "Feature", "properties": {"type": "node", "id": 1806356067, "tags": {"capital": "8", "name": "Queluz", "place": "town", "population": "75169", "population:date": "2011"}}, "geometry": {"type": "Point", "coordinates": [-9.2559895, 38.7604252]}}, {"type": "Feature", "properties": {"type": "node", "id": 1832777805, "tags": {"addr:postcode": "9300", "capital": "7", "name": "C\u00e2mara de Lobos", "place": "town", "population": "15227", "population:date": "2011", "website": "http://www.cm-camaradelobos.pt/", "wikidata": "Q623736", "wikipedia": "pt:C\u00e2mara de Lobos"}}, "geometry": {"type": "Point", "coordinates": [-16.9763096, 32.6483323]}}, {"type": "Feature", "properties": {"type": "node", "id": 1864124506, "tags": {"capital": "8", "name": "S\u00e3o Martinho do Porto", "place": "town", "wikidata": "Q2035277", "wikipedia": "pt:S\u00e3o Martinho do Porto"}}, "geometry": {"type": "Point", "coordinates": [-9.1335905, 39.5135311]}}, {"type": "Feature", "properties": {"type": "node", "id": 1904454689, "tags": {"capital": "7", "name": "Vila Nova de Gaia", "place": "town", "population": "186502", "population:date": "2011", "source": "Bing", "wikidata": "Q191135"}}, "geometry": {"type": "Point", "coordinates": [-8.6058415, 41.1300103]}}, {"type": "Feature", "properties": {"type": "node", "id": 1941569182, "tags": {"capital": "8", "name": "Vila Praia de \u00c2ncora", "name:ru": "\u0412\u0438\u043b\u0430-\u041f\u0440\u0430\u0439\u0430-\u0434\u0435-\u0410\u043d\u043a\u043e\u0440\u0430", "old_name": "Santa Marinha de Gontinh\u00e3es", "place": "town", "source": "Bing", "wikidata": "Q691329"}}, "geometry": {"type": "Point", "coordinates": [-8.8624681, 41.8135365]}}, {"type": "Feature", "properties": {"type": "node", "id": 1948932883, "tags": {"capital": "8", "name": "Topo", "official_name": "Topo (Nossa Senhora do Ros\u00e1rio)", "place": "town"}}, "geometry": {"type": "Point", "coordinates": [-27.7658198, 38.5462863]}}, {"type": "Feature", "properties": {"type": "node", "id": 1975581410, "tags": {"name": "Vila Boim", "place": "town", "wikidata": "Q2260069", "wikipedia": "pt:Vila_Boim"}}, "geometry": {"type": "Point", "coordinates": [-7.2747751, 38.8624353]}}, {"type": "Feature", "properties": {"type": "node", "id": 2042680132, "tags": {"capital": "7", "name": "P\u00f3voa de Lanhoso", "place": "town", "wikidata": "Q551689"}}, "geometry": {"type": "Point", "coordinates": [-8.2699521, 41.5759516]}}, {"type": "Feature", "properties": {"type": "node", "id": 2087932868, "tags": {"capital": "8", "name": "Monte Redondo", "note": "Elevada a vila em 9 de dezembro de 2004.", "place": "town", "population": "4 398"}}, "geometry": {"type": "Point", "coordinates": [-8.833845, 39.8951806]}}, {"type": "Feature", "properties": {"type": "node", "id": 2089921401, "tags": {"capital": "8", "name": "Aljubarrota", "place": "town"}}, "geometry": {"type": "Point", "coordinates": [-8.9305256, 39.5663818]}}, {"type": "Feature", "properties": {"type": "node", "id": 2294177978, "tags": {"alt_name": "Moncorvo", "capital": "7", "name": "Torre de Moncorvo", "old_name": "Torre de Mendo Corvo", "place": "town", "wikidata": "Q551507", "wikipedia": "pt:Torre de Moncorvo"}}, "geometry": {"type": "Point", "coordinates": [-7.0526159, 41.1739499]}}, {"type": "Feature", "properties": {"type": "node", "id": 2329767101, "tags": {"capital": "8", "name": "Gafanha da Nazar\u00e9", "place": "town", "population": "12985", "population:date": "2011", "source": "Bing", "wikidata": "Q1020821"}}, "geometry": {"type": "Point", "coordinates": [-8.7136614, 40.6376106]}}, {"type": "Feature", "properties": {"type": "node", "id": 2396794222, "tags": {"capital": "8", "name": "Lavos", "place": "town"}}, "geometry": {"type": "Point", "coordinates": [-8.8285333, 40.0941074]}}, {"type": "Feature", "properties": {"type": "node", "id": 2449642367, "tags": {"capital": "7", "name": "Oliveira do Bairro", "place": "town", "population": "4606", "population:date": "2011", "source": "Bing", "wikidata": "Q405241"}}, "geometry": {"type": "Point", "coordinates": [-8.4928163, 40.5138208]}}, {"type": "Feature", "properties": {"type": "node", "id": 2452042571, "tags": {"alt_name": "Famalic\u00e3o", "capital": "7", "name": "Vila Nova de Famalic\u00e3o", "note": "Cidade", "place": "town", "population": "34843", "population:date": "2011", "source": "PDM 2015 - Vila Nova de Famalic\u00e3o", "wikidata": "Q551658", "wikipedia": "pt:Vila Nova de Famalic\u00e3o"}}, "geometry": {"type": "Point", "coordinates": [-8.5187481, 41.4065175]}}, {"type": "Feature", "properties": {"type": "node", "id": 2505390107, "tags": {"capital": "7", "name": "Castanheira de Pera", "place": "town"}}, "geometry": {"type": "Point", "coordinates": [-8.2091368, 40.0047265]}}, {"type": "Feature", "properties": {"type": "node", "id": 2516005789, "tags": {"alt_name": "\u00cdlhavo de S\u00e3o Salvador", "capital": "7", "loc_name": "S\u00e3o Salvador de \u00cdlhavo", "name": "\u00cdlhavo", "official_name": "\u00cdlhavo (S\u00e3o Salvador)", "place": "town", "population": "10505", "population:date": "2011", "source": "Bing", "wikidata": "Q291745"}}, "geometry": {"type": "Point", "coordinates": [-8.6666667, 40.6001108]}}, {"type": "Feature", "properties": {"type": "node", "id": 2558383539, "tags": {"capital": "7", "name": "\u00c1gueda", "place": "town", "population": "14571", "population:date": "2011", "source": "Bing", "wikidata": "Q249906"}}, "geometry": {"type": "Point", "coordinates": [-8.4438017, 40.5785006]}}, {"type": "Feature", "properties": {"type": "node", "id": 2620015278, "tags": {"capital": "7", "name": "\u00d3bidos", "name:sr-Latn": "Obidos", "place": "town", "wikidata": "Q275862"}}, "geometry": {"type": "Point", "coordinates": [-9.157153, 39.3619514]}}, {"type": "Feature", "properties": {"type": "node", "id": 2662254435, "tags": {"capital": "7", "name": "Matosinhos", "place": "town", "population": "49486", "population:date": "2011", "source": "Bing", "wikidata": "Q841299"}}, "geometry": {"type": "Point", "coordinates": [-8.6821998, 41.1806814]}}, {"type": "Feature", "properties": {"type": "node", "id": 2686983151, "tags": {"capital": "7", "name": "Vila Real de Santo Ant\u00f3nio", "name:ar": "\u0641\u064a\u0644\u0627 \u0631\u064a\u0627\u0644 \u062f\u064a \u0633\u0627\u0646\u062a\u0648 \u0623\u0646\u0637\u0648\u0646\u064a\u0648", "place": "town", "population": "11360", "population:date": "2011", "wikidata": "Q750578", "wikipedia": "pt:Vila Real de Santo Ant\u00f3nio"}}, "geometry": {"type": "Point", "coordinates": [-7.4155628, 37.1946052]}}, {"type": "Feature", "properties": {"type": "node", "id": 2736113015, "tags": {"admin_level": "7", "capital": "7", "name": "Castelo de Paiva", "place": "town", "wikidata": "Q397379", "wikipedia": "pt:Castelo de Paiva"}}, "geometry": {"type": "Point", "coordinates": [-8.271775, 41.0410042]}}, {"type": "Feature", "properties": {"type": "node", "id": 2766869564, "tags": {"capital": "7", "name": "Moita", "place": "town", "wikidata": "Q933912"}}, "geometry": {"type": "Point", "coordinates": [-8.9935314, 38.6523995]}}, {"type": "Feature", "properties": {"type": "node", "id": 2781654921, "tags": {"capital": "8", "name": "Lajes", "place": "town"}}, "geometry": {"type": "Point", "coordinates": [-27.1031772, 38.7669312]}}, {"type": "Feature", "properties": {"type": "node", "id": 2824616107, "tags": {"capital": "8", "description": "Trem\u00eas \u00e9 uma antiga freguesia portuguesa do concelho de Santar\u00e9m, com 24,79 km\u00b2 de \u00e1rea e 1 981 habitantes (2011). A sua densidade populacional era 79,9 hab/km\u00b2. Foi elevada \u00e0 categoria de vila em 2005. Foi extinta e agregada \u00e0 freguesia de Azoia de Cima,", "name": "Trem\u00eas", "place": "town"}}, "geometry": {"type": "Point", "coordinates": [-8.7613643, 39.3592934]}}, {"type": "Feature", "properties": {"type": "node", "id": 2905742464, "tags": {"capital": "7", "name": "Caldas da Rainha", "place": "town", "population": "27652", "population:date": "2011"}}, "geometry": {"type": "Point", "coordinates": [-9.1346004, 39.4072118]}}, {"type": "Feature", "properties": {"type": "node", "id": 2912652994, "tags": {"alt_name:ar": "\u0623\u0641\u064a\u0631\u0648", "capital": "6", "name": "Aveiro", "name:ar": "\u0622\u0648\u064a\u0631\u0648", "name:el": "\u0391\u03b2\u03ad\u03b9\u03c1\u03bf", "name:hu": "Aveiro", "name:lt": "Aveiras", "name:ru": "\u0410\u0432\u0435\u0439\u0440\u0443", "note": "\u00c9 classificada como \"place = city\" pois \u00e9 capital de distrito.", "place": "city", "population": "60058", "population:date": "2011", "wikidata": "Q485581", "wikipedia": "pt:Aveiro"}}, "geometry": {"type": "Point", "coordinates": [-8.6537841, 40.640496]}}, {"type": "Feature", "properties": {"type": "node", "id": 2920823935, "tags": {"capital": "8", "name": "Lourosa", "place": "town", "population": "8636", "population:date": "2011", "source": "Bing", "wikidata": "Q1872343"}}, "geometry": {"type": "Point", "coordinates": [-8.5499188, 40.983541]}}, {"type": "Feature", "properties": {"type": "node", "id": 2940783476, "tags": {"capital": "8", "name": "Cela", "place": "town", "population": "3 264", "wikidata": "Q1052741"}}, "geometry": {"type": "Point", "coordinates": [-9.0355054, 39.5398754]}}, {"type": "Feature", "properties": {"type": "node", "id": 2941712750, "tags": {"capital": "7", "name": "Vila Nova de Paiva", "place": "town"}}, "geometry": {"type": "Point", "coordinates": [-7.7289147, 40.8522085]}}, {"type": "Feature", "properties": {"type": "node", "id": 2942663922, "tags": {"capital": "7", "name": "Alcoba\u00e7a", "name:el": "\u0391\u03bb\u03ba\u03bf\u03bc\u03c0\u03ac\u03c3\u03b1", "place": "town", "population": "6982", "population:date": "2011", "wikidata": "Q651997", "wikipedia": "en:Alcoba\u00e7a, Portugal"}}, "geometry": {"type": "Point", "coordinates": [-8.9763396, 39.5519199]}}, {"type": "Feature", "properties": {"type": "node", "id": 2986300166, "tags": {"alt_name": "Oporto", "capital": "6", "int_name": "Porto", "is_in:continent": "Europe", "is_in:country": "Portugal", "is_in:country_code": "PT", "name": "Porto", "name:ar": "\u0628\u0648\u0631\u062a\u0648", "name:ckb": "\u067e\u06c6\u0631\u062a\u06c6", "name:el": "\u03a0\u03cc\u03c1\u03c4\u03bf", "name:es": "Oporto", "name:hu": "Porto", "name:kn": "\u0caa\u0ccb\u0cb0\u0ccd\u0c9f\u0cca", "name:lt": "Portas", "name:ru": "\u041f\u043e\u0440\u0442\u0443", "name:sr": "\u041f\u043e\u0440\u0442\u043e", "name:uk": "\u041f\u043e\u0440\u0442\u0443", "place": "city", "population": "237591", "population:date": "2011", "wikidata": "Q36433", "wikipedia": "pt:Porto"}}, "geometry": {"type": "Point", "coordinates": [-8.6107884, 41.1494512]}}, {"type": "Feature", "properties": {"type": "node", "id": 2987119691, "tags": {"capital": "8", "name": "Maiorca", "place": "town", "wikidata": "Q1009683"}}, "geometry": {"type": "Point", "coordinates": [-8.755212, 40.1661924]}}, {"type": "Feature", "properties": {"type": "node", "id": 3089482423, "tags": {"capital": "8", "name": "Sacav\u00e9m", "place": "town", "population": "24822", "population:date": "2011"}}, "geometry": {"type": "Point", "coordinates": [-9.1047215, 38.7948664]}}, {"type": "Feature", "properties": {"type": "node", "id": 3231647966, "tags": {"capital": "7", "name": "Portim\u00e3o", "name:ar": "\u0628\u0648\u0631\u062a\u064a\u0645\u0627\u0648", "name:fa": "\u067e\u0631\u062a\u06cc\u0645\u0627\u0646\u0648", "place": "town", "population": "40658", "population:date": "2011"}}, "geometry": {"type": "Point", "coordinates": [-8.5368426, 37.1375808]}}, {"type": "Feature", "properties": {"type": "node", "id": 3257439640, "tags": {"capital": "7", "name": "Penafiel", "place": "town", "population": "10420", "population:date": "2011", "source": "Bing", "wikidata": "Q984656"}}, "geometry": {"type": "Point", "coordinates": [-8.2855653, 41.2061892]}}, {"type": "Feature", "properties": {"type": "node", "id": 3302768479, "tags": {"capital": "7", "name": "Esposende", "name:lt": "Espozend\u0117", "name:ru": "\u042d\u0448\u043f\u043e\u0437\u0435\u043d\u0434\u0435", "name:uk": "\u0415\u0448\u043f\u043e\u0437\u0435\u043d\u0434\u0435", "place": "town", "population": "9844", "population:date": "2011", "wikidata": "Q552011", "wikipedia": "pt:Esposende"}}, "geometry": {"type": "Point", "coordinates": [-8.7792538, 41.5315251]}}, {"type": "Feature", "properties": {"type": "node", "id": 3303504428, "tags": {"name": "Agualva-Cac\u00e9m", "place": "town", "population": "79805", "population:date": "2011", "wikidata": "Q397900"}}, "geometry": {"type": "Point", "coordinates": [-9.3006871, 38.7702862]}}, {"type": "Feature", "properties": {"type": "node", "id": 3350460250, "tags": {"capital": "7", "name": "M\u00eada", "place": "town", "population": "2178", "population:date": "2011"}}, "geometry": {"type": "Point", "coordinates": [-7.2622088, 40.9625645]}}, {"type": "Feature", "properties": {"type": "node", "id": 3350666517, "tags": {"name": "Gens", "place": "town"}}, "geometry": {"type": "Point", "coordinates": [-8.4845037, 41.1147013]}}, {"type": "Feature", "properties": {"type": "node", "id": 3374911981, "tags": {"capital": "8", "name": "Caxarias", "place": "town", "population": "2 166"}}, "geometry": {"type": "Point", "coordinates": [-8.5358346, 39.7131426]}}, {"type": "Feature", "properties": {"type": "node", "id": 3374919492, "tags": {"capital": "8", "name": "Alfarelos", "place": "town", "population": "1439"}}, "geometry": {"type": "Point", "coordinates": [-8.6533065, 40.1498521]}}, {"type": "Feature", "properties": {"type": "node", "id": 3398067275, "tags": {"capital": "8", "loc_name": "S\u00e3o Salvador de Lordelo", "name": "Lordelo", "place": "town", "population": "10025", "population:date": "2011", "source": "Bing", "wikidata": "Q1027140"}}, "geometry": {"type": "Point", "coordinates": [-8.4146751, 41.2346057]}}, {"type": "Feature", "properties": {"type": "node", "id": 3398067279, "tags": {"capital": "8", "name": "Gandra", "place": "town", "population": "6974", "population:date": "2011", "source": "Bing", "wikidata": "Q1020848"}}, "geometry": {"type": "Point", "coordinates": [-8.4359653, 41.1963232]}}, {"type": "Feature", "properties": {"type": "node", "id": 3450882733, "tags": {"capital": "8", "name": "Vila de S\u00e3o Sebasti\u00e3o", "place": "town"}}, "geometry": {"type": "Point", "coordinates": [-27.0915823, 38.6663328]}}, {"type": "Feature", "properties": {"type": "node", "id": 3450882734, "tags": {"capital": "8", "name": "Porto Judeu", "place": "town"}}, "geometry": {"type": "Point", "coordinates": [-27.12224, 38.6546047]}}, {"type": "Feature", "properties": {"type": "node", "id": 3618575072, "tags": {"capital": "7", "name": "Ovar", "place": "town", "population": "17164", "population:date": "2011", "source": "Bing", "wikidata": "Q404261"}}, "geometry": {"type": "Point", "coordinates": [-8.6252174, 40.8594819]}}, {"type": "Feature", "properties": {"type": "node", "id": 3620175627, "tags": {"capital": "7", "name": "Vale de Cambra", "place": "town", "population": "5312", "population:date": "2011", "source": "Bing", "wikidata": "Q395953"}}, "geometry": {"type": "Point", "coordinates": [-8.3939142, 40.8498115]}}, {"type": "Feature", "properties": {"type": "node", "id": 3620379137, "tags": {"capital": "7", "name": "Sever do Vouga", "place": "town", "source": "Bing", "wikidata": "Q337431"}}, "geometry": {"type": "Point", "coordinates": [-8.371094, 40.7324627]}}, {"type": "Feature", "properties": {"type": "node", "id": 3623253300, "tags": {"capital": "7", "name": "Anadia", "name:uk": "\u0410\u043d\u0430\u0434\u0456\u044f", "place": "town", "population": "6148", "population:date": "2011", "wikidata": "Q395919", "wikipedia": "pt:Anadia (Portugal)"}}, "geometry": {"type": "Point", "coordinates": [-8.4359581, 40.4426833]}}, {"type": "Feature", "properties": {"type": "node", "id": 3623253301, "tags": {"capital": "7", "name": "Mealhada", "name:uk": "\u041c\u0435\u0430\u043b\u044c\u044f\u0434\u0430", "place": "town", "population": "4522", "population:date": "2011", "source": "Bing", "wikidata": "Q381340"}}, "geometry": {"type": "Point", "coordinates": [-8.4517733, 40.3792003]}}, {"type": "Feature", "properties": {"type": "node", "id": 3629411205, "tags": {"capital": "7", "name": "Pinhel", "place": "town", "population": "2861", "population:date": "2011"}}, "geometry": {"type": "Point", "coordinates": [-7.0650244, 40.7747612]}}, {"type": "Feature", "properties": {"type": "node", "id": 3657201436, "tags": {"capital": "7", "is_in": "Coimbra", "name": "Cantanhede", "place": "town", "population": "5769", "population:date": "2011"}}, "geometry": {"type": "Point", "coordinates": [-8.5940128, 40.3461879]}}, {"type": "Feature", "properties": {"type": "node", "id": 3657201437, "tags": {"capital": "7", "name": "Mira", "place": "town"}}, "geometry": {"type": "Point", "coordinates": [-8.7372138, 40.4284618]}}, {"type": "Feature", "properties": {"type": "node", "id": 3669099216, "tags": {"capital": "7", "name": "Fund\u00e3o", "place": "town", "population": "8065", "population:date": "2011"}}, "geometry": {"type": "Point", "coordinates": [-7.5017521, 40.1408065]}}, {"type": "Feature", "properties": {"type": "node", "id": 3669099217, "tags": {"capital": "7", "name": "Penamacor", "place": "town"}}, "geometry": {"type": "Point", "coordinates": [-7.1712605, 40.168928]}}, {"type": "Feature", "properties": {"type": "node", "id": 3671593574, "tags": {"capital": "7", "name": "Porto de M\u00f3s", "place": "town", "population": "24 342", "wikidata": "Q1012710"}}, "geometry": {"type": "Point", "coordinates": [-8.8185271, 39.6023941]}}, {"type": "Feature", "properties": {"type": "node", "id": 3673206553, "tags": {"capital": "7", "name": "Gr\u00e2ndola", "place": "town", "wikidata": "Q986019"}}, "geometry": {"type": "Point", "coordinates": [-8.5680717, 38.1761212]}}, {"type": "Feature", "properties": {"type": "node", "id": 3799576050, "tags": {"capital": "7", "name": "Castelo de Vide", "place": "town"}}, "geometry": {"type": "Point", "coordinates": [-7.4555475, 39.4152745]}}, {"type": "Feature", "properties": {"type": "node", "id": 3882676797, "tags": {"capital": "8", "name": "Tavarede", "place": "town", "population": "9441", "start_date": "2009-08-06"}}, "geometry": {"type": "Point", "coordinates": [-8.8426827, 40.1656123]}}, {"type": "Feature", "properties": {"type": "node", "id": 3976822515, "tags": {"capital": "8", "name": "Senhora da Hora", "place": "town", "population": "27747", "population:date": "2011", "source": "Bing", "wikidata": "Q2117134"}}, "geometry": {"type": "Point", "coordinates": [-8.6513544, 41.1853221]}}, {"type": "Feature", "properties": {"type": "node", "id": 4072666319, "tags": {"capital": "7", "name": "Ma\u00e7\u00e3o", "place": "town", "wikidata": "Q1012723"}}, "geometry": {"type": "Point", "coordinates": [-7.9957035, 39.554608]}}, {"type": "Feature", "properties": {"type": "node", "id": 4133386338, "tags": {"capital": "8", "name": "Marinha das Ondas", "place": "town"}}, "geometry": {"type": "Point", "coordinates": [-8.821716, 40.0313594]}}, {"type": "Feature", "properties": {"type": "node", "id": 4144212163, "tags": {"capital": "7", "name": "Vouzela", "place": "town", "wikidata": "Q2450399", "wikipedia": "pt:Vouzela (freguesia)"}}, "geometry": {"type": "Point", "coordinates": [-8.1097201, 40.7226362]}}, {"type": "Feature", "properties": {"type": "node", "id": 4162218889, "tags": {"capital": "7", "name": "Celorico da Beira", "place": "town", "wikidata": "Q523596"}}, "geometry": {"type": "Point", "coordinates": [-7.3928446, 40.6358841]}}, {"type": "Feature", "properties": {"type": "node", "id": 4162267905, "tags": {"capital": "7", "name": "Vimioso", "name:mwl": "Bumioso", "place": "town", "wikidata": "Q551649"}}, "geometry": {"type": "Point", "coordinates": [-6.5291002, 41.5849534]}}, {"type": "Feature", "properties": {"type": "node", "id": 4163980589, "tags": {"alt_name:ar": "\u0623\u0644\u062e\u064a\u0632\u0648\u0631", "capital": "7", "name": "Aljezur", "name:ar": "\u0627\u0644\u062c\u0632\u0631", "place": "town", "wikidata": "Q986095"}}, "geometry": {"type": "Point", "coordinates": [-8.8047857, 37.3149035]}}, {"type": "Feature", "properties": {"type": "node", "id": 4346025220, "tags": {"capital": "8", "name": "Santa Catarina da Serra", "note": "Elevada a vila a 12 de Julho de 2001", "place": "town", "population": "4 098"}}, "geometry": {"type": "Point", "coordinates": [-8.6871329, 39.6750169]}}, {"type": "Feature", "properties": {"type": "node", "id": 4347515652, "tags": {"capital": "7", "name": "Cadaval", "place": "town"}}, "geometry": {"type": "Point", "coordinates": [-9.1026628, 39.242859]}}, {"type": "Feature", "properties": {"type": "node", "id": 4382084168, "tags": {"capital": "8", "name": "Alhadas", "place": "town"}}, "geometry": {"type": "Point", "coordinates": [-8.7838465, 40.1898767]}}, {"type": "Feature", "properties": {"type": "node", "id": 4382084170, "tags": {"capital": "8", "name": "S\u00e3o Pedro", "place": "town", "population": "2910", "start_date": "2009-06-12"}}, "geometry": {"type": "Point", "coordinates": [-8.8570536, 40.1335033]}}, {"type": "Feature", "properties": {"type": "node", "id": 5002355083, "tags": {"capital": "8", "name": "Pataias", "place": "town"}}, "geometry": {"type": "Point", "coordinates": [-8.9932456, 39.6707242]}}, {"type": "Feature", "properties": {"type": "node", "id": 5057838422, "tags": {"capital": "6", "name": "Viana do Castelo", "name:ar": "\u0641\u064a\u0627\u0646\u0627 \u062f\u0648 \u0643\u0627\u0633\u062a\u064a\u0644\u0648", "name:el": "\u0392\u03b9\u03ac\u03bd\u03b1 \u03bd\u03c4\u03bf \u039a\u03b1\u03c3\u03c4\u03ad\u03bb\u03bf", "note": "\u00c9 classificada como \"place = city\" pois \u00e9 capital de distrito.", "place": "city", "population": "37972", "population:date": "2011", "wikidata": "Q208158", "wikipedia": "pt:Viana do Castelo"}}, "geometry": {"type": "Point", "coordinates": [-8.831088, 41.694867]}}, {"type": "Feature", "properties": {"type": "node", "id": 5103358891, "tags": {"capital": "7", "name": "Montemor-o-Velho", "place": "town", "postal_code": "3140", "wikidata": "Q45815", "wikipedia": "pt:Montemor-o-Velho"}}, "geometry": {"type": "Point", "coordinates": [-8.6844483, 40.1726104]}}, {"type": "Feature", "properties": {"type": "node", "id": 5298507481, "tags": {"capital": "7", "name": "Santa Cruz", "place": "town", "population": "6952", "population:date": "2011", "wikidata": "Q658823"}}, "geometry": {"type": "Point", "coordinates": [-16.790942, 32.6862132]}}, {"type": "Feature", "properties": {"type": "node", "id": 5378178476, "tags": {"capital": "7", "name": "Montemor-o-Novo", "place": "town", "population": "8681", "population:date": "2011"}}, "geometry": {"type": "Point", "coordinates": [-8.2115858, 38.6481777]}}, {"type": "Feature", "properties": {"type": "node", "id": 5414768270, "tags": {"capital": "6", "name": "Castelo Branco", "name:ar": "\u0643\u0627\u0633\u062a\u064a\u0644\u0648 \u0628\u0631\u0627\u0646\u0643\u0648", "place": "city", "population": "34278", "population:date": "2011", "wikidata": "Q12899232"}}, "geometry": {"type": "Point", "coordinates": [-7.4919318, 39.8266322]}}, {"type": "Feature", "properties": {"type": "node", "id": 5437202234, "tags": {"capital": "8", "name": "Azeit\u00e3o", "name:ar": "\u0627\u0644\u0632\u064a\u062a\u0648\u0646", "place": "town"}}, "geometry": {"type": "Point", "coordinates": [-9.0188369, 38.5203698]}}, {"type": "Feature", "properties": {"type": "node", "id": 5825663971, "tags": {"alt_name": "Capelas", "capital": "8", "name": "Capelas", "official_name": "Vila de Capelas", "place": "town", "wikidata": "Q1997594", "wikipedia": "pt:Capelas"}}, "geometry": {"type": "Point", "coordinates": [-25.6888676, 37.8370218]}}, {"type": "Feature", "properties": {"type": "node", "id": 5903417046, "tags": {"capital": "7", "name": "Sert\u00e3", "place": "town", "wikidata": "Q193402"}}, "geometry": {"type": "Point", "coordinates": [-8.096441, 39.8052145]}}, {"type": "Feature", "properties": {"type": "node", "id": 6508245091, "tags": {"capital": "7", "name": "Torres Novas", "place": "town", "population": "12941", "population:date": "2011"}}, "geometry": {"type": "Point", "coordinates": [-8.53955, 39.47962]}}, {"type": "Feature", "properties": {"type": "node", "id": 7499133926, "tags": {"capital": "8", "name": "Avelar", "place": "town", "population": "2169", "wikidata": "Q790349"}}, "geometry": {"type": "Point", "coordinates": [-8.3576363, 39.9236793]}}, {"type": "Feature", "properties": {"type": "node", "id": 7926622744, "tags": {"name": "Sentieiras", "place": "town"}}, "geometry": {"type": "Point", "coordinates": [-8.1922567, 39.5243475]}}]}