{"version": 0.6, "generator": "Overpass API 0.7.56.7 b85c4387", "osm3s": {"timestamp_osm_base": "2021-03-01T19:04:42Z", "timestamp_areas_base": "2021-03-01T18:09:42Z", "copyright": "The data included in this document is from www.openstreetmap.org. The data is made available under ODbL."}, "elements": [{"type": "node", "id": 29098903, "lat": 45.5289394, "lon": 13.5675658, "tags": {"alt_name:it": "Pirano d'Istria", "is_in": "Slovenia, Europe", "is_in:continent": "Europe", "is_in:country": "Slovenia", "is_in:country_code": "SI", "name": "Piran / Pirano", "name:hr": "Piran", "name:it": "Pirano", "name:la": "Piranum", "name:lt": "Piranas", "name:mk": "\u041f\u0438\u0440\u0430\u043d", "name:ru": "\u041f\u0438\u0440\u0430\u043d", "name:sl": "Piran", "old_name:de": "Pirian", "place": "town", "population": "4200", "source:population": "http://www.stat.si/KrajevnaImena/", "wikidata": "Q1382", "wikipedia": "sl:Piran"}}, {"type": "node", "id": 29098904, "lat": 45.5398936, "lon": 13.65939, "tags": {"int_name": "Izola", "is_in": "Slovenia, Europe", "is_in:continent": "Europe", "is_in:country": "Slovenia", "is_in:country_code": "SI", "name": "Izola / Isola", "name:ar": "\u0625\u064a\u0632\u0648\u0644\u0627", "name:hr": "Izola", "name:it": "Isola", "name:lt": "Izola", "name:mk": "\u0418\u0437\u043e\u043b\u0430", "name:ru": "\u0418\u0437\u043e\u043b\u0430", "name:sl": "Izola", "old_name:de": "Insel im K\u00fcstenl\u00e4ndchen", "place": "town", "population": "11300", "source:population": "http://www.stat.si/KrajevnaImena/", "wikidata": "Q15877", "wikipedia": "sl:Izola"}}, {"type": "node", "id": 1640456909, "lat": 45.5479551, "lon": 13.7304909, "tags": {"int_name": "Koper", "name": "Koper / Capodistria", "name:ar": "Koper", "name:da": "Koper", "name:fur": "Cjaudistrie", "name:hr": "Kopar", "name:it": "Capodistria", "name:ja": "\u30b3\u30da\u30eb", "name:la": "Aegida", "name:lt": "Koperis", "name:mk": "\u041a\u043e\u043f\u0435\u0440", "name:ru": "\u041a\u043e\u043f\u0435\u0440", "name:sl": "Koper", "old_name": "Capodistria", "old_name:de": "Gafers", "place": "town", "population": "24900", "postal_code": "6000", "source:population": "http://www.stat.si/KrajevnaImena/", "wikidata": "Q1015", "wikipedia": "sl:Koper"}}, {"type": "node", "id": 475065211, "lat": 45.7091799, "lon": 13.8730989, "tags": {"name": "Se\u017eana", "name:de": "Zizan", "name:it": "Sesana", "name:ru": "\u0421\u0435\u0436\u0430\u043d\u0430", "name:sl": "Se\u017eana", "old_name:it": "Sesana", "place": "town", "population": "5500", "source:population": "http://www.stat.si/KrajevnaImena/", "wikidata": "Q15916", "wikipedia": "sl:Se\u017eana"}}, {"type": "node", "id": 1603396944, "lat": 45.5636618, "lon": 14.2453318, "tags": {"name": "Ilirska Bistrica", "name:de": "Illyrisch Feistritz", "name:it": "Villa del Nevoso", "name:la": "Bistertia Illyrica", "name:ru": "\u0418\u043b\u0438\u0440\u0441\u043a\u0430-\u0411\u0438\u0441\u0442\u0440\u0438\u0446\u0430", "name:sl": "Ilirska Bistrica", "place": "town", "population": "4600", "source:population": "http://www.stat.si/KrajevnaImena/", "wikidata": "Q15876", "wikipedia": "sl:Ilirska Bistrica"}}, {"type": "node", "id": 57099014, "lat": 45.6430266, "lon": 14.8552701, "tags": {"name": "Ko\u010devje", "name:de": "Gottschee", "name:it": "Cocevie", "name:ru": "\u041a\u043e\u0447\u0435\u0432\u044c\u0435", "name:sl": "Ko\u010devje", "place": "town", "population": "8800", "source:population": "http://www.stat.si/KrajevnaImena/", "wikidata": "Q12958961", "wikipedia": "sl:Ko\u010devje"}}, {"type": "node", "id": 1147409484, "lat": 45.9303401, "lon": 13.6398587, "tags": {"ele": "72", "name": "\u0160empeter pri Gorici", "name:de": "Sankt Peter", "name:it": "San Pietro di Gorizia", "name:sl": "\u0160empeter pri Gorici", "place": "town", "population": "3694", "postal_code": "5290", "source:population": "http://www.stat.si/KrajevnaImena/", "wikidata": "Q15853", "wikipedia": "it:San Pietro (San Pietro-Vertoiba)"}}, {"type": "node", "id": 44870243, "lat": 45.9580549, "lon": 13.6474706, "tags": {"name": "Nova Gorica", "name:de": "Neu-G\u00f6rz", "name:lt": "Nova Gorica", "name:ru": "\u041d\u043e\u0432\u0430-\u0413\u043e\u0440\u0438\u0446\u0430", "name:sl": "Nova Gorica", "place": "town", "population": "13500", "postal_code": "5000", "source:population": "http://www.stat.si/KrajevnaImena/", "wikidata": "Q1018", "wikipedia": "sl:Nova Gorica"}}, {"type": "node", "id": 30761275, "lat": 45.8885557, "lon": 13.9048561, "tags": {"name": "Ajdov\u0161\u010dina", "name:de": "Haidenschaft", "name:it": "Aidussina", "name:lt": "Aidov\u0161\u010dina", "name:ru": "\u0410\u0439\u0434\u043e\u0432\u0448\u0447\u0438\u043d\u0430", "name:sl": "Ajdov\u0161\u010dina", "place": "town", "population": "6600", "source": "landsat", "source:population": "http://www.stat.si/KrajevnaImena/", "wikidata": "Q15854", "wikipedia": "sl:Ajdov\u0161\u010dina"}}, {"type": "node", "id": 28844011, "lat": 45.7752438, "lon": 14.2117877, "tags": {"name": "Postojna", "name:de": "Adelsberg", "name:it": "Postumia", "name:lt": "Postoina", "name:ru": "\u041f\u043e\u0441\u0442\u043e\u0439\u043d\u0430", "name:sl": "Postojna", "old_name:it": "Postumia Grotte", "place": "town", "population": "9100", "source:population": "http://www.stat.si/KrajevnaImena/", "wikidata": "Q15901", "wikipedia": "sl:Postojna"}}, {"type": "node", "id": 57103061, "lat": 45.9178067, "lon": 14.2233802, "tags": {"name": "Logatec", "name:de": "Loitsch", "name:it": "Longatico", "name:la": "Longaticum", "name:ru": "\u041b\u043e\u0433\u0430\u0442\u0435\u0446", "name:sl": "Logatec", "place": "town", "population": "8800", "source:population": "http://www.stat.si/KrajevnaImena/", "wikidata": "Q2752423", "wikipedia": "sl:Logatec"}}, {"type": "node", "id": 290381247, "lat": 46.0023983, "lon": 14.0273014, "tags": {"ele": "334", "name": "Idrija", "name:de": "Idria", "name:it": "Idria", "name:ru": "\u0418\u0434\u0440\u0438\u044f", "name:sl": "Idrija", "place": "town", "population": "6000", "source:population": "http://www.stat.si/KrajevnaImena/", "wikidata": "Q15875", "wikipedia": "sl:Idrija"}}, {"type": "node", "id": 3426274016, "lat": 46.0510703, "lon": 14.1106226, "tags": {"name": "\u017diri", "name:de": "Sairach", "name:ru": "\u0416\u0438\u0440\u0438", "name:sl": "\u017diri", "place": "town", "population": "3600", "source:population": "http://www.stat.si/KrajevnaImena/", "wikidata": "Q15933", "wikipedia": "sl:\u017diri"}}, {"type": "node", "id": 44826837, "lat": 46.3385467, "lon": 13.5525933, "tags": {"alt_name:de": "Pletz", "name": "Bovec", "name:de": "Flitsch", "name:it": "Plezzo", "name:ru": "\u0411\u043e\u0432\u0435\u0446", "name:sl": "Bovec", "place": "town", "population": "1600", "source:population": "http://www.stat.si/KrajevnaImena/", "wikidata": "Q15855", "wikipedia": "sl:Bovec"}}, {"type": "node", "id": 288997618, "lat": 46.1828005, "lon": 13.7328983, "tags": {"name": "Tolmin", "name:de": "Tolmein", "name:it": "Tolmino", "name:ru": "\u0422\u043e\u043b\u043c\u0438\u043d", "name:sl": "Tolmin", "old_name:it": "Tulmino", "place": "town", "population": "3600", "source:population": "http://www.stat.si/KrajevnaImena/", "wikidata": "Q8011223", "wikipedia": "sl:Tolmin"}}, {"type": "node", "id": 56745686, "lat": 46.2257913, "lon": 14.1693085, "tags": {"name": "\u017delezniki", "name:de": "Eisnern", "name:lt": "\u017deleznikai", "name:ru": "\u0416\u0435\u043b\u0435\u0437\u043d\u0438\u043a\u0438", "name:sl": "\u017delezniki", "place": "town", "population": "3100", "source:population": "http://www.stat.si/KrajevnaImena/", "wikidata": "Q3440936", "wikipedia": "sl:\u017delezniki"}}, {"type": "node", "id": 280339374, "lat": 46.343509, "lon": 14.1720227, "tags": {"name": "Radovljica", "name:de": "Radmannsdorf", "name:ru": "\u0420\u0430\u0434\u043e\u0432\u043b\u0438\u0446\u0430", "name:sl": "Radovljica", "place": "town", "population": "6000", "source": "landsat", "source:population": "http://www.stat.si/KrajevnaImena/", "wikidata": "Q604194", "wikipedia": "sl:Radovljica"}}, {"type": "node", "id": 862116228, "lat": 46.3684202, "lon": 14.1100595, "tags": {"alt_name:de": "Feldes", "name": "Bled", "name:de": "Veldes", "name:it": "Bled", "name:ru": "\u0411\u043b\u0435\u0434", "name:sl": "Bled", "place": "town", "population": "5200", "source:population": "http://www.stat.si/KrajevnaImena/", "wikidata": "Q202852", "wikipedia": "sl:Bled"}}, {"type": "node", "id": 88222100, "lat": 46.4323791, "lon": 14.0623337, "tags": {"ele": "576", "name": "Jesenice", "name:de": "A\u00dfling", "name:ru": "\u0415\u0441\u0435\u043d\u0438\u0446\u0435", "name:sl": "Jesenice", "place": "town", "population": "13400", "source:population": "http://www.stat.si/KrajevnaImena/", "wikidata": "Q4165497", "wikipedia": "sl:Jesenice"}}, {"type": "node", "id": 87279980, "lat": 45.7936578, "lon": 14.361883, "tags": {"ele": "553.4", "name": "Cerknica", "name:de": "Zirknitz", "name:it": "Circonio", "name:ru": "\u0426\u0435\u0440\u043a\u043d\u0438\u0446\u0430", "name:sl": "Cerknica", "place": "town", "population": "3900", "source:population": "http://www.stat.si/KrajevnaImena/", "wikidata": "Q15860", "wikipedia": "sl:Cerknica"}}, {"type": "node", "id": 57102712, "lat": 45.9663607, "lon": 14.2980772, "tags": {"addr:postcode": "1360", "name": "Vrhnika", "name:de": "Oberlaibach", "name:it": "Nauporto", "name:la": "Nauportus", "name:ru": "\u0412\u0440\u0445\u043d\u0438\u043a\u0430", "name:sl": "Vrhnika", "place": "town", "population": "8200", "source:population": "http://www.stat.si/KrajevnaImena/", "wikidata": "Q438", "wikipedia": "sl:Vrhnika"}}, {"type": "node", "id": 56754609, "lat": 46.1402476, "lon": 14.413671, "tags": {"name": "Medvode", "name:de": "Zwischenwassern", "name:lt": "Medvod\u0117s", "name:ru": "\u041c\u0435\u0434\u0432\u043e\u0434\u0435", "name:sl": "Medvode", "place": "town", "population": "5100", "source:population": "http://www.stat.si/KrajevnaImena/", "wikidata": "Q2094435", "wikipedia": "sl:Medvode"}}, {"type": "node", "id": 56756941, "lat": 45.9576254, "lon": 14.6531854, "tags": {"name": "Grosuplje", "name:de": "Gro\u00dflupp", "name:lt": "Grosupl\u0117s", "name:ru": "\u0413\u0440\u043e\u0441\u0443\u043f\u043b\u0435", "name:sl": "Grosuplje", "place": "town", "population": "7000", "source:population": "http://www.stat.si/KrajevnaImena/", "wikidata": "Q15870", "wikipedia": "sl:Grosuplje"}}, {"type": "node", "id": 6968827, "lat": 46.0499803, "lon": 14.5068602, "tags": {"admin_level": "2", "alt_name:gl": "Ljubljana", "capital": "yes", "name": "Ljubljana", "name:am": "\u120d\u12e9\u1265\u120d\u12eb\u1293", "name:ar": "\u0644\u064a\u0648\u0628\u0644\u064a\u0627\u0646\u0627", "name:arz": "\u0644\u064a\u0648\u0628\u0644\u064a\u0627\u0646\u0627", "name:ast": "Liubliana", "name:az": "Lyublyana", "name:bar": "Laiboch", "name:bat-smg": "Liublijana", "name:be": "\u041b\u044e\u0431\u043b\u044f\u043d\u0430", "name:be-tarask": "\u041b\u044e\u0431\u043b\u044f\u043d\u0430", "name:bg": "\u041b\u044e\u0431\u043b\u044f\u043d\u0430", "name:bn": "\u09b2\u09bf\u0989\u09ac\u09cd\u09b2\u09bf\u09af\u09bc\u09be\u09a8\u09be", "name:bo": "\u0f63\u0f72\u0f0b\u0f54\u0f7c\u0f0b\u0f61\u0f0b\u0f53\u0f0d", "name:ckb": "\u0644\u06cc\u0648\u0628\u0644\u06cc\u0627\u0646\u0627", "name:crh": "L\u00fcbl\u00e2na", "name:cs": "Lubla\u0148", "name:cu": "\u041b\u044e\u0431\u043b\ua657\u043d\u0430", "name:cv": "\u041b\u044e\u0431\u043b\u044f\u043d\u0430", "name:de": "Laibach", "name:el": "\u039b\u03b9\u03bf\u03c5\u03bc\u03c0\u03bb\u03b9\u03ac\u03bd\u03b1", "name:en": "Ljubljana", "name:eo": "Ljubljano", "name:es": "Liubliana", "name:fa": "\u0644\u06cc\u0648\u0628\u0644\u06cc\u0627\u0646\u0627", "name:fr": "Ljubljana", "name:fur": "Lubiane", "name:ga": "Li\u00faible\u00e1na", "name:gag": "L'yublyana", "name:gl": "Liubliana", "name:he": "\u05dc\u05d9\u05d5\u05d1\u05dc\u05d9\u05d0\u05e0\u05d4", "name:ht": "Lyoubyana", "name:hu": "Ljubljana", "name:hy": "\u053c\u0575\u0578\u0582\u0562\u056c\u0575\u0561\u0576\u0561", "name:is": "Ljubljana", "name:it": "Lubiana", "name:ja": "\u30ea\u30e5\u30d6\u30ea\u30e3\u30ca", "name:ka": "\u10da\u10d8\u10e3\u10d1\u10da\u10d8\u10d0\u10dc\u10d0", "name:kk": "\u041b\u044e\u0431\u043b\u044f\u043d\u0430", "name:ko": "\ub958\ube14\ub7b4\ub098", "name:ku": "Ljubljana", "name:la": "Aemona", "name:lij": "Lubiann-a", "name:lmo": "L\u00fcbiana", "name:ln": "Lyublyana", "name:lt": "Liubliana", "name:lv": "\u013bub\u013cana", "name:mk": "\u0409\u0443\u0431\u0459\u0430\u043d\u0430", "name:mr": "\u0932\u093f\u092f\u0941\u092c\u094d\u0932\u093f\u092f\u093e\u0928\u093e", "name:nah": "Liubliana", "name:no": "Ljubljana", "name:nrm": "Liublianne", "name:oc": "Ljubljana", "name:os": "\u041b\u044e\u0431\u043b\u044f\u043d\u00e6", "name:pl": "Lublana", "name:pms": "Lubian-a", "name:pnb": "\u0644\u06cc\u0648\u0628\u0644\u06cc\u0627\u0646\u0627", "name:pt": "Liubliana", "name:ru": "\u041b\u044e\u0431\u043b\u044f\u043d\u0430", "name:sah": "\u041b\u044e\u0431\u043b\u044f\u043d\u0430", "name:sc": "Lubiana", "name:sk": "\u013dub\u013eana", "name:sl": "Ljubljana", "name:sq": "Lubjana", "name:sr": "\u0409\u0443\u0431\u0459\u0430\u043d\u0430", "name:sv": "Ljubljana", "name:sw": "Lyublyana", "name:ta": "\u0bb2\u0bbf\u0baf\u0bc1\u0baa\u0bcd\u0bb2\u0bbf\u0baf\u0bbe\u0ba9\u0bbe", "name:tg": "\u041b\u044e\u0431\u043b\u044f\u043d\u0430", "name:th": "\u0e25\u0e39\u0e1a\u0e25\u0e34\u0e22\u0e32\u0e19\u0e32", "name:udm": "\u041b\u044e\u0431\u043b\u044f\u043d\u0430", "name:ug": "\u0644\u064a\u06c7\u0628\u0644\u064a\u0627\u0646\u0627", "name:uk": "\u041b\u044e\u0431\u043b\u044f\u043d\u0430", "name:ur": "\u0644\u06cc\u0648\u0628\u0644\u06cc\u0627\u0646\u0627", "name:vec": "\u0141ubiana", "name:vep": "L\u00fcbl\u00e4n", "name:wo": "Jubaljana", "name:zh": "\u76e7\u5e03\u723e\u96c5\u90a3", "place": "city", "population": "272000", "postal_code": "1000", "source:name:oc": "Lo Congr\u00e8s", "source:population": "http://www.stat.si/KrajevnaImena/", "watch:StefanB": "1", "wikidata": "Q437", "wikipedia": "sl:Ljubljana"}}, {"type": "node", "id": 56699213, "lat": 46.1394296, "lon": 14.5944553, "tags": {"name": "Dom\u017eale", "name:de": "Domschale", "name:lt": "Dom\u017eal\u0117s", "name:ru": "\u0414\u043e\u043c\u0436\u0430\u043b\u0435", "name:sl": "Dom\u017eale", "place": "town", "population": "12400", "source:population": "http://www.stat.si/KrajevnaImena/", "wikidata": "Q15865", "wikipedia": "sl:Dom\u017eale"}}, {"type": "node", "id": 57099335, "lat": 45.7399923, "lon": 14.7261067, "tags": {"name": "Ribnica", "name:de": "Reifnitz", "name:ru": "\u0420\u0438\u0431\u043d\u0438\u0446\u0430", "name:sl": "Ribnica", "place": "town", "population": "3600", "source:population": "http://www.stat.si/KrajevnaImena/", "wikidata": "Q2596325", "wikipedia": "sl:Ribnica"}}, {"type": "node", "id": 57076536, "lat": 45.9079394, "lon": 15.0071462, "tags": {"name": "Trebnje", "name:de": "Treffen", "name:lt": "Trebn\u0117", "name:ru": "\u0422\u0440\u0435\u0431\u043d\u0435", "name:sl": "Trebnje", "place": "town", "population": "3500", "source:population": "http://www.stat.si/KrajevnaImena/", "wikidata": "Q15926", "wikipedia": "sl:Trebnje"}}, {"type": "node", "id": 307824253, "lat": 45.9553625, "lon": 14.743906, "tags": {"name": "Vi\u0161nja Gora", "name:de": "Weixelburg", "name:ru": "\u0412\u0438\u0448\u043d\u044f-\u0413\u043e\u0440\u0430", "name:sl": "Vi\u0161nja Gora", "place": "town", "population": "1000", "source": "landsat", "source:population": "http://www.stat.si/KrajevnaImena/", "wikidata": "Q15929", "wikipedia": "sl:Vi\u0161nja Gora"}}, {"type": "node", "id": 56756021, "lat": 46.0575677, "lon": 14.8314192, "tags": {"name": "Litija", "name:de": "Littai", "name:lt": "Litija", "name:ru": "\u041b\u0438\u0442\u0438\u044f", "name:sl": "Litija", "place": "town", "population": "6500", "source:population": "http://www.stat.si/KrajevnaImena/", "wikidata": "Q2115226", "wikipedia": "sl:Litija"}}, {"type": "node", "id": 57091710, "lat": 46.1342168, "lon": 14.9952714, "tags": {"name": "Zagorje ob Savi", "name:de": "Seger an der Sau", "name:lt": "Zagor\u0117 prie Savos", "name:ru": "\u0417\u0430\u0433\u043e\u0440\u044c\u0435-\u043e\u0431-\u0421\u0430\u0432\u0438", "name:sl": "Zagorje ob Savi", "place": "town", "population": "6500", "postal_code": "1410", "source:population": "http://www.stat.si/KrajevnaImena/", "wikidata": "Q15930", "wikipedia": "sl:Zagorje ob Savi"}}, {"type": "node", "id": 57091407, "lat": 46.1456196, "lon": 15.0817358, "tags": {"ele": "296", "name": "Hrastnik", "name:de": "Eichthal", "name:lt": "Chrastnikas", "name:ru": "\u0425\u0440\u0430\u0441\u0442\u043d\u0438\u043a", "name:sl": "Hrastnik", "place": "town", "population": "5700", "postal_code": "1430", "source:population": "http://www.stat.si/KrajevnaImena/", "wikidata": "Q15871", "wikipedia": "sl:Hrastnik"}}, {"type": "node", "id": 56742189, "lat": 46.165274, "lon": 14.3067474, "tags": {"name": "\u0160kofja Loka", "name:de": "Bischoflack", "name:en": "Skofja Loka", "name:lt": "\u0160kofja Loka", "name:ru": "\u0428\u043a\u043e\u0444\u044c\u044f-\u041b\u043e\u043a\u0430", "name:sl": "\u0160kofja Loka", "place": "town", "population": "12100", "source:population": "http://www.stat.si/KrajevnaImena/", "wikidata": "Q15922", "wikipedia": "sl:\u0160kofja Loka"}}, {"type": "node", "id": 29098951, "lat": 46.2432635, "lon": 14.3549501, "tags": {"alt_name:it": "Carnio", "name": "Kranj", "name:de": "Krainburg", "name:it": "Craimburgo", "name:la": "Carnioburgum", "name:lt": "Kranis", "name:ru": "\u041a\u0440\u0430\u043d\u044c", "name:sl": "Kranj", "place": "city", "population": "36800", "postal_code": "4000", "source:population": "http://www.stat.si/KrajevnaImena/", "wikidata": "Q1021", "wikipedia": "sl:Kranj"}}, {"type": "node", "id": 56749775, "lat": 46.1629579, "lon": 14.5722166, "tags": {"name": "Menge\u0161", "name:de": "Mannsburg", "name:lt": "Menge\u0161as", "name:ru": "\u041c\u0435\u043d\u0433\u0435\u0448", "name:sl": "Menge\u0161", "place": "town", "population": "6100", "source:population": "http://www.stat.si/KrajevnaImena/", "wikidata": "Q3499878", "wikipedia": "sl:Menge\u0161"}}, {"type": "node", "id": 30839841, "lat": 46.2257358, "lon": 14.6118936, "tags": {"name": "Kamnik", "name:de": "Stein in Oberkrain", "name:lt": "Kamnikas", "name:ru": "\u041a\u0430\u043c\u043d\u0438\u043a", "name:sl": "Kamnik", "place": "town", "population": "13700", "source:population": "http://www.stat.si/KrajevnaImena/", "wikidata": "Q15883", "wikipedia": "sl:Kamnik"}}, {"type": "node", "id": 44729636, "lat": 46.3636679, "lon": 14.3095397, "tags": {"name": "Tr\u017ei\u010d", "name:de": "Neumarktl", "name:lt": "Tr\u017ei\u010dius", "name:ru": "\u0422\u0440\u0436\u0438\u0447", "name:sl": "Tr\u017ei\u010d", "place": "town", "population": "3900", "source:population": "http://www.stat.si/KrajevnaImena/", "wikidata": "Q2638131", "wikipedia": "sl:Tr\u017ei\u010d"}}, {"type": "node", "id": 57091263, "lat": 46.1558964, "lon": 15.0540204, "tags": {"name": "Trbovlje", "name:de": "Trifail", "name:lt": "Trbovl\u0117s", "name:ru": "\u0422\u0440\u0431\u043e\u0432\u043b\u0435", "name:sl": "Trbovlje", "place": "town", "population": "15500", "postal_code": "1420", "source:population": "http://www.stat.si/KrajevnaImena/", "wikidata": "Q8011202", "wikipedia": "sl:Trbovlje"}}, {"type": "node", "id": 287385515, "lat": 46.5195022, "lon": 14.8521528, "tags": {"name": "Me\u017eica", "name:de": "Mie\u00dfdorf", "name:ru": "\u041c\u0435\u0436\u0438\u0446\u0430", "name:sl": "Me\u017eica", "place": "town", "population": "3400", "source:population": "http://www.stat.si/KrajevnaImena/", "wikidata": "Q15898", "wikipedia": "sl:Me\u017eica"}}, {"type": "node", "id": 96959453, "lat": 46.3773929, "lon": 15.0459505, "tags": {"name": "\u0160o\u0161tanj", "name:de": "Sch\u00f6nstein", "name:ru": "\u0428\u043e\u0448\u0442\u0430\u043d\u044c", "name:sl": "\u0160o\u0161tanj", "place": "town", "population": "2900", "source:population": "http://www.stat.si/KrajevnaImena/"}}, {"type": "node", "id": 290421432, "lat": 46.5448515, "lon": 14.9150312, "tags": {"ele": "415", "name": "Prevalje", "name:de": "Pr\u00e4vali", "name:ru": "\u041f\u0440\u0435\u0432\u0430\u043b\u0435", "name:sl": "Prevalje", "place": "town", "population": "4700", "source:population": "http://www.stat.si/KrajevnaImena/", "wikidata": "Q15905", "wikipedia": "sl:Prevalje"}}, {"type": "node", "id": 287387287, "lat": 46.5446645, "lon": 14.9622568, "tags": {"name": "Ravne na Koro\u0161kem", "name:de": "Gutenstein", "name:ru": "\u0420\u0430\u0432\u043d\u0435-\u043d\u0430-\u041a\u043e\u0440\u043e\u0448\u043a\u0435\u043c", "name:sl": "Ravne na Koro\u0161kem", "old_name": "Gu\u0161tanj", "place": "town", "population": "7000", "source:population": "http://www.stat.si/KrajevnaImena/", "wikidata": "Q15911", "wikipedia": "sl:Ravne na Koro\u0161kem"}}, {"type": "node", "id": 64001817, "lat": 46.509144, "lon": 15.0790677, "tags": {"is_in:continent": "Europe", "is_in:country": "Slovenia", "is_in:country_code": "SI", "name": "Slovenj Gradec", "name:cs": "Slovinsk\u00fd Hradec", "name:de": "Windischgraz", "name:ru": "\u0421\u043b\u043e\u0432\u0435\u043d\u044c-\u0413\u0440\u0430\u0434\u0435\u0446", "name:sl": "Slovenj Gradec", "old_name:de": "Windischgr\u00e4tz", "place": "town", "population": "7500", "source:population": "http://www.stat.si/KrajevnaImena/", "wikidata": "Q15918", "wikipedia": "sl:Slovenj Gradec"}}, {"type": "node", "id": 57096731, "lat": 45.5706789, "lon": 15.1925962, "tags": {"name": "\u010crnomelj", "name:de": "Tschernembl", "name:lt": "\u010crnomelis", "name:ru": "\u0427\u0440\u043d\u043e\u043c\u0435\u043b\u044c", "name:sl": "\u010crnomelj", "place": "town", "population": "5800", "source:population": "http://www.stat.si/KrajevnaImena/", "wikidata": "Q15861", "wikipedia": "sl:\u010crnomelj"}}, {"type": "node", "id": 2548559572, "lat": 45.6501029, "lon": 15.3174483, "tags": {"name": "Metlika", "name:de": "M\u00f6ttling", "name:ru": "\u041c\u0435\u0442\u043b\u0438\u043a\u0430", "name:sl": "Metlika", "old_name:de": "Merling", "place": "town", "population": "3225"}}, {"type": "node", "id": 57074435, "lat": 45.8040475, "lon": 15.1696684, "tags": {"alt_name:de": "Neust\u00e4dtel;Rudolfswerth", "name": "Novo mesto", "name:de": "Neustadtl", "name:el": "\u039d\u03cc\u03b2\u03bf \u039c\u03ad\u03c3\u03c4\u03bf", "name:en": "Novo Mesto", "name:lt": "Novo Mestas", "name:ru": "\u041d\u043e\u0432\u043e-\u041c\u0435\u0441\u0442\u043e", "name:sl": "Novo mesto", "name:uk": "\u041d\u043e\u0432\u043e \u041c\u0435\u0441\u0442\u043e", "name:zh": "\u65b0\u6885\u65af\u6258", "place": "town", "population": "23200", "postal_code": "8000", "source:population": "http://www.stat.si/KrajevnaImena/", "wikidata": "Q5266", "wikipedia": "sl:Novo mesto"}}, {"type": "node", "id": 387482821, "lat": 45.8458412, "lon": 15.4203594, "tags": {"alt_name": "Kostanjevica ob Krki", "name": "Kostanjevica na Krki", "name:ru": "\u041a\u043e\u0441\u0442\u0430\u043d\u0435\u0432\u0438\u0446\u0430-\u043d\u0430-\u041a\u0440\u043a\u0438", "name:sl": "Kostanjevica na Krki", "old_name:de": "Landstra\u00df an der Gurk", "place": "town", "population": "729", "source:population": "https://www.stat.si/StatWeb/News/Index/8135", "wikidata": "Q15885", "wikipedia": "sl:Kostanjevica na Krki"}}, {"type": "node", "id": 57091959, "lat": 46.0661317, "lon": 15.1818757, "tags": {"ele": "194", "name": "Rade\u010de", "name:de": "Ratschach", "name:ru": "\u0420\u0430\u0434\u0435\u0447\u0435", "name:sl": "Rade\u010de", "place": "town", "population": "2296", "source:population": "http://www.stat.si/KrajevnaImena/", "wikidata": "Q15908", "wikipedia": "sl:Rade\u010de"}}, {"type": "node", "id": 57092168, "lat": 46.0057621, "lon": 15.3150833, "tags": {"name": "Sevnica", "name:de": "Lichtenwald", "name:lt": "Sevnica", "name:ru": "\u0421\u0435\u0432\u043d\u0438\u0446\u0430", "name:sl": "Sevnica", "place": "town", "population": "4700", "source:population": "http://www.stat.si/KrajevnaImena/", "wikidata": "Q15915", "wikipedia": "sl:Sevnica"}}, {"type": "node", "id": 57082764, "lat": 45.9576446, "lon": 15.4946767, "tags": {"name": "Kr\u0161ko", "name:de": "Gurkfeld", "name:lt": "Kr\u0161kas", "name:ru": "\u041a\u0440\u0448\u043a\u043e", "name:sl": "Kr\u0161ko", "place": "town", "population": "7097", "source:population": "http://www.stat.si/KrajevnaImena/", "wikidata": "Q15886", "wikipedia": "sl:Kr\u0161ko"}}, {"type": "node", "id": 53385278, "lat": 45.9038696, "lon": 15.5930859, "tags": {"name": "Bre\u017eice", "name:de": "Rann", "name:lt": "Bre\u017eic\u0117s", "name:ru": "\u0411\u0440\u0435\u0436\u0438\u0446\u0435", "name:sl": "Bre\u017eice", "place": "town", "population": "6600", "source:population": "http://www.stat.si/KrajevnaImena/", "wikidata": "Q15858", "wikipedia": "sl:Bre\u017eice"}}, {"type": "node", "id": 279372024, "lat": 46.2517774, "lon": 15.1632057, "tags": {"name": "\u017dalec", "name:de": "Sachsenfeld", "name:ru": "\u0416\u0430\u043b\u0435\u0446", "name:sl": "\u017dalec", "place": "town", "population": "5000", "source:population": "http://www.stat.si/KrajevnaImena/", "wikidata": "Q631387", "wikipedia": "sl:\u017dalec"}}, {"type": "node", "id": 264999178, "lat": 46.1537984, "lon": 15.2354706, "tags": {"alt_name:de": "Markt T\u00fcffer", "name": "La\u0161ko", "name:de": "T\u00fcffer", "name:ru": "\u041b\u0430\u0448\u043a\u043e", "name:sl": "La\u0161ko", "place": "town", "population": "3500", "source:population": "http://www.stat.si/KrajevnaImena/", "wikidata": "Q1292940", "wikipedia": "sl:La\u0161ko"}}, {"type": "node", "id": 30483320, "lat": 46.2293889, "lon": 15.2616828, "tags": {"ele": "238 (pri vodnem stolpu)", "name": "Celje", "name:de": "Cilli", "name:el": "\u03a4\u03c3\u03ad\u03bb\u03b9\u03b5", "name:he": "\u05e6\u05dc\u05d9\u05d4", "name:hu": "Cille", "name:ja": "\u30c4\u30a7\u30ea\u30a7", "name:la": "Celeia", "name:lt": "Cel\u0117", "name:ru": "\u0426\u0435\u043b\u0435", "name:sl": "Celje", "name:sr": "\u0426\u0435\u0459\u0435", "place": "city", "population": "37800", "postal_code": "3000", "source:population": "http://www.stat.si/KrajevnaImena/", "wikidata": "Q1012", "wikipedia": "sl:Celje"}}, {"type": "node", "id": 56758589, "lat": 46.3592869, "lon": 15.1150301, "tags": {"name": "Velenje", "name:de": "W\u00f6llan", "name:lt": "Velen\u0117", "name:ru": "\u0412\u0435\u043b\u0435\u043d\u0435", "name:sl": "Velenje", "old_name": "Titovo Velenje", "place": "town", "population": "25800", "postal_code": "3320", "source:population": "http://www.stat.si/KrajevnaImena/", "wikidata": "Q15928", "wikipedia": "sl:Velenje"}}, {"type": "node", "id": 83450062, "lat": 46.2168375, "lon": 15.3937905, "tags": {"name": "\u0160entjur", "name:de": "Sankt Georgen bei Cilli", "name:sl": "\u0160entjur", "place": "town", "population": "4700", "source:population": "http://www.stat.si/KrajevnaImena/", "wikidata": "Q15921", "wikipedia": "sl:\u0160entjur"}}, {"type": "node", "id": 30894276, "lat": 46.3373063, "lon": 15.4224967, "tags": {"is_in:country": "Slovenia", "name": "Slovenske Konjice", "name:de": "Gonobitz", "name:lt": "Slovenske Konic\u0117s", "name:ru": "\u0421\u043b\u043e\u0432\u0435\u043d\u0441\u043a\u0435-\u041a\u043e\u043d\u0438\u0446\u0435", "name:sl": "Slovenske Konjice", "place": "town", "population": "5000", "source:population": "http://www.stat.si/KrajevnaImena/", "wikidata": "Q15919", "wikipedia": "sl:Slovenske Konjice"}}, {"type": "node", "id": 96028058, "lat": 46.5386688, "lon": 15.5139415, "tags": {"ele": "307.7", "name": "Ru\u0161e", "name:de": "Maria Rast", "name:en": "Ru\u0161e", "name:ru": "\u0420\u0443\u0448\u0435", "name:sl": "Ru\u0161e", "place": "town", "population": "4500", "source:population": "http://www.stat.si/KrajevnaImena/", "wikidata": "Q15914", "wikipedia": "sl:Ru\u0161e"}}, {"type": "node", "id": 206182471, "lat": 46.2329898, "lon": 15.6384369, "tags": {"name": "Roga\u0161ka Slatina", "name:de": "Rohitsch-Sauerbrunn", "name:ru": "\u0420\u043e\u0433\u0430\u0448\u043a\u0430-\u0421\u043b\u0430\u0442\u0438\u043d\u0430", "name:sl": "Roga\u0161ka Slatina", "place": "town", "population": "5200", "source:population": "http://www.stat.si/KrajevnaImena/", "wikidata": "Q3502521", "wikipedia": "sl:Roga\u0161ka Slatina"}}, {"type": "node", "id": 39284817, "lat": 46.392171, "lon": 15.5751029, "tags": {"name": "Slovenska Bistrica", "name:de": "Windisch-Feistritz", "name:lt": "Slovenska Bistrica", "name:ru": "\u0421\u043b\u043e\u0432\u0435\u043d\u0441\u043a\u0430-\u0411\u0438\u0441\u0442\u0440\u0438\u0446\u0430", "name:sl": "Slovenska Bistrica", "place": "town", "population": "7400", "source:population": "http://www.stat.si/KrajevnaImena/", "wikidata": "Q15917", "wikipedia": "sl:Slovenska Bistrica"}}, {"type": "node", "id": 36667529, "lat": 46.5576439, "lon": 15.6455854, "tags": {"name": "Maribor", "name:de": "Marburg an der Drau", "name:it": "Marburgo", "name:ja": "\u30de\u30ea\u30dc\u30eb", "name:la": "Marburgum", "name:lt": "Mariboras", "name:lv": "Maribora", "name:mk": "\u041c\u0430\u0440\u0438\u0431\u043e\u0440", "name:ru": "\u041c\u0430\u0440\u0438\u0431\u043e\u0440", "name:sl": "Maribor", "name:sr": "\u041c\u0430\u0440\u0438\u0431\u043e\u0440", "name:uk": "\u041c\u0430\u0440\u0438\u0431\u043e\u0440", "name:zh": "\u9a6c\u91cc\u535a\u5c14", "old_name": "Marburg an der Drau", "place": "city", "population": "96000", "postal_code": "2000", "source:population": "http://www.stat.si/KrajevnaImena/", "wikidata": "Q1010", "wikipedia": "sl:Maribor"}}, {"type": "node", "id": 35526498, "lat": 46.4198096, "lon": 15.8717378, "tags": {"alt_name:la": "Poetovio", "name": "Ptuj", "name:de": "Pettau", "name:la": "Poetovium", "name:lt": "Ptujus", "name:ru": "\u041f\u0442\u0443\u0439", "name:sl": "Ptuj", "place": "town", "population": "18339", "postal_code": "2250", "source:population": "http://www.stat.si/KrajevnaImena/", "wikidata": "Q15906", "wikipedia": "sl:Ptuj"}}, {"type": "node", "id": 96591043, "lat": 46.4072568, "lon": 16.1489979, "tags": {"ele": "218", "name": "Ormo\u017e", "name:de": "Friedau", "name:hu": "Ormosd", "name:ru": "\u041e\u0440\u043c\u043e\u0436", "name:sl": "Ormo\u017e", "place": "town", "population": "2174", "source:population": "http://www.stat.si/KrajevnaImena/", "wikidata": "Q1944509", "wikipedia": "sl:Ormo\u017e"}}, {"type": "node", "id": 268436671, "lat": 46.5187046, "lon": 16.1967404, "tags": {"ele": "175.1", "name": "Ljutomer", "name:de": "Luttenberg in der Steiermark", "name:ru": "\u041b\u044e\u0442\u043e\u043c\u0435\u0440", "name:sl": "Ljutomer", "place": "town", "population": "3400", "source:population": "http://www.stat.si/KrajevnaImena/", "wikidata": "Q13377820", "wikipedia": "sl:Ljutomer"}}, {"type": "node", "id": 203397917, "lat": 46.5639399, "lon": 16.4525201, "tags": {"ele": "161", "name": "Lendava / Lendva", "name:de": "Unter-Limbach", "name:hu": "Lendva", "name:ru": "\u041b\u0435\u043d\u0434\u0430\u0432\u0430", "name:sl": "Lendava", "old_name:hu": "Als\u00f3lendva", "place": "town", "population": "2954", "source:population": "http://www.stat.si/KrajevnaImena/", "website": "http://www.lendava.si/", "wikidata": "Q15890", "wikipedia": "en:Lendava"}}, {"type": "node", "id": 64002482, "lat": 46.5896276, "lon": 15.0235456, "tags": {"ele": "390.4", "is_in:continent": "Europe", "is_in:country": "Slovenia", "is_in:country_code": "SI", "name": "Dravograd", "name:de": "Unterdrauburg", "name:ru": "\u0414\u0440\u0430\u0432\u043e\u0433\u0440\u0430\u0434", "name:sl": "Dravograd", "place": "town", "population": "3088", "source:population": "http://www.stat.si/KrajevnaImena/", "wikidata": "Q15867", "wikipedia": "sl:Dravograd"}}, {"type": "node", "id": 160235617, "lat": 46.5760851, "lon": 15.8312836, "tags": {"name": "Lenart", "name:de": "Sankt Leonhard", "name:ru": "\u041b\u0435\u043d\u0430\u0440\u0442", "name:sl": "Lenart", "place": "town", "population": "3184", "source:population": "http://www.stat.si/KrajevnaImena/", "wikidata": "Q15889", "wikipedia": "sl:Lenart v Slovenskih goricah"}}, {"type": "node", "id": 95920483, "lat": 46.6769963, "lon": 15.9913176, "tags": {"name": "Gornja Radgona", "name:de": "Oberradkersburg", "name:hu": "Fels\u0151regede", "name:ru": "\u0413\u043e\u0440\u043d\u044f-\u0420\u0430\u0434\u0433\u043e\u043d\u0430", "name:sl": "Gornja Radgona", "place": "town", "population": "3200", "source:population": "http://www.stat.si/KrajevnaImena/", "wikidata": "Q15868", "wikipedia": "sl:Gornja Radgona"}}, {"type": "node", "id": 29524465, "lat": 46.6624644, "lon": 16.1655256, "tags": {"name": "Murska Sobota", "name:de": "Olsnitz", "name:hu": "Muraszombat", "name:ja": "\u30e0\u30eb\u30b9\u30ab\u30fb\u30bd\u30dc\u30bf", "name:lt": "Murska Sobota", "name:ru": "\u041c\u0443\u0440\u0441\u043a\u0430-\u0421\u043e\u0431\u043e\u0442\u0430", "name:sl": "Murska Sobota", "place": "town", "population": "11700", "source:population": "http://www.stat.si/KrajevnaImena/", "wikidata": "Q15899", "wikipedia": "sl:Murska Sobota"}}]}