{"version": 0.6, "generator": "Overpass API 0.7.56.8 7d656e78", "osm3s": {"timestamp_osm_base": "2021-03-02T19:17:03Z", "timestamp_areas_base": "2021-03-02T18:08:27Z", "copyright": "The data included in this document is from www.openstreetmap.org. The data is made available under ODbL."}, "elements": [{"type": "node", "id": 248816615, "lat": 39.8744907, "lon": 19.9987613, "tags": {"ADMINSTATE": "MUNICIPALITY", "Access_SDP": "Yes", "COMMUN_NAM": "Sarande", "COM_ID": "12208", "DIS_ID": "122", "PREFECTURE": "VLOR\u00cb", "PRE_ID": "12", "Pop05": "29037", "VILL_ID": "1220801.00000000000", "addr:district": "SARAND\u00cb", "ele": "0.8", "name": "Sarand\u00eb", "name:bg": "\u0421\u0430\u0440\u0430\u043d\u0434\u0430", "name:el": "\u0386\u03b3\u03b9\u03bf\u03b9 \u03a3\u03b1\u03c1\u03ac\u03bd\u03c4\u03b1", "name:eo": "Sarando", "name:hu": "Saranda", "name:it": "Santi Quaranta", "name:ja": "\u30b5\u30e9\u30f3\u30c0", "name:la": "Onchesmus", "name:mk": "\u0421\u0430\u0440\u0430\u043d\u0434\u0430", "name:pl": "Saranda", "name:ro": "Saranda", "name:ru": "\u0421\u0430\u0440\u0430\u043d\u0434\u0430", "name:sq": "Sarand\u00eb", "name:sr": "\u0421\u0430\u0440\u0430\u043d\u0434\u0430", "old_name:it": "Porto Edda", "place": "town", "population": "37757", "type": "City_Municipality_capital", "wikidata": "Q193226"}}, {"type": "node", "id": 3122825644, "lat": 39.9499249, "lon": 20.0975332, "tags": {"COMMUN_NAM": "Delvin\u00eb", "PREFECTURE": "VLOR\u00cb", "addr:district": "BASHKIA DELVIN\u00cb", "ele": "207", "name": "Delvin\u00eb", "name:el": "\u0394\u03ad\u03bb\u03b2\u03b9\u03bd\u03bf", "name:mk": "\u0414\u0435\u043b\u0432\u0438\u043d\u0430", "name:ru": "\u0414\u0435\u043b\u044c\u0432\u0438\u043d\u0430", "place": "town", "population": "5800", "postal_code": "9704", "wikidata": "Q372872", "wikipedia": "de:Delvina"}}, {"type": "node", "id": 2357598507, "lat": 40.102163, "lon": 19.7472977, "tags": {"name": "Himar\u00eb", "name:el": "Cheim\u00e1rra \u03a7\u03b5\u03b9\u03bc\u03ac\u03c1\u03c1\u03b1", "name:mk": "\u0425\u0438\u043c\u0430\u0440\u0430", "name:ru": "\u0425\u0438\u043c\u0430\u0440\u0430", "place": "town", "population": "6954", "wikidata": "Q622764", "wikipedia": "sq:Himara"}}, {"type": "node", "id": 713605590, "lat": 40.3260495, "lon": 19.4741163, "tags": {"ADMINSTATE": "MUNICIPALITY", "Access_SDP": "Yes", "COMMUN_NAM": "Orikum", "COM_ID": "12306", "DIS_ID": "123", "PREFECTURE": "VLOR\u00cb", "PRE_ID": "12", "Pop05": "3586", "VILL_ID": "1230601.00000000000", "addr:district": "VLOR\u00cb", "name": "Orikum", "name:mk": "\u041e\u0440\u0438\u043a\u0443\u043c", "place": "city", "type": "City_Municipality_capital", "wikidata": "Q947125"}}, {"type": "node", "id": 33208756, "lat": 40.4738898, "lon": 19.4933647, "tags": {"Access_SDP": "Yes", "COMMUN_NAM": "Vlore", "adminstate": "minicipality", "district": "Vlor\u00eb", "ele": "0", "is_in:continent": "Europe", "name": "Vlor\u00eb", "name:al": "Vlor\u00eb", "name:az": "Vlyora", "name:be": "\u0412\u043b\u0451\u0440\u0430", "name:bg": "\u0412\u043b\u044c\u043e\u0440\u0430", "name:ckb": "\u06a4\u0644\u06c6\u0631", "name:de": "Vlora", "name:el": "\u0391\u03c5\u03bb\u03ce\u03bd\u03b1\u03c2", "name:en": "Vlora", "name:eo": "Vlora", "name:fa": "\u0648\u0650\u0644\u0648\u0631\u0647", "name:fr": "Vlora", "name:it": "Valona", "name:ja": "\u30f4\u30ed\u30e9", "name:ku": "Vlor", "name:mk": "\u0412\u0430\u043b\u043e\u043d\u0430", "name:pl": "Wlora", "name:ro": "Vlor\u00eb", "name:ru": "\u0412\u043b\u0451\u0440\u0430", "name:sr": "\u0412\u0430\u043b\u043e\u043d\u0430", "name:zh": "\u53d1\u7f57\u62c9", "old_name": "Vlor\u00eb", "place": "city", "population": "124000", "postal_code": "9401", "prefecture": "Vlor\u00eb", "type": "City_municipality", "website": "http://www.bashkiavlore.org", "wikidata": "Q159610", "wikipedia": "sq:Vlora"}}, {"type": "node", "id": 728424474, "lat": 40.5311425, "lon": 19.6377731, "tags": {"ADMINSTATE": "MUNICIPALITY", "Access_SDP": "Yes", "COMMUN_NAM": "Selenice", "COM_ID": "12308", "DIS_ID": "123", "PREFECTURE": "VLOR\u00cb", "PRE_ID": "12", "Pop05": "7377", "VILL_ID": "1230801.00000000000", "addr:district": "VLOR\u00cb", "ele": "60", "name": "Selenic\u00eb", "name:mk": "\u0421\u0435\u043b\u0435\u043d\u0438\u0446\u0430", "name:ru": "\u0421\u0435\u043b\u0435\u043d\u0438\u0446\u0430", "place": "town", "population": "2235", "type": "City_municipality"}}, {"type": "node", "id": 728418395, "lat": 40.6843228, "lon": 19.6159921, "tags": {"ADMINSTATE": "MUNICIPALITY", "Access_SDP": "Yes", "COMMUN_NAM": "Patos", "COM_ID": "5110", "DIS_ID": "51", "PREFECTURE": "FIER", "PRE_ID": "5", "Pop05": "21493", "VILL_ID": "511007.00000000000", "addr:district": "FIER", "ele": "60", "name": "Patos", "name:al": "Patos", "name:de": "Patos", "name:en": "Patos", "name:fr": "Patos", "name:mk": "\u041f\u0430\u0442\u043e\u0441", "name:ru": "\u041f\u0430\u0442\u043e\u0441", "old_name": "Patos", "place": "town", "population": "23626", "postal_code": "9307", "wikidata": "Q18709"}}, {"type": "node", "id": 728423669, "lat": 40.2982258, "lon": 20.0208733, "tags": {"ADMINSTATE": "MUNICIPALITY", "Access_SDP": "No", "COMMUN_NAM": "Tepelen\u00eb", "COM_ID": "6310", "DIS_ID": "63", "PREFECTURE": "GJIROKAST\u00cbR", "PRE_ID": "6", "Pop05": "8591", "VILL_ID": "631001.00000000000", "addr:district": "BASHKIA TEPELEN\u00cb", "ele": "200", "is_in": "Albania", "name": "Tepelen\u00eb", "name:de": "Tepelena", "name:el": "\u03a4\u03b5\u03c0\u03b5\u03bb\u03ad\u03bd\u03b9", "name:en": "Tepelena", "name:eo": "Tepeleno", "name:fr": "Tepelena", "name:ko": "\ud14c\ud3a0\ub808\ub108", "name:mk": "\u0422\u0435\u043f\u0435\u043b\u0435\u043d\u0430", "name:pl": "Tepelena", "name:ru": "\u0422\u0435\u043f\u0435\u043b\u0435\u043d\u0430", "name:zh": "\u53f0\u4f69\u83b1\u7eb3", "old_name": "Tepelen\u00eb", "place": "town", "population": "4342", "postal_code": "6301", "type": "City_municipality", "wikidata": "Q81631", "wikipedia": "en:Tepelen\u00eb"}}, {"type": "node", "id": 713605057, "lat": 40.3516573, "lon": 19.9833859, "tags": {"ADMINSTATE": "COMMUNE", "Access_SDP": "Yes", "COMMUN_NAM": "Memaliaj", "COM_ID": "6302", "DIS_ID": "63", "PREFECTURE": "GJIROKAST\u00cbR", "PRE_ID": "6", "Pop05": "7553", "VILL_ID": "630201.00000000000", "addr:district": "BASHKIA MEMALIAJ", "ele": "130", "name": "Memaliaj", "name:mk": "\u041c\u0435\u043c\u0430\u043b\u0438\u0458\u0430", "name:ru": "\u041c\u0435\u043c\u0430\u043b\u044f\u0439", "place": "city", "postal_code": "6302", "type": "City_municipality"}}, {"type": "node", "id": 728425994, "lat": 40.6013728, "lon": 19.7358528, "tags": {"ADMINSTATE": "MUNICIPALITY", "Access_SDP": "Yes", "COMMUN_NAM": "Ballsh", "COM_ID": "5302", "DIS_ID": "53", "PREFECTURE": "FIER", "PRE_ID": "5", "Pop05": "12639", "VILL_ID": "530201.00000000000", "addr:district": "MALLAKAST\u00cbR", "alt_name:mk": "\u0413\u043b\u0430\u0432\u0435\u043d\u0438\u0446\u0430", "name": "Ballsh", "name:mk": "\u0411\u0430\u043b\u0448", "name:ru": "\u0411\u0430\u043b\u043b\u0448", "name:sr": "\u0411\u0430\u043b\u0448", "name:zh": "\u5df4\u5c14\u4ec0", "place": "town", "population": "9100", "type": "City_municipality", "wikidata": "Q743016", "wikipedia": "en:Ballsh"}}, {"type": "node", "id": 728421560, "lat": 40.6141567, "lon": 20.0982125, "tags": {"ADMINSTATE": "MUNICIPALITY", "Access_SDP": "Yes", "COMMUN_NAM": "Poli\u00e7an", "COM_ID": "1306", "DIS_ID": "13", "PREFECTURE": "BERAT", "PRE_ID": "1", "Pop05": "9417", "VILL_ID": "130602.00000000000", "addr:district": "SKRAPAR", "name": "Poli\u00e7an", "name:mk": "\u041f\u043e\u043b\u0438\u0447\u0430\u043d\u0438", "name:ru": "\u041f\u043e\u043b\u0438\u0447\u0430\u043d", "place": "town", "population": "11000", "type": "City_municipality"}}, {"type": "node", "id": 33208686, "lat": 40.7251118, "lon": 19.5582079, "tags": {"Access_SDP": "Yes", "COMMUN_NAM": "Fier", "COM_ID": "5103", "DIS_ID": "51", "PREFECTURE": "FIER", "PRE_ID": "5", "Pop05": "81325", "VILL_ID": "510301.00000000000", "addr:district": "FIER", "adminstate": "municipality", "ele": "100", "name": "Fier", "name:al": "Fier", "name:be": "\u0424\u0456\u0435\u0440", "name:be-tarask": "\u0424\u0456\u0435\u0440", "name:bg": "\u0424\u0438\u0435\u0440", "name:de": "Fier", "name:el": "\u03a6\u03af\u03b5\u03c1\u03b9", "name:en": "Fier", "name:fr": "Fier", "name:it": "Fier", "name:mk": "\u0424\u0438\u0435\u0440", "name:ru": "\u0424\u0438\u0435\u0440\u0438", "name:sr": "\u0424\u0458\u0435\u0440", "old_name": "Fieri", "place": "city", "population": "60000", "postal_code": "9301 \u2013 9305", "wikidata": "Q190897", "wikipedia": "sq:Fieri", "wikipedia:en": "Fier"}}, {"type": "node", "id": 1912969900, "lat": 40.7378742, "lon": 19.7046746, "tags": {"alt_name": "Rroskovec", "district": "Fi\u00ebr", "ele": "30", "is_in:iso_3166_2": "AL-04", "name": "Roskovec", "name:hu": "Roskovec", "name:mk": "\u0420\u043e\u0441\u043a\u043e\u0432\u0435\u0446", "name:ru": "\u0420\u043e\u0441\u043a\u043e\u0432\u0435\u0446", "old_name": "Rroskovec", "place": "city", "population": "22000", "postal_code": "9306", "prefecture": "Fi\u00ebr", "wikidata": "Q18746", "wikipedia": "en:Roskovec"}}, {"type": "node", "id": 728427729, "lat": 40.9956207, "lon": 19.533122, "tags": {"ADMINSTATE": "MUNICIPALITY", "Access_SDP": "Yes", "COMMUN_NAM": "Divjak\u00eb", "COM_ID": "5204", "DIS_ID": "52", "PREFECTURE": "FIER", "PRE_ID": "5", "Pop05": "6689", "VILL_ID": "520409.00000000000", "addr:district": "LUSHNJE", "ele": "20", "name": "Divjak\u00eb", "name:mk": "\u0414\u0438\u0432\u0458\u0430\u043a\u0430", "name:ru": "\u0414\u0438\u0432\u044c\u044f\u043a\u0430", "place": "town", "population": "7200", "wikidata": "Q1945622", "wikipedia": "sq:Divjaka"}}, {"type": "node", "id": 2193240328, "lat": 40.9422038, "lon": 19.7059724, "tags": {"alt_name": "Lushnje", "district": "Lushnj\u00eb", "ele": "9", "name": "Lushnj\u00eb", "name:al": "Lushnja", "name:de": "Lushnja", "name:el": "\u039b\u03bf\u03cd\u03c3\u03bd\u03b9\u03b1", "name:en": "Lushnja", "name:eo": "Lushnje", "name:fr": "Lushnja", "name:it": "Lushnja", "name:mk": "\u041b\u0443\u0448\u045a\u0435", "name:ru": "\u041b\u044e\u0448\u043d\u044f", "name:sr": "\u041b\u0443\u0448\u045a\u0435", "old_name": "Lushnj\u00eb", "place": "city", "population": "60000", "postal_code": "9001", "prefecture": "Fi\u00ebr", "wikidata": "Q212680", "wikipedia": "en:Lushnj\u00eb", "wikipedia:it": "Lushnj\u00eb", "wikipedia:sq": "Lushnja"}}, {"type": "node", "id": 33150886, "lat": 41.0758988, "lon": 19.6649775, "tags": {"ADMINSTATE": "MUNICIPALITY", "Access_SDP": "Yes", "COMMUN_NAM": "Rrogozhin\u00eb", "COM_ID": "11108", "DIS_ID": "111", "PREFECTURE": "TIRAN\u00cb", "PRE_ID": "11", "Pop05": "5261", "VILL_ID": "1110801.00000000000", "addr:district": "KAVAJ\u00cb", "district": "Kavaj\u00eb", "ele": "24", "name": "Rrogozhin\u00eb", "name:mk": "\u0420\u043e\u0433\u043e\u0436\u0438\u043d\u0430", "name:ru": "\u0420\u043e\u0433\u043e\u0436\u0438\u043d\u0430", "place": "town", "population": "7049", "prefecture": "Tiran\u00eb", "type": "City_Municipality_capital"}}, {"type": "node", "id": 728426330, "lat": 40.7719945, "lon": 19.8760275, "tags": {"ADMINSTATE": "MUNICIPALITY", "Access_SDP": "Yes", "COMMUN_NAM": "Ura Vajgurore", "COM_ID": "1110", "DIS_ID": "11", "PREFECTURE": "BERAT", "PRE_ID": "1", "Pop05": "6952", "VILL_ID": "111008.00000000000", "addr:district": "BERAT", "alt_name:mk": "\u0411\u0430\u045a\u0430", "ele": "40", "name": "Ura Vajgurore", "name:mk": "\u0423\u0440\u0430 \u0412\u0430\u0458\u0433\u0443\u0440\u043e\u0440\u0435", "place": "town", "population": "7232", "type": "City_Municipality_capital", "wikidata": "Q1524575", "wikipedia": "en:Ura Vajgurore"}}, {"type": "node", "id": 415789950, "lat": 40.804415, "lon": 19.9134448, "tags": {"ADMINSTATE": "MUNICIPALITY", "Access_SDP": "Yes", "COMMUN_NAM": "Ku\u00e7ov\u00eb", "COM_ID": "1201", "DIS_ID": "12", "PREFECTURE": "BERAT", "PRE_ID": "1", "Pop05": "30772", "VILL_ID": "120101.00000000000", "addr:district": "KU\u00c7OV\u00cb", "ele": "50", "name": "Ku\u00e7ov\u00eb", "name:mk": "\u041a\u0443\u0447\u043e\u0432\u043e", "name:ru": "\u041a\u0443\u0447\u043e\u0432\u0430", "place": "city", "population": "48288", "type": "City_municipality", "wikidata": "Q18774", "wikipedia": "sq:Ku\u00e7ov\u00eb"}}, {"type": "node", "id": 5197045817, "lat": 40.7018636, "lon": 19.9580758, "tags": {"ADMINSTATE": "MUNICIPALITY", "Access_SDP": "Yes", "COMMUN_NAM": "Berat", "PREFECTURE": "BERAT", "PRE_ID": "1", "addr:district": "BASHKIA BERAT", "ele": "58", "heritage": "1", "heritage:operator": "whc", "name": "Berat", "name:al": "Berat", "name:be": "\u0411\u0435\u0440\u0430\u0442", "name:be-tarask": "\u0411\u044d\u0440\u0430\u0442", "name:bg": "\u0411\u0435\u0440\u0430\u0442", "name:de": "Berat", "name:el": "\u0392\u03b5\u03c1\u03ac\u03c4\u03b9", "name:en": "Berat", "name:fr": "Berat", "name:ja": "\u30d9\u30e9\u30c8", "name:lt": "Beratis", "name:mk": "\u0411\u0435\u043b\u0433\u0440\u0430\u0434", "name:ru": "\u0411\u0435\u0440\u0430\u0442", "name:sr": "\u0411\u0435\u0440\u0430\u0442", "name:sr-Latn": "Berat", "name:uk": "\u0411\u0435\u0440\u0430\u0442", "name:zh": "\u57f9\u62c9\u7279", "old_name": "Berati", "place": "city", "population": "65000", "postal_code": "5001", "website": "www.bashkiaberat.gov.al", "wikidata": "Q170244", "wikipedia": "en:Berat"}}, {"type": "node", "id": 1656612077, "lat": 40.9796038, "lon": 19.8879417, "tags": {"ADMINSTATE": "MUNICIPALITY", "Access_SDP": "Yes", "COMMUN_NAM": "Belsh", "COM_ID": "4101", "DIS_ID": "41", "PREFECTURE": "ELBASAN", "PRE_ID": "4", "Pop05": "1019", "VILL_ID": "410104.00000000000", "addr:district": "BELSH", "alt_name:mk": "\u0411\u0435\u043b\u0448", "ele": "155", "name": "Belsh", "name:mk": "\u0411\u0435\u043b\u0435\u0448", "name:ru": "\u0411\u0435\u043b\u044c\u0448", "place": "town", "type": "Village", "wikidata": "Q816187", "wikipedia": "sq:Belsh"}}, {"type": "node", "id": 5196037939, "lat": 41.0461304, "lon": 19.7494517, "tags": {"ADMINSTATE": "COMMUNE", "Access_SDP": "Yes", "COMMUN_NAM": "Peqin", "COM_ID": "4401", "DIS_ID": "44", "PREFECTURE": "ELBASAN", "PRE_ID": "4", "Pop05": "8891", "VILL_ID": "440102.00000000000", "addr:country": "AL", "addr:district": "PEQIN", "addr:postcode": "3501", "ele": "48;50", "name": "Peqin", "name:hu": "Peqin", "name:la": "Claudiana", "name:mk": "\u041f\u0435\u043a\u0438\u043d", "name:ru": "\u041f\u0435\u043a\u0438\u043d", "old_name": "Claudiana", "place": "town", "population": "8942", "type": "City_municipality", "wikidata": "Q821023", "wikipedia": "en:Peqin;sq:Peqin"}}, {"type": "node", "id": 5195988303, "lat": 41.0266165, "lon": 19.9887602, "tags": {"ADMINSTATE": "MUNICIPALITY", "Access_SDP": "Yes", "COMMUN_NAM": "C\u00ebrrik", "COM_ID": "4103", "DIS_ID": "41", "PREFECTURE": "ELBASAN", "PRE_ID": "4", "Pop05": "14720", "VILL_ID": "410301.00000000000", "addr:district": "C\u00cbRRIK", "ele": "69", "name": "C\u00ebrrik", "name:mk": "\u0426\u0435\u0440\u0438\u043a", "name:ru": "\u0426\u0435\u0440\u0440\u0438\u043a", "place": "town", "type": "City_municipality", "wikidata": "Q18730", "wikipedia": "en:C\u00ebrrik"}}, {"type": "node", "id": 2142698589, "lat": 41.1105874, "lon": 20.0794072, "tags": {"adminstate": "municipality", "alt_name": "Skampa", "alt_name:mk": "\u041a\u043e\u045a\u0443\u0445", "district": "Elbasan", "ele": "150", "int_name": "Elbasan", "name": "Elbasan", "name:be": "\u042d\u043b\u044c\u0431\u0430\u0441\u0430\u043d", "name:be-tarask": "\u042d\u043b\u044c\u0431\u0430\u0441\u0430\u043d", "name:ckb": "\u0626\u06ce\u0644\u0628\u0627\u0633\u0627\u0646", "name:el": "\u0395\u03bb\u03bc\u03c0\u03b1\u03c3\u03ac\u03bd", "name:en": "Elbasan", "name:eo": "Elbasano", "name:hu": "Elbasan", "name:ku": "\u00calbasan", "name:la": "Masio Scampa", "name:mk": "\u0415\u043b\u0431\u0430\u0441\u0430\u043d", "name:ru": "\u042d\u043b\u044c\u0431\u0430\u0441\u0430\u043d", "name:sr": "\u0415\u043b\u0431\u0430\u0441\u0430\u043d", "name:uk": "\u0415\u043b\u044c\u0431\u0430\u0441\u0430\u043d", "old_name": "Scampa", "place": "city", "population": "130000", "postal_code": "3001 - 3006", "prefecture": "Elbasan", "website": "http://www.elbasani.gov.al", "wikidata": "Q114257", "wikipedia": "sq:Elbasani"}}, {"type": "node", "id": 1832288053, "lat": 41.313255, "lon": 19.4462348, "tags": {"name": "Durr\u00ebs", "name:be": "\u0414\u0443\u0440\u044d\u0441", "name:bg": "\u0414\u0443\u0440\u044a\u0441", "name:bs": "Dra\u010d", "name:cs": "Dra\u010d", "name:el": "\u0394\u03c5\u03c1\u03c1\u03ac\u03c7\u03b9\u03bf", "name:eo": "Duraso", "name:fa": "\u062f\u0631\u0627\u062c", "name:he": "\u05d3\u05d5\u05e8\u05e1", "name:hr": "Dra\u010d", "name:hu": "Durr\u00ebs", "name:it": "Durazzo", "name:ja": "\u30c9\u30a5\u30e9\u30b9", "name:ka": "\u10d3\u10e3\u10e0\u10d4\u10e1\u10d8", "name:la": "Dyrrhachium", "name:lt": "Duresis", "name:lv": "Durresa", "name:mk": "\u0414\u0440\u0430\u0447", "name:no": "Durras", "name:ru": "\u0414\u0443\u0440\u0440\u0435\u0441", "name:sh": "Dra\u010d", "name:sk": "Dra\u010d", "name:sl": "Dra\u010d", "name:sq": "Durr\u00ebsi", "name:sr": "\u0414\u0440\u0430\u0447", "name:tr": "D\u0131ra\u00e7", "name:ur": "\u062f\u0631\u0627\u062c", "name:vec": "Durazo", "name:zh": "\u90fd\u62c9\u65af", "place": "city", "population": "130566", "ref:LOCODE": "ALDRZ", "wikidata": "Q83285"}}, {"type": "node", "id": 347462790, "lat": 41.1834239, "lon": 19.5599485, "tags": {"ele": "27", "name": "Kavaj\u00eb", "name:en": "Kavaje", "name:it": "Cavaia", "name:mk": "\u041a\u0430\u0432\u0430\u0458\u0430", "name:ru": "\u041a\u0430\u0432\u0430\u044f", "place": "city", "population": "40094", "wikidata": "Q46702", "wikipedia": "en:Kavaj\u00eb"}}, {"type": "node", "id": 728426328, "lat": 41.3434537, "lon": 19.5677358, "tags": {"ADMINSTATE": "MUNICIPALITY", "Access_SDP": "Yes", "COMMUN_NAM": "Shijak", "COM_ID": "3108", "DIS_ID": "31", "PREFECTURE": "DURR\u00cbS", "PRE_ID": "3", "Pop05": "12484", "VILL_ID": "310802.00000000000", "addr:district": "DURR\u00cbS", "ele": "51", "name": "Shijak", "name:mk": "\u0428\u0438\u0458\u0430\u043a", "name:ru": "\u0428\u0438\u0439\u044f\u043a", "name:sr": "\u0428\u0438\u0458\u0430\u043a", "place": "town", "population": "12893", "type": "City_municipality"}}, {"type": "node", "id": 728429031, "lat": 41.3770792, "lon": 19.6073408, "tags": {"ADMINSTATE": "COMMUNE", "Access_SDP": "Yes", "COMMUN_NAM": "Maminas", "COM_ID": "3105", "DIS_ID": "31", "PREFECTURE": "DURR\u00cbS", "PRE_ID": "3", "Pop05": "1018", "VILL_ID": "310505.00000000000", "addr:district": "DURR\u00cbS", "name": "Maminas", "name:mk": "\u041c\u0435\u043c\u0438\u043d\u0430\u0441", "place": "town", "type": "Village_Communa Capital"}}, {"type": "node", "id": 728418637, "lat": 41.4282958, "lon": 19.5993585, "tags": {"ADMINSTATE": "MUNICIPALITY", "Access_SDP": "Yes", "COMMUN_NAM": "Man\u00ebz", "COM_ID": "3106", "DIS_ID": "31", "PREFECTURE": "DURR\u00cbS", "PRE_ID": "3", "district": "Durr\u00ebs", "ele": "50", "name": "Man\u00ebz", "name:mk": "\u041c\u0430\u043d\u0437\u0430", "name:ru": "\u041c\u0430\u043d\u0435\u0437", "place": "town", "population": "6600", "postcode": "2011;2012", "type": "City_Municipality_capital", "wikidata": "Q2252359", "wikipedia": "de:Manza (Albanien)"}}, {"type": "node", "id": 728418165, "lat": 41.3376796, "lon": 19.624804, "tags": {"ADMINSTATE": "COMMUNE", "Access_SDP": "Yes", "COMMUN_NAM": "Gjepalaj", "COM_ID": "3102", "DIS_ID": "31", "PREFECTURE": "DURR\u00cbS", "PRE_ID": "3", "Pop05": "277", "VILL_ID": "310208.00000000000", "addr:district": "DURR\u00cbS", "name": "Shtraz\u00eb", "name:mk": "\u0421\u0442\u0440\u0430\u0436\u0430", "place": "town", "type": "Village"}}, {"type": "node", "id": 728426383, "lat": 41.3939611, "lon": 19.654925, "tags": {"Access_SDP": "Yes", "COMMUN_NAM": "Vore", "COM_ID": "11217", "DIS_ID": "112", "PRE_ID": "11", "VILL_ID": "1121705.00000000000", "addr:postcode": "1032", "adminstate": "municipality", "alt_name": "Vora", "district": "Tiran\u00eb", "ele": "60", "name": "Vor\u00eb", "name:mk": "\u0412\u043e\u0440\u0430", "name:ru": "\u0412\u043e\u0440\u0430", "place": "town", "population": "11000", "prefecture": "Tiran\u00eb", "type": "City_Municipality_capital"}}, {"type": "node", "id": 1835254686, "lat": 41.3268733, "lon": 19.8187913, "tags": {"ISO3166-1:alpha2": "AL", "admin_level": "2", "alt_name:gl": "Tiran\u00eb", "capital": "yes", "capital_ISO3166-1": "yes", "description": "Tirana \u00ebsht\u00eb kryeqendra e qarkut dhe rrethit me t\u00eb nj\u00ebtin em\u00ebr dhe kryeqyteti i Republik\u00ebs s\u00eb Shqip\u00ebris\u00eb.", "ele": "110", "name": "Tiran\u00eb", "name:am": "\u1272\u122b\u1293", "name:an": "Tirana", "name:ar": "\u062a\u064a\u0631\u0627\u0646\u0627", "name:arz": "\u062a\u064a\u0631\u0627\u0646\u0627", "name:ast": "Tirana", "name:bat-smg": "T\u0117rana", "name:be": "\u0422\u044b\u0440\u0430\u043d\u0430", "name:be-tarask": "\u0422\u044b\u0440\u0430\u043d\u0430", "name:bg": "\u0422\u0438\u0440\u0430\u043d\u0430", "name:bn": "\u09a4\u09bf\u09b0\u09be\u09a8\u09be", "name:bo": "\u0f50\u0f72\u0f66\u0f0b\u0f62\u0f53\u0f0d", "name:ca": "Tirana", "name:ce": "\u0422\u0438\u0440\u0430\u043d\u0430", "name:ckb": "\u062a\u06cc\u0631\u0627\u0646\u0627", "name:cs": "Tirana", "name:cv": "\u0422\u0438\u0440\u0430\u043d\u0430", "name:de": "Tirana", "name:el": "\u03a4\u03af\u03c1\u03b1\u03bd\u03b1", "name:en": "Tirana", "name:eo": "Tirano", "name:es": "Tirana", "name:et": "Tirana", "name:eu": "Tirana", "name:fa": "\u062a\u06cc\u0631\u0627\u0646\u0627", "name:fr": "Tirana", "name:ga": "Tior\u00e1na", "name:gl": "Tirana", "name:gv": "Tiran\u00eb", "name:he": "\u05d8\u05d9\u05e8\u05e0\u05d4", "name:hi": "\u0924\u093f\u0930\u093e\u0928\u093e", "name:hr": "Tirana", "name:hu": "Tirana", "name:hy": "\u054f\u056b\u0580\u0561\u0576\u0561", "name:io": "Tirane", "name:is": "T\u00edrana", "name:it": "Tirana", "name:ja": "\u30c6\u30a3\u30e9\u30ca", "name:ka": "\u10e2\u10d8\u10e0\u10d0\u10dc\u10d0", "name:kk": "\u0422\u0438\u0440\u0430\u043d\u0430", "name:ko": "\ud2f0\ub77c\ub098", "name:ku": "T\u00eerana", "name:kv": "\u0422\u0438\u0440\u0430\u043d\u0430", "name:la": "Theranda", "name:lv": "Tir\u0101na", "name:mhr": "\u0422\u0438\u0440\u0430\u043d\u0430", "name:mk": "\u0422\u0438\u0440\u0430\u043d\u0430", "name:ml": "\u0d1f\u0d3f\u0d31\u0d3e\u0d28", "name:mr": "\u0924\u093f\u0930\u093e\u0928\u093e", "name:nl": "Tirana", "name:no": "Tirana", "name:oc": "Tirana", "name:os": "\u0422\u0438\u0440\u0430\u043d\u00e6", "name:pl": "Tirana", "name:pms": "Tiran-a", "name:pnb": "\u062a\u06cc\u0631\u0627\u0646\u0627", "name:ps": "\u062a\u06cc\u0631\u0627\u0646\u0627", "name:pt": "Tirana", "name:ru": "\u0422\u0438\u0440\u0430\u043d\u0430", "name:sah": "\u0422\u0438\u0440\u0430\u043d\u0430", "name:sk": "Tirana", "name:sr": "\u0422\u0438\u0440\u0430\u043d\u0430", "name:sv": "Tirana", "name:ta": "\u0b9f\u0bbf\u0bb0\u0bbe\u0ba9\u0bbe", "name:tg": "\u0422\u0438\u0440\u0430\u043d\u0430", "name:th": "\u0e15\u0e34\u0e23\u0e32\u0e19\u0e32", "name:tr": "Tiran, Arnavutluk", "name:tt": "\u0422\u0438\u0440\u0430\u043d\u0430", "name:udm": "\u0422\u0438\u0440\u0430\u043d\u0430", "name:uk": "\u0422\u0438\u0440\u0430\u043d\u0430", "name:ur": "\u062a\u06cc\u0631\u0627\u0646\u0627", "name:vep": "Tiran", "name:yi": "\u05d8\u05d9\u05e8\u05d0\u05e0\u05d0", "name:zh": "\u5730\u62c9\u90a3", "place": "city", "population": "557422", "source:name:oc": "Lo Congr\u00e8s", "website": "https://www.tirana.gov.al/", "wikidata": "Q19689", "wikipedia": "sq:Tirana"}}, {"type": "node", "id": 4340385989, "lat": 41.3835259, "lon": 19.7604224, "tags": {"name": "Kamez", "name:bg": "\u041a\u0430\u043c\u0437\u0430", "name:de": "Kamza", "name:en": "Kam\u00ebz", "name:mk": "\u041a\u0430\u043c\u0437\u0430", "name:ru": "\u041a\u0430\u043c\u0437\u0430", "name:ur": "\u06a9\u0627\u0645\u0632\u0627", "name:zh": "\u5361\u59c6\u624e", "place": "city", "population": "110'000", "wikidata": "Q605160", "wikipedia": "en:Kam\u00ebz"}}, {"type": "node", "id": 728424152, "lat": 41.4809331, "lon": 19.7184835, "tags": {"ADMINSTATE": "MUNICIPALITY", "Access_SDP": "Yes", "COMMUN_NAM": "Fush\u00eb kruj\u00eb", "COM_ID": "3203", "DIS_ID": "32", "PREFECTURE": "DURR\u00cbS", "PRE_ID": "3", "Pop05": "3334", "VILL_ID": "320304.00000000000", "addr:district": "KRUJ\u00cb", "alt_name:mk": "\u0424\u0443\u0448\u0430-\u041a\u0440\u0443\u0458\u0430", "name": "Fush\u00eb-Kruj\u00eb", "name:mk": "\u041a\u0440\u043e\u0458\u0441\u043a\u043e \u041f\u043e\u043b\u0435", "name:ru": "\u0424\u0443\u0448\u0430-\u041a\u0440\u0443\u044f", "name:sr": "\u041a\u0440\u043e\u0458\u0441\u043a\u043e \u041f\u043e\u0459\u0435", "place": "town", "population": "11000", "type": "City_Municipality_capital"}}, {"type": "node", "id": 503689082, "lat": 41.5111289, "lon": 19.7923649, "tags": {"ele": "600", "name": "Kruj\u00eb", "name:en": "Kruje", "name:hu": "Kruja", "name:mk": "\u041a\u0440\u043e\u0458\u0430", "name:pl": "Kruja", "name:ru": "\u041a\u0440\u0443\u044f", "name:sr": "\u041a\u0440\u043e\u0458\u0430", "place": "town", "population": "40000"}}, {"type": "node", "id": 728417102, "lat": 41.5072297, "lon": 20.0850706, "tags": {"ADMINSTATE": "MUNICIPALITY", "Access_SDP": "Yes", "COMMUN_NAM": "Klos", "COM_ID": "2305", "DIS_ID": "23", "PREFECTURE": "DIB\u00cbR", "PRE_ID": "2", "Pop05": "1492", "VILL_ID": "230507.00000000000", "addr:district": "MAT", "ele": "277", "name": "Klos", "name:mk": "\u041a\u043b\u043e\u0441", "name:ru": "\u041a\u043b\u043e\u0441", "place": "town", "population": "7873", "type": "City_Municipality_capital"}}, {"type": "node", "id": 2367041545, "lat": 41.6380867, "lon": 19.712213, "tags": {"alt_name": "La\u00e7i", "district": "Kurbin", "ele": "27", "name": "La\u00e7", "name:mk": "\u041b\u0430\u0447", "name:ru": "\u041b\u0430\u0447", "name:zh": "\u62c9\u5947", "place": "city", "population": "24947", "postal_code": "4701-4702", "prefecture": "Lezh\u00eb", "wikidata": "Q18768", "wikipedia": "en:La\u00e7"}}, {"type": "node", "id": 441527308, "lat": 41.8097827, "lon": 19.5989755, "tags": {"alt_name:ru": "\u0428\u0435\u043d\u0436\u0438\u043d;\u0428\u0435\u043d\u0433\u0438\u043d", "name": "Sh\u00ebngjin", "name:mk": "\u0421\u0432\u0435\u0442\u0438 \u0408\u043e\u0432\u0430\u043d", "name:ru": "\u0428\u0435\u043d\u0433\u0438\u043d\u0438", "name:sr": "\u0421\u0432\u0435\u0442\u0438 \u0408\u043e\u0432\u0430\u043d", "place": "town", "wikidata": "Q606485", "wikipedia": "en:Sh\u00ebngjin"}}, {"type": "node", "id": 4742666358, "lat": 41.7816638, "lon": 19.6433538, "tags": {"ADMINSTATE": "MUNICIPALITY", "alt_name": "Lezha", "district": "Lezh\u00eb", "is_in:country": "Albania", "is_in:country_code": "AL", "name": "Lezh\u00eb", "name:el": "\u039b\u03ad\u03b6\u03b5", "name:it": "Alessio", "name:mk": "\u041b\u0435\u0441\u043a\u0430", "name:ru": "\u041b\u0435\u0436\u0430", "name:sr": "\u0409\u0435\u0448", "name:tr": "Le\u015f", "place": "city", "population": "24994", "postal_code": "4501", "prefecture": "Lezh\u00eb", "wikidata": "Q169160", "wikipedia": "sq:Lezha", "wikipedia:en": "Lezh\u00eb"}}, {"type": "node", "id": 414076828, "lat": 41.610429, "lon": 20.0130651, "tags": {"is_in": "Albania", "name": "Burrel", "name:mk": "\u0411\u0443\u0440\u0435\u043b", "name:ru": "\u0411\u0443\u0440\u0440\u0435\u043b\u0438", "place": "town", "population": "10862", "wikidata": "Q461313"}}, {"type": "node", "id": 728419534, "lat": 41.768084, "lon": 19.8769608, "tags": {"district": "Mirdit\u00eb", "name": "Rr\u00ebshen", "name:mk": "\u0420\u0435\u0448\u0435\u043d", "name:ru": "\u0420\u0435\u0448\u0435\u043d\u0438", "place": "town", "population": "14262", "prefecture": "Lezh\u00eb", "wikidata": "Q18737"}}, {"type": "node", "id": 274122533, "lat": 42.0681371, "lon": 19.5121437, "tags": {"Access_SDP": "Yes", "COMMUN_NAM": "Shkod\u00ebr", "COM_ID": "10312", "DIS_ID": "103", "PREFECTURE": "SHKOD\u00cbR", "PRE_ID": "10", "Pop05": "108351", "VILL_ID": "1031203.00000000000", "addr:district": "SHKOD\u00cbR", "alt_name": "Shkodra", "ele": "13", "gns:ADM1": "49", "gns:CC1": "AL", "gns:DSG": "PPLA", "gns:FC": "P", "gns:FULL_NAME": "Shkod\u00ebr", "gns:FULL_NAME_ND": "Shkoder", "gns:JOG": "NK34-04", "gns:MGRS": "34TCM7698458340", "gns:MODIFY_DATE": "2005-03-31", "gns:NT": "N", "gns:PC": "2", "gns:RC": "2", "gns:SORT_NAME": "SHKODER", "gns:UFI": "-108175", "gns:UNI": "203930", "gns:category": "P/PPLA", "name": "Shkod\u00ebr", "name:ar": "\u0634\u0642\u0648\u062f\u0631\u0629", "name:az": "\u015ekoder", "name:bg": "\u0428\u043a\u043e\u0434\u0440\u0430", "name:bs": "Skadar", "name:cs": "Skadar", "name:de": "Skutari", "name:el": "\u03a3\u03ba\u03cc\u03b4\u03c1\u03b1", "name:en": "Shkoder", "name:es": "Shkod\u00ebr", "name:fr": "Shkod\u00ebr", "name:he": "\u05e9\u05e7\u05d5\u05d3\u05e8", "name:hr": "Skadar", "name:hu": "Skadar", "name:it": "Scutari", "name:ja": "\u30b7\u30e5\u30b3\u30c9\u30e9", "name:la": "Scodra", "name:lt": "\u0160koderis", "name:lv": "\u0160kodra", "name:mk": "\u0421\u043a\u0430\u0434\u0430\u0440", "name:nl": "Shkod\u00ebr", "name:pl": "Szkodra", "name:ru": "\u0428\u043a\u043e\u0434\u0435\u0440", "name:sh": "Skadar", "name:sl": "Skader", "name:sq": "Shkod\u00ebr", "name:sr": "\u0421\u043a\u0430\u0434\u0430\u0440", "name:sr-Latn": "Skadar", "name:tr": "\u0130\u015fkodra", "name:ur": "\u0634\u06a9\u0648\u062f\u0631", "name:zh": "\u65af\u5e93\u53f0", "name_full_nd:sq": "Shkod\u00ebr", "name_sort:sq": "SHKODER", "place": "city", "population": "96000", "population:date": "2011", "postal_code": "4001-4007", "type": "City_Municipality_capital", "website": "http://www.bashkiashkoder.gov.al/", "wikipedia": "sq:Shkodra"}}, {"type": "node", "id": 5386224053, "lat": 42.2112922, "lon": 19.437214, "tags": {"ADMINSTATE": "MUNICIPALITY", "Access_SDP": "Yes", "COMMUN_NAM": "Koplik", "COM_ID": "10104", "PREFECTURE": "SHKOD\u00cbR", "PRE_ID": "10", "Pop05": "12613", "addr:district": "MAL\u00cbSI E MADHE", "name": "Koplik", "name:en": "Koplik", "name:mk": "\u041a\u043e\u043f\u043b\u0438\u043a", "name:ru": "\u041a\u043e\u043f\u043b\u0438\u043a", "name:sq": "Kopliku", "name:sr": "\u041a\u043e\u043f\u043b\u0438\u043a", "place": "town", "postal_code": "4301", "type": "City_municipality", "wikidata": "Q991288"}}, {"type": "node", "id": 728422866, "lat": 42.0443365, "lon": 19.8999196, "tags": {"addr:district": "PUK\u00cb", "alt_name": "Puka", "ele": "890", "name": "Puk\u00eb", "name:mk": "\u041f\u0443\u043a\u0430", "place": "town", "population": "11069", "postal_code": "4401", "prefecture": "Shkod\u00ebr", "type": "Village", "wikidata": "Q19310"}}, {"type": "node", "id": 728419167, "lat": 42.0701304, "lon": 20.0338708, "tags": {"addr:district": "BASHKIA FUSH\u00cb-ARR\u00cbZ", "ele": "605", "name": "Fush\u00eb-Arr\u00ebz", "name:mk": "\u0410\u0440\u0430\u0441\u043a\u043e \u041f\u043e\u043b\u0435", "place": "town", "population": "7045", "postal_code": "4402", "prefecture": "Shkod\u00ebr", "wikidata": "Q516116"}}, {"type": "node", "id": 728422812, "lat": 42.3553902, "lon": 20.0784354, "tags": {"ADMINSTATE": "MUNICIPALITY", "Access_SDP": "Yes", "COMMUN_NAM": "Bajram curri", "COM_ID": "8301", "DIS_ID": "83", "PREFECTURE": "KUK\u00cbS", "PRE_ID": "8", "Pop05": "6534", "VILL_ID": "830101.00000000000", "addr:district": "TROPOJ\u00cb", "alt_name:mk": "\u041a\u043e\u043b\u0433\u0435\u0446\u0430\u0458", "is_in:country": "Albania", "name": "Bajram Curri", "name:ar": "\u0628\u0627\u062c\u0631\u0627\u0645 \u0643\u0648\u0631\u064a", "name:de": "Bajram Curr", "name:en": "Bajram Curri", "name:es": "Bajram Curri", "name:fr": "Bajram Curri", "name:mk": "\u0411\u0430\u0458\u0440\u0430\u043c \u0426\u0443\u0440\u0438", "name:ru": "\u0411\u0430\u0439\u0440\u0430\u043c-\u0426\u0443\u0440\u0440\u0438", "place": "town", "population": "5340", "population:date": "2011", "type": "City_municipality", "website": "http://www.bashkiabajramcurri.al", "wikidata": "Q18705"}}, {"type": "node", "id": 728417013, "lat": 39.6595303, "lon": 20.1830111, "tags": {"ADMINSTATE": "MUNICIPALITY", "Access_SDP": "Yes", "COMMUN_NAM": "Konispol", "COM_ID": "12203", "DIS_ID": "122", "PREFECTURE": "VLOR\u00cb", "PRE_ID": "12", "Pop05": "2688", "VILL_ID": "1220301.00000000000", "addr:district": "BASHKIA KONISPOL", "ele": "389", "name": "Konispol", "place": "town", "population": "2123", "postal_code": "9705", "type": "City_Municipality_capital", "wikidata": "Q18731"}}, {"type": "node", "id": 274323115, "lat": 40.0770871, "lon": 20.1393359, "tags": {"Access_SDP": "Yes", "COMMUN_NAM": "Gjirokast\u00ebr", "COM_ID": "6105", "DIS_ID": "61", "PRE_ID": "6", "district": "BASHKIA GJIROKAST\u00cbR", "ele": "300", "heritage": "1", "heritage:operator": "whc", "is_in": "Albania", "name": "Gjirokast\u00ebr", "name:al": "Gjirokast\u00ebr", "name:de": "Gjirokast\u00ebr", "name:el": "\u0391\u03c1\u03b3\u03c5\u03c1\u03cc\u03ba\u03b1\u03c3\u03c4\u03c1\u03bf", "name:en": "Gjirokastra", "name:fr": "Gjirokastra", "name:he": "\u05d3\u05d9\u05e8\u05d5\u05e7\u05e1\u05d8\u05e8\u05d4", "name:it": "Argirocastro", "name:ja": "\u30b8\u30ed\u30ab\u30b9\u30c8\u30e9", "name:ko": "\uc9c0\ub85c\uce74\uc2a4\ud130\ub974", "name:lt": "Girokasteris", "name:mk": "\u0403\u0438\u0440\u043e\u043a\u0430\u0441\u0442\u0440\u043e", "name:pl": "D\u017airokastra", "name:ro": "Gjirokastra", "name:ru": "\u0413\u0438\u0440\u043e\u043a\u0430\u0441\u0442\u0440\u0430", "name:rup": "Ljurocastru", "name:sr": "\u0402\u0438\u0440\u043e\u043a\u0430\u0441\u0442\u0440\u0430", "name:tr": "Ergiri", "name:zh": "\u5409\u8bfa\u5361\u65af\u7279", "old_name": "Gjirokast\u00ebr", "place": "city", "population": "34450", "postal_code": "6001 \u2013 6003", "prefecture": "Gjirokast\u00ebr", "type": "City_municipality", "wikidata": "Q173690", "wikipedia": "en:Gjirokast\u00ebr"}}, {"type": "node", "id": 728418058, "lat": 40.2332541, "lon": 20.3531679, "tags": {"ADMINSTATE": "COMMUNE", "Access_SDP": "Yes", "COMMUN_NAM": "P\u00ebrmet", "COM_ID": "6207", "DIS_ID": "62", "PREFECTURE": "GJIROKAST\u00cbR", "PRE_ID": "6", "Pop05": "11267", "VILL_ID": "620701.00000000000", "addr:district": "BASHKIA P\u00cbRMET", "alt_name:mk": "\u041f\u0435\u0440\u043c\u0435\u0442", "ele": "246", "name": "P\u00ebrmet", "name:el": "\u03a0\u03c1\u03b5\u03bc\u03b5\u03c4\u03ae", "name:mk": "\u041f\u0440\u0435\u043c\u0435\u0442", "name:ru": "\u041f\u0435\u0440\u043c\u0435\u0442\u0438", "place": "town", "population": "12700", "postal_code": "6401", "type": "City_municipality", "wikidata": "Q642856", "wikipedia": "de:P\u00ebrmet"}}, {"type": "node", "id": 728422173, "lat": 40.1524216, "lon": 20.5990179, "tags": {"district": "Kolonj\u00eb", "name": "Leskovik", "name:mk": "\u041b\u0435\u0441\u043a\u043e\u0432\u0438\u043a", "name:ru": "\u041b\u0435\u0441\u043a\u043e\u0432\u0438\u043a", "place": "town", "population": "1976", "prefecture": "Kor\u00e7\u00eb", "wikidata": "Q1021800"}}, {"type": "node", "id": 5321908579, "lat": 40.3135075, "lon": 20.1922837, "tags": {"COMMUN_NAM": "K\u00eblcyr\u00eb", "PREFECTURE": "GJIROKAST\u00cbR", "alt_name:mk": "\u041a\u0435\u043b\u0446\u0438\u0440\u0430", "district": "P\u00ebrmet", "ele": "176", "name": "K\u00eblcyr\u00eb", "name:el": "\u039a\u03bb\u03b5\u03b9\u03c3\u03bf\u03cd\u03c1\u03b1", "name:mk": "\u041a\u043b\u0438\u0441\u0443\u0440\u0430", "name:ru": "\u041a\u0435\u043b\u044c\u0446\u0438\u0440\u0430", "place": "town", "population": "3101", "postal_code": "6402", "prefecture": "Gjirokast\u00ebr"}}, {"type": "node", "id": 309049893, "lat": 40.5036229, "lon": 20.2283496, "tags": {"ADMINSTATE": "MUNICIPALITY", "Access_SDP": "Yes", "COMMUN_NAM": "\u00c7orovod\u00eb", "COM_ID": "1303", "DIS_ID": "13", "PREFECTURE": "BERAT", "PRE_ID": "1", "Pop05": "8907", "VILL_ID": "130301.00000000000", "addr:district": "SKRAPAR", "alt_name": "\u00c7orovoda", "is_in": "Skrapar, Albania", "name": "\u00c7orovod\u00eb", "name:mk": "\u0427\u043e\u0440\u043e\u0432\u043e\u0434\u0430", "name:ru": "\u0427\u043e\u0440\u043e\u0432\u043e\u0434\u0430", "place": "city", "type": "City_municipality", "wikidata": "Q19307", "wikipedia": "sq:\u00c7orovoda"}}, {"type": "node", "id": 728418357, "lat": 40.3384368, "lon": 20.6810024, "tags": {"alt_name": "Erseka", "district": "Kolonj\u00eb", "ele": "1020", "name": "Ersek\u00eb", "name:mk": "\u0415\u0440\u0441\u0435\u043a\u0430", "name:ru": "\u042d\u0440\u0441\u0435\u043a\u0430", "place": "town", "population": "9966", "postal_code": "7401", "prefecture": "Kor\u00e7\u00eb", "province": "Kor\u00e7\u00eb", "type": "City_municipality", "wikidata": "Q18793"}}, {"type": "node", "id": 1350492991, "lat": 40.6158913, "lon": 20.7772019, "tags": {"alt_name": "Korca", "int_name": "Kor\u00e7a", "name": "Kor\u00e7\u00eb", "name:bg": "\u041a\u043e\u0440\u0447\u0430", "name:el": "\u039a\u03bf\u03c1\u03c5\u03c4\u03c3\u03ac", "name:it": "Coriza", "name:mk": "\u0413\u043e\u0440\u0438\u0446\u0430", "name:pl": "Korcza", "name:ru": "\u041a\u043e\u0440\u0447\u0430", "name:sr": "\u0413\u043e\u0440\u0438\u0446\u0430", "place": "city", "population": "80000", "postal_code": "7001-7004", "website": "http://www.bashkiakorce.gov.al", "wikidata": "Q116341", "wikipedia": "sq:Kor\u00e7a"}}, {"type": "node", "id": 712337806, "lat": 40.6240134, "lon": 20.9866319, "tags": {"district": "BASHKIA DEVOLL", "ele": "922", "name": "Bilisht", "name:mk": "\u0411\u0438\u043b\u0438\u0448\u0442\u0430", "name:ru": "\u0411\u0438\u043b\u0438\u0448\u0442", "place": "town", "population": "9136", "prefecture": "Kor\u00e7\u00eb", "wikidata": "Q817140"}}, {"type": "node", "id": 728417066, "lat": 40.8654273, "lon": 20.1864495, "tags": {"ADMINSTATE": "MUNICIPALITY", "Access_SDP": "Yes", "COMMUN_NAM": "Gramsh", "COM_ID": "4201", "DIS_ID": "42", "PREFECTURE": "ELBASAN", "PRE_ID": "4", "Pop05": "14910", "VILL_ID": "420101.00000000000", "addr:district": "GRAMSH", "ele": "220", "name": "Gramsh", "name:mk": "\u0413\u0440\u0430\u043c\u0435\u0448", "name:ru": "\u0413\u0440\u0430\u043c\u0448\u0438", "place": "town", "population": "17000", "postal_code": "3301", "type": "City_municipality", "website": "www.bashkiagramsh.gov.al", "wikidata": "Q18777", "wikipedia": "en:Gramsh"}}, {"type": "node", "id": 5196186465, "lat": 41.0712276, "lon": 20.5485577, "tags": {"alt_name": "Prrenjas", "district": "Prrenjas", "ele": "590", "name": "Prrenjas", "name:mk": "\u041f\u0440\u0435\u045a\u0430\u0441", "place": "town", "population": "5367", "postal_code": "3403-3404", "prefecture": "Elbasan", "wikidata": "Q19258", "wikipedia": "en:Prrenjas"}}, {"type": "node", "id": 5306524829, "lat": 40.7086433, "lon": 20.6996182, "tags": {"COMMUN_NAM": "Maliq", "PREFECTURE": "KOR\u00c7\u00cb", "district": "Kor\u00e7\u00eb", "ele": "825", "name": "Maliq", "name:mk": "\u041c\u0430\u043b\u0438\u043a", "name:ru": "\u041c\u0430\u043b\u0438\u043a", "place": "town", "population": "5696", "postal_code": "7005", "prefecture": "Kor\u00e7\u00eb", "source": "bing;mapbox-satellite;digitalglobe;knowledge;wikipedia;fletorja zyrtare 2014, nr. 137", "wikidata": "Q772248"}}, {"type": "node", "id": 5313460940, "lat": 40.8998739, "lon": 20.6573881, "tags": {"ele": "697", "int_name": "Pogradec", "name": "Pogradec", "name:el": "\u03a0\u03bf\u03b3\u03c1\u03b1\u03b4\u03ad\u03c4\u03c3\u03b9", "name:mk": "\u041f\u043e\u0433\u0440\u0430\u0434\u0435\u0446", "name:ru": "\u041f\u043e\u0433\u0440\u0430\u0434\u0435\u0446", "place": "city", "population": "30000", "postal_code": "7301", "wikidata": "Q73639", "wikipedia": "sq:Pogradeci"}}, {"type": "node", "id": 1785762367, "lat": 41.1802251, "lon": 20.3167518, "tags": {"district": "Librazhd", "ele": "249", "name": "Librazhd", "name:mk": "\u041b\u0438\u0431\u0440\u0430\u0436\u0434", "name:ru": "\u041b\u0438\u0431\u0440\u0430\u0436\u0434\u0438", "name:sr": "\u041b\u0438\u0431\u0440\u0430\u0436\u0434", "place": "town", "population": "6937", "postal_code": "3401", "prefecture": "Elbasan", "type": "City_municipality", "wikidata": "Q18772", "wikipedia": "en:Librazhd"}}, {"type": "node", "id": 728419301, "lat": 41.4232172, "lon": 20.2034934, "tags": {"ADMINSTATE": "COMMUNE", "Access_SDP": "Yes", "COMMUN_NAM": "Martanesh", "COM_ID": "2106", "DIS_ID": "21", "PREFECTURE": "DIB\u00cbR", "PRE_ID": "2", "Pop05": "1398", "VILL_ID": "210607.00000000000", "addr:district": "BULQIZ\u00cb", "name": "Krast\u00eb", "name:mk": "\u041a\u0440\u0430\u0441\u0442\u0430", "name:ru": "\u041a\u0440\u0430\u0441\u0442\u0430", "place": "town", "type": "City_Communa Capital", "wikidata": "Q6436354", "wikipedia": "en:Krast\u00eb, Dib\u00ebr"}}, {"type": "node", "id": 414076827, "lat": 41.4922026, "lon": 20.2183758, "tags": {"name": "Bulqiz\u00eb", "name:mk": "\u0411\u0443\u043b\u0447\u0438\u0446\u0430", "name:ru": "\u0411\u0443\u043b\u044c\u043a\u0438\u0437\u0430", "place": "town", "population": "67000", "type": "City_Municipality_capital", "wikidata": "Q463384", "wikipedia": "en:Bulqiz\u00eb"}}, {"type": "node", "id": 414638018, "lat": 41.6836349, "lon": 20.4280342, "tags": {"alt_name": "Peshkop\u00ebja", "loc_name": "Peshkop\u00ebj", "name": "Peshkopi", "name:de": "Peshkopia", "name:el": "\u03a0\u03b5\u03c3\u03ba\u03cc\u03c0\u03b9", "name:it": "Peshkopia", "name:mk": "\u041f\u0435\u0448\u043a\u043e\u043f\u0435\u0458\u0430", "name:ru": "\u041f\u0435\u0448\u043a\u043e\u043f\u0438\u044f", "name:sr": "\u041f\u0438\u0448\u043a\u043e\u043f\u0435\u0458\u0430", "place": "town", "population": "13251", "wikidata": "Q223154"}}, {"type": "node", "id": 470406312, "lat": 42.0768978, "lon": 20.4163203, "tags": {"is_in:continent": "Europe", "is_in:country": "Albania", "is_in:country_code": "AL", "name": "Kuk\u00ebs", "name:el": "\u039a\u03bf\u03c5\u03ba\u03ad\u03c2", "name:mk": "\u041a\u0443\u043a\u0443\u0448", "name:ru": "\u041a\u0443\u043a\u0435\u0441", "place": "town", "population": "16765", "website": "www.kukesi.gov.al", "wikidata": "Q210197", "wikipedia": "sq:Kuk\u00ebsi"}}, {"type": "node", "id": 728426346, "lat": 42.1958361, "lon": 20.4162476, "tags": {"ADMINSTATE": "MUNICIPALITY", "Access_SDP": "Yes", "COMMUN_NAM": "Krum\u00eb", "COM_ID": "8104", "DIS_ID": "81", "PREFECTURE": "KUK\u00cbS", "PRE_ID": "8", "Pop05": "3226", "VILL_ID": "810407.00000000000", "addr:district": "HAS", "ele": "430", "is_in:continent": "Europe", "is_in:country": "Albania", "is_in:country_code": "AL", "name": "Krum\u00eb", "name:mk": "\u041a\u0440\u0443\u043c\u0430", "place": "town", "population": "6006", "type": "City_Municipality_capital", "wikidata": "Q958899", "wikipedia": "en:Krum\u00eb"}}]}