{"type": "FeatureCollection", "features": [{"type": "Feature", "properties": {"type": "node", "id": 32627098, "tags": {"name": "Feldkirch", "name:mk": "\u0424\u0435\u043b\u0434\u043a\u0438\u0440\u0445", "name:rm": "Sogn Pieder", "openGeoDB:community_identification_number": "8040401", "openGeoDB:loc_id": "29269", "openGeoDB:postal_codes": "6800,6803", "place": "town", "population": "32534", "wikidata": "Q183104", "wikipedia": "de:Feldkirch"}}, "geometry": {"type": "Point", "coordinates": [9.5981724, 47.2375671]}}, {"type": "Feature", "properties": {"type": "node", "id": 240029790, "tags": {"name": "Rankweil", "name:de": "Rankweil", "name:hu": "Rankweil", "name:uk": "\u0420\u0430\u043d\u043a\u0432\u0430\u0439\u043b\u044c", "name:zh": "\u5170\u514b\u97e6\u5c14", "openGeoDB:auto_update": "population,place,name,is_in", "openGeoDB:community_identification_number": "80414", "openGeoDB:is_in": "Feldkirch,Vorarlberg,\u00d6sterreich,Europe", "openGeoDB:is_in_loc_id": "78384", "openGeoDB:layer": "6", "openGeoDB:loc_id": "78416", "openGeoDB:location": "political_structure", "openGeoDB:name": "Rankweil", "openGeoDB:population": "11525", "openGeoDB:postal_codes": "6830", "openGeoDB:sort_name": "RANKWEIL", "openGeoDB:type": "Gemeinde", "openGeoDB:version": "0.2.6.11 / 2007-12-04 / http://fa-technik.adfc.de/code/opengeodb/dump/", "place": "town", "population": "11525", "postal_code": "6830"}}, "geometry": {"type": "Point", "coordinates": [9.6426923, 47.2703808]}}, {"type": "Feature", "properties": {"type": "node", "id": 176758063, "tags": {"alt_name:uk": "\u0413\u0435\u0442\u0446\u0438\u0441", "ele": "448", "name": "G\u00f6tzis", "name:de": "G\u00f6tzis", "name:hu": "G\u00f6tzis", "name:ru": "\u0413\u0451\u0442\u0446\u0438\u0441", "name:uk": "\u0490\u044c\u043e\u0442\u0446\u0456\u0441", "name:zh": "\u683c\u9f50\u65af", "openGeoDB:auto_update": "population,is_in", "openGeoDB:community_identification_number": "8040801", "openGeoDB:is_in": "G\u00f6tzis,Feldkirch,Vorarlberg,\u00d6sterreich,Europe", "openGeoDB:is_in_loc_id": "78399", "openGeoDB:layer": "7", "openGeoDB:loc_id": "29375", "openGeoDB:name": "G\u00f6tzis", "openGeoDB:population": "10994", "openGeoDB:postal_codes": "6840", "openGeoDB:sort_name": "GOETZIS", "openGeoDB:type": "Ort", "openGeoDB:version": "0.2.6.11 / 2007-12-04 / http://fa-technik.adfc.de/code/opengeodb/dump/", "opengeodb:lat": "47.3446655", "opengeodb:lon": "9.6533531", "place": "town", "population": "10994", "postal_code": "6840", "website": "https://goetzis.at/", "wikidata": "Q698573", "wikipedia": "de:G\u00f6tzis"}}, "geometry": {"type": "Point", "coordinates": [9.6440092, 47.3351291]}}, {"type": "Feature", "properties": {"type": "node", "id": 240103067, "tags": {"name": "Bludenz", "name:mk": "\u0411\u043b\u0443\u0434\u0435\u043d\u0446", "name:pl": "Bogna", "name:uk": "\u0411\u043b\u0443\u0434\u0435\u043d\u0446", "name:zh": "\u5e03\u5362\u767b\u8328", "openGeoDB:community_identification_number": "8010303", "openGeoDB:loc_id": "29146", "openGeoDB:postal_codes": "6700,6751", "place": "town", "population": "10618", "wikidata": "Q494504", "wikipedia": "de:Bludenz"}}, "geometry": {"type": "Point", "coordinates": [9.8219314, 47.153037]}}, {"type": "Feature", "properties": {"type": "node", "id": 240079280, "tags": {"alt_name:uk": "\u0425\u043e\u0435\u043d\u0435\u043c\u0441", "ele": "432", "name": "Hohenems", "name:de": "Hohenems", "name:ru": "\u0425\u043e\u044d\u043d\u0435\u043c\u0441", "name:uk": "\u0413\u043e\u0433\u0435\u043d\u0435\u043c\u0441", "name:zh": "\u970d\u6069\u57c3\u59c6\u65af", "openGeoDB:auto_update": "population,place,name,is_in", "openGeoDB:community_identification_number": "8030201", "openGeoDB:is_in": "Hohenems,Dornbirn,Vorarlberg,\u00d6sterreich,Europe", "openGeoDB:is_in_loc_id": "78381", "openGeoDB:layer": "7", "openGeoDB:loc_id": "29493", "openGeoDB:location": "locality", "openGeoDB:name": "Hohenems", "openGeoDB:population": "15579", "openGeoDB:sort_name": "HOHENEMS", "openGeoDB:type": "Ort", "openGeoDB:version": "0.2.6.11 / 2007-12-04 / http://fa-technik.adfc.de/code/opengeodb/dump/", "place": "town", "population": "16720", "population:date": "2020-01-01", "postal_code": "6845", "source:population": "Statistik Austria", "website": "https://www.hohenems.at/", "wikidata": "Q698591", "wikipedia": "de:Hohenems"}}, "geometry": {"type": "Point", "coordinates": [9.689271, 47.3639973]}}, {"type": "Feature", "properties": {"type": "node", "id": 240108057, "tags": {"ele": "404", "name": "Lustenau", "name:de": "Lustenau", "name:hu": "Lustenau", "name:uk": "\u041b\u0443\u0441\u0442\u0435\u043d\u0430\u0443", "name:zh": "\u76e7\u65af\u7279\u7459", "openGeoDB:community_identification_number": "80303", "openGeoDB:loc_id": "78383", "place": "town", "population": "22214", "postal_code": "6890, 6893", "website": "https://www.lustenau.at/", "wikidata": "Q488315", "wikipedia": "de:Lustenau"}}, "geometry": {"type": "Point", "coordinates": [9.6599406, 47.4276538]}}, {"type": "Feature", "properties": {"type": "node", "id": 79994020, "tags": {"ele": "437", "name": "Dornbirn", "name:hu": "Dornbirn", "name:ja": "\u30c9\u30eb\u30f3\u30d3\u30eb\u30f3", "name:ru": "\u0414\u043e\u0440\u043d\u0431\u0438\u0440\u043d", "name:uk": "\u0414\u043e\u0440\u043d\u0431\u0456\u0440\u043d", "name:zh": "\u591a\u6069\u6bd4\u6069", "openGeoDB:community_identification_number": "8030101", "openGeoDB:loc_id": "29205", "place": "town", "population": "48067", "postal_code": "6850", "website": "www.dornbirn.at", "wikidata": "Q171219", "wikipedia": "de:Dornbirn"}}, "geometry": {"type": "Point", "coordinates": [9.7423875, 47.413631]}}, {"type": "Feature", "properties": {"type": "node", "id": 1898614152, "tags": {"capital": "4", "ele": "427", "name": "Bregenz", "name:be": "\u0411\u0440\u044d\u0433\u0435\u043d\u0446", "name:be-tarask": "\u0411\u0440\u044d\u0433\u0435\u043d\u0446", "name:de": "Bregenz", "name:fr": "Br\u00e9gence", "name:hu": "Bregenz", "name:ru": "\u0411\u0440\u0435\u0433\u0435\u043d\u0446", "name:zh": "\u5e03\u96f7\u6839\u8328", "place": "town", "population": "29562", "postal_code": "6900", "source": "wikipedia.de", "website": "https://www.bregenz.at/", "wikidata": "Q1737", "wikipedia": "de:Bregenz"}}, "geometry": {"type": "Point", "coordinates": [9.7472924, 47.5025779]}}, {"type": "Feature", "properties": {"type": "node", "id": 79977566, "tags": {"ele": "817", "name": "Landeck", "name:ru": "\u041b\u0430\u043d\u0434\u0435\u043a\u043a", "name:zh": "\u862d\u5fb7\u514b", "openGeoDB:auto_update": "population,is_in", "openGeoDB:community_identification_number": "7061401", "openGeoDB:is_in": "Landeck,Landeck,Tirol,\u00d6sterreich,Europe", "openGeoDB:is_in_loc_id": "77817", "openGeoDB:layer": "7", "openGeoDB:loc_id": "77818", "openGeoDB:name": "Landeck", "openGeoDB:population": "7336", "openGeoDB:postal_codes": "6500", "openGeoDB:sort_name": "LANDECK", "openGeoDB:type": "Ort", "openGeoDB:version": "0.2.6.11 / 2007-12-04 / http://fa-technik.adfc.de/code/opengeodb/dump/", "opengeodb:lat": "47.1424135", "opengeodb:lon": "10.5704571", "place": "town", "population": "7336"}}, "geometry": {"type": "Point", "coordinates": [10.5704571, 47.1424135]}}, {"type": "Feature", "properties": {"type": "node", "id": 61764877, "tags": {"ele": "827", "name": "Imst", "name:ja": "\u30a4\u30e0\u30b9\u30c8", "name:ru": "\u0418\u043c\u0441\u0442", "name:zh": "\u4f0a\u59c6\u65af\u7279", "openGeoDB:auto_update": "population,is_in", "openGeoDB:community_identification_number": "7020301", "openGeoDB:is_in": "Imst,Imst,Tirol,\u00d6sterreich,Europe", "openGeoDB:is_in_loc_id": "77442", "openGeoDB:layer": "7", "openGeoDB:loc_id": "29516", "openGeoDB:name": "Imst", "openGeoDB:population": "8689", "openGeoDB:postal_codes": "6460", "openGeoDB:sort_name": "IMST", "openGeoDB:type": "Ort", "openGeoDB:version": "0.2.6.11 / 2007-12-04 / http://fa-technik.adfc.de/code/opengeodb/dump/", "opengeodb:lat": "47.2381536", "opengeodb:lon": "10.7406982", "place": "town", "population": "10504"}}, "geometry": {"type": "Point", "coordinates": [10.7406982, 47.2381536]}}, {"type": "Feature", "properties": {"type": "node", "id": 240077102, "tags": {"ele": "1368", "name": "S\u00f6lden", "name:ru": "\u0417\u0451\u043b\u044c\u0434\u0435\u043d", "openGeoDB:auto_update": "population,place,name,is_in", "openGeoDB:community_identification_number": "70220", "openGeoDB:is_in": "Imst,Tirol,\u00d6sterreich,Europe", "openGeoDB:is_in_loc_id": "77427", "openGeoDB:layer": "6", "openGeoDB:loc_id": "77476", "openGeoDB:location": "political_structure", "openGeoDB:name": "S\u00f6lden", "openGeoDB:population": "3488", "openGeoDB:postal_codes": "6450,6456,6458", "openGeoDB:sort_name": "SOELDEN", "openGeoDB:type": "Gemeinde", "openGeoDB:version": "0.2.6.11 / 2007-12-04 / http://fa-technik.adfc.de/code/opengeodb/dump/", "place": "town", "population": "3488", "website": "https://www.soelden.tirol.gv.at/", "wikidata": "Q570486"}}, "geometry": {"type": "Point", "coordinates": [11.0070193, 46.9673961]}}, {"type": "Feature", "properties": {"type": "node", "id": 240110573, "tags": {"ele": "994", "name": "Neustift im Stubaital", "name:ru": "\u041d\u043e\u0439\u0448\u0442\u0438\u0444\u0442-\u0438\u043c-\u0428\u0442\u0443\u0431\u0430\u0439\u0442\u0430\u043b\u044c", "openGeoDB:auto_update": "population,place,name,is_in", "openGeoDB:community_identification_number": "70334", "openGeoDB:is_in": "Innsbruck-Land,Tirol,\u00d6sterreich,Europe", "openGeoDB:is_in_loc_id": "77494", "openGeoDB:layer": "6", "openGeoDB:loc_id": "77557", "openGeoDB:location": "political_structure", "openGeoDB:name": "Neustift im Stubaital", "openGeoDB:population": "4504", "openGeoDB:postal_codes": "6167", "openGeoDB:sort_name": "NEUSTIFT", "openGeoDB:type": "Gemeinde", "openGeoDB:version": "0.2.6.11 / 2007-12-04 / http://fa-technik.adfc.de/code/opengeodb/dump/", "place": "town", "population": "4600", "wikidata": "Q526569", "wikipedia": "de:Neustift im Stubaital"}}, "geometry": {"type": "Point", "coordinates": [11.307579, 47.1106408]}}, {"type": "Feature", "properties": {"type": "node", "id": 76472938, "tags": {"ele": "634", "name": "Telfs", "name:hu": "Telfs", "openGeoDB:auto_update": "population,is_in", "openGeoDB:community_identification_number": "7035712", "openGeoDB:is_in": "Telfs,Innsbruck-Land,Tirol,\u00d6sterreich,Europe", "openGeoDB:is_in_loc_id": "77599", "openGeoDB:layer": "7", "openGeoDB:loc_id": "30241", "openGeoDB:name": "Telfs", "openGeoDB:population": "15920", "openGeoDB:postal_codes": "6410", "openGeoDB:sort_name": "TELFS", "openGeoDB:type": "Markt", "openGeoDB:version": "0.2.6.11 / 2007-12-04 / http://fa-technik.adfc.de/code/opengeodb/dump/", "opengeodb:lat": "47.3051446", "opengeodb:lon": "11.0715813", "place": "town", "population": "15920", "wikidata": "Q660015", "wikipedia": "de:Telfs"}}, "geometry": {"type": "Point", "coordinates": [11.071515, 47.3046511]}}, {"type": "Feature", "properties": {"type": "node", "id": 240100634, "tags": {"ele": "994", "name": "Ehrwald", "openGeoDB:auto_update": "population,place,name,is_in", "openGeoDB:community_identification_number": "7080701", "openGeoDB:is_in": "Ehrwald,Reutte,Tirol,\u00d6sterreich,Europe", "openGeoDB:is_in_loc_id": "78046", "openGeoDB:layer": "7", "openGeoDB:loc_id": "29234", "openGeoDB:location": "locality", "openGeoDB:name": "Ehrwald", "openGeoDB:population": "2554", "openGeoDB:postal_codes": "6632", "openGeoDB:sort_name": "EHRWALD", "openGeoDB:type": "Ort", "openGeoDB:version": "0.2.6.11 / 2007-12-04 / http://fa-technik.adfc.de/code/opengeodb/dump/", "place": "town", "population": "2554"}}, "geometry": {"type": "Point", "coordinates": [10.9205046, 47.3986534]}}, {"type": "Feature", "properties": {"type": "node", "id": 240023485, "tags": {"ele": "574", "name": "V\u00f6ls", "place": "town", "population": "6713", "wikidata": "Q234292", "wikipedia": "de:V\u00f6ls"}}, "geometry": {"type": "Point", "coordinates": [11.323817, 47.2537082]}}, {"type": "Feature", "properties": {"type": "node", "id": 240048807, "tags": {"ele": "622", "name": "Zirl", "name:la": "Teriolis", "openGeoDB:auto_update": "population,is_in", "openGeoDB:community_identification_number": "70369", "openGeoDB:is_in": "Innsbruck-Land,Tirol,\u00d6sterreich,Europe", "openGeoDB:is_in_loc_id": "77494", "openGeoDB:layer": "6", "openGeoDB:loc_id": "77630", "openGeoDB:location": "political_structure", "openGeoDB:name": "Zirl", "openGeoDB:population": "6796", "openGeoDB:postal_codes": "6170", "openGeoDB:sort_name": "ZIRL", "openGeoDB:type": "Markt", "openGeoDB:version": "0.2.6.11 / 2007-12-04 / http://fa-technik.adfc.de/code/opengeodb/dump/", "place": "town", "population": "6796", "wikidata": "Q206000", "wikipedia": "de:Zirl"}}, "geometry": {"type": "Point", "coordinates": [11.2412137, 47.2740721]}}, {"type": "Feature", "properties": {"type": "node", "id": 240042621, "tags": {"ele": "1048", "name": "Steinach am Brenner", "place": "town", "population": "3314", "wikidata": "Q697506", "wikipedia": "de:Steinach am Brenner"}}, "geometry": {"type": "Point", "coordinates": [11.4665722, 47.0907467]}}, {"type": "Feature", "properties": {"type": "node", "id": 240054234, "tags": {"ele": "937", "name": "Fulpmes", "name:ru": "\u0424\u0443\u043b\u044c\u043f\u043c\u0435\u0441", "openGeoDB:auto_update": "population,place,name,is_in", "openGeoDB:community_identification_number": "7031001", "openGeoDB:is_in": "Fulpmes,Innsbruck-Land,Tirol,\u00d6sterreich,Europe", "openGeoDB:is_in_loc_id": "77510", "openGeoDB:layer": "7", "openGeoDB:loc_id": "29311", "openGeoDB:location": "locality", "openGeoDB:name": "Fulpmes", "openGeoDB:population": "2842", "openGeoDB:postal_codes": "6166", "openGeoDB:sort_name": "FULPMES", "openGeoDB:type": "Ort", "openGeoDB:version": "0.2.6.11 / 2007-12-04 / http://fa-technik.adfc.de/code/opengeodb/dump/", "place": "town", "population": "4200", "wikidata": "Q669803", "wikipedia": "de:Fulpmes"}}, "geometry": {"type": "Point", "coordinates": [11.3490587, 47.1530974]}}, {"type": "Feature", "properties": {"type": "node", "id": 240044982, "tags": {"ele": "953", "name": "Matrei am Brenner", "openGeoDB:auto_update": "population,name,is_in", "openGeoDB:community_identification_number": "70327", "openGeoDB:is_in": "Innsbruck-Land,Tirol,\u00d6sterreich,Europe", "openGeoDB:is_in_loc_id": "77494", "openGeoDB:layer": "6", "openGeoDB:loc_id": "77538", "openGeoDB:location": "political_structure", "openGeoDB:name": "Matrei am Brenner", "openGeoDB:population": "950", "openGeoDB:postal_codes": "6143", "openGeoDB:sort_name": "MATREI", "openGeoDB:type": "Markt", "openGeoDB:version": "0.2.6.11 / 2007-12-04 / http://fa-technik.adfc.de/code/opengeodb/dump/", "place": "town", "population": "902", "wikidata": "Q429728", "wikipedia": "de:Matrei am Brenner"}}, "geometry": {"type": "Point", "coordinates": [11.4536634, 47.1312496]}}, {"type": "Feature", "properties": {"type": "node", "id": 34840064, "tags": {"alt_name:cs": "Inomost\u00ed", "capital": "4", "ele": "574", "name": "Innsbruck", "name:ar": "\u0625\u0646\u0633\u0628\u0631\u0648\u0643", "name:az": "\u0130nsbruk", "name:be": "\u0406\u043d\u0441\u0431\u0440\u0443\u043a", "name:be-tarask": "\u0406\u043d\u0441\u0431\u0440\u0443\u043a", "name:bg": "\u0418\u043d\u0441\u0431\u0440\u0443\u043a", "name:bn": "\u0987\u09a8\u09cd\u09b8\u09ac\u09cd\u09b0\u09c1\u0995", "name:cs": "Innsbruck", "name:cv": "\u0418\u043d\u0441\u0431\u0440\u0443\u043a", "name:de": "Innsbruck", "name:el": "\u038a\u03bd\u03c3\u03bc\u03c0\u03c1\u03bf\u03c5\u03ba", "name:en": "Innsbruck", "name:fa": "\u0627\u06cc\u0646\u0633\u0628\u0631\u0648\u06a9", "name:fr": "Innsbruck", "name:he": "\u05d0\u05d9\u05e0\u05e1\u05d1\u05e8\u05d5\u05e7", "name:hu": "Innsbruck", "name:it": "Innsbruck", "name:ja": "\u30a4\u30f3\u30b9\u30d6\u30eb\u30c3\u30af", "name:ka": "\u10d8\u10dc\u10e1\u10d1\u10e0\u10e3\u10d9\u10d8", "name:kk": "\u0418\u043d\u0441\u0431\u0440\u0443\u043a", "name:ko": "\uc778\uc2a4\ube0c\ub8e8\ud06c", "name:la": "Pons Aeni", "name:lld": "Dispruch", "name:lt": "Insbrukas", "name:lv": "Insbruka", "name:mk": "\u0418\u043d\u0441\u0431\u0440\u0443\u043a", "name:mr": "\u0907\u0928\u094d\u0938\u092c\u094d\u0930\u0941\u0915", "name:os": "\u0418\u043d\u0441\u0431\u0440\u0443\u043a", "name:rm": "Puntina", "name:ru": "\u0418\u043d\u0441\u0431\u0440\u0443\u043a", "name:sr": "\u0418\u043d\u0437\u0431\u0440\u0443\u043a", "name:th": "\u0e2d\u0e34\u0e19\u0e2a\u0e4c\u0e1a\u0e23\u0e38\u0e04", "name:tr": "\u0130nnsbruck", "name:uk": "\u0406\u043d\u0441\u0431\u0440\u0443\u043a", "name:zh": "\u56e0\u65af\u5e03\u9c81\u514b", "old_name:it": "Ponte sull'Eno", "place": "city", "population": "127000", "population:date": "2015", "website": "http://www.innsbruck.at/", "wikidata": "Q1735", "wikipedia": "de:Innsbruck"}}, "geometry": {"type": "Point", "coordinates": [11.3927685, 47.2654296]}}, {"type": "Feature", "properties": {"type": "node", "id": 240129652, "tags": {"ele": "621", "name": "Rum", "name:ru": "\u0420\u0443\u043c", "openGeoDB:auto_update": "population,name,is_in", "openGeoDB:community_identification_number": "7034601", "openGeoDB:is_in": "Rum,Innsbruck-Land,Tirol,\u00d6sterreich,Europe", "openGeoDB:is_in_loc_id": "77579", "openGeoDB:layer": "7", "openGeoDB:loc_id": "30080", "openGeoDB:location": "locality", "openGeoDB:name": "Rum", "openGeoDB:population": "8352", "openGeoDB:postal_codes": "6063,6064", "openGeoDB:sort_name": "RUM", "openGeoDB:type": "Ort", "openGeoDB:version": "0.2.6.11 / 2007-12-04 / http://fa-technik.adfc.de/code/opengeodb/dump/", "place": "town", "population": "8352", "wikidata": "Q668078", "wikipedia": "de:Rum (Tirol)"}}, "geometry": {"type": "Point", "coordinates": [11.4582993, 47.2858272]}}, {"type": "Feature", "properties": {"type": "node", "id": 1612589807, "tags": {"name": "Hall in Tirol", "name:hu": "Hall in Tirol", "name:jp": "\u30cf\u30eb\u30fb\u30a4\u30f3\u30fb\u30c1\u30ed\u30eb", "name:ko": "\ud560\uc778\ud2f0\ub864", "name:ru": "\u0425\u0430\u043b\u043b\u044c-\u0438\u043d-\u0422\u0438\u0440\u043e\u043b\u044c", "name:zh": "\u8482\u7f85\u723e\u5dde\u970d\u723e", "openGeoDB:auto_update": "population", "openGeoDB:community_identification_number": "7035402", "openGeoDB:is_in": "Hall in Tirol,Innsbruck-Land,Tirol,\u00d6sterreich,Europe", "openGeoDB:is_in_loc_id": "77590", "openGeoDB:layer": "7", "openGeoDB:loc_id": "29436", "openGeoDB:name": "Hall in Tirol", "openGeoDB:population": "10991", "openGeoDB:postal_codes": "6060,6050", "openGeoDB:sort_name": "HALL", "openGeoDB:type": "Ort", "openGeoDB:version": "0.2.6.11 / 2007-12-04 / http://fa-technik.adfc.de/code/opengeodb/dump/", "opengeodb:lat": "47.2806951", "opengeodb:lon": "11.5075424", "place": "town", "population": "10991", "rank": "20", "source": "GeoImage.at", "wikidata": "Q302745", "wikipedia": "de:Hall in Tirol"}}, "geometry": {"type": "Point", "coordinates": [11.5075337, 47.2816648]}}, {"type": "Feature", "properties": {"type": "node", "id": 240112659, "tags": {"ele": "564", "name": "Wattens", "name:ru": "\u0412\u0430\u0442\u0442\u0435\u043d\u0441", "openGeoDB:auto_update": "population,place,name,is_in", "openGeoDB:community_identification_number": "70367", "openGeoDB:is_in": "Innsbruck-Land,Tirol,\u00d6sterreich,Europe", "openGeoDB:is_in_loc_id": "77494", "openGeoDB:layer": "6", "openGeoDB:loc_id": "77627", "openGeoDB:location": "political_structure", "openGeoDB:name": "Wattens", "openGeoDB:population": "7503", "openGeoDB:postal_codes": "6112", "openGeoDB:sort_name": "WATTENS", "openGeoDB:type": "Markt", "openGeoDB:version": "0.2.6.11 / 2007-12-04 / http://fa-technik.adfc.de/code/opengeodb/dump/", "place": "town", "population": "7503", "postal_code": "6112", "rank": "30", "website": "https://www.wattens.com/", "wikidata": "Q660935", "wikipedia": "de:Wattens"}}, "geometry": {"type": "Point", "coordinates": [11.5907326, 47.2935786]}}, {"type": "Feature", "properties": {"type": "node", "id": 2015063027, "tags": {"country": "AT", "name": "Schwaz", "name:ko": "\ud55c\uad6d\uc5b4", "name:ru": "\u0428\u0432\u0430\u0446", "name:zh": "\u65bd\u74e6\u8328", "place": "town", "population": "13058", "rank": "20", "website": "https://www.schwaz.at/", "wikidata": "Q583485", "wikipedia": "de:Schwaz"}}, "geometry": {"type": "Point", "coordinates": [11.7084253, 47.3449529]}}, {"type": "Feature", "properties": {"type": "node", "id": 240032338, "tags": {"ele": "826", "name": "Vils", "openGeoDB:community_identification_number": "70833", "openGeoDB:loc_id": "78126", "openGeoDB:postal_codes": "6600,6682", "place": "town", "population": "1638", "postal_code": "6682", "wikidata": "Q26340", "wikipedia": "de:Vils (Stadt)"}}, "geometry": {"type": "Point", "coordinates": [10.6304727, 47.5493283]}}, {"type": "Feature", "properties": {"type": "node", "id": 240056881, "tags": {"ele": "853", "name": "Reutte", "name:ru": "\u0420\u043e\u0439\u0442\u0442\u0435", "name:zh": "\u7f85\u4f0a\u7279", "openGeoDB:auto_update": "population,is_in", "openGeoDB:community_identification_number": "7082801", "openGeoDB:is_in": "Reutte,Tirol,\u00d6sterreich,Europe", "openGeoDB:is_in_loc_id": "78102", "openGeoDB:layer": "7", "openGeoDB:loc_id": "30050", "openGeoDB:location": "locality", "openGeoDB:name": "Reutte", "openGeoDB:population": "5719", "openGeoDB:postal_codes": "6600", "openGeoDB:sort_name": "REUTTE", "openGeoDB:type": "Markt", "openGeoDB:version": "0.2.6.11 / 2007-12-04 / http://fa-technik.adfc.de/code/opengeodb/dump/", "place": "town", "population": "5719"}}, "geometry": {"type": "Point", "coordinates": [10.7187955, 47.4891092]}}, {"type": "Feature", "properties": {"type": "node", "id": 240042171, "tags": {"ele": "1103", "name": "Sillian", "place": "town", "population": "2086", "wikidata": "Q687344", "wikipedia": "en:Sillian"}}, "geometry": {"type": "Point", "coordinates": [12.4180291, 46.7472874]}}, {"type": "Feature", "properties": {"type": "node", "id": 240087857, "tags": {"ele": "633", "name": "Mayrhofen", "name:ru": "\u041c\u0430\u0439\u0440\u0445\u043e\u0444\u0435\u043d", "name:zh": "\u8fc8\u5c14\u970d\u82ac", "place": "town", "population": "3883", "website": "http://www.mayrhofen.tirol.gv.at/", "wikidata": "Q668214", "wikipedia": "de:Mayrhofen"}}, "geometry": {"type": "Point", "coordinates": [11.8638664, 47.1672188]}}, {"type": "Feature", "properties": {"type": "node", "id": 240126489, "tags": {"ele": "575", "name": "Zell am Ziller", "name:cs": "Zell nad Zillerem", "name:ru": "\u0426\u0435\u043b\u043b\u044c-\u0430\u043c-\u0426\u0438\u043b\u043b\u0435\u0440", "place": "town", "population": "1723", "website": "https://www.gemeinde-zell.at/"}}, "geometry": {"type": "Point", "coordinates": [11.881991, 47.2335951]}}, {"type": "Feature", "properties": {"type": "node", "id": 240024258, "tags": {"ele": "563", "name": "Jenbach", "place": "town", "population": "7021", "rank": "30", "website": "https://www.jenbach.at/"}}, "geometry": {"type": "Point", "coordinates": [11.7717443, 47.3915387]}}, {"type": "Feature", "properties": {"type": "node", "id": 240118548, "tags": {"name": "Matrei in Osttirol", "name:ru": "\u041c\u0430\u0442\u0440\u0430\u0439", "name:uk": "\u041c\u0430\u0442\u0440\u0430\u0439-\u0456\u043d-\u041e\u0441\u0442\u0442\u0456\u0440\u043e\u043b\u044c", "place": "town", "population": "2466", "wikidata": "Q261697", "wikipedia": "de:Matrei in Osttirol"}}, "geometry": {"type": "Point", "coordinates": [12.5333333, 47.0]}}, {"type": "Feature", "properties": {"type": "node", "id": 33119741, "tags": {"name": "Neukirchen am Gro\u00dfvenediger", "openGeoDB:auto_update": "population,is_in", "openGeoDB:community_identification_number": "5061402", "openGeoDB:layer": "7", "openGeoDB:loc_id": "29846", "openGeoDB:name": "Neukirchen am Gro\u00dfvenediger", "openGeoDB:population": "1609", "openGeoDB:postal_codes": "5741", "openGeoDB:sort_name": "NEUKIRCHEN", "openGeoDB:type": "Ort", "openGeoDB:version": "0.2.6.11 / 2007-12-04 / http://fa-technik.adfc.de/code/opengeodb/dump/", "opengeodb:lat": "47.2539335", "opengeodb:lon": "12.2781096", "place": "town", "population": "1609", "postal_code": "5741", "ref:at:gkz": "5061402", "ref:at:okz": "14223", "short_name": "Neukirchen"}}, "geometry": {"type": "Point", "coordinates": [12.2762162, 47.251607]}}, {"type": "Feature", "properties": {"type": "node", "id": 82521380, "tags": {"name": "Mittersill", "openGeoDB:community_identification_number": "5061311", "openGeoDB:layer": "7", "openGeoDB:loc_id": "29789", "openGeoDB:postal_codes": "5730", "openGeoDB:type": "Ort", "openGeoDB:version": "0.2.6.11 / 2007-12-04 / http://fa-technik.adfc.de/code/opengeodb/dump/", "place": "town", "population": "1900"}}, "geometry": {"type": "Point", "coordinates": [12.4837012, 47.2815157]}}, {"type": "Feature", "properties": {"type": "node", "id": 206378027, "tags": {"name": "Lienz", "name:hu": "Lienz", "name:ru": "\u041b\u0438\u043d\u0446", "openGeoDB:community_identification_number": "7071601", "openGeoDB:is_in_loc_id": "77931", "openGeoDB:loc_id": "77932", "place": "town", "population": "12077", "postal_code": "9900"}}, "geometry": {"type": "Point", "coordinates": [12.7681269, 46.8298662]}}, {"type": "Feature", "properties": {"type": "node", "id": 240049058, "tags": {"name": "Winklern", "place": "town", "population": "51"}}, "geometry": {"type": "Point", "coordinates": [12.8776815, 46.8704513]}}, {"type": "Feature", "properties": {"type": "node", "id": 240071805, "tags": {"name": "K\u00f6tschach", "place": "town", "population": "1612"}}, "geometry": {"type": "Point", "coordinates": [13.004364, 46.6784661]}}, {"type": "Feature", "properties": {"type": "node", "id": 31238390, "tags": {"name": "Greifenburg", "place": "town"}}, "geometry": {"type": "Point", "coordinates": [13.1804131, 46.7506053]}}, {"type": "Feature", "properties": {"type": "node", "id": 185503543, "tags": {"name": "Hermagor", "name:cs": "\u0160mohor", "name:sl": "\u0160mohor", "place": "town", "population": "1527"}}, "geometry": {"type": "Point", "coordinates": [13.3702382, 46.6268076]}}, {"type": "Feature", "properties": {"type": "node", "id": 620831626, "tags": {"name": "Steinfeld", "place": "town", "population": "1337", "population:date": "2018-01-01"}}, "geometry": {"type": "Point", "coordinates": [13.2476697, 46.7574965]}}, {"type": "Feature", "properties": {"type": "node", "id": 240082800, "tags": {"name": "Obervellach", "place": "town", "population": "243", "postal_code": "9821"}}, "geometry": {"type": "Point", "coordinates": [13.2019817, 46.932825]}}, {"type": "Feature", "properties": {"type": "node", "id": 31238737, "tags": {"name": "M\u00f6llbr\u00fccke", "place": "town", "wikidata": "Q572166", "wikipedia": "de:M\u00f6llbr\u00fccke"}}, "geometry": {"type": "Point", "coordinates": [13.3704357, 46.8370716]}}, {"type": "Feature", "properties": {"type": "node", "id": 29868275, "tags": {"alt_name": "Heiligenblut am Gro\u00dfglockner", "name": "Heiligenblut", "name:ru": "\u0425\u0430\u0439\u043b\u0438\u0433\u0435\u043d\u0431\u043b\u0443\u0442", "place": "town", "population": "1111", "website": "http://www.heiligenblut.at"}}, "geometry": {"type": "Point", "coordinates": [12.8421104, 47.0392667]}}, {"type": "Feature", "properties": {"type": "node", "id": 240056984, "tags": {"name": "Rauris", "openGeoDB:auto_update": "population,place,name,is_in", "openGeoDB:community_identification_number": "5061706", "openGeoDB:is_in_loc_id": "74892", "openGeoDB:layer": "7", "openGeoDB:loc_id": "30030", "openGeoDB:location": "locality", "openGeoDB:name": "Rauris", "openGeoDB:population": "1124", "openGeoDB:postal_codes": "5661", "openGeoDB:sort_name": "RAURIS", "openGeoDB:type": "Ort", "openGeoDB:version": "0.2.6.11 / 2007-12-04 / http://fa-technik.adfc.de/code/opengeodb/dump/", "place": "town", "population": "1124"}}, "geometry": {"type": "Point", "coordinates": [12.9941152, 47.2286279]}}, {"type": "Feature", "properties": {"type": "node", "id": 240047526, "tags": {"name": "Taxenbach", "openGeoDB:auto_update": "population,place,name,is_in", "openGeoDB:community_identification_number": "5062215", "openGeoDB:is_in_loc_id": "74951", "openGeoDB:layer": "7", "openGeoDB:loc_id": "30238", "openGeoDB:location": "locality", "openGeoDB:name": "Taxenbach", "openGeoDB:population": "934", "openGeoDB:postal_codes": "5660", "openGeoDB:sort_name": "TAXENBACH", "openGeoDB:type": "Ort", "openGeoDB:version": "0.2.6.11 / 2007-12-04 / http://fa-technik.adfc.de/code/opengeodb/dump/", "place": "town", "population": "934", "wikidata": "Q700419", "wikipedia": "de:Taxenbach"}}, "geometry": {"type": "Point", "coordinates": [12.9636281, 47.2927486]}}, {"type": "Feature", "properties": {"type": "node", "id": 26370473, "tags": {"ele": "750", "name": "Zell am See", "name:hu": "Zell am See", "name:la": "Cella in Bisoncio", "name:ru": "\u0426\u0435\u043b\u043b\u044c-\u0430\u043c-\u0417\u0435", "openGeoDB:auto_update": "population,is_in", "openGeoDB:community_identification_number": "5062805", "openGeoDB:layer": "7", "openGeoDB:loc_id": "30426", "openGeoDB:name": "Zell am See", "openGeoDB:population": "7477", "openGeoDB:postal_codes": "5700,5705", "openGeoDB:sort_name": "ZELL", "openGeoDB:type": "Ort", "openGeoDB:version": "0.2.6.11 / 2007-12-04 / http://fa-technik.adfc.de/code/opengeodb/dump/", "opengeodb:lat": "47.3241083", "opengeodb:lon": "12.7965926", "place": "town", "population": "7477", "source": "landsat", "wikidata": "Q187572", "wikipedia": "de:Zell am See"}}, "geometry": {"type": "Point", "coordinates": [12.7963165, 47.3239636]}}, {"type": "Feature", "properties": {"type": "node", "id": 528617322, "tags": {"name": "Bad Hofgastein", "name:hu": "Bad Hofgastein", "name:ru": "\u0411\u0430\u0434-\u0425\u043e\u0444\u0433\u0430\u0441\u0442\u0430\u0439\u043d", "place": "town", "population": "6726"}}, "geometry": {"type": "Point", "coordinates": [13.1060635, 47.1703104]}}, {"type": "Feature", "properties": {"type": "node", "id": 2053572158, "tags": {"name": "Bad Gastein", "name:hu": "Bad Gastein", "name:ru": "\u0411\u0430\u0434\u0433\u0430\u0441\u0442\u0430\u0439\u043d", "place": "town", "population": "4400", "postal_code": "5640"}}, "geometry": {"type": "Point", "coordinates": [13.1352653, 47.1144954]}}, {"type": "Feature", "properties": {"type": "node", "id": 60804810, "tags": {"name": "Dorfgastein", "openGeoDB:auto_update": "population,is_in", "openGeoDB:community_identification_number": "5040501", "openGeoDB:is_in": "Dorfgastein,Sankt Johann im Pongau,Salzburg,\u00d6sterreich,Europe", "openGeoDB:is_in_loc_id": "74615", "openGeoDB:layer": "7", "openGeoDB:loc_id": "29203", "openGeoDB:name": "Dorfgastein", "openGeoDB:population": "774", "openGeoDB:postal_codes": "5632", "openGeoDB:sort_name": "DORFGASTEIN", "openGeoDB:type": "Ort", "openGeoDB:version": "0.2.6.11 / 2007-12-04 / http://fa-technik.adfc.de/code/opengeodb/dump/", "opengeodb:lat": "47.2434217", "opengeodb:lon": "13.1046623", "place": "town", "population": "774"}}, "geometry": {"type": "Point", "coordinates": [13.1059603, 47.2418802]}}, {"type": "Feature", "properties": {"type": "node", "id": 240053171, "tags": {"name": "Gro\u00dfarl", "openGeoDB:auto_update": "population,place,name,is_in", "openGeoDB:community_identification_number": "50411", "openGeoDB:is_in": "Sankt Johann im Pongau,Salzburg,\u00d6sterreich,Europe", "openGeoDB:is_in_loc_id": "74586", "openGeoDB:layer": "6", "openGeoDB:loc_id": "74643", "openGeoDB:location": "political_structure", "openGeoDB:name": "Gro\u00dfarl", "openGeoDB:population": "3766", "openGeoDB:postal_codes": "5611", "openGeoDB:sort_name": "GROSSARL", "openGeoDB:type": "Gemeinde", "openGeoDB:version": "0.2.6.11 / 2007-12-04 / http://fa-technik.adfc.de/code/opengeodb/dump/", "place": "town", "population": "3766", "wikidata": "Q700457", "wikipedia": "de:Gro\u00dfarl"}}, "geometry": {"type": "Point", "coordinates": [13.2013974, 47.2374042]}}, {"type": "Feature", "properties": {"type": "node", "id": 240107507, "tags": {"name": "Goldegg im Pongau", "openGeoDB:auto_update": "population,place,name,is_in", "openGeoDB:community_identification_number": "50410", "openGeoDB:is_in": "Sankt Johann im Pongau,Salzburg,\u00d6sterreich,Europe", "openGeoDB:is_in_loc_id": "74586", "openGeoDB:layer": "6", "openGeoDB:loc_id": "74630", "openGeoDB:location": "political_structure", "openGeoDB:name": "Goldegg", "openGeoDB:population": "2283", "openGeoDB:postal_codes": "5621,5622,5651", "openGeoDB:sort_name": "GOLDEGG", "openGeoDB:type": "Gemeinde", "openGeoDB:version": "0.2.6.11 / 2007-12-04 / http://fa-technik.adfc.de/code/opengeodb/dump/", "place": "town", "population": "2283", "wikidata": "Q278432", "wikipedia": "de:Goldegg im Pongau"}}, "geometry": {"type": "Point", "coordinates": [13.1028812, 47.3187493]}}, {"type": "Feature", "properties": {"type": "node", "id": 240109728, "tags": {"name": "Schwarzach im Pongau", "openGeoDB:auto_update": "population,place,name,is_in", "openGeoDB:community_identification_number": "5042101", "openGeoDB:is_in": "Schwarzach im Pongau,Sankt Johann im Pongau,Salzburg,\u00d6sterreich,Europe", "openGeoDB:is_in_loc_id": "74701", "openGeoDB:layer": "7", "openGeoDB:loc_id": "30131", "openGeoDB:location": "locality", "openGeoDB:name": "Schwarzach im Pongau", "openGeoDB:population": "3526", "openGeoDB:postal_codes": "5620", "openGeoDB:sort_name": "SCHWARZACH", "openGeoDB:type": "Ort", "openGeoDB:version": "0.2.6.11 / 2007-12-04 / http://fa-technik.adfc.de/code/opengeodb/dump/", "place": "town", "population": "3526", "wikidata": "Q253179", "wikipedia": "de:Schwarzach im Pongau"}}, "geometry": {"type": "Point", "coordinates": [13.151022, 47.3211088]}}, {"type": "Feature", "properties": {"type": "node", "id": 240059184, "tags": {"name": "Sankt Veit im Pongau", "openGeoDB:auto_update": "population,place,name,is_in", "openGeoDB:community_identification_number": "5042001", "openGeoDB:is_in": "Sankt Veit im Pongau,Sankt Johann im Pongau,Salzburg,\u00d6sterreich,Europe", "openGeoDB:is_in_loc_id": "74690", "openGeoDB:layer": "7", "openGeoDB:loc_id": "74700", "openGeoDB:location": "locality", "openGeoDB:name": "Sankt Veit im Pongau", "openGeoDB:population": "1586", "openGeoDB:postal_codes": "5600,5620,5621,5651", "openGeoDB:sort_name": "SANKT VEIT", "openGeoDB:type": "Ort", "openGeoDB:version": "0.2.6.11 / 2007-12-04 / http://fa-technik.adfc.de/code/opengeodb/dump/", "place": "town", "population": "1586", "wikidata": "Q259188", "wikipedia": "de:Sankt Veit im Pongau"}}, "geometry": {"type": "Point", "coordinates": [13.1542777, 47.3291614]}}, {"type": "Feature", "properties": {"type": "node", "id": 240070646, "tags": {"name": "Sankt Johann im Pongau", "name:hu": "Sankt Johann im Pongau", "openGeoDB:auto_update": "population,place,name,is_in", "openGeoDB:community_identification_number": "5041809", "openGeoDB:is_in": "Sankt Johann im Pongau,Sankt Johann im Pongau,Salzburg,\u00d6sterreich,Europe", "openGeoDB:is_in_loc_id": "74676", "openGeoDB:layer": "7", "openGeoDB:loc_id": "74685", "openGeoDB:location": "locality", "openGeoDB:name": "Sankt Johann im Pongau", "openGeoDB:population": "4418", "openGeoDB:postal_codes": "5600", "openGeoDB:sort_name": "SANKT JOHANN", "openGeoDB:type": "Ort", "openGeoDB:version": "0.2.6.11 / 2007-12-04 / http://fa-technik.adfc.de/code/opengeodb/dump/", "place": "town", "population": "11000"}}, "geometry": {"type": "Point", "coordinates": [13.2026049, 47.3475782]}}, {"type": "Feature", "properties": {"type": "node", "id": 240087036, "tags": {"name": "M\u00fchlbach am Hochk\u00f6nig", "openGeoDB:auto_update": "population,place,name,is_in", "openGeoDB:community_identification_number": "5041501", "openGeoDB:is_in": "M\u00fchlbach am Hochk\u00f6nig,Sankt Johann im Pongau,Salzburg,\u00d6sterreich,Europe", "openGeoDB:is_in_loc_id": "74660", "openGeoDB:layer": "7", "openGeoDB:loc_id": "29810", "openGeoDB:location": "locality", "openGeoDB:name": "M\u00fchlbach am Hochk\u00f6nig", "openGeoDB:population": "1453", "openGeoDB:postal_codes": "5505", "openGeoDB:sort_name": "MUEHLBACH", "openGeoDB:type": "Ort", "openGeoDB:version": "0.2.6.11 / 2007-12-04 / http://fa-technik.adfc.de/code/opengeodb/dump/", "place": "town", "population": "1569", "wikidata": "Q255417", "wikipedia": "de:M\u00fchlbach am Hochk\u00f6nig"}}, "geometry": {"type": "Point", "coordinates": [13.1249445, 47.3761503]}}, {"type": "Feature", "properties": {"type": "node", "id": 240067923, "tags": {"alt_name": "Wagrain Markt", "name": "Wagrain", "openGeoDB:auto_update": "population,place,name,is_in", "openGeoDB:community_identification_number": "5042305", "openGeoDB:is_in": "Wagrain,Sankt Johann im Pongau,Salzburg,\u00d6sterreich,Europe", "openGeoDB:is_in_loc_id": "74703", "openGeoDB:layer": "7", "openGeoDB:loc_id": "30330", "openGeoDB:location": "locality", "openGeoDB:name": "Wagrain Markt", "openGeoDB:population": "504", "openGeoDB:postal_codes": "5602", "openGeoDB:sort_name": "WAGRAIN", "openGeoDB:type": "Ort", "openGeoDB:version": "0.2.6.11 / 2007-12-04 / http://fa-technik.adfc.de/code/opengeodb/dump/", "place": "town", "population": "504", "ref:at:gkz": "5042305", "ref:at:okz": "14066", "wikidata": "Q265886", "wikipedia": "de:Wagrain (Pongau)"}}, "geometry": {"type": "Point", "coordinates": [13.3031532, 47.3336293]}}, {"type": "Feature", "properties": {"type": "node", "id": 240027650, "tags": {"name": "Flachau", "openGeoDB:auto_update": "population,place,name,is_in", "openGeoDB:community_identification_number": "5040802", "openGeoDB:is_in": "Flachau,Sankt Johann im Pongau,Salzburg,\u00d6sterreich,Europe", "openGeoDB:is_in_loc_id": "74624", "openGeoDB:layer": "7", "openGeoDB:loc_id": "29285", "openGeoDB:location": "locality", "openGeoDB:name": "Flachau", "openGeoDB:population": "753", "openGeoDB:postal_codes": "5542", "openGeoDB:sort_name": "FLACHAU", "openGeoDB:type": "Ort", "openGeoDB:version": "0.2.6.11 / 2007-12-04 / http://fa-technik.adfc.de/code/opengeodb/dump/", "place": "town", "population": "753"}}, "geometry": {"type": "Point", "coordinates": [13.3922888, 47.3438501]}}, {"type": "Feature", "properties": {"type": "node", "id": 240121762, "tags": {"name": "Brixlegg", "name:ru": "\u0411\u0440\u0438\u043a\u0441\u043b\u0435\u0433", "place": "town", "population": "2840", "rank": "30"}}, "geometry": {"type": "Point", "coordinates": [11.8772297, 47.4302395]}}, {"type": "Feature", "properties": {"type": "node", "id": 240077072, "tags": {"name": "Hopfgarten im Brixental", "place": "town", "population": "5365", "rank": "30"}}, "geometry": {"type": "Point", "coordinates": [12.1558791, 47.4504996]}}, {"type": "Feature", "properties": {"type": "node", "id": 26902436, "tags": {"ele": "513", "name": "W\u00f6rgl", "name:hu": "W\u00f6rgl", "name:ru": "\u0412\u0451\u0440\u0433\u043b\u044c", "place": "town", "population": "13811", "population:date": "2018-01-01", "rank": "20"}}, "geometry": {"type": "Point", "coordinates": [12.0637633, 47.4872718]}}, {"type": "Feature", "properties": {"type": "node", "id": 26902437, "tags": {"name": "Kufstein", "name:ar": "\u0643\u0648\u0641\u0634\u062a\u0627\u064a\u0646", "name:hu": "Kufstein", "name:jp": "\u30af\u30fc\u30d5\u30b7\u30e5\u30bf\u30a4\u30f3", "name:ru": "\u041a\u0443\u0444\u0448\u0442\u0430\u0439\u043d", "name:zh": "\u5e93\u592b\u65bd\u6cf0\u56e0", "place": "town", "population": "19223", "population:date": "2018-01-01", "rank": "20", "wikidata": "Q486341", "wikipedia": "de:Kufstein"}}, "geometry": {"type": "Point", "coordinates": [12.1692134, 47.582996]}}, {"type": "Feature", "properties": {"type": "node", "id": 1090062682, "tags": {"name": "Kitzb\u00fchel", "name:ja": "\u30ad\u30c3\u30c4\u30d3\u30e5\u30fc\u30eb", "name:ru": "\u041a\u0438\u0446\u0431\u044e\u044d\u043b\u044c", "name:zh": "\u57fa\u8328\u6bd4\u5c14", "place": "town", "population": "8574", "rank": "30", "wikidata": "Q264665", "wikipedia": "de:Kitzb\u00fchel"}}, "geometry": {"type": "Point", "coordinates": [12.3911473, 47.4463585]}}, {"type": "Feature", "properties": {"type": "node", "id": 32463266, "tags": {"alt_name": "Sankt Johann in Tirol", "name": "St. Johann in Tirol", "name:hu": "St. Johann in Tirol", "note": "Offizielle Schreibweise l.t. Gemeinde ist St. Johann in Tirol", "place": "town", "wikidata": "Q699599", "wikipedia": "de:St. Johann in Tirol"}}, "geometry": {"type": "Point", "coordinates": [12.4286809, 47.5224141]}}, {"type": "Feature", "properties": {"type": "node", "id": 73322184, "tags": {"name": "Lofer", "openGeoDB:auto_update": "population", "openGeoDB:community_identification_number": "5061004", "openGeoDB:layer": "7", "openGeoDB:loc_id": "29704", "openGeoDB:name": "Lofer", "openGeoDB:population": "1129", "openGeoDB:postal_codes": "5090", "openGeoDB:sort_name": "LOFER", "openGeoDB:type": "Ort", "openGeoDB:version": "0.2.6.11 / 2007-12-04 / http://fa-technik.adfc.de/code/opengeodb/dump/", "opengeodb:lat": "47.5866417", "opengeodb:lon": "12.6930541", "place": "town", "population": "1129"}}, "geometry": {"type": "Point", "coordinates": [12.6934197, 47.5866984]}}, {"type": "Feature", "properties": {"type": "node", "id": 826109863, "tags": {"ele": "748", "name": "Saalfelden am Steinernen Meer", "name:ru": "\u0417\u0430\u043b\u044c\u0444\u0435\u043b\u044c\u0434\u0435\u043d-\u0430\u043c-\u0428\u0442\u0430\u0439\u043d\u0435\u0440\u043d\u0435\u043d-\u041c\u0435\u0440", "openGeoDB:community_identification_number": "5061926", "openGeoDB:loc_id": "30083", "place": "town", "population": "16235", "postal_code": "5760", "wikidata": "Q183228", "wikipedia": "de:Saalfelden am Steinernen Meer"}}, "geometry": {"type": "Point", "coordinates": [12.8481048, 47.4266166]}}, {"type": "Feature", "properties": {"type": "node", "id": 240104887, "tags": {"name": "Unken", "openGeoDB:auto_update": "population,name,is_in", "openGeoDB:community_identification_number": "5062304", "openGeoDB:layer": "7", "openGeoDB:loc_id": "30294", "openGeoDB:location": "locality", "openGeoDB:name": "Unken", "openGeoDB:population": "371", "openGeoDB:postal_codes": "5091", "openGeoDB:sort_name": "UNKEN", "openGeoDB:type": "Ort", "openGeoDB:version": "0.2.6.11 / 2007-12-04 / http://fa-technik.adfc.de/code/opengeodb/dump/", "place": "town", "population": "371"}}, "geometry": {"type": "Point", "coordinates": [12.7303379, 47.6511097]}}, {"type": "Feature", "properties": {"type": "node", "id": 240045557, "tags": {"name": "Wals-Siezenheim", "openGeoDB:auto_update": "population,place,name,is_in", "openGeoDB:community_identification_number": "50338", "openGeoDB:is_in": "Salzburg-Umgebung,Salzburg,\u00d6sterreich,Europe", "openGeoDB:is_in_loc_id": "74286", "openGeoDB:layer": "6", "openGeoDB:loc_id": "74554", "openGeoDB:location": "political_structure", "openGeoDB:name": "Wals-Siezenheim", "openGeoDB:population": "11450", "openGeoDB:postal_codes": "5071", "openGeoDB:sort_name": "WALS-SIEZENHEIM", "openGeoDB:type": "Gemeinde", "openGeoDB:version": "0.2.6.11 / 2007-12-04 / http://fa-technik.adfc.de/code/opengeodb/dump/", "place": "town", "population": "11450"}}, "geometry": {"type": "Point", "coordinates": [12.9807, 47.7986]}}, {"type": "Feature", "properties": {"type": "node", "id": 240053161, "tags": {"name": "Werfen", "openGeoDB:auto_update": "population,place,name,is_in", "openGeoDB:community_identification_number": "50424", "openGeoDB:is_in": "Sankt Johann im Pongau,Salzburg,\u00d6sterreich,Europe", "openGeoDB:is_in_loc_id": "74586", "openGeoDB:layer": "6", "openGeoDB:loc_id": "74708", "openGeoDB:location": "political_structure", "openGeoDB:name": "Werfen", "openGeoDB:population": "3148", "openGeoDB:postal_codes": "5450,5451,5452", "openGeoDB:sort_name": "WERFEN", "openGeoDB:type": "Gemeinde", "openGeoDB:version": "0.2.6.11 / 2007-12-04 / http://fa-technik.adfc.de/code/opengeodb/dump/", "place": "town", "population": "3148"}}, "geometry": {"type": "Point", "coordinates": [13.1888872, 47.4757761]}}, {"type": "Feature", "properties": {"type": "node", "id": 240040673, "tags": {"name": "Golling an der Salzach", "openGeoDB:auto_update": "population,place,name,is_in", "openGeoDB:community_identification_number": "50204", "openGeoDB:layer": "6", "openGeoDB:loc_id": "74240", "openGeoDB:location": "political_structure", "openGeoDB:name": "Golling an der Salzach", "openGeoDB:population": "3990", "openGeoDB:postal_codes": "5440", "openGeoDB:sort_name": "GOLLING", "openGeoDB:type": "Gemeinde", "openGeoDB:version": "0.2.6.11 / 2007-12-04 / http://fa-technik.adfc.de/code/opengeodb/dump/", "place": "town", "population": "3990", "wikidata": "Q527800", "wikipedia": "de:Golling an der Salzach"}}, "geometry": {"type": "Point", "coordinates": [13.1674472, 47.5967154]}}, {"type": "Feature", "properties": {"type": "node", "id": 1303859047, "tags": {"name": "Bischofshofen", "name:hu": "Bischofshofen", "name:ru": "\u0411\u0438\u0448\u043e\u0444\u0441\u0445\u043e\u0444\u0435\u043d", "openGeoDB:auto_update": "population,place,name,is_in", "openGeoDB:community_identification_number": "5040402", "openGeoDB:is_in": "Bischofshofen,Sankt Johann im Pongau,Salzburg,\u00d6sterreich,Europe", "openGeoDB:is_in_loc_id": "74607", "openGeoDB:layer": "7", "openGeoDB:loc_id": "29141", "openGeoDB:location": "locality", "openGeoDB:name": "Bischofshofen", "openGeoDB:population": "7134", "openGeoDB:postal_codes": "5500", "openGeoDB:sort_name": "BISCHOFSHOFEN", "openGeoDB:type": "Ort", "openGeoDB:version": "0.2.6.11 / 2007-12-04 / http://fa-technik.adfc.de/code/opengeodb/dump/", "place": "town", "population": "7134"}}, "geometry": {"type": "Point", "coordinates": [13.2170933, 47.4168029]}}, {"type": "Feature", "properties": {"type": "node", "id": 240031614, "tags": {"name": "Sankt Martin am Tennengebirge", "openGeoDB:auto_update": "population,place,name,is_in", "openGeoDB:community_identification_number": "5041902", "openGeoDB:is_in": "Sankt Martin am Tennengebirge,Sankt Johann im Pongau,Salzburg,\u00d6sterreich,Europe", "openGeoDB:is_in_loc_id": "74687", "openGeoDB:layer": "7", "openGeoDB:loc_id": "74689", "openGeoDB:location": "locality", "openGeoDB:name": "Sankt Martin am Tennengebirge", "openGeoDB:population": "856", "openGeoDB:postal_codes": "5522", "openGeoDB:sort_name": "SANKT MARTIN", "openGeoDB:type": "Ort", "openGeoDB:version": "0.2.6.11 / 2007-12-04 / http://fa-technik.adfc.de/code/opengeodb/dump/", "place": "town", "population": "856"}}, "geometry": {"type": "Point", "coordinates": [13.3833264, 47.4665844]}}, {"type": "Feature", "properties": {"type": "node", "id": 1456199751, "tags": {"name": "Abtenau", "name:ru": "\u0410\u0431\u0442\u0435\u043d\u0430\u0443", "place": "town", "population": "5927"}}, "geometry": {"type": "Point", "coordinates": [13.3460333, 47.5642319]}}, {"type": "Feature", "properties": {"type": "node", "id": 1685894040, "tags": {"name": "Hallein", "name:ru": "\u0425\u0430\u043b\u043b\u0430\u0439\u043d", "place": "town", "population": "20768"}}, "geometry": {"type": "Point", "coordinates": [13.0956313, 47.6821521]}}, {"type": "Feature", "properties": {"type": "node", "id": 120099061, "tags": {"name": "Oberalm", "openGeoDB:auto_update": "population,is_in", "openGeoDB:community_identification_number": "5020801", "openGeoDB:layer": "7", "openGeoDB:loc_id": "29883", "openGeoDB:name": "Oberalm", "openGeoDB:population": "3652", "openGeoDB:postal_codes": "5400,5411", "openGeoDB:sort_name": "OBERALM", "openGeoDB:type": "Ort", "openGeoDB:version": "0.2.6.11 / 2007-12-04 / http://fa-technik.adfc.de/code/opengeodb/dump/", "opengeodb:lat": "47.6994684", "opengeodb:lon": "13.0989585", "place": "town", "population": "3652"}}, "geometry": {"type": "Point", "coordinates": [13.0988894, 47.7002276]}}, {"type": "Feature", "properties": {"type": "node", "id": 120099065, "tags": {"name": "Puch bei Hallein", "openGeoDB:auto_update": "population,is_in", "openGeoDB:community_identification_number": "5020902", "openGeoDB:layer": "7", "openGeoDB:loc_id": "30000", "openGeoDB:name": "Puch bei Hallein", "openGeoDB:population": "3373", "openGeoDB:postal_codes": "5412", "openGeoDB:sort_name": "PUCH", "openGeoDB:type": "Ort", "openGeoDB:version": "0.2.6.11 / 2007-12-04 / http://fa-technik.adfc.de/code/opengeodb/dump/", "opengeodb:lat": "47.716852", "opengeodb:lon": "13.0904526", "place": "town", "population": "3373"}}, "geometry": {"type": "Point", "coordinates": [13.0904526, 47.716852]}}, {"type": "Feature", "properties": {"type": "node", "id": 120127342, "tags": {"name": "Kuchl", "openGeoDB:auto_update": "population,is_in", "openGeoDB:community_identification_number": "5020706", "openGeoDB:layer": "7", "openGeoDB:loc_id": "29639", "openGeoDB:name": "Kuchl", "openGeoDB:population": "1862", "openGeoDB:postal_codes": "5431", "openGeoDB:sort_name": "KUCHL", "openGeoDB:type": "Ort", "openGeoDB:version": "0.2.6.11 / 2007-12-04 / http://fa-technik.adfc.de/code/opengeodb/dump/", "opengeodb:lat": "47.6258369", "opengeodb:lon": "13.1451024", "place": "town", "population": "1862"}}, "geometry": {"type": "Point", "coordinates": [13.1451024, 47.6258369]}}, {"type": "Feature", "properties": {"type": "node", "id": 240025409, "tags": {"name": "Gr\u00f6dig", "name:uk": "\u0413\u0440\u0435\u0434\u0456\u0433", "openGeoDB:auto_update": "population,place,name,is_in", "openGeoDB:community_identification_number": "5031403", "openGeoDB:layer": "7", "openGeoDB:loc_id": "29397", "openGeoDB:location": "locality", "openGeoDB:name": "Gr\u00f6dig", "openGeoDB:population": "4124", "openGeoDB:postal_codes": "5082,5083", "openGeoDB:sort_name": "GROEDIG", "openGeoDB:type": "Ort", "openGeoDB:version": "0.2.6.11 / 2007-12-04 / http://fa-technik.adfc.de/code/opengeodb/dump/", "place": "town", "population": "4124"}}, "geometry": {"type": "Point", "coordinates": [13.0394938, 47.7401445]}}, {"type": "Feature", "properties": {"type": "node", "id": 240037607, "tags": {"name": "Anif", "openGeoDB:auto_update": "population,place,name,is_in", "openGeoDB:community_identification_number": "5030101", "openGeoDB:layer": "7", "openGeoDB:loc_id": "29077", "openGeoDB:location": "locality", "openGeoDB:name": "Anif", "openGeoDB:population": "1780", "openGeoDB:postal_codes": "5081", "openGeoDB:sort_name": "ANIF", "openGeoDB:type": "Ort", "openGeoDB:version": "0.2.6.11 / 2007-12-04 / http://fa-technik.adfc.de/code/opengeodb/dump/", "place": "town", "population": "1780"}}, "geometry": {"type": "Point", "coordinates": [13.0638706, 47.7497338]}}, {"type": "Feature", "properties": {"type": "node", "id": 240074730, "tags": {"name": "Elsbethen", "openGeoDB:auto_update": "population,place,name,is_in", "openGeoDB:community_identification_number": "5030901", "openGeoDB:layer": "7", "openGeoDB:loc_id": "74331", "openGeoDB:location": "locality", "openGeoDB:name": "Elsbethen", "openGeoDB:population": "2984", "openGeoDB:postal_codes": "5061,5412", "openGeoDB:sort_name": "ELSBETHEN", "openGeoDB:type": "Ort", "openGeoDB:version": "0.2.6.11 / 2007-12-04 / http://fa-technik.adfc.de/code/opengeodb/dump/", "place": "town", "population": "2984"}}, "geometry": {"type": "Point", "coordinates": [13.0825458, 47.7592351]}}, {"type": "Feature", "properties": {"type": "node", "id": 34964314, "tags": {"alt_name:cs": "Solnohrad", "alt_name:mk": "\u0417\u0430\u043b\u0446\u0431\u0443\u0440\u0433", "capital": "4", "ele": "424", "name": "Salzburg", "name:ar": "\u0632\u0627\u0644\u062a\u0633\u0628\u0648\u0631\u063a", "name:bar": "Soizburg", "name:be": "\u0417\u0430\u043b\u044c\u0446\u0431\u0443\u0440\u0433", "name:be-tarask": "\u0417\u0430\u043b\u044c\u0446\u0431\u0443\u0440\u0433", "name:cs": "Salcburk", "name:de": "Salzburg", "name:el": "\u03a3\u03ac\u03bb\u03c4\u03c3\u03bc\u03c0\u03bf\u03c5\u03c1\u03b3\u03ba", "name:en": "Salzburg", "name:es": "Salzburgo", "name:fr": "Salzbourg", "name:he": "\u05d6\u05dc\u05e6\u05d1\u05d5\u05e8\u05d2", "name:hu": "Salzburg", "name:it": "Salisburgo", "name:ka": "\u10d6\u10d0\u10da\u10ea\u10d1\u10e3\u10e0\u10d2\u10d8", "name:ko": "\uc9e4\uce20\ubd80\ub974\ud06c", "name:la": "Salisburgum", "name:lt": "Zalcburgas", "name:lv": "Zalcburga", "name:mk": "\u0421\u0430\u043b\u0446\u0431\u0443\u0440\u0433", "name:ro": "Salzburg", "name:ru": "\u0417\u0430\u043b\u044c\u0446\u0431\u0443\u0440\u0433", "name:sk": "So\u013enohrad", "name:sl": "Solnograd", "name:sr": "\u0421\u0430\u043b\u0446\u0431\u0443\u0440\u0433", "name:uk": "\u0417\u0430\u043b\u044c\u0446\u0431\u0443\u0440\u0433", "name:zh": "\u8428\u5c14\u8328\u5821", "openGeoDB:community_identification_number": "5010101", "openGeoDB:loc_id": "30086", "openGeoDB:postal_codes": "5020,5023,5026,5061,5071,5082,5101,5010,5012,5014,5015,5016,5017,5022,5024,5027,5032,5033", "place": "city", "population": "152083", "population:date": "2015", "wikidata": "Q34713", "wikipedia": "de:Salzburg"}}, "geometry": {"type": "Point", "coordinates": [13.0464806, 47.7981346]}}, {"type": "Feature", "properties": {"type": "node", "id": 240033008, "tags": {"ele": "755", "name": "Koppl", "openGeoDB:auto_update": "population,place,name,is_in", "openGeoDB:community_identification_number": "50321", "openGeoDB:is_in": "Salzburg-Umgebung,Salzburg,\u00d6sterreich,Europe", "openGeoDB:is_in_loc_id": "74286", "openGeoDB:layer": "6", "openGeoDB:loc_id": "74407", "openGeoDB:location": "political_structure", "openGeoDB:name": "Koppl", "openGeoDB:population": "3093", "openGeoDB:postal_codes": "5023,5321", "openGeoDB:sort_name": "KOPPL", "openGeoDB:type": "Gemeinde", "openGeoDB:version": "0.2.6.11 / 2007-12-04 / http://fa-technik.adfc.de/code/opengeodb/dump/", "place": "town", "population": "3093"}}, "geometry": {"type": "Point", "coordinates": [13.1554315, 47.8078354]}}, {"type": "Feature", "properties": {"type": "node", "id": 36416466, "tags": {"name": "Ebenau", "openGeoDB:auto_update": "population,is_in", "openGeoDB:community_identification_number": "5030701", "openGeoDB:layer": "7", "openGeoDB:loc_id": "29211", "openGeoDB:name": "Ebenau", "openGeoDB:population": "207", "openGeoDB:postal_codes": "5323", "openGeoDB:sort_name": "EBENAU", "openGeoDB:type": "Ort", "openGeoDB:version": "0.2.6.11 / 2007-12-04 / http://fa-technik.adfc.de/code/opengeodb/dump/", "opengeodb:lat": "47.7923088", "opengeodb:lon": "13.1787357", "place": "town", "population": "1439"}}, "geometry": {"type": "Point", "coordinates": [13.175644, 47.7906849]}}, {"type": "Feature", "properties": {"type": "node", "id": 240106351, "tags": {"name": "Faistenau", "openGeoDB:community_identification_number": "5031103", "openGeoDB:layer": "7", "openGeoDB:loc_id": "29261", "openGeoDB:location": "locality", "openGeoDB:name": "Faistenau", "openGeoDB:postal_codes": "5324", "openGeoDB:type": "Ort", "openGeoDB:version": "0.2.6.11 / 2007-12-04 / http://fa-technik.adfc.de/code/opengeodb/dump/", "place": "town"}}, "geometry": {"type": "Point", "coordinates": [13.2337735, 47.7781258]}}, {"type": "Feature", "properties": {"type": "node", "id": 240052685, "tags": {"name": "Hof bei Salzburg", "openGeoDB:auto_update": "population,place,name,is_in", "openGeoDB:community_identification_number": "50319", "openGeoDB:is_in": "Salzburg-Umgebung,Salzburg,\u00d6sterreich,Europe", "openGeoDB:is_in_loc_id": "74286", "openGeoDB:layer": "6", "openGeoDB:loc_id": "74391", "openGeoDB:location": "political_structure", "openGeoDB:name": "Hof bei Salzburg", "openGeoDB:population": "3422", "openGeoDB:postal_codes": "5322", "openGeoDB:sort_name": "HOF", "openGeoDB:type": "Gemeinde", "openGeoDB:version": "0.2.6.11 / 2007-12-04 / http://fa-technik.adfc.de/code/opengeodb/dump/", "place": "town", "population": "3422"}}, "geometry": {"type": "Point", "coordinates": [13.2130752, 47.8197109]}}, {"type": "Feature", "properties": {"type": "node", "id": 240083937, "tags": {"name": "Fuschl am See", "openGeoDB:auto_update": "population,place,name,is_in", "openGeoDB:community_identification_number": "5031201", "openGeoDB:layer": "7", "openGeoDB:loc_id": "29314", "openGeoDB:location": "locality", "openGeoDB:name": "Fuschl am See", "openGeoDB:population": "643", "openGeoDB:postal_codes": "5330", "openGeoDB:sort_name": "FUSCHL", "openGeoDB:type": "Ort", "openGeoDB:version": "0.2.6.11 / 2007-12-04 / http://fa-technik.adfc.de/code/opengeodb/dump/", "place": "town", "population": "643"}}, "geometry": {"type": "Point", "coordinates": [13.3027787, 47.7963895]}}, {"type": "Feature", "properties": {"type": "node", "id": 240050180, "tags": {"name": "Sankt Gilgen", "openGeoDB:auto_update": "population,place,name,is_in", "openGeoDB:community_identification_number": "50330", "openGeoDB:layer": "6", "openGeoDB:loc_id": "74499", "openGeoDB:location": "political_structure", "openGeoDB:name": "Sankt Gilgen", "openGeoDB:population": "3735", "openGeoDB:postal_codes": "4854,4866,5310,5340,5342,5360", "openGeoDB:sort_name": "SANKT GILGEN", "openGeoDB:type": "Gemeinde", "openGeoDB:version": "0.2.6.11 / 2007-12-04 / http://fa-technik.adfc.de/code/opengeodb/dump/", "place": "town", "population": "3735"}}, "geometry": {"type": "Point", "coordinates": [13.3642943, 47.7670412]}}, {"type": "Feature", "properties": {"type": "node", "id": 1014320988, "tags": {"name": "Oberndorf bei Salzburg", "name:ru": "\u041e\u0431\u0435\u0440\u043d\u0434\u043e\u0440\u0444-\u0431\u0430\u0439-\u0417\u0430\u043b\u044c\u0446\u0431\u0443\u0440\u0433", "old_name": "Marktgemeinde Oberndorf", "place": "town", "population": "5578"}}, "geometry": {"type": "Point", "coordinates": [12.9461482, 47.939935]}}, {"type": "Feature", "properties": {"type": "node", "id": 994464943, "tags": {"ele": "436", "name": "B\u00fcrmoos", "place": "town", "population": "4820", "wikidata": "Q701183", "wikipedia": "de:B\u00fcrmoos"}}, "geometry": {"type": "Point", "coordinates": [12.9233739, 47.9837357]}}, {"type": "Feature", "properties": {"type": "node", "id": 240096129, "tags": {"name": "Lamprechtshausen", "openGeoDB:auto_update": "population,place,name,is_in", "openGeoDB:community_identification_number": "5032208", "openGeoDB:layer": "7", "openGeoDB:loc_id": "29658", "openGeoDB:location": "locality", "openGeoDB:name": "Lamprechtshausen", "openGeoDB:population": "1128", "openGeoDB:postal_codes": "5112", "openGeoDB:sort_name": "LAMPRECHTSHAUSEN", "openGeoDB:type": "Ort", "openGeoDB:version": "0.2.6.11 / 2007-12-04 / http://fa-technik.adfc.de/code/opengeodb/dump/", "place": "town", "population": "1128"}}, "geometry": {"type": "Point", "coordinates": [12.9554913, 47.9926148]}}, {"type": "Feature", "properties": {"type": "node", "id": 240043819, "tags": {"name": "Bergheim", "openGeoDB:auto_update": "population,place,name,is_in", "openGeoDB:community_identification_number": "50303", "openGeoDB:layer": "6", "openGeoDB:loc_id": "74303", "openGeoDB:location": "political_structure", "openGeoDB:name": "Bergheim", "openGeoDB:population": "4817", "openGeoDB:postal_codes": "5101", "openGeoDB:sort_name": "BERGHEIM", "openGeoDB:type": "Gemeinde", "openGeoDB:version": "0.2.6.11 / 2007-12-04 / http://fa-technik.adfc.de/code/opengeodb/dump/", "place": "town", "population": "4817"}}, "geometry": {"type": "Point", "coordinates": [13.0221612, 47.8408541]}}, {"type": "Feature", "properties": {"type": "node", "id": 240082434, "tags": {"name": "Anthering", "openGeoDB:auto_update": "population,place,name,is_in", "openGeoDB:community_identification_number": "5030202", "openGeoDB:layer": "7", "openGeoDB:loc_id": "29080", "openGeoDB:location": "locality", "openGeoDB:name": "Anthering", "openGeoDB:population": "1406", "openGeoDB:postal_codes": "5102", "openGeoDB:sort_name": "ANTHERING", "openGeoDB:type": "Ort", "openGeoDB:version": "0.2.6.11 / 2007-12-04 / http://fa-technik.adfc.de/code/opengeodb/dump/", "place": "town", "population": "1406"}}, "geometry": {"type": "Point", "coordinates": [13.012279, 47.8801316]}}, {"type": "Feature", "properties": {"type": "node", "id": 36404975, "tags": {"name": "Eugendorf", "name:ru": "\u041e\u0439\u0433\u0435\u043d\u0434\u043e\u0440\u0444", "openGeoDB:auto_update": "population,is_in", "openGeoDB:community_identification_number": "5031002", "openGeoDB:layer": "7", "openGeoDB:loc_id": "29258", "openGeoDB:name": "Eugendorf", "openGeoDB:population": "1751", "openGeoDB:postal_codes": "5301", "openGeoDB:sort_name": "EUGENDORF", "openGeoDB:type": "Ort", "openGeoDB:version": "0.2.6.11 / 2007-12-04 / http://fa-technik.adfc.de/code/opengeodb/dump/", "opengeodb:lat": "47.8671332", "opengeodb:lon": "13.1231842", "place": "town", "population": "1751", "wikidata": "Q257523", "wikipedia": "de:Eugendorf"}}, "geometry": {"type": "Point", "coordinates": [13.1231841, 47.8671332]}}, {"type": "Feature", "properties": {"type": "node", "id": 36268217, "tags": {"name": "Plainfeld", "openGeoDB:auto_update": "population,is_in", "openGeoDB:community_identification_number": "50328", "openGeoDB:layer": "6", "openGeoDB:loc_id": "74479", "openGeoDB:name": "Plainfeld", "openGeoDB:population": "1189", "openGeoDB:postal_codes": "5325", "openGeoDB:sort_name": "PLAINFELD", "openGeoDB:type": "Gemeinde", "openGeoDB:version": "0.2.6.11 / 2007-12-04 / http://fa-technik.adfc.de/code/opengeodb/dump/", "opengeodb:lat": "47.8323548", "opengeodb:lon": "13.1831743", "place": "town", "population": "1189"}}, "geometry": {"type": "Point", "coordinates": [13.1831669, 47.8323325]}}, {"type": "Feature", "properties": {"type": "node", "id": 240063299, "tags": {"name": "Seekirchen am Wallersee", "openGeoDB:auto_update": "population,place,name,is_in", "openGeoDB:community_identification_number": "5033919", "openGeoDB:is_in": "Seekirchen am Wallersee,Salzburg-Umgebung,Salzburg,\u00d6sterreich,Europe", "openGeoDB:is_in_loc_id": "74565", "openGeoDB:layer": "7", "openGeoDB:loc_id": "74584", "openGeoDB:location": "locality", "openGeoDB:name": "Seekirchen am Wallersee", "openGeoDB:population": "2427", "openGeoDB:postal_codes": "5201", "openGeoDB:sort_name": "SEEKIRCHEN", "openGeoDB:type": "Ort", "openGeoDB:version": "0.2.6.11 / 2007-12-04 / http://fa-technik.adfc.de/code/opengeodb/dump/", "place": "town", "population": "2427"}}, "geometry": {"type": "Point", "coordinates": [13.1260778, 47.8942481]}}, {"type": "Feature", "properties": {"type": "node", "id": 240079646, "tags": {"alt_name": "Henndorf", "name": "Henndorf am Wallersee", "openGeoDB:auto_update": "population,place,name,is_in", "openGeoDB:community_identification_number": "5031706", "openGeoDB:layer": "7", "openGeoDB:loc_id": "29463", "openGeoDB:location": "locality", "openGeoDB:name": "Henndorf am Wallersee", "openGeoDB:population": "3742", "openGeoDB:postal_codes": "5302", "openGeoDB:sort_name": "HENNDORF", "openGeoDB:type": "Ort", "openGeoDB:version": "0.2.6.11 / 2007-12-04 / http://fa-technik.adfc.de/code/opengeodb/dump/", "place": "town", "population": "3742"}}, "geometry": {"type": "Point", "coordinates": [13.1882214, 47.8994623]}}, {"type": "Feature", "properties": {"type": "node", "id": 240124508, "tags": {"name": "Nu\u00dfdorf am Haunsberg", "openGeoDB:auto_update": "population,place,name,is_in", "openGeoDB:community_identification_number": "5032513", "openGeoDB:layer": "7", "openGeoDB:loc_id": "29880", "openGeoDB:location": "locality", "openGeoDB:name": "Nu\u00dfdorf am Haunsberg", "openGeoDB:population": "761", "openGeoDB:postal_codes": "5151", "openGeoDB:sort_name": "NUSSDORF", "openGeoDB:type": "Ort", "openGeoDB:version": "0.2.6.11 / 2007-12-04 / http://fa-technik.adfc.de/code/opengeodb/dump/", "place": "town", "population": "761"}}, "geometry": {"type": "Point", "coordinates": [13.0089196, 47.9595607]}}, {"type": "Feature", "properties": {"type": "node", "id": 240037365, "tags": {"name": "Obertrum am See", "openGeoDB:auto_update": "population,place,name,is_in", "openGeoDB:community_identification_number": "50327", "openGeoDB:layer": "6", "openGeoDB:loc_id": "74476", "openGeoDB:location": "political_structure", "openGeoDB:name": "Obertrum am See", "openGeoDB:population": "4300", "openGeoDB:postal_codes": "5162", "openGeoDB:sort_name": "OBERTRUM", "openGeoDB:type": "Gemeinde", "openGeoDB:version": "0.2.6.11 / 2007-12-04 / http://fa-technik.adfc.de/code/opengeodb/dump/", "place": "town", "population": "4567", "source:population": "Statistik Austria; Census 2011, Erscheinungsdatum 11-2013"}}, "geometry": {"type": "Point", "coordinates": [13.0752378, 47.9380101]}}, {"type": "Feature", "properties": {"type": "node", "id": 240094312, "tags": {"name": "Mattsee", "openGeoDB:auto_update": "population,place,name,is_in", "openGeoDB:community_identification_number": "5032301", "openGeoDB:layer": "7", "openGeoDB:loc_id": "29756", "openGeoDB:location": "locality", "openGeoDB:name": "Mattsee", "openGeoDB:population": "2850", "openGeoDB:postal_codes": "5163", "openGeoDB:sort_name": "MATTSEE", "openGeoDB:type": "Ort", "openGeoDB:version": "0.2.6.11 / 2007-12-04 / http://fa-technik.adfc.de/code/opengeodb/dump/", "place": "town", "population": "3114", "source:population": "Statistik Austria; Census 2011, Erscheinungsdatum 11-2013"}}, "geometry": {"type": "Point", "coordinates": [13.1026633, 47.9699824]}}, {"type": "Feature", "properties": {"type": "node", "id": 240105381, "tags": {"name": "Thalgau", "openGeoDB:auto_update": "population,place,name,is_in", "openGeoDB:community_identification_number": "5033705", "openGeoDB:is_in": "Thalgau,Salzburg-Umgebung,Salzburg,\u00d6sterreich,Europe", "openGeoDB:is_in_loc_id": "74546", "openGeoDB:layer": "7", "openGeoDB:loc_id": "30248", "openGeoDB:location": "locality", "openGeoDB:name": "Thalgau", "openGeoDB:population": "1986", "openGeoDB:postal_codes": "5303", "openGeoDB:sort_name": "THALGAU", "openGeoDB:type": "Ort", "openGeoDB:version": "0.2.6.11 / 2007-12-04 / http://fa-technik.adfc.de/code/opengeodb/dump/", "place": "town", "population": "1986"}}, "geometry": {"type": "Point", "coordinates": [13.2535481, 47.8414905]}}, {"type": "Feature", "properties": {"type": "node", "id": 240051786, "tags": {"name": "Neumarkt am Wallersee", "openGeoDB:auto_update": "population,place,name,is_in", "openGeoDB:community_identification_number": "5032405", "openGeoDB:layer": "7", "openGeoDB:loc_id": "29852", "openGeoDB:location": "locality", "openGeoDB:name": "Neumarkt am Wallersee", "openGeoDB:population": "3741", "openGeoDB:postal_codes": "5202", "openGeoDB:sort_name": "NEUMARKT", "openGeoDB:type": "Ort", "openGeoDB:version": "0.2.6.11 / 2007-12-04 / http://fa-technik.adfc.de/code/opengeodb/dump/", "place": "town", "population": "3741"}}, "geometry": {"type": "Point", "coordinates": [13.2253002, 47.9450169]}}, {"type": "Feature", "properties": {"type": "node", "id": 240128418, "tags": {"ele": "528", "name": "Stra\u00dfwalchen", "openGeoDB:auto_update": "population,place,name,is_in", "openGeoDB:community_identification_number": "50335", "openGeoDB:layer": "6", "openGeoDB:loc_id": "74514", "openGeoDB:location": "political_structure", "openGeoDB:name": "Stra\u00dfwalchen", "openGeoDB:population": "6842", "openGeoDB:postal_codes": "4894,5204", "openGeoDB:sort_name": "STRASSWALCHEN", "openGeoDB:type": "Gemeinde", "openGeoDB:version": "0.2.6.11 / 2007-12-04 / http://fa-technik.adfc.de/code/opengeodb/dump/", "place": "town", "population": "6842"}}, "geometry": {"type": "Point", "coordinates": [13.2548601, 47.9802351]}}, {"type": "Feature", "properties": {"type": "node", "id": 240111200, "tags": {"name": "Mattighofen", "name:ru": "\u041c\u0430\u0442\u0442\u0438\u0433\u0445\u043e\u0444\u0435\u043d", "place": "town", "population": "5287"}}, "geometry": {"type": "Point", "coordinates": [13.1503106, 48.1030792]}}, {"type": "Feature", "properties": {"type": "node", "id": 88942045, "tags": {"name": "Altheim", "name:hu": "Altheim", "openGeoDB:auto_update": "population", "openGeoDB:community_identification_number": "4040101", "openGeoDB:is_in": "Altheim,Braunau am Inn,Ober\u00f6sterreich,\u00d6sterreich,Europe", "openGeoDB:is_in_loc_id": "67420", "openGeoDB:layer": "7", "openGeoDB:loc_id": "67421", "openGeoDB:name": "Altheim", "openGeoDB:population": "4146", "openGeoDB:postal_codes": "4950", "openGeoDB:sort_name": "ALTHEIM", "openGeoDB:type": "Ort", "openGeoDB:version": "0.2.6.11 / 2007-12-04 / http://fa-technik.adfc.de/code/opengeodb/dump/", "opengeodb:lat": "48.2525645", "opengeodb:lon": "13.2305327", "place": "town", "population": "4146"}}, "geometry": {"type": "Point", "coordinates": [13.2320404, 48.250022]}}, {"type": "Feature", "properties": {"type": "node", "id": 237042948, "tags": {"ele": "352", "is_in": "Braunau am Inn,Braunau am Inn,Ober\u00f6sterreich,\u00d6sterreich,Europe", "name": "Braunau am Inn", "name:hu": "Braunau", "name:ru": "\u0411\u0440\u0430\u0443\u043d\u0430\u0443-\u0430\u043c-\u0418\u043d\u043d", "openGeoDB:community_identification_number": "4040404", "openGeoDB:is_in_loc_id": "67486", "openGeoDB:layer": "7", "openGeoDB:loc_id": "29154", "openGeoDB:postal_codes": "5280,5283,5289", "openGeoDB:type": "Ort", "place": "town", "population": "16380", "ref:at:gkz": "4040404", "ref:at:okz": "07178", "wikidata": "Q131128", "wikipedia": "de:Braunau am Inn"}}, "geometry": {"type": "Point", "coordinates": [13.039506, 48.253136]}}, {"type": "Feature", "properties": {"type": "node", "id": 240056349, "tags": {"ele": "578", "name": "Arnoldstein", "name:sl": "Podklo\u0161ter", "place": "town", "population": "2035", "population:date": "2016", "source:population": "wikipedia"}}, "geometry": {"type": "Point", "coordinates": [13.7071246, 46.548718]}}, {"type": "Feature", "properties": {"type": "node", "id": 240091192, "tags": {"name": "Finkenstein", "place": "town", "population": "1275", "wikidata": "Q662080", "wikipedia": "de:Finkenstein am Faaker See"}}, "geometry": {"type": "Point", "coordinates": [13.8708621, 46.5623498]}}, {"type": "Feature", "properties": {"type": "node", "id": 240070188, "tags": {"name": "Ferlach", "name:de": "Ferlach", "name:hu": "Ferlach", "name:ru": "\u0424\u0435\u0440\u043b\u0430\u0445", "name:sl": "Borovlje", "name:uk": "\u0424\u0435\u0440\u043b\u0430\u0445", "place": "town", "population": "7450", "source": "geoimage.at", "wikidata": "Q610514", "wikipedia": "de:Ferlach"}}, "geometry": {"type": "Point", "coordinates": [14.3006203, 46.5265324]}}, {"type": "Feature", "properties": {"type": "node", "id": 240110468, "tags": {"name": "Bad Eisenkappel/\u017delezna Kapla", "name:de": "Bad Eisenkappel", "name:sl": "\u017delezna Kapla", "place": "town"}}, "geometry": {"type": "Point", "coordinates": [14.5929926, 46.4862914]}}, {"type": "Feature", "properties": {"type": "node", "id": 240052359, "tags": {"ele": "902", "name": "Bad Bleiberg", "place": "town", "population": "589", "website": "https://www.bad-bleiberg.gv.at", "wikidata": "Q535737", "wikipedia": "de:Bad Bleiberg"}}, "geometry": {"type": "Point", "coordinates": [13.6871559, 46.6245962]}}, {"type": "Feature", "properties": {"type": "node", "id": 611750804, "tags": {"name": "Feistritz an der Drau", "name:cs": "Byst\u0159ice nad Dr\u00e1vou", "place": "town", "population": "1739"}}, "geometry": {"type": "Point", "coordinates": [13.661408, 46.7037803]}}, {"type": "Feature", "properties": {"type": "node", "id": 31238888, "tags": {"ele": "560", "name": "Spittal an der Drau", "name:hu": "Spittal an der Drau", "openGeoDB:community_identification_number": "2063523", "openGeoDB:loc_id": "30179", "openGeoDB:postal_codes": "9800,9802,9803", "place": "town", "population": "15549", "wikidata": "Q487500", "wikipedia": "de:Spittal an der Drau"}}, "geometry": {"type": "Point", "coordinates": [13.4963308, 46.7982211]}}, {"type": "Feature", "properties": {"type": "node", "id": 36487909, "tags": {"ele": "618", "name": "Seeboden", "place": "town", "population": "6325", "postal_code": "9871", "wikidata": "Q660576", "wikipedia": "de:Seeboden am Millst\u00e4tter See"}}, "geometry": {"type": "Point", "coordinates": [13.5186548, 46.8190736]}}, {"type": "Feature", "properties": {"type": "node", "id": 36488725, "tags": {"addr:postcode": "9872", "ele": "611", "name": "Millstatt", "name:ru": "\u041c\u0438\u043b\u043b\u044c\u0448\u0442\u0430\u0442\u0442", "name:uk": "\u041c\u0456\u043b\u043b\u044c\u0448\u0442\u0430\u0442\u0442", "name:zh": "\u7c73\u5c14\u65bd\u5854\u7279", "place": "town", "population": "3334", "postal_code": "9872", "wikidata": "Q668044", "wikipedia": "de:Millstatt am See"}}, "geometry": {"type": "Point", "coordinates": [13.5714926, 46.8051293]}}, {"type": "Feature", "properties": {"type": "node", "id": 240052146, "tags": {"full_name": "Gm\u00fcnd in K\u00e4rnten", "name": "Gm\u00fcnd", "place": "town", "population": "1547", "postal_code": "9853", "ref:at:gkz": "2060803", "ref:at:okz": "01896", "wikidata": "Q660580", "wikipedia": "de:Gm\u00fcnd in K\u00e4rnten"}}, "geometry": {"type": "Point", "coordinates": [13.5359844, 46.9065611]}}, {"type": "Feature", "properties": {"type": "node", "id": 36488223, "tags": {"alt_name": "die GranatStadt", "name": "Radenthein", "name:de": "Radenthein", "name:ru": "\u0420\u0430\u0434\u0435\u043d\u0442\u0430\u0439\u043d", "name:zh": "\u62c9\u767b\u6cf0\u56e0", "place": "town", "population": "1974"}}, "geometry": {"type": "Point", "coordinates": [13.7107017, 46.8007487]}}, {"type": "Feature", "properties": {"type": "node", "id": 29777261, "tags": {"ele": "501", "name": "Villach", "name:cs": "B\u011bl\u00e1k", "name:de": "Villach", "name:fur": "Vilac", "name:hu": "Villach", "name:it": "Villaco", "name:ka": "\u10e4\u10d8\u10da\u10d0\u10ee\u10d8", "name:ru": "\u0424\u0438\u043b\u043b\u0430\u0445", "name:sl": "Beljak", "place": "city", "population": "61221", "population:date": "2016", "postal_code": "9500", "wikidata": "Q483522", "wikipedia": "de:Villach"}}, "geometry": {"type": "Point", "coordinates": [13.8500268, 46.6167284]}}, {"type": "Feature", "properties": {"type": "node", "id": 240053135, "tags": {"addr:postcode": "9220", "name": "Velden am W\u00f6rther See", "place": "town", "population": "8952", "population:date": "2016", "website": "http://www.velden.gv.at/", "wikidata": "Q660687", "wikipedia": "en:Velden am W\u00f6rther See"}}, "geometry": {"type": "Point", "coordinates": [14.0450583, 46.6151882]}}, {"type": "Feature", "properties": {"type": "node", "id": 240071579, "tags": {"name": "P\u00f6rtschach am W\u00f6rthersee", "place": "town", "population": "2670", "postal_code": "9210", "wikidata": "Q875805", "wikipedia": "en:P\u00f6rtschach am W\u00f6rthersee"}}, "geometry": {"type": "Point", "coordinates": [14.1448209, 46.6359543]}}, {"type": "Feature", "properties": {"type": "node", "id": 240116186, "tags": {"ele": "554", "name": "Feldkirchen in K\u00e4rnten", "name:hu": "Feldkirchen in K\u00e4rnten", "name:ru": "\u0424\u0435\u043b\u044c\u0434\u043a\u0438\u0440\u0445\u0435\u043d-\u0438\u043d-\u041a\u0435\u0440\u043d\u0442\u0435\u043d", "place": "town", "population": "14294", "postal_code": "9560", "wikidata": "Q507533", "wikipedia": "de:Feldkirchen in K\u00e4rnten"}}, "geometry": {"type": "Point", "coordinates": [14.0964965, 46.7229178]}}, {"type": "Feature", "properties": {"type": "node", "id": 185433776, "tags": {"name": "Weitensfeld im Gurktal", "place": "town", "population": "2381"}}, "geometry": {"type": "Point", "coordinates": [14.192773, 46.8498099]}}, {"type": "Feature", "properties": {"type": "node", "id": 240095938, "tags": {"int_name": "Markt St. Michael im Lungau", "name": "St. Michael im Lungau", "openGeoDB:auto_update": "population,place,name,is_in", "openGeoDB:community_identification_number": "50509", "openGeoDB:layer": "6;7", "openGeoDB:loc_id": "74741;74745", "openGeoDB:location": "locality;political_structure", "openGeoDB:name": "Sankt Michael im Lungau", "openGeoDB:population": "2037;3630", "openGeoDB:postal_codes": "5582", "openGeoDB:sort_name": "SANKT MICHAEL", "openGeoDB:type": "Gemeinde;Ort", "openGeoDB:version": "0.2.6.11 / 2007-12-04 / http://fa-technik.adfc.de/code/opengeodb/dump/", "place": "town", "population": "3630"}}, "geometry": {"type": "Point", "coordinates": [13.6376823, 47.0989566]}}, {"type": "Feature", "properties": {"type": "node", "id": 240045051, "tags": {"name": "Mauterndorf", "openGeoDB:auto_update": "population,place,name,is_in", "openGeoDB:community_identification_number": "5050402", "openGeoDB:layer": "7", "openGeoDB:loc_id": "74728", "openGeoDB:location": "locality", "openGeoDB:name": "Mauterndorf", "openGeoDB:population": "1435", "openGeoDB:postal_codes": "5570", "openGeoDB:sort_name": "MAUTERNDORF", "openGeoDB:type": "Ort", "openGeoDB:version": "0.2.6.11 / 2007-12-04 / http://fa-technik.adfc.de/code/opengeodb/dump/", "place": "town", "population": "1782"}}, "geometry": {"type": "Point", "coordinates": [13.6797275, 47.1338713]}}, {"type": "Feature", "properties": {"type": "node", "id": 182703854, "tags": {"name": "Tamsweg", "openGeoDB:auto_update": "population,is_in", "openGeoDB:community_identification_number": "5051007", "openGeoDB:layer": "7", "openGeoDB:loc_id": "30233", "openGeoDB:name": "Tamsweg", "openGeoDB:population": "3606", "openGeoDB:postal_codes": "5580", "openGeoDB:sort_name": "TAMSWEG", "openGeoDB:type": "Ort", "openGeoDB:version": "0.2.6.11 / 2007-12-04 / http://fa-technik.adfc.de/code/opengeodb/dump/", "opengeodb:lat": "47.1241621", "opengeodb:lon": "13.8113697", "place": "town", "population": "3606"}}, "geometry": {"type": "Point", "coordinates": [13.8103817, 47.1261065]}}, {"type": "Feature", "properties": {"type": "node", "id": 240082397, "tags": {"name": "Mariapfarr", "openGeoDB:auto_update": "population,place,name,is_in", "openGeoDB:community_identification_number": "50503", "openGeoDB:layer": "6", "openGeoDB:loc_id": "74723", "openGeoDB:location": "political_structure", "openGeoDB:name": "Mariapfarr", "openGeoDB:population": "2292", "openGeoDB:postal_codes": "5571", "openGeoDB:sort_name": "MARIAPFARR", "openGeoDB:type": "Gemeinde", "openGeoDB:version": "0.2.6.11 / 2007-12-04 / http://fa-technik.adfc.de/code/opengeodb/dump/", "place": "town", "population": "2292"}}, "geometry": {"type": "Point", "coordinates": [13.7456747, 47.1513091]}}, {"type": "Feature", "properties": {"type": "node", "id": 240043962, "tags": {"name": "Altenmarkt im Pongau", "openGeoDB:auto_update": "population,place,name,is_in", "openGeoDB:community_identification_number": "50401", "openGeoDB:is_in": "Sankt Johann im Pongau,Salzburg,\u00d6sterreich,Europe", "openGeoDB:is_in_loc_id": "74586", "openGeoDB:layer": "6", "openGeoDB:loc_id": "74587", "openGeoDB:location": "political_structure", "openGeoDB:name": "Altenmarkt im Pongau", "openGeoDB:population": "3628", "openGeoDB:postal_codes": "5541", "openGeoDB:sort_name": "ALTENMARKT", "openGeoDB:type": "Gemeinde", "openGeoDB:version": "0.2.6.11 / 2007-12-04 / http://fa-technik.adfc.de/code/opengeodb/dump/", "place": "town", "population": "3628"}}, "geometry": {"type": "Point", "coordinates": [13.4233713, 47.3783583]}}, {"type": "Feature", "properties": {"type": "node", "id": 196540588, "tags": {"ele": "858", "name": "Radstadt", "openGeoDB:community_identification_number": "5041704", "openGeoDB:loc_id": "30018", "openGeoDB:population": "2292", "place": "town", "population": "4826", "postal_code": "5550"}}, "geometry": {"type": "Point", "coordinates": [13.4627822, 47.3846705]}}, {"type": "Feature", "properties": {"type": "node", "id": 224024924, "tags": {"addr:postcode": "8970", "ele": "745", "name": "Schladming", "place": "town", "population": "3597", "wikidata": "Q254221", "wikipedia": "de:Schladming"}}, "geometry": {"type": "Point", "coordinates": [13.6867878, 47.3940415]}}, {"type": "Feature", "properties": {"type": "node", "id": 60220275, "tags": {"ele": "829", "name": "Murau", "place": "town", "population": "3714", "postal_code": "8850", "ref:at:gkz": "6141101", "ref:at:okz": "16002", "wikidata": "Q605054", "wikipedia": "de:Murau"}}, "geometry": {"type": "Point", "coordinates": [14.16919, 47.11224]}}, {"type": "Feature", "properties": {"type": "node", "id": 29777988, "tags": {"alt_name": "Klagenfurt am W\u00f6rthersee", "capital": "4", "ele": "446", "is_in:country": "Austria", "name": "Klagenfurt", "name:ar": "\u0643\u0644\u0627\u063a\u0646\u0641\u0648\u0631\u062a", "name:be": "\u041a\u043b\u0430\u0433\u0435\u043d\u0444\u0443\u0440\u0442", "name:be-tarask": "\u041a\u043b\u044f\u0433\u0435\u043d\u0444\u0443\u0440\u0442", "name:bs": "Celovec", "name:cs": "Celovec", "name:en": "Klagenfurt", "name:es": "Klagenfurt", "name:fr": "Klagenfurt", "name:fur": "Clanfurt", "name:hsb": "Celowc", "name:hu": "Klagenfurt", "name:ka": "\u10d9\u10da\u10d0\u10d2\u10d4\u10dc\u10e4\u10e3\u10e0\u10d7\u10d8;\u10ea\u10d4\u10da\u10dd\u10d5\u10ec\u10d8", "name:la": "Clagenfurtum", "name:lt": "Klagenfurtas", "name:lv": "Kl\u0101genfurte", "name:mk": "\u041a\u043b\u0430\u0433\u0435\u043d\u0444\u0443\u0440\u0442", "name:ru": "\u041a\u043b\u0430\u0433\u0435\u043d\u0444\u0443\u0440\u0442", "name:sl": "Celovec ob Vrbskem jezeru", "name:sr": "\u041a\u043b\u0430\u0433\u0435\u043d\u0444\u0443\u0440\u0442", "name:uk": "\u041a\u043b\u0430\u0433\u0435\u043d\u0444\u0443\u0440\u0442", "old_name:cs": "Celovec", "place": "city", "population": "100316", "population:date": "2018-01-01", "postal_code": "9020", "website": "https://www.klagenfurt.at/", "wikidata": "Q41753", "wikipedia": "de:Klagenfurt am W\u00f6rthersee"}}, "geometry": {"type": "Point", "coordinates": [14.3079604, 46.6228162]}}, {"type": "Feature", "properties": {"type": "node", "id": 240067971, "tags": {"name": "Sankt Veit an der Glan", "name:hu": "Sankt Veit an der Glan", "place": "town", "website": "www.stveit.carinthia.at"}}, "geometry": {"type": "Point", "coordinates": [14.3576981, 46.7672814]}}, {"type": "Feature", "properties": {"type": "node", "id": 186636093, "tags": {"name": "V\u00f6lkermarkt", "name:sl": "Velikovec", "place": "town", "population": "4859"}}, "geometry": {"type": "Point", "coordinates": [14.6340505, 46.6604246]}}, {"type": "Feature", "properties": {"type": "node", "id": 185432598, "tags": {"name": "Gurk", "place": "town", "population": "861"}}, "geometry": {"type": "Point", "coordinates": [14.2897692, 46.8751209]}}, {"type": "Feature", "properties": {"type": "node", "id": 240101404, "tags": {"name": "Althofen", "name:hu": "Althofen", "place": "town", "population": "4950"}}, "geometry": {"type": "Point", "coordinates": [14.4698793, 46.871383]}}, {"type": "Feature", "properties": {"type": "node", "id": 240052875, "tags": {"ele": "642", "name": "Stra\u00dfburg", "place": "town", "population": "2138", "postal_code": "9341", "wikidata": "Q660945", "wikipedia": "de:Stra\u00dfburg (K\u00e4rnten)"}}, "geometry": {"type": "Point", "coordinates": [14.3313853, 46.8955368]}}, {"type": "Feature", "properties": {"type": "node", "id": 343343868, "tags": {"name": "Friesach", "name:ru": "\u0424\u0440\u0438\u0437\u0430\u0445", "place": "town", "population": "2238"}}, "geometry": {"type": "Point", "coordinates": [14.4052266, 46.9520636]}}, {"type": "Feature", "properties": {"type": "node", "id": 1993122158, "tags": {"name": "Bleiburg/Pliberk", "name:de": "Bleiburg", "name:ru": "\u0411\u043b\u0430\u0439\u0431\u0443\u0440\u0433", "name:sl": "Pliberk", "place": "town", "population": "1339"}}, "geometry": {"type": "Point", "coordinates": [14.7989915, 46.5901133]}}, {"type": "Feature", "properties": {"type": "node", "id": 170812358, "tags": {"name": "Griffen", "place": "town"}}, "geometry": {"type": "Point", "coordinates": [14.7308073, 46.7038006]}}, {"type": "Feature", "properties": {"type": "node", "id": 240129992, "tags": {"name": "Sankt Andr\u00e4", "name:ru": "\u0421\u0430\u043d\u043a\u0442-\u0410\u043d\u0434\u0440\u0435", "place": "town", "population": "9957", "postal_code": "9433"}}, "geometry": {"type": "Point", "coordinates": [14.8236111, 46.7661111]}}, {"type": "Feature", "properties": {"type": "node", "id": 34911700, "tags": {"name:de": "Lavam\u00fcnd", "name:sl": "Labot", "place": "town", "population": "404", "postal_code": "9473"}}, "geometry": {"type": "Point", "coordinates": [14.9420703, 46.6424934]}}, {"type": "Feature", "properties": {"type": "node", "id": 240120735, "tags": {"ele": "463", "name": "Wolfsberg", "name:hu": "Wolfsberg", "name:ru": "\u0412\u043e\u043b\u044c\u0444\u0441\u0431\u0435\u0440\u0433", "name:sl": "Vol\u0161perk", "place": "town", "population": "25045", "postal_code": "9400", "wikidata": "Q487527", "wikipedia": "de:Wolfsberg (K\u00e4rnten)"}}, "geometry": {"type": "Point", "coordinates": [14.8452061, 46.8390583]}}, {"type": "Feature", "properties": {"type": "node", "id": 240079112, "tags": {"alt_name": "Bad Sankt Leonhard", "ele": "714", "int_name": "Bad Sankt Leonhard im Lavanttal", "name": "Bad Sankt Leonhard im Lavanttal", "old_name": "St. Leonhard im Lavantthale", "place": "town", "population": "4386", "postal_code": "9462", "wikidata": "Q660781", "wikipedia": "de:Bad St. Leonhard im Lavanttal"}}, "geometry": {"type": "Point", "coordinates": [14.7887727, 46.9646368]}}, {"type": "Feature", "properties": {"type": "node", "id": 200769912, "tags": {"name": "Judenburg", "name:hu": "Judenburg", "name:ru": "\u042e\u0434\u0435\u043d\u0431\u0443\u0440\u0433", "place": "town", "population": "9514"}}, "geometry": {"type": "Point", "coordinates": [14.6601079, 47.1694082]}}, {"type": "Feature", "properties": {"type": "node", "id": 200770473, "tags": {"ele": "659", "name": "Zeltweg", "place": "town", "population": "7327", "postal_code": "8740"}}, "geometry": {"type": "Point", "coordinates": [14.7549244, 47.1912045]}}, {"type": "Feature", "properties": {"type": "node", "id": 26759287, "tags": {"name": "K\u00f6flach", "name:hu": "K\u00f6flach", "name:ru": "\u041a\u0451\u0444\u043b\u0430\u0445", "place": "town", "population": "4856"}}, "geometry": {"type": "Point", "coordinates": [15.0850032, 47.0644882]}}, {"type": "Feature", "properties": {"type": "node", "id": 200771155, "tags": {"name": "Knittelfeld", "name:hu": "Knittelfeld", "place": "town"}}, "geometry": {"type": "Point", "coordinates": [14.832071, 47.2134435]}}, {"type": "Feature", "properties": {"type": "node", "id": 26754457, "tags": {"name": "Leoben", "name:hu": "Leoben", "name:ru": "\u041b\u0435\u043e\u0431\u0435\u043d", "place": "town", "population": "24645"}}, "geometry": {"type": "Point", "coordinates": [15.0947756, 47.3805128]}}, {"type": "Feature", "properties": {"type": "node", "id": 7832113772, "tags": {"ele": "659", "name": "Bad Aussee", "name:hu": "Bad Aussee", "name:ru": "\u0411\u0430\u0434-\u0410\u0443\u0441\u0437\u0435", "place": "town", "population": "4762", "postal_code": "8990", "wikidata": "Q251065", "wikipedia": "de:Bad Aussee"}}, "geometry": {"type": "Point", "coordinates": [13.7832771, 47.6094315]}}, {"type": "Feature", "properties": {"type": "node", "id": 240027989, "tags": {"name": "Strobl", "openGeoDB:community_identification_number": "5033603", "openGeoDB:is_in_loc_id": "74542", "openGeoDB:layer": "7", "openGeoDB:loc_id": "30223", "openGeoDB:location": "locality", "openGeoDB:name": "Strobl", "openGeoDB:population": "1343", "openGeoDB:postal_codes": "5342,5350", "openGeoDB:type": "Ort", "openGeoDB:version": "0.2.6.11 / 2007-12-04 / http://fa-technik.adfc.de/code/opengeodb/dump/", "place": "town"}}, "geometry": {"type": "Point", "coordinates": [13.4835153, 47.7170199]}}, {"type": "Feature", "properties": {"type": "node", "id": 240027870, "tags": {"name": "Bad Goisern", "place": "town", "population": "2076"}}, "geometry": {"type": "Point", "coordinates": [13.6148009, 47.640622]}}, {"type": "Feature", "properties": {"type": "node", "id": 240110400, "tags": {"name": "Bad Ischl", "name:hu": "Bad Ischl", "name:ru": "\u0411\u0430\u0434-\u0418\u0448\u043b\u044c", "openGeoDB:auto_update": "population,place,name,is_in", "openGeoDB:community_identification_number": "40703", "openGeoDB:is_in": "Gmunden,Ober\u00f6sterreich,\u00d6sterreich,Europe", "openGeoDB:is_in_loc_id": "68965", "openGeoDB:layer": "6", "openGeoDB:loc_id": "69008", "openGeoDB:location": "political_structure", "openGeoDB:name": "Bad Ischl", "openGeoDB:population": "14088", "openGeoDB:postal_codes": "4820,5351", "openGeoDB:sort_name": "ISCHL", "openGeoDB:type": "Gemeinde", "openGeoDB:version": "0.2.6.11 / 2007-12-04 / http://fa-technik.adfc.de/code/opengeodb/dump/", "place": "town", "population": "14088"}}, "geometry": {"type": "Point", "coordinates": [13.6239333, 47.7115299]}}, {"type": "Feature", "properties": {"type": "node", "id": 89199740, "tags": {"ele": "443", "name": "Ebensee am Traunsee", "name:en": "Ebensee", "old_name": "Ebensee", "place": "town", "population": "7675", "postal_code": "4802", "website": "https://www.ebensee.at/"}}, "geometry": {"type": "Point", "coordinates": [13.7741666, 47.8122366]}}, {"type": "Feature", "properties": {"type": "node", "id": 150541848, "tags": {"addr:city": "Liezen", "name": "Liezen", "place": "town", "population": "6803"}}, "geometry": {"type": "Point", "coordinates": [14.2420508, 47.567685]}}, {"type": "Feature", "properties": {"type": "node", "id": 30587791, "tags": {"ele": "425", "name": "Gmunden", "name:hu": "Gmunden", "name:ru": "\u0413\u043c\u0443\u043d\u0434\u0435\u043d", "place": "town", "population": "13104", "postal_code": "4810", "wikidata": "Q430449", "wikipedia": "de:Gmunden"}}, "geometry": {"type": "Point", "coordinates": [13.8003048, 47.9185855]}}, {"type": "Feature", "properties": {"type": "node", "id": 240101155, "tags": {"addr:city": "V\u00f6cklabruck", "addr:country": "AT", "addr:postcode": "4840", "ele": "433", "name": "V\u00f6cklabruck", "name:hu": "V\u00f6cklabruck", "place": "town", "population": "11972", "postal_code": "4840", "website": "www.voecklabruck.at", "wikidata": "Q251325", "wikipedia": "de:V\u00f6cklabruck"}}, "geometry": {"type": "Point", "coordinates": [13.6460378, 48.0078587]}}, {"type": "Feature", "properties": {"type": "node", "id": 2904894031, "tags": {"name": "Attnang-Puchheim", "name:ru": "\u0410\u0442\u043d\u0430\u043d\u0433-\u041f\u0443\u0445\u0445\u0430\u0439\u043c", "place": "town", "population": "8839", "postal_code": "4800", "wikidata": "Q261216", "wikipedia": "de:Attnang-Puchheim"}}, "geometry": {"type": "Point", "coordinates": [13.7210848, 48.0114566]}}, {"type": "Feature", "properties": {"type": "node", "id": 240059493, "tags": {"name": "Laakirchen", "place": "town", "population": "9600"}}, "geometry": {"type": "Point", "coordinates": [13.8225156, 47.9825598]}}, {"type": "Feature", "properties": {"type": "node", "id": 35350228, "tags": {"name": "Ried im Innkreis", "name:hu": "Ried im Innkreis", "place": "town", "population": "11404"}}, "geometry": {"type": "Point", "coordinates": [13.48839, 48.2085868]}}, {"type": "Feature", "properties": {"type": "node", "id": 641205466, "tags": {"name": "Schwanenstadt", "name:ru": "\u0428\u0432\u0430\u043d\u0435\u043d\u0448\u0442\u0430\u0434\u0442", "place": "town", "postal_code": "4690"}}, "geometry": {"type": "Point", "coordinates": [13.7749232, 48.0545249]}}, {"type": "Feature", "properties": {"type": "node", "id": 88961904, "tags": {"name": "Grieskirchen", "place": "town", "population": "4307"}}, "geometry": {"type": "Point", "coordinates": [13.826192, 48.235011]}}, {"type": "Feature", "properties": {"type": "node", "id": 30589153, "tags": {"name": "Kirchdorf an der Krems", "openGeoDB:auto_update": "population,is_in", "openGeoDB:community_identification_number": "4090501", "openGeoDB:is_in": "Kirchdorf an der Krems,Kirchdorf an der Krems,Ober\u00f6sterreich,\u00d6sterreich,Europe", "openGeoDB:is_in_loc_id": "70094", "openGeoDB:layer": "7", "openGeoDB:loc_id": "29582", "openGeoDB:name": "Kirchdorf an der Krems", "openGeoDB:population": "4099", "openGeoDB:postal_codes": "4560,4563", "openGeoDB:sort_name": "KIRCHDORF", "openGeoDB:type": "Ort", "openGeoDB:version": "0.2.6.11 / 2007-12-04 / http://fa-technik.adfc.de/code/opengeodb/dump/", "opengeodb:lat": "47.8982554", "opengeodb:lon": "14.1286549", "place": "town", "population": "4099", "wikidata": "Q688620"}}, "geometry": {"type": "Point", "coordinates": [14.1244169, 47.905194]}}, {"type": "Feature", "properties": {"type": "node", "id": 240110614, "tags": {"name": "Bad Hall", "place": "town", "population": "4727", "website": "http://www.badhall.com", "wikidata": "Q259086", "wikipedia": "de:Bad Hall"}}, "geometry": {"type": "Point", "coordinates": [14.2091385, 48.0348017]}}, {"type": "Feature", "properties": {"type": "node", "id": 26748998, "tags": {"ele": "317", "name": "Wels", "name:hu": "Wels", "name:lt": "Velsas", "name:uk": "\u0412\u0435\u043b\u044c\u0441", "place": "town", "population": "59853", "website": "https://www.wels.at/", "wikidata": "Q178582", "wikipedia": "de:Wels (Stadt)"}}, "geometry": {"type": "Point", "coordinates": [14.0243752, 48.1565472]}}, {"type": "Feature", "properties": {"type": "node", "id": 240129102, "tags": {"name": "Marchtrenk", "name:hu": "Marchtrenk", "name:ru": "\u041c\u0430\u0440\u0445\u0442\u0440\u0435\u043d\u043a", "place": "town", "population": "12951"}}, "geometry": {"type": "Point", "coordinates": [14.1117625, 48.1907992]}}, {"type": "Feature", "properties": {"type": "node", "id": 240076643, "tags": {"name": "Traun", "name:ru": "\u0422\u0440\u0430\u0443\u043d", "place": "town", "population": "10627", "website": "https://www.traun.at/", "wikidata": "Q260176", "wikipedia": "de:Traun (Stadt)"}}, "geometry": {"type": "Point", "coordinates": [14.2368078, 48.2214369]}}, {"type": "Feature", "properties": {"type": "node", "id": 240059038, "tags": {"name": "Rottenmann", "place": "town", "population": "5065"}}, "geometry": {"type": "Point", "coordinates": [14.3585643, 47.524226]}}, {"type": "Feature", "properties": {"type": "node", "id": 240068543, "tags": {"name": "Trofaiach", "place": "town", "population": "8385", "postal_code": "8793"}}, "geometry": {"type": "Point", "coordinates": [15.0065515, 47.4251065]}}, {"type": "Feature", "properties": {"type": "node", "id": 240079480, "tags": {"ele": "310", "name": "Steyr", "name:ru": "\u0428\u0442\u0430\u0439\u0440", "place": "town", "population": "38344", "wikidata": "Q260320", "wikipedia": "de:Steyr"}}, "geometry": {"type": "Point", "coordinates": [14.4191276, 48.0390046]}}, {"type": "Feature", "properties": {"type": "node", "id": 240059607, "tags": {"name": "Ansfelden", "name:hu": "Ansfelden", "place": "town", "population": "16240", "wikidata": "Q257130"}}, "geometry": {"type": "Point", "coordinates": [14.2901754, 48.2094498]}}, {"type": "Feature", "properties": {"type": "node", "id": 82499752, "tags": {"name": "Haag", "place": "town", "population": "5299"}}, "geometry": {"type": "Point", "coordinates": [14.5650462, 48.1119103]}}, {"type": "Feature", "properties": {"type": "node", "id": 240052582, "tags": {"alt_name": "Sankt Valentin", "ele": "268", "full_name": "Sankt Valentin", "name": "St. Valentin", "place": "town", "population": "2997", "postal_code": "4300", "ref:at:gkz": "3053105", "ref:at:okz": "03294"}}, "geometry": {"type": "Point", "coordinates": [14.5319725, 48.1746466]}}, {"type": "Feature", "properties": {"type": "node", "id": 52950607, "tags": {"name": "Enns", "name:hu": "Enns", "place": "town", "population": "8046", "source": "survey"}}, "geometry": {"type": "Point", "coordinates": [14.4793948, 48.2141482]}}, {"type": "Feature", "properties": {"type": "node", "id": 47912944, "tags": {"name": "Perg", "place": "town", "population": "8479", "population:date": "2018", "ref:at:gkz": "41116", "ref:at:okz": "10186"}}, "geometry": {"type": "Point", "coordinates": [14.6338102, 48.2500898]}}, {"type": "Feature", "properties": {"type": "node", "id": 61276046, "tags": {"name": "Waidhofen an der Ybbs", "name:cs": "Bejdov nad Jivic\u00ed", "name:hu": "Waidhofen an der Ybbs", "place": "town", "population": "4559", "short_name": "Waidhofen"}}, "geometry": {"type": "Point", "coordinates": [14.7747171, 47.9609716]}}, {"type": "Feature", "properties": {"type": "node", "id": 60806241, "tags": {"name": "Amstetten", "name:hu": "Amstetten", "place": "town", "population": "13878"}}, "geometry": {"type": "Point", "coordinates": [14.8752424, 48.1203262]}}, {"type": "Feature", "properties": {"type": "node", "id": 47910185, "tags": {"name": "Grein", "place": "town", "population": "2141", "ref:at:gkz": "41105", "ref:at:okz": "10050"}}, "geometry": {"type": "Point", "coordinates": [14.8551948, 48.2271779]}}, {"type": "Feature", "properties": {"type": "node", "id": 95467937, "tags": {"name": "Ybbs an der Donau", "place": "town", "population": "5777", "short_name": "Ybbs", "website": "https://www.ybbs.gv.at/"}}, "geometry": {"type": "Point", "coordinates": [15.0852856, 48.1772445]}}, {"type": "Feature", "properties": {"type": "node", "id": 34911644, "tags": {"name": "Deutschlandsberg", "name:hu": "Deutschlandsberg", "name:ru": "\u0414\u043e\u0439\u0447\u043b\u0430\u043d\u0434\u0441\u0431\u0435\u0440\u0433", "place": "town", "population": "7983"}}, "geometry": {"type": "Point", "coordinates": [15.2137799, 46.8146272]}}, {"type": "Feature", "properties": {"type": "node", "id": 34911640, "tags": {"name": "Leibnitz", "name:de": "Leibnitz", "name:sl": "Lipnica", "place": "town", "wikidata": "Q659860", "wikipedia": "de:Leibnitz"}}, "geometry": {"type": "Point", "coordinates": [15.5407005, 46.7804762]}}, {"type": "Feature", "properties": {"type": "node", "id": 34956200, "tags": {"name": "Mureck", "name:ru": "\u041c\u0443\u0440\u0435\u043a", "place": "town", "population": "1690"}}, "geometry": {"type": "Point", "coordinates": [15.7690617, 46.7083655]}}, {"type": "Feature", "properties": {"type": "node", "id": 3653282655, "tags": {"name": "Feldbach", "name:sl": "Vrbna", "place": "town", "population": "13369", "population:date": "2018-01-01"}}, "geometry": {"type": "Point", "coordinates": [15.8887826, 46.9525777]}}, {"type": "Feature", "properties": {"type": "node", "id": 26759080, "tags": {"name": "Voitsberg", "name:hu": "Voitsberg", "name:ru": "\u0424\u043e\u0439\u0442\u0441\u0431\u0435\u0440\u0433", "place": "town", "ref:at:gkz": "6162501", "ref:at:okz": "16219"}}, "geometry": {"type": "Point", "coordinates": [15.1474771, 47.0504742]}}, {"type": "Feature", "properties": {"type": "node", "id": 21015489, "tags": {"alt_name:la": "Graecium", "alt_name:mk": "\u0413\u0440\u0430\u0434\u0435\u0446", "capital": "4", "ele": "353", "is_in:country": "Austria", "name": "Graz", "name:ar": "\u063a\u0631\u0627\u062a\u0633", "name:be": "\u0413\u0440\u0430\u0446", "name:be-tarask": "\u0413\u0440\u0430\u0446", "name:bg": "\u0413\u0440\u0430\u0446", "name:cs": "\u0160t\u00fdrsk\u00fd Hradec", "name:en": "Graz", "name:fr": "Graz", "name:hsb": "\u0160tyrski Hr\u00f3dk", "name:hu": "Gr\u00e1c", "name:ka": "\u10d2\u10e0\u10d0\u10ea\u10d8", "name:la": "Graecia", "name:lt": "Gracas", "name:mk": "\u0413\u0440\u0430\u0446", "name:rmc": "Gereci", "name:ru": "\u0413\u0440\u0430\u0446", "name:sl": "Gradec", "name:sr": "\u0413\u0440\u0430\u0446", "name:ta": "\u0b95\u0bcd\u0bb0\u0bbe\u0ba4\u0bcd\u0bb8\u0bcd", "name:uk": "\u0413\u0440\u0430\u0446", "openGeoDB:community_identification_number": "60101", "openGeoDB:loc_id": "29386", "openGeoDB:postal_codes": "8010,8020,8036,8041,8042,8043,8044,8045,8046,8047,8051,8052,8053,8054,8055,8073,8074,8012,8013,8015,8016,8017,8018,8019,8022,8023,8024,8025,8026,8027,8028,8029,8035,8056", "place": "city", "population": "331359", "population:date": "2020-01", "website": "https://www.graz.at/", "wikidata": "Q13298", "wikipedia": "de:Graz"}}, "geometry": {"type": "Point", "coordinates": [15.4382786, 47.0708678]}}, {"type": "Feature", "properties": {"type": "node", "id": 5362096170, "tags": {"name": "Gratwein-Stra\u00dfengel", "place": "town", "population": "13000"}}, "geometry": {"type": "Point", "coordinates": [15.3304611, 47.1231264]}}, {"type": "Feature", "properties": {"type": "node", "id": 34854128, "tags": {"name": "Frohnleiten", "place": "town", "population": "6655"}}, "geometry": {"type": "Point", "coordinates": [15.3260206, 47.2715315]}}, {"type": "Feature", "properties": {"type": "node", "id": 34849803, "tags": {"name": "Gleisdorf", "name:ru": "\u0413\u043b\u044f\u0439\u0441\u0434\u043e\u0440\u0444", "place": "town", "population": "5224"}}, "geometry": {"type": "Point", "coordinates": [15.7058606, 47.1067722]}}, {"type": "Feature", "properties": {"type": "node", "id": 240067151, "tags": {"name": "Weiz", "name:de": "Weiz", "place": "town", "population": "8799", "website": "http://www.weiz.at"}}, "geometry": {"type": "Point", "coordinates": [15.6221694, 47.2174206]}}, {"type": "Feature", "properties": {"type": "node", "id": 240123085, "tags": {"name": "P\u00f6llau", "place": "town", "population": "1981"}}, "geometry": {"type": "Point", "coordinates": [15.8340187, 47.302891]}}, {"type": "Feature", "properties": {"type": "node", "id": 240041310, "tags": {"name": "Bad Radkersburg", "name:hu": "Regede", "name:sl": "Radgona", "openGeoDB:postal_codes": "8490", "place": "town", "population": "1474"}}, "geometry": {"type": "Point", "coordinates": [15.9880546, 46.6880556]}}, {"type": "Feature", "properties": {"type": "node", "id": 34847834, "tags": {"name": "Fehring", "place": "town"}}, "geometry": {"type": "Point", "coordinates": [16.01045, 46.9359649]}}, {"type": "Feature", "properties": {"type": "node", "id": 34848074, "tags": {"name": "Jennersdorf", "name:hu": "Gyanafalva", "name:ru": "\u0419\u0435\u043d\u043d\u0435\u0440\u0441\u0434\u043e\u0440\u0444", "name:sl": "\u017denavci", "place": "town", "population": "2351"}}, "geometry": {"type": "Point", "coordinates": [16.1412906, 46.9371733]}}, {"type": "Feature", "properties": {"type": "node", "id": 34852357, "tags": {"name": "F\u00fcrstenfeld", "name:hu": "F\u00f6l\u00f6st\u00f6m", "place": "town"}}, "geometry": {"type": "Point", "coordinates": [16.0816815, 47.0499925]}}, {"type": "Feature", "properties": {"type": "node", "id": 240072839, "tags": {"ele": "229", "name": "G\u00fcssing", "name:hr": "Novigrad", "name:hu": "N\u00e9met\u00fajv\u00e1r", "name:ro": "Ujvara", "name:ru": "\u0413\u044e\u0441\u0441\u0438\u043d\u0433", "place": "town", "population": "2734"}}, "geometry": {"type": "Point", "coordinates": [16.3243364, 47.058765]}}, {"type": "Feature", "properties": {"type": "node", "id": 240052571, "tags": {"name": "Hartberg", "name:ru": "\u0425\u0430\u0440\u0442\u0431\u0435\u0440\u0433", "place": "town", "population": "3920"}}, "geometry": {"type": "Point", "coordinates": [15.9691769, 47.2809371]}}, {"type": "Feature", "properties": {"type": "node", "id": 82747879, "tags": {"name": "Pinkafeld", "name:hr": "Pinkafelj", "name:hu": "Pinkaf\u0151", "name:ro": "Pinkafa", "name:ru": "\u041f\u0438\u043d\u043a\u0430\u0444\u0435\u043b\u044c\u0434", "place": "town", "population": "5272", "source": "survey"}}, "geometry": {"type": "Point", "coordinates": [16.1234157, 47.37254]}}, {"type": "Feature", "properties": {"type": "node", "id": 35293519, "tags": {"name": "Oberwart/Fels\u0151\u0151r", "name:de": "Oberwart", "name:hr": "Gornja Borta", "name:hu": "Fels\u0151\u0151r", "name:ro": "Erba", "name:ru": "\u041e\u0431\u0435\u0440\u0432\u0430\u0440\u0442", "place": "town", "population": "6442", "source": "survey"}}, "geometry": {"type": "Point", "coordinates": [16.2124214, 47.2861513]}}, {"type": "Feature", "properties": {"type": "node", "id": 35029010, "tags": {"name": "Stadtschlaining", "name:hr": "Solunak", "name:hu": "V\u00e1rosszal\u00f3nak", "name:ru": "\u0428\u0442\u0430\u0434\u0442\u0448\u043b\u0430\u0439\u043d\u0438\u043d\u0433", "place": "town", "population": "672", "website": "www.stadtschlaining.at"}}, "geometry": {"type": "Point", "coordinates": [16.2768141, 47.3233193]}}, {"type": "Feature", "properties": {"type": "node", "id": 34855256, "tags": {"name": "Bruck an der Mur", "name:hu": "Bruck an der Mur", "name:ru": "\u0411\u0440\u0443\u043a-\u0430\u043d-\u0434\u0435\u0440-\u041c\u0443\u0440", "place": "town", "population": "9748"}}, "geometry": {"type": "Point", "coordinates": [15.2721668, 47.4121987]}}, {"type": "Feature", "properties": {"type": "node", "id": 34911783, "tags": {"name": "Kapfenberg", "name:ru": "\u041a\u0430\u043f\u0444\u0435\u043d\u0431\u0435\u0440\u0433", "place": "town", "population": "23004", "wikidata": "Q623049", "wikipedia": "de:Kapfenberg"}}, "geometry": {"type": "Point", "coordinates": [15.2901669, 47.4405481]}}, {"type": "Feature", "properties": {"type": "node", "id": 200881689, "tags": {"name": "Kindberg", "place": "town", "population": "5546"}}, "geometry": {"type": "Point", "coordinates": [15.4498601, 47.5049711]}}, {"type": "Feature", "properties": {"type": "node", "id": 66147281, "tags": {"name": "Mariazell", "name:rmc": "Cej", "place": "town"}}, "geometry": {"type": "Point", "coordinates": [15.3174781, 47.7717395]}}, {"type": "Feature", "properties": {"type": "node", "id": 34911808, "tags": {"name": "M\u00fcrzzuschlag", "place": "town", "population": "6842"}}, "geometry": {"type": "Point", "coordinates": [15.6723805, 47.6053538]}}, {"type": "Feature", "properties": {"type": "node", "id": 240122078, "tags": {"name": "Gloggnitz", "name:ru": "\u0413\u043b\u043e\u0433\u043d\u0438\u0446", "place": "town", "population": "6062", "website": "https://www.gloggnitz.at/", "wikidata": "Q679328", "wikipedia": "de:Gloggnitz"}}, "geometry": {"type": "Point", "coordinates": [15.9374085, 47.6757858]}}, {"type": "Feature", "properties": {"type": "node", "id": 29749399, "tags": {"name": "Puchberg am Schneeberg", "place": "town", "population": "2812", "short_name": "Puchberg"}}, "geometry": {"type": "Point", "coordinates": [15.9124064, 47.7895615]}}, {"type": "Feature", "properties": {"type": "node", "id": 60806408, "tags": {"name": "Scheibbs", "place": "town", "population": "4275"}}, "geometry": {"type": "Point", "coordinates": [15.1674871, 48.0053866]}}, {"type": "Feature", "properties": {"type": "node", "id": 240077050, "tags": {"name": "Purgstall an der Erlauf", "place": "town", "population": "6154", "postal_code": "3251", "source:population": "http://www.purgstall-erlauf.gv.at/system/web/fakten.aspx?menuonr=218603963"}}, "geometry": {"type": "Point", "coordinates": [15.1352003, 48.0576733]}}, {"type": "Feature", "properties": {"type": "node", "id": 240032101, "tags": {"name": "Wieselburg", "name:ru": "\u0412\u0438\u0437\u0435\u043b\u044c\u0431\u0443\u0440\u0433", "place": "town", "population": "3489"}}, "geometry": {"type": "Point", "coordinates": [15.1376585, 48.1298877]}}, {"type": "Feature", "properties": {"type": "node", "id": 240037348, "tags": {"name": "St. Leonhard am Forst", "place": "town", "population": "753", "postal_code": "3243"}}, "geometry": {"type": "Point", "coordinates": [15.2861686, 48.141625]}}, {"type": "Feature", "properties": {"type": "node", "id": 57651883, "tags": {"name": "P\u00f6chlarn", "name:ru": "\u041f\u0451\u0445\u043b\u0430\u0440\u043d", "place": "town", "population": "1296", "wikidata": "Q255350", "wikipedia": "de:P\u00f6chlarn"}}, "geometry": {"type": "Point", "coordinates": [15.2120099, 48.2119885]}}, {"type": "Feature", "properties": {"type": "node", "id": 34844268, "tags": {"name": "Mank", "place": "town", "population": "1571", "source": "survey"}}, "geometry": {"type": "Point", "coordinates": [15.3410341, 48.111069]}}, {"type": "Feature", "properties": {"type": "node", "id": 29752440, "tags": {"ele": "213", "name": "Melk", "name:cs": "Medl\u00edk", "name:ru": "\u041c\u0435\u043b\u044c\u043a", "place": "town", "population": "5296", "postal_code": "3390", "wikidata": "Q489806", "wikipedia": "de:Melk"}}, "geometry": {"type": "Point", "coordinates": [15.3369992, 48.2272068]}}, {"type": "Feature", "properties": {"type": "node", "id": 240102547, "tags": {"name": "Loosdorf", "place": "town", "population": "2732"}}, "geometry": {"type": "Point", "coordinates": [15.4020198, 48.2004159]}}, {"type": "Feature", "properties": {"type": "node", "id": 240074021, "tags": {"name": "Lilienfeld", "place": "town", "population": "495", "postal_code": "3180", "website": "https://www.lilienfeld.at/"}}, "geometry": {"type": "Point", "coordinates": [15.5966191, 48.0149797]}}, {"type": "Feature", "properties": {"type": "node", "id": 27270104, "tags": {"name": "Hainfeld", "name:ru": "\u0425\u0430\u0439\u043d\u0444\u0435\u043b\u044c\u0434", "place": "town", "population": "2025", "source": "gns"}}, "geometry": {"type": "Point", "coordinates": [15.7712084, 48.0348811]}}, {"type": "Feature", "properties": {"type": "node", "id": 240090615, "tags": {"name": "Wilhelmsburg", "place": "town", "population": "6660"}}, "geometry": {"type": "Point", "coordinates": [15.6057534, 48.1051461]}}, {"type": "Feature", "properties": {"type": "node", "id": 57756076, "tags": {"ele": "369", "name": "St. Veit an der G\u00f6lsen", "place": "town", "population": "3912", "postal_code": "3161", "source": "http://www.ris.bka.gv.at/Dokumente/LrNo/LRNI_2011122/LRNI_2011122.html", "wikidata": "Q675229", "wikipedia": "de:St. Veit an der G\u00f6lsen"}}, "geometry": {"type": "Point", "coordinates": [15.6703728, 48.0438943]}}, {"type": "Feature", "properties": {"type": "node", "id": 240038219, "tags": {"capital": "4", "ele": "267", "name": "St. P\u00f6lten", "name:ar": "\u0633\u0627\u0646\u062a \u0628\u0648\u0644\u062a\u0646", "name:be": "\u0421\u0430\u043d\u043a\u0442-\u041f\u0451\u043b\u044c\u0442\u044d\u043d", "name:be-tarask": "\u0421\u0430\u043d\u043a\u0442-\u041f\u0451\u043b\u044c\u0442\u044d\u043d", "name:hu": "Sankt P\u00f6lten", "name:ru": "\u0421\u0430\u043d\u043a\u0442-\u041f\u0451\u043b\u044c\u0442\u0435\u043d", "name:sr": "\u0421\u0430\u043d\u043a\u0442 \u041f\u0435\u043b\u0442\u0435\u043d", "place": "town", "population": "52716", "wikidata": "Q82500", "wikipedia": "de:St. P\u00f6lten"}}, "geometry": {"type": "Point", "coordinates": [15.6229118, 48.2043985]}}, {"type": "Feature", "properties": {"type": "node", "id": 29745226, "tags": {"ele": "302", "name": "Altlengbach", "name:hu": "Altlengbach", "name:ru": "\u0410\u043b\u044c\u0442\u043b\u0435\u043d\u0433\u0431\u0430\u0445", "place": "town", "population": "913", "postal_code": "3033", "ref:at:gkz": "3190101", "ref:at:okz": "05357"}}, "geometry": {"type": "Point", "coordinates": [15.91884, 48.1534694]}}, {"type": "Feature", "properties": {"type": "node", "id": 27270094, "tags": {"name": "Neulengbach", "name:hu": "Neulengbach", "name:ru": "\u041d\u043e\u0439\u043b\u0435\u043d\u0433\u0431\u0430\u0445", "place": "town", "population": "1529", "source": "gns"}}, "geometry": {"type": "Point", "coordinates": [15.907098, 48.1970124]}}, {"type": "Feature", "properties": {"type": "node", "id": 240025153, "tags": {"addr:postcode": "2630", "ele": "393", "name": "Ternitz", "name:ar": "\u062a\u064a\u0631\u0646\u062a\u0633", "name:he": "\u05ea\u05e8\u05e0\u05d9\u05e5", "name:hu": "Ternitz", "name:ru": "\u0422\u0435\u0440\u043d\u0438\u0446", "place": "town", "population": "14823", "website": "https://www.ternitz.gv.at/", "wikidata": "Q659984", "wikipedia": "de:Ternitz"}}, "geometry": {"type": "Point", "coordinates": [16.0194688, 47.7066007]}}, {"type": "Feature", "properties": {"type": "node", "id": 240090385, "tags": {"name": "Neunkirchen", "name:hu": "Neunkirchen", "place": "town", "population": "9974", "postal_code": "2620", "wikidata": "Q265948", "wikipedia": "de:Neunkirchen (Nieder\u00f6sterreich)"}}, "geometry": {"type": "Point", "coordinates": [16.0815913, 47.7221472]}}, {"type": "Feature", "properties": {"type": "node", "id": 26807229, "tags": {"alt_name": "Wr. Neustadt", "ele": "262", "geonameid": "2761353", "import_ref": "city_import_at_1", "name": "Wiener Neustadt", "name:ar": "\u0641\u064a\u0646\u0631 \u0646\u0648\u064a\u0634\u062a\u0627\u062a", "name:bg": "\u0412\u0438\u043d\u0435\u0440 \u041d\u043e\u0439\u0449\u0430\u0442", "name:bs": "Be\u010dko Novo Mjesto", "name:cs": "V\u00edde\u0148sk\u00e9 Nov\u00e9 M\u011bsto", "name:de": "Wiener Neustadt", "name:he": "\u05d5\u05d9\u05e0\u05e8 \u05e0\u05d5\u05d9\u05e9\u05d8\u05d8", "name:hr": "Be\u010dko Novo Mjesto", "name:hu": "B\u00e9cs\u00fajhely", "name:ja": "\u30a6\u30a3\u30fc\u30ca\u30fc\u30fb\u30ce\u30a4\u30b7\u30e5\u30bf\u30c3\u30c8", "name:ka": "\u10d5\u10d4\u10dc\u10e3\u10e0\u10d8 \u10d0\u10ee\u10d0\u10da\u10e5\u10d0\u10da\u10d0\u10e5\u10d8", "name:lt": "Vyner Noi\u0161tatas", "name:ru": "\u0412\u0438\u043d\u0435\u0440-\u041d\u043e\u0439\u0448\u0442\u0430\u0434\u0442", "name:sk": "Viedensk\u00e9 Nov\u00e9 Mesto", "name:sl": "Dunajsko Novo mesto", "name:sr": "\u0412\u0438\u043d\u0435\u0440 \u041d\u043e\u0458\u0448\u0442\u0430\u0442", "name:uk": "\u0412\u0456\u043d\u0435\u0440-\u041d\u043e\u0439\u0448\u0442\u0430\u0434\u0442", "name:zh": "\u7dad\u4e5f\u7d0d\u65b0\u57ce", "place": "town", "population": "38481", "source": "survey", "source:name": "www.geonames.org", "website": "https://www.wiener-neustadt.at/", "wikidata": "Q131612", "wikipedia": "de:Wiener Neustadt"}}, "geometry": {"type": "Point", "coordinates": [16.2440318, 47.8131761]}}, {"type": "Feature", "properties": {"type": "node", "id": 34841814, "tags": {"name": "Oberpullendorf/Fels\u0151pulya", "name:hr": "Gornja Pulja", "name:hu": "Fels\u0151pulya", "name:rmc": "Uprutni Puja", "name:ru": "\u041e\u0431\u0435\u0440\u043f\u0443\u043b\u043b\u0435\u043d\u0434\u043e\u0440\u0444", "place": "town", "population": "3176"}}, "geometry": {"type": "Point", "coordinates": [16.5054577, 47.5012609]}}, {"type": "Feature", "properties": {"type": "node", "id": 26807230, "tags": {"ele": "238", "geonameid": "2771817", "import_ref": "city_import_at_1", "name": "Mattersburg", "name:hr": "Matr\u0161tof", "name:hu": "Nagymarton", "name:ru": "\u041c\u0430\u0442\u0442\u0435\u0440\u0441\u0431\u0443\u0440\u0433", "place": "town", "population": "7177", "postal_code": "7210", "source:name": "www.geonames.org", "wikidata": "Q250832", "wikipedia": "de:Mattersburg"}}, "geometry": {"type": "Point", "coordinates": [16.3980488, 47.7368423]}}, {"type": "Feature", "properties": {"type": "node", "id": 29748318, "tags": {"ele": "123", "name": "Rust", "name:hu": "Ruszt", "name:ru": "\u0420\u0443\u0441\u0442", "place": "town", "population": "1980"}}, "geometry": {"type": "Point", "coordinates": [16.6749452, 47.8003459]}}, {"type": "Feature", "properties": {"type": "node", "id": 240108142, "tags": {"ele": "430", "email": "gemeinde@pernitz.co.at", "name": "Pernitz", "phone": "02632 / 72220", "place": "town", "population": "2478", "postal_code": "2763", "ref:at:gkz": "3232302", "ref:at:okz": "06654", "website": "http://pernitz.at", "wikidata": "Q672797", "wikipedia": "de:Pernitz"}}, "geometry": {"type": "Point", "coordinates": [15.9596373, 47.8977953]}}, {"type": "Feature", "properties": {"type": "node", "id": 34104024, "tags": {"ele": "314", "name": "Berndorf", "name:de": "Berndorf", "name:hu": "Berndorf", "name:ru": "\u0411\u0435\u0440\u043d\u0434\u043e\u0440\u0444", "place": "town", "population": "8698", "wikidata": "Q666615", "wikipedia": "de:Berndorf (Nieder\u00f6sterreich)"}}, "geometry": {"type": "Point", "coordinates": [16.1093585, 47.9455876]}}, {"type": "Feature", "properties": {"type": "node", "id": 34103909, "tags": {"name": "Bad V\u00f6slau", "name:de": "Bad V\u00f6slau", "name:hu": "Bad V\u00f6slau", "name:ru": "\u0411\u0430\u0434-\u0424\u0451\u0441\u043b\u0430\u0443", "place": "town", "population": "11190", "wikidata": "Q798800", "wikipedia": "de:Bad V\u00f6slau"}}, "geometry": {"type": "Point", "coordinates": [16.2148073, 47.9655519]}}, {"type": "Feature", "properties": {"type": "node", "id": 34103911, "tags": {"addr:postcode": "2500", "alt_name": "Baden bei Wien", "name": "Baden", "name:hu": "Baden", "name:lt": "Badenas", "name:ru": "\u0411\u0430\u0434\u0435\u043d", "note": "Stadt", "place": "town", "population": "25000", "wikidata": "Q486450", "wikipedia": "de:Baden (Nieder\u00f6sterreich)"}}, "geometry": {"type": "Point", "coordinates": [16.2334951, 48.0085749]}}, {"type": "Feature", "properties": {"type": "node", "id": 240052074, "tags": {"name": "Traiskirchen", "name:fa": "\u062a\u0631\u0627\u06cc\u0632\u06a9\u06cc\u0631\u0634\u0646", "name:hu": "Traiskirchen", "name:ka": "\u10e2\u10e0\u10d0\u10d8\u10e1\u10d9\u10d8\u10e0\u10ee\u10d4\u10dc\u10d8", "name:ru": "\u0422\u0440\u0430\u0439\u0441\u043a\u0438\u0440\u0445\u0435\u043d", "name:sr": "\u0422\u0440\u0430\u0458\u0441\u043a\u0438\u0440\u0445\u0435\u043d", "name:zh": "\u7279\u8cf4\u65af\u57fa\u8208", "place": "town", "population": "18000", "wikidata": "Q659950", "wikipedia": "de:Traiskirchen"}}, "geometry": {"type": "Point", "coordinates": [16.2952311, 48.0138858]}}, {"type": "Feature", "properties": {"type": "node", "id": 27270101, "tags": {"name": "Alland", "name:hu": "Alland", "name:ru": "\u0410\u043b\u043b\u0430\u043d\u0434", "place": "town", "place:note": "town aufgrund der Bedeutung f\u00fcr die Region gew\u00e4hlt, obwohl population<2000 ist", "population": "1396", "source": "gns", "wikidata": "Q665137", "wikipedia": "de:Alland"}}, "geometry": {"type": "Point", "coordinates": [16.075773, 48.0588086]}}, {"type": "Feature", "properties": {"type": "node", "id": 240094722, "tags": {"alt_name:uk": "\u041f\u0440\u0435\u0441\u0441\u0431\u0430\u0443\u043c", "ele": "315", "name": "Pressbaum", "name:de": "Pressbaum", "name:uk": "\u041f\u0440\u0435\u0441\u0431\u0430\u0443\u043c", "name:zh": "\u666e\u96f7\u65af\u9c8d\u59c6", "place": "town", "population": "7451", "wikipedia": "de:Pressbaum"}}, "geometry": {"type": "Point", "coordinates": [16.077089, 48.1792064]}}, {"type": "Feature", "properties": {"type": "node", "id": 240092464, "tags": {"full_name": "Breitenfurt bei Wien", "name": "Breitenfurt", "name:de": "Breitenfurt", "name:hu": "Breitenfurt", "name:ru": "\u0411\u0440\u0430\u0439\u0442\u0435\u043d\u0444\u0443\u0440\u0442", "place": "town", "population": "5323", "ref:at:gkz": "31703", "ref:at:okz": "05142"}}, "geometry": {"type": "Point", "coordinates": [16.1686498, 48.1359216]}}, {"type": "Feature", "properties": {"type": "node", "id": 240057320, "tags": {"name": "M\u00f6dling", "name:hu": "M\u00f6dling", "name:ka": "\u10db\u10d8\u10dd\u10d3\u10da\u10d8\u10dc\u10d2\u10d8", "name:ru": "\u041c\u0451\u0434\u043b\u0438\u043d\u0433", "openGeoDB:community_identification_number": "317", "openGeoDB:is_in_loc_id": "126", "openGeoDB:layer": "5", "openGeoDB:loc_id": "29794", "openGeoDB:location": "region", "place": "town", "population": "20619", "postal_code": "2340", "ref:at:gkz": "31717", "ref:at:okz": "05156", "wikidata": "Q277965", "wikipedia": "de:M\u00f6dling"}}, "geometry": {"type": "Point", "coordinates": [16.2833526, 48.0855922]}}, {"type": "Feature", "properties": {"type": "node", "id": 17330426, "tags": {"ele": "248", "name": "Purkersdorf", "name:de": "Purkersdorf", "name:hu": "Purkersdorf", "name:ru": "\u041f\u0443\u0440\u043a\u0435\u0440\u0441\u0434\u043e\u0440\u0444", "name:zh": "\u666e\u5c14\u514b\u5c14\u65af\u591a\u592b", "place": "town", "population": "9684", "postal_code": "3002", "ref:at:gkz": "3241601", "ref:at:okz": "06722", "wikidata": "Q590620", "wikipedia": "de:Purkersdorf"}}, "geometry": {"type": "Point", "coordinates": [16.1772068, 48.2076724]}}, {"type": "Feature", "properties": {"type": "node", "id": 39460210, "tags": {"ele": "231", "name": "Neufeld an der Leitha", "name:de": "Neufeld an der Leitha", "name:hr": "Novo Selo", "name:hu": "Lajta\u00fajfalu", "name:ru": "\u041d\u043e\u0439\u0444\u0435\u043b\u044c\u0434-\u043d\u0430-\u041b\u0430\u0439\u0442\u0435", "place": "town", "population": "3486", "ref:at:gkz": "1030901", "wikidata": "Q259859", "wikipedia": "de:Neufeld an der Leitha", "wikipedia:en": "Neufeld an der Leitha", "wikipedia:hu": "Lajta\u00fajfalu"}}, "geometry": {"type": "Point", "coordinates": [16.3764014, 47.8677623]}}, {"type": "Feature", "properties": {"type": "node", "id": 26807241, "tags": {"capital": "4", "ele": "182", "is_in:country": "Austria", "name": "Eisenstadt", "name:bar": "Eisnst\u00e5d", "name:be": "\u0410\u0439\u0437\u0435\u043d\u0448\u0442\u0430\u0442", "name:be-tarask": "\u0410\u0439\u0437\u0435\u043d\u0448\u0442\u0430\u0442", "name:bg": "\u0410\u0439\u0437\u0435\u043d\u0449\u0430\u0442", "name:cs": "\u017delezno", "name:de": "Eisenstadt", "name:he": "\u05d0\u05d9\u05d9\u05d6\u05e0\u05e9\u05d8\u05d8", "name:hr": "\u017deljezno", "name:hu": "Kismarton", "name:ka": "\u10e0\u10d9\u10d8\u10dc\u10d8\u10e1\u10e5\u10d0\u10da\u10d0\u10e5\u10d8", "name:la": "Ferreum Castrum", "name:lt": "Eizen\u0161tatas", "name:rmc": "Srasta", "name:ru": "\u0410\u0439\u0437\u0435\u043d\u0448\u0442\u0430\u0434\u0442", "name:sk": "\u017delezno", "name:sr": "\u0410\u0458\u0437\u0435\u043d\u0448\u0442\u0430\u0442", "name:uk": "\u0410\u0439\u0437\u0435\u043d\u0448\u0442\u0430\u0434\u0442", "place": "town", "population": "9243", "postal_code": "7000", "source:name": "www.geonames.org"}}, "geometry": {"type": "Point", "coordinates": [16.5249288, 47.8454821]}}, {"type": "Feature", "properties": {"type": "node", "id": 240105058, "tags": {"name": "Ebreichsdorf", "name:hu": "Ebreichsdorf", "name:ru": "\u042d\u0431\u0440\u0430\u0439\u0445\u0441\u0434\u043e\u0440\u0444", "place": "town", "population": "9194", "wikidata": "Q646396", "wikipedia": "de:Ebreichsdorf"}}, "geometry": {"type": "Point", "coordinates": [16.4029664, 47.962254]}}, {"type": "Feature", "properties": {"type": "node", "id": 29748312, "tags": {"ele": "128", "name": "Purbach am Neusiedler See", "name:de": "Purbach am Neusiedler See", "name:hr": "Porpuh", "name:hu": "Feketev\u00e1ros", "name:ru": "\u041f\u0443\u0440\u0431\u0430\u0445", "official_name": "Purbach am Neusiedler See", "place": "town", "population": "2885", "short_name": "Purbach", "website": "www.purbach.at"}}, "geometry": {"type": "Point", "coordinates": [16.6957954, 47.913427]}}, {"type": "Feature", "properties": {"type": "node", "id": 240095462, "tags": {"name": "Mannersdorf am Leithagebirge", "name:ru": "\u041c\u0430\u043d\u043d\u0435\u0440\u0441\u0434\u043e\u0440\u0444-\u0430\u043c-\u041b\u044f\u0439\u0442\u0430\u0433\u0435\u0431\u0438\u0440\u0433\u0435", "place": "town", "population": "3731", "short_name": "Mannersdorf", "website": "https://www.mannersdorf-leithagebirge.gv.at/"}}, "geometry": {"type": "Point", "coordinates": [16.6038027, 47.9744729]}}, {"type": "Feature", "properties": {"type": "node", "id": 240122286, "tags": {"name": "Schwechat", "name:cs": "\u0160vechaty", "name:de": "Schwechat", "name:hu": "Schwechat", "name:ka": "\u10e8\u10d5\u10d4\u10ee\u10d0\u10d7\u10d8", "name:ru": "\u0428\u0432\u0435\u0445\u0430\u0442", "name:sk": "\u0160vechaty", "openGeoDB:community_identification_number": "32419", "openGeoDB:is_in_loc_id": "66975", "openGeoDB:layer": "6", "openGeoDB:loc_id": "67016", "openGeoDB:location": "political_structure", "openGeoDB:name": "Schwechat", "openGeoDB:population": "15832", "openGeoDB:postal_codes": "1300,2320", "openGeoDB:type": "Gemeinde", "openGeoDB:version": "0.2.6.11 / 2007-12-04 / http://fa-technik.adfc.de/code/opengeodb/dump/", "place": "town", "ref:at:gkz": "30740", "ref:at:okz": "06728", "wikidata": "Q489972", "wikipedia": "de:Schwechat"}}, "geometry": {"type": "Point", "coordinates": [16.4780312, 48.1397436]}}, {"type": "Feature", "properties": {"type": "node", "id": 17328659, "tags": {"ISO3166-1:alpha2": "AT", "admin_level": "2", "alt_name:gl": "Wien", "capital": "yes", "capital_ISO3166-1": "yes", "description": "Wien ist die Hauptstadt der Republik \u00d6sterreich und zugleich eines der neun \u00f6sterreichischen Bundesl\u00e4nder.", "ele": "542", "name": "Wien", "name:ace": "Wina", "name:af": "Wene", "name:am": "\u126a\u12e8\u1293", "name:an": "Viena", "name:ar": "\u0641\u064a\u064a\u0646\u0627", "name:arc": "\u0712\u071d\u071d\u0722\u0710", "name:arz": "\u0641\u064a\u064a\u0646\u0627", "name:ast": "Viena", "name:az": "Vyana", "name:ba": "Be\u010d", "name:bar": "Wean", "name:bat-smg": "Viena", "name:be": "\u0412\u0435\u043d\u0430", "name:be-tarask": "\u0412\u0435\u043d\u0430", "name:bg": "\u0412\u0438\u0435\u043d\u0430", "name:bi": "Vienna", "name:bn": "\u09ad\u09bf\u09af\u09bc\u09c7\u09a8\u09be", "name:bo": "\u0f5d\u0f72\u0f0b\u0f68\u0f7a\u0f0b\u0f53\u0f0d", "name:br": "Vienna", "name:bs": "Be\u010d", "name:ca": "Viena", "name:ce": "\u0412\u0435\u043d\u0430", "name:ceb": "Vienna", "name:ckb": "\u06a4\u06cc\u06ce\u0646\u0627", "name:co": "Vienna", "name:crh": "Viyana", "name:cs": "V\u00edde\u0148", "name:cv": "\u0412\u0435\u043d\u0430", "name:de": "Wien", "name:diq": "Wiyana", "name:ee": "Vienna", "name:el": "\u0392\u03b9\u03ad\u03bd\u03bd\u03b7", "name:en": "Vienna", "name:eo": "Vieno", "name:es": "Viena", "name:et": "Viin", "name:eu": "Viena", "name:ext": "Viena", "name:fa": "\u0648\u06cc\u0646", "name:fi": "Wien", "name:fiu-vro": "Viin", "name:fr": "Vienne", "name:frp": "Vi\u00e8na", "name:fur": "Viene", "name:fy": "Wenen", "name:ga": "V\u00edn", "name:gag": "Vena", "name:gd": "Vienna", "name:gl": "Viena", "name:gv": "Veen", "name:he": "\u05d5\u05d9\u05e0\u05d4", "name:hi": "\u0935\u093f\u092f\u0928\u093e", "name:hif": "Vienna", "name:hr": "Be\u010d", "name:ht": "Vy\u00e8n", "name:hu": "B\u00e9cs", "name:hy": "\u054e\u056b\u0565\u0576\u0576\u0561", "name:ia": "Vienna", "name:id": "Wina", "name:ie": "Vienna", "name:ilo": "Vienna", "name:is": "V\u00edn", "name:it": "Vienna", "name:ja": "\u30a6\u30a3\u30fc\u30f3", "name:jv": "Wina", "name:ka": "\u10d5\u10d4\u10dc\u10d0", "name:kk": "\u0412\u0435\u043d\u0430", "name:kn": "\u0cb5\u0cbf\u0caf\u0cc6\u0ca8\u0ccd\u0ca8", "name:ko": "\ube48", "name:koi": "\u0412\u0438\u043d", "name:krc": "\u0412\u0435\u043d\u0430", "name:ku": "Viyana", "name:kv": "\u0412\u0435\u043d\u0430", "name:ky": "\u0412\u0435\u043d\u0430", "name:la": "Vindobona", "name:lez": "\u0412\u0435\u043d\u0430", "name:li": "Wene", "name:lij": "Vienna", "name:lmo": "Viena", "name:ln": "Vi\u025bn\u025b", "name:lt": "Viena", "name:lv": "V\u012bne", "name:mhr": "\u0412\u0435\u043d\u0430", "name:mi": "Whiena", "name:mk": "\u0412\u0438\u0435\u043d\u0430", "name:ml": "\u0d35\u0d3f\u0d2f\u0d28\u0d4d\u0d28", "name:mn": "\u0412\u0435\u043d\u0430", "name:mr": "\u0935\u094d\u0939\u093f\u092f\u0947\u0928\u093e", "name:mrj": "\u0412\u0435\u043d\u0430", "name:ms": "Vienna", "name:my": "\u1017\u102e\u101a\u1004\u103a\u1014\u102c\u1019\u103c\u102d\u102f\u1037", "name:mzn": "\u0648\u06cc\u0646", "name:nah": "Viena", "name:nds": "Wien", "name:nds-nl": "Wienen", "name:nl": "Wenen", "name:no": "Wien", "name:oc": "Viena", "name:os": "\u0412\u0435\u043d\u00e6", "name:pap": "Viena", "name:pih": "Wienna", "name:pl": "Wiede\u0144", "name:pms": "Vien-a", "name:pnb": "\u0648\u06cc\u0622\u0646\u0627", "name:ps": "\u0648\u064a\u0646", "name:pt": "Viena", "name:rm": "Vienna", "name:rmy": "Bech", "name:ro": "Viena", "name:roa-tara": "Vienne", "name:ru": "\u0412\u0435\u043d\u0430", "name:rue": "\u0412\u0456\u0434\u0435\u043d\u044c", "name:sah": "\u0412\u0435\u043d\u0430", "name:sc": "Vienna", "name:scn": "Vienna", "name:sco": "Vienna", "name:sh": "Be\u010d", "name:sk": "Viede\u0148", "name:sl": "Dunaj", "name:so": "Fiyena", "name:sq": "Vjena", "name:sr": "\u0411\u0435\u0447", "name:st": "Vienna", "name:sv": "Wien", "name:sw": "Vienna", "name:szl": "Wjedy\u0144", "name:ta": "\u0bb5\u0bbf\u0baf\u0ba9\u0bcd\u0ba9\u0bbe", "name:tg": "\u0412\u0435\u043d\u0430", "name:th": "\u0e40\u0e27\u0e35\u0e22\u0e19\u0e19\u0e32", "name:tk": "Wena", "name:tl": "Vienna", "name:tr": "Viyana", "name:tt": "\u0412\u0435\u043d\u0430 \u0448\u04d9\u04bb\u04d9\u0440\u0435", "name:tzl": "Viadna", "name:udm": "\u0412\u0435\u043d\u0430", "name:ug": "Wy\u00e9na", "name:uk": "\u0412\u0456\u0434\u0435\u043d\u044c", "name:ur": "\u0648\u06cc\u0627\u0646\u0627", "name:uz": "Vena", "name:vec": "Viena", "name:vep": "Ven", "name:vi": "Vi\u00ean", "name:war": "Vienna", "name:wo": "Wiyen", "name:wuu": "\u7ef4\u6069\u7eb3", "name:yi": "\u05d5\u05d5\u05d9\u05e2\u05df", "name:yo": "Vienna", "name:yue": "\u7dad\u4e5f\u7d0d", "name:yue-Latn": "Wai4 Jaa5 Naap6", "name:zh": "\u7dad\u4e5f\u7d0d", "name:zh-Hans": "\u7ef4\u4e5f\u7eb3", "name:zh-Latn": "W\u00e9iy\u011bn\u00e0", "place": "city", "population": "1897481", "population:date": "2019-01-01", "source:population": "wikipedia", "website": "https://www.wien.gv.at/", "wikidata": "Q1741", "wikipedia": "de:Wien"}}, "geometry": {"type": "Point", "coordinates": [16.3725042, 48.2083537]}}, {"type": "Feature", "properties": {"type": "node", "id": 240109644, "tags": {"name": "Gro\u00df-Enzersdorf", "name:cs": "Hrub\u00fd En\u010desdorf", "name:ru": "\u0413\u0440\u043e\u0441\u044d\u043d\u0446\u0435\u0440\u0441\u0434\u043e\u0440\u0444", "name:sk": "Hrub\u00fd En\u010disdorf", "place": "town", "population": "8532"}}, "geometry": {"type": "Point", "coordinates": [16.5519598, 48.2018]}}, {"type": "Feature", "properties": {"type": "node", "id": 240054941, "tags": {"name": "Fischamend", "name:ru": "\u0424\u0438\u0448\u0430\u043c\u0435\u043d\u0434", "place": "town", "population": "4416", "website": "www.fischamend.gv.at"}}, "geometry": {"type": "Point", "coordinates": [16.6124745, 48.1179472]}}, {"type": "Feature", "properties": {"type": "node", "id": 29749986, "tags": {"name": "Orth an der Donau", "name:hr": "\u0160ari Grad", "name:ru": "\u041e\u0440\u0442-\u043d\u0430-\u0414\u0443\u043d\u0430\u0435", "name:sk": "Ort", "openGeoDB:auto_update": "population,is_in", "openGeoDB:community_identification_number": "3084401", "openGeoDB:is_in": "Orth an der Donau,G\u00e4nserndorf,Nieder\u00f6sterreich,\u00d6sterreich,Europe", "openGeoDB:is_in_loc_id": "63729", "openGeoDB:layer": "7", "openGeoDB:loc_id": "29926", "openGeoDB:name": "Orth an der Donau", "openGeoDB:population": "1966", "openGeoDB:postal_codes": "2304", "openGeoDB:sort_name": "ORTH", "openGeoDB:type": "Ort", "openGeoDB:version": "0.2.6.11 / 2007-12-04 / http://fa-technik.adfc.de/code/opengeodb/dump/", "opengeodb:lat": "48.1486658", "opengeodb:lon": "16.7017163", "place": "town", "place:note": "town aufgrund der Bedeutung f\u00fcr die Region gew\u00e4hlt, obwohl population<2000 ist", "population": "1966"}}, "geometry": {"type": "Point", "coordinates": [16.7017163, 48.1486658]}}, {"type": "Feature", "properties": {"type": "node", "id": 34823766, "tags": {"name": "Sch\u00e4rding", "name:ru": "\u0428\u0435\u0440\u0434\u0438\u043d\u0433", "place": "town", "source": "survey"}}, "geometry": {"type": "Point", "coordinates": [13.4318, 48.4569975]}}, {"type": "Feature", "properties": {"type": "node", "id": 240086875, "tags": {"name": "Peuerbach", "place": "town", "population": "2184"}}, "geometry": {"type": "Point", "coordinates": [13.7710445, 48.3438653]}}, {"type": "Feature", "properties": {"type": "node", "id": 240099995, "tags": {"name": "Eferding", "place": "town", "population": "3521"}}, "geometry": {"type": "Point", "coordinates": [14.0203999, 48.3082607]}}, {"type": "Feature", "properties": {"type": "node", "id": 240095192, "tags": {"name": "Leonding", "name:ru": "\u041b\u0435\u043e\u043d\u0434\u0438\u043d\u0433", "place": "town", "population": "4297", "website": "https://www.leonding.at/", "wikidata": "Q487958", "wikipedia": "de:Leonding"}}, "geometry": {"type": "Point", "coordinates": [14.2487457, 48.2793314]}}, {"type": "Feature", "properties": {"type": "node", "id": 3895747275, "tags": {"name": "Rohrbach-Berg", "place": "town", "population": "5075"}}, "geometry": {"type": "Point", "coordinates": [13.9888686, 48.5743347]}}, {"type": "Feature", "properties": {"type": "node", "id": 25181326, "tags": {"alt_name:mk": "\u041b\u0438\u043d\u0435\u0446", "capital": "4", "ele": "266", "is_in:country": "Austria", "name": "Linz", "name:ar": "\u0644\u0646\u062a\u0633", "name:be": "\u041b\u0456\u043d\u0446", "name:be-tarask": "\u041b\u0456\u043d\u0446", "name:bg": "\u041b\u0438\u043d\u0446", "name:cs": "Linec", "name:en": "Linz", "name:fr": "Linz", "name:hu": "Linz", "name:hy": "\u053c\u056b\u0576\u0581", "name:ka": "\u10da\u10d8\u10dc\u10e7\u10d8", "name:la": "Lentia", "name:mk": "\u041b\u0438\u043d\u0446", "name:ru": "\u041b\u0438\u043d\u0446", "name:sr": "\u041b\u0438\u043d\u0446", "name:uk": "\u041b\u0456\u043d\u0446", "place": "city", "population": "197283", "wikidata": "Q41329", "wikipedia": "de:Linz"}}, "geometry": {"type": "Point", "coordinates": [14.286198, 48.3059078]}}, {"type": "Feature", "properties": {"type": "node", "id": 240101128, "tags": {"ele": "259", "name": "Steyregg", "place": "town", "population": "5017"}}, "geometry": {"type": "Point", "coordinates": [14.3718463, 48.2854468]}}, {"type": "Feature", "properties": {"type": "node", "id": 47166248, "tags": {"name": "Gallneukirchen", "name:hu": "Gallneukirchen", "place": "town", "population": "5915"}}, "geometry": {"type": "Point", "coordinates": [14.4164196, 48.3531392]}}, {"type": "Feature", "properties": {"type": "node", "id": 41404066, "tags": {"ele": "430", "name": "Pregarten", "name:ru": "\u041f\u0440\u0435\u0433\u0430\u0440\u0442\u0435\u043d", "place": "town", "population": "2509"}}, "geometry": {"type": "Point", "coordinates": [14.5308123, 48.3549856]}}, {"type": "Feature", "properties": {"type": "node", "id": 47740705, "tags": {"name": "Bad Leonfelden", "openGeoDB:community_identification_number": "41603", "openGeoDB:is_in_loc_id": "72566", "openGeoDB:layer": "6", "openGeoDB:loc_id": "72621", "openGeoDB:name": "Bad Leonfelden", "openGeoDB:population": "4006", "openGeoDB:postal_codes": "4190", "openGeoDB:type": "Gemeinde", "openGeoDB:version": "0.2.6.11 / 2007-12-04 / http://fa-technik.adfc.de/code/opengeodb/dump/", "opengeodb:lat": "48.5214341", "opengeodb:lon": "14.2926929", "place": "town"}}, "geometry": {"type": "Point", "coordinates": [14.2930689, 48.5226514]}}, {"type": "Feature", "properties": {"type": "node", "id": 240093642, "tags": {"name": "Freistadt", "name:cz": "C\u00e1hlov", "name:hu": "Freistadt", "openGeoDB:auto_update": "population,name,is_in", "openGeoDB:community_identification_number": "40601", "openGeoDB:is_in": "Freistadt,Ober\u00f6sterreich,\u00d6sterreich,Europe", "openGeoDB:is_in_loc_id": "68561", "openGeoDB:layer": "6", "openGeoDB:loc_id": "68562", "openGeoDB:location": "political_structure", "openGeoDB:name": "Freistadt", "openGeoDB:population": "7445", "openGeoDB:postal_codes": "4240", "openGeoDB:sort_name": "FREISTADT", "openGeoDB:type": "Gemeinde", "openGeoDB:version": "0.2.6.11 / 2007-12-04 / http://fa-technik.adfc.de/code/opengeodb/dump/", "place": "town", "population": "7445"}}, "geometry": {"type": "Point", "coordinates": [14.5047566, 48.5112961]}}, {"type": "Feature", "properties": {"type": "node", "id": 178470564, "tags": {"is_in": "Zwettl,Nieder\u00f6sterreich,\u00d6sterreich,Europe", "name": "Gro\u00df Gerungs", "openGeoDB:auto_update": "population,is_in", "openGeoDB:community_identification_number": "32508", "openGeoDB:is_in": "Zwettl,Nieder\u00f6sterreich,\u00d6sterreich,Europe", "openGeoDB:is_in_loc_id": "67025", "openGeoDB:layer": "6", "openGeoDB:loc_id": "67069", "openGeoDB:name": "Gro\u00df-Gerungs", "openGeoDB:population": "4737", "openGeoDB:postal_codes": "3920,3921,3924", "openGeoDB:sort_name": "GROSS-GERUNGS", "openGeoDB:type": "Gemeinde", "openGeoDB:version": "0.2.6.11 / 2007-12-04 / http://fa-technik.adfc.de/code/opengeodb/dump/", "opengeodb:lat": "48.5749809", "opengeodb:lon": "14.9573862", "place": "town", "population": "4737"}}, "geometry": {"type": "Point", "coordinates": [14.9570948, 48.5731094]}}, {"type": "Feature", "properties": {"type": "node", "id": 43758043, "tags": {"is_in": "Weitra,Gm\u00fcnd,Nieder\u00f6sterreich,\u00d6sterreich,Europe", "name": "Weitra", "name:cs": "Vitoraz", "openGeoDB:auto_update": "population,is_in", "openGeoDB:community_identification_number": "3094211", "openGeoDB:is_in": "Weitra,Gm\u00fcnd,Nieder\u00f6sterreich,\u00d6sterreich,Europe", "openGeoDB:is_in_loc_id": "63924", "openGeoDB:layer": "7", "openGeoDB:loc_id": "30369", "openGeoDB:name": "Weitra", "openGeoDB:population": "1749", "openGeoDB:postal_codes": "3970", "openGeoDB:sort_name": "WEITRA", "openGeoDB:type": "Ort", "openGeoDB:version": "0.2.6.11 / 2007-12-04 / http://fa-technik.adfc.de/code/opengeodb/dump/", "opengeodb:lat": "48.7022134", "opengeodb:lon": "14.8922992", "place": "town", "population": "1749"}}, "geometry": {"type": "Point", "coordinates": [14.8941385, 48.7007937]}}, {"type": "Feature", "properties": {"type": "node", "id": 37585033, "tags": {"name": "Gm\u00fcnd", "name:cz": "Cmunt", "name:ru": "\u0413\u043c\u044e\u043d\u0434", "openGeoDB:auto_update": "population,is_in", "openGeoDB:community_identification_number": "3090804", "openGeoDB:is_in": "Gm\u00fcnd,Gm\u00fcnd,Nieder\u00f6sterreich,\u00d6sterreich,Europe", "openGeoDB:is_in_loc_id": "63787", "openGeoDB:layer": "7", "openGeoDB:loc_id": "63791", "openGeoDB:name": "Gm\u00fcnd", "openGeoDB:population": "5088", "openGeoDB:postal_codes": "3950", "openGeoDB:sort_name": "GMUEND", "openGeoDB:type": "Ort", "openGeoDB:version": "0.2.6.11 / 2007-12-04 / http://fa-technik.adfc.de/code/opengeodb/dump/", "opengeodb:lat": "48.7729954", "opengeodb:lon": "14.9856354", "place": "town", "population": "5088"}}, "geometry": {"type": "Point", "coordinates": [14.9861752, 48.7729279]}}, {"type": "Feature", "properties": {"type": "node", "id": 240044695, "tags": {"name": "Schrems", "name:ru": "\u0428\u0440\u0435\u043c\u0441", "openGeoDB:auto_update": "population,name,is_in", "openGeoDB:community_identification_number": "3093514", "openGeoDB:is_in": "Schrems,Gm\u00fcnd,Nieder\u00f6sterreich,\u00d6sterreich,Europe", "openGeoDB:is_in_loc_id": "63894", "openGeoDB:layer": "7", "openGeoDB:loc_id": "63907", "openGeoDB:location": "locality", "openGeoDB:name": "Schrems", "openGeoDB:population": "3455", "openGeoDB:postal_codes": "3943", "openGeoDB:sort_name": "SCHREMS", "openGeoDB:type": "Ort", "openGeoDB:version": "0.2.6.11 / 2007-12-04 / http://fa-technik.adfc.de/code/opengeodb/dump/", "place": "town", "population": "3455"}}, "geometry": {"type": "Point", "coordinates": [15.0690038, 48.7934169]}}, {"type": "Feature", "properties": {"type": "node", "id": 37581252, "tags": {"is_in": "Litschau,Gm\u00fcnd,Nieder\u00f6sterreich,\u00d6sterreich,Europe", "name": "Litschau", "name:ru": "\u041b\u0438\u0447\u0430\u0443", "openGeoDB:auto_update": "population,is_in", "openGeoDB:community_identification_number": "3092503", "openGeoDB:is_in": "Litschau,Gm\u00fcnd,Nieder\u00f6sterreich,\u00d6sterreich,Europe", "openGeoDB:is_in_loc_id": "63863", "openGeoDB:layer": "7", "openGeoDB:loc_id": "29700", "openGeoDB:name": "Litschau", "openGeoDB:population": "1451", "openGeoDB:postal_codes": "3874", "openGeoDB:sort_name": "LITSCHAU", "openGeoDB:type": "Ort", "openGeoDB:version": "0.2.6.11 / 2007-12-04 / http://fa-technik.adfc.de/code/opengeodb/dump/", "opengeodb:lat": "48.9447811", "opengeodb:lon": "15.0466497", "place": "town", "population": "1451", "wikidata": "Q669693", "wikipedia": "de:Litschau"}}, "geometry": {"type": "Point", "coordinates": [15.0453244, 48.9443409]}}, {"type": "Feature", "properties": {"type": "node", "id": 240056945, "tags": {"is_in": "Zwettl-Nieder\u00f6sterreich,Zwettl,Nieder\u00f6sterreich,\u00d6sterreich,Europe", "name": "Zwettl", "openGeoDB:auto_update": "population,name,is_in", "openGeoDB:community_identification_number": "3253053", "openGeoDB:is_in": "Zwettl-Nieder\u00f6sterreich,Zwettl,Nieder\u00f6sterreich,\u00d6sterreich,Europe", "openGeoDB:is_in_loc_id": "67329", "openGeoDB:layer": "7", "openGeoDB:loc_id": "67380", "openGeoDB:location": "locality", "openGeoDB:name": "Zwettl - Nieder\u00f6sterreich", "openGeoDB:postal_codes": "3910", "openGeoDB:sort_name": "ZWETTL", "openGeoDB:type": "Ort", "openGeoDB:version": "0.2.6.11 / 2007-12-04 / http://fa-technik.adfc.de/code/opengeodb/dump/", "place": "town", "population": "10908"}}, "geometry": {"type": "Point", "coordinates": [15.1681644, 48.6050427]}}, {"type": "Feature", "properties": {"type": "node", "id": 269366799, "tags": {"name": "Gf\u00f6hl", "name:ru": "\u0413\u0444\u0451\u043b\u044c", "place": "town", "population": "1888"}}, "geometry": {"type": "Point", "coordinates": [15.4907452, 48.516723]}}, {"type": "Feature", "properties": {"type": "node", "id": 60240127, "tags": {"name": "Herzogenburg", "name:ru": "\u0425\u0435\u0440\u0446\u043e\u0433\u0435\u043d\u0431\u0443\u0440\u0433", "place": "town", "population": "2954"}}, "geometry": {"type": "Point", "coordinates": [15.6946065, 48.2843295]}}, {"type": "Feature", "properties": {"type": "node", "id": 340180405, "tags": {"name": "Krems an der Donau", "name:cs": "Krem\u017ee", "name:hu": "Krems an der Donau", "name:ka": "\u10d9\u10e0\u10d4\u10db\u10d6\u10d8 \u10d3\u10e3\u10dc\u10d0\u10d8\u10d6\u10d4", "name:ru": "\u041a\u0440\u0435\u043c\u0437 \u043d\u0430 \u0414\u0443\u043d\u0430\u0435", "place": "town", "population": "12500", "short_name": "Krems", "wikidata": "Q131266"}}, "geometry": {"type": "Point", "coordinates": [15.6003717, 48.4108382]}}, {"type": "Feature", "properties": {"type": "node", "id": 148357541, "tags": {"name": "Traismauer", "name:ru": "\u0422\u0440\u0430\u0439\u0441\u043c\u0430\u0443\u044d\u0440", "place": "town", "population": "2747", "source": "Population: Statistik Austria Gebietsstand 1.1.2019"}}, "geometry": {"type": "Point", "coordinates": [15.7441868, 48.3499106]}}, {"type": "Feature", "properties": {"type": "node", "id": 443006267, "tags": {"name": "Langenlois", "name:ru": "\u041b\u0430\u043d\u0433\u0435\u043d\u043b\u043e\u0439\u0441", "name:uk": "\u041b\u0430\u043d\u0433\u0435\u043d\u043b\u043e\u0439\u0441", "name:zh": "\u6717\u6839\u6d1b\u4f0a\u65af", "place": "town", "population": "4272", "wikidata": "Q672511", "wikipedia": "de:Langenlois"}}, "geometry": {"type": "Point", "coordinates": [15.676295, 48.472601]}}, {"type": "Feature", "properties": {"type": "node", "id": 126460646, "tags": {"name": "Gars am Kamp", "place": "town", "population": "1804", "postal_code": "3571"}}, "geometry": {"type": "Point", "coordinates": [15.6594592, 48.5951053]}}, {"type": "Feature", "properties": {"type": "node", "id": 45018840, "tags": {"ele": "311", "is_in": "Horn,Horn,Nider\u00f6sterreich,\u00d6sterreich,Europe", "name": "Horn", "name:cs": "Rohy", "name:hu": "Horn", "openGeoDB:community_identification_number": "311", "openGeoDB:loc_id": "64088", "openGeoDB:population": "32049", "openGeoDB:type": "Bezirk", "place": "town", "population": "6632", "postal_code": "3580", "wikidata": "Q659918", "wikipedia": "de:Horn (Nieder\u00f6sterreich)"}}, "geometry": {"type": "Point", "coordinates": [15.6563147, 48.6636596]}}, {"type": "Feature", "properties": {"type": "node", "id": 60291887, "tags": {"name": "Maissau", "place": "town", "population": "801", "postal_code": "3712"}}, "geometry": {"type": "Point", "coordinates": [15.8259176, 48.5706932]}}, {"type": "Feature", "properties": {"type": "node", "id": 44905294, "tags": {"is_in": "Austria", "name": "Eggenburg", "name:ru": "\u042d\u0433\u0433\u0435\u043d\u0431\u0443\u0440\u0433", "openGeoDB:auto_update": "population", "openGeoDB:community_identification_number": "3110501", "openGeoDB:is_in": "Eggenburg,Horn,Nieder\u00f6sterreich,\u00d6sterreich,Europe", "openGeoDB:is_in_loc_id": "64129", "openGeoDB:layer": "7", "openGeoDB:loc_id": "29227", "openGeoDB:name": "Eggenburg", "openGeoDB:population": "3106", "openGeoDB:postal_codes": "3730", "openGeoDB:sort_name": "EGGENBURG", "openGeoDB:type": "Ort", "openGeoDB:version": "0.2.6.11 / 2007-12-04 / http://fa-technik.adfc.de/code/opengeodb/dump/", "opengeodb:lat": "48.6430175", "opengeodb:lon": "15.8180422", "place": "town", "population": "3106"}}, "geometry": {"type": "Point", "coordinates": [15.8162695, 48.6432222]}}, {"type": "Feature", "properties": {"type": "node", "id": 37580635, "tags": {"is_in": "Heidenreichstein,Gm\u00fcnd,Nieder\u00f6sterreich,\u00d6sterreich,Europe", "name": "Heidenreichstein", "name:cs": "Kam\u00fdk", "openGeoDB:auto_update": "population,is_in", "openGeoDB:community_identification_number": "3091604", "openGeoDB:is_in": "Heidenreichstein,Gm\u00fcnd,Nieder\u00f6sterreich,\u00d6sterreich,Europe", "openGeoDB:is_in_loc_id": "63839", "openGeoDB:layer": "7", "openGeoDB:loc_id": "29453", "openGeoDB:name": "Heidenreichstein", "openGeoDB:population": "2873", "openGeoDB:postal_codes": "3860", "openGeoDB:sort_name": "HEIDENREICHSTEIN", "openGeoDB:type": "Ort", "openGeoDB:version": "0.2.6.11 / 2007-12-04 / http://fa-technik.adfc.de/code/opengeodb/dump/", "opengeodb:lat": "48.8646225", "opengeodb:lon": "15.1237026", "place": "town", "population": "4067", "website": "www.heidenreichstein.at"}}, "geometry": {"type": "Point", "coordinates": [15.1230155, 48.8657996]}}, {"type": "Feature", "properties": {"type": "node", "id": 41843375, "tags": {"alt_name:cs": "\u010cesk\u00fd Bejdov", "ele": "510", "is_in": "Waidhofen an der Thaya,Nieder\u00f6sterreich,\u00d6sterreich,Europe", "is_in:iso_3166_2": "AT-3", "name": "Waidhofen an der Thaya", "name:cs": "Bejdov nad Dyj\u00ed", "openGeoDB:community_identification_number": "3222013", "openGeoDB:loc_id": "30331", "place": "town", "population": "5459", "postal_code": "3830", "website": "https://www.waidhofen-thaya.at/", "wikidata": "Q660060", "wikipedia": "de:Waidhofen an der Thaya"}}, "geometry": {"type": "Point", "coordinates": [15.284518, 48.8146165]}}, {"type": "Feature", "properties": {"type": "node", "id": 123531953, "tags": {"is_in": "Raabs an der Thaya,Waidhofen an der Thaya,Nieder\u00f6sterreich,\u00d6sterreich,Europe", "name": "Raabs an der Thaya", "name:cs": "Rakousy nad Dyj\u00ed", "openGeoDB:auto_update": "population,is_in", "openGeoDB:community_identification_number": "3221619", "openGeoDB:is_in": "Raabs an der Thaya,Waidhofen an der Thaya,Nieder\u00f6sterreich,\u00d6sterreich,Europe", "openGeoDB:is_in_loc_id": "66715", "openGeoDB:layer": "7", "openGeoDB:loc_id": "30014", "openGeoDB:name": "Raabs an der Thaya", "openGeoDB:population": "901", "openGeoDB:postal_codes": "3820", "openGeoDB:sort_name": "RAABS", "openGeoDB:type": "Ort", "openGeoDB:version": "0.2.6.11 / 2007-12-04 / http://fa-technik.adfc.de/code/opengeodb/dump/", "opengeodb:lat": "48.8501664", "opengeodb:lon": "15.4893386", "place": "town", "population": "901", "postal_code": "3820", "website": "https://www.raabs-thaya.gv.at/"}}, "geometry": {"type": "Point", "coordinates": [15.4934343, 48.8474094]}}, {"type": "Feature", "properties": {"type": "node", "id": 240028097, "tags": {"is_in": "Drosendorf-Zissersdorf,Horn,Nieder\u00f6sterreich,\u00d6sterreich,Europe", "name": "Drosendorf", "name:cs": "Drozdovice", "openGeoDB:auto_update": "population,name,is_in", "openGeoDB:community_identification_number": "3110403", "openGeoDB:is_in": "Drosendorf-Zissersdorf,Horn,Nieder\u00f6sterreich,\u00d6sterreich,Europe", "openGeoDB:is_in_loc_id": "64116", "openGeoDB:layer": "7", "openGeoDB:loc_id": "64119", "openGeoDB:location": "locality", "openGeoDB:name": "Drosendorf Stadt", "openGeoDB:population": "522", "openGeoDB:postal_codes": "2095", "openGeoDB:sort_name": "DROSENDORF", "openGeoDB:type": "Ort", "openGeoDB:version": "0.2.6.11 / 2007-12-04 / http://fa-technik.adfc.de/code/opengeodb/dump/", "place": "town", "population": "522", "postal_code": "2095"}}, "geometry": {"type": "Point", "coordinates": [15.6142642, 48.8693905]}}, {"type": "Feature", "properties": {"type": "node", "id": 59841472, "tags": {"is_in": "Geras,Horn,Nieder\u00f6sterreich,\u00d6sterreich,Europe", "name": "Geras", "name:cs": "Jeru\u0161", "openGeoDB:auto_update": "population", "openGeoDB:community_identification_number": "3110703", "openGeoDB:is_in": "Geras,Horn,Nieder\u00f6sterreich,\u00d6sterreich,Europe", "openGeoDB:is_in_loc_id": "64146", "openGeoDB:layer": "7", "openGeoDB:loc_id": "29344", "openGeoDB:name": "Geras", "openGeoDB:population": "475", "openGeoDB:postal_codes": "2093", "openGeoDB:sort_name": "GERAS", "openGeoDB:type": "Ort", "openGeoDB:version": "0.2.6.11 / 2007-12-04 / http://fa-technik.adfc.de/code/opengeodb/dump/", "opengeodb:lat": "48.7974473", "opengeodb:lon": "15.6737233", "place": "town", "population": "1873", "postal_code": "2093", "source:population": "http://www.geras.gv.at/system/web/fakten.aspx?menuonr=218557110"}}, "geometry": {"type": "Point", "coordinates": [15.6724733, 48.7974749]}}, {"type": "Feature", "properties": {"type": "node", "id": 119759840, "tags": {"is_in": "Pulkau,Hollabrunn,Nieder\u00f6sterreich,\u00d6sterreich,Europe", "name": "Pulkau", "name:hu": "Pulkau", "openGeoDB:auto_update": "population,is_in", "openGeoDB:community_identification_number": "3103504", "openGeoDB:is_in": "Pulkau,Hollabrunn,Nieder\u00f6sterreich,\u00d6sterreich,Europe", "openGeoDB:is_in_loc_id": "64026", "openGeoDB:layer": "7", "openGeoDB:loc_id": "30006", "openGeoDB:name": "Pulkau", "openGeoDB:population": "967", "openGeoDB:postal_codes": "3741", "openGeoDB:sort_name": "PULKAU", "openGeoDB:type": "Ort", "openGeoDB:version": "0.2.6.11 / 2007-12-04 / http://fa-technik.adfc.de/code/opengeodb/dump/", "opengeodb:lat": "48.7049133", "opengeodb:lon": "15.8642022", "place": "town", "population": "967", "postal_code": "3741"}}, "geometry": {"type": "Point", "coordinates": [15.8609985, 48.7048968]}}, {"type": "Feature", "properties": {"type": "node", "id": 123508764, "tags": {"is_in": "Hardegg,Hollabrunn,Nieder\u00f6sterreich,\u00d6sterreich,Europe", "name": "Hardegg", "name:cs": "Hardek", "note": "die kleinste Stadt \u00d6sterreichs", "openGeoDB:auto_update": "population,is_in", "openGeoDB:community_identification_number": "3101601", "openGeoDB:is_in": "Hardegg,Hollabrunn,Nieder\u00f6sterreich,\u00d6sterreich,Europe", "openGeoDB:is_in_loc_id": "63962", "openGeoDB:layer": "7", "openGeoDB:loc_id": "29441", "openGeoDB:name": "Hardegg", "openGeoDB:population": "102", "openGeoDB:postal_codes": "2082", "openGeoDB:sort_name": "HARDEGG", "openGeoDB:type": "Ort", "openGeoDB:version": "0.2.6.11 / 2007-12-04 / http://fa-technik.adfc.de/code/opengeodb/dump/", "opengeodb:lat": "48.8546954", "opengeodb:lon": "15.8601288", "place": "town", "population": "233", "postal_code": "2082", "source:population": "http://www.hardegg.gv.at/"}}, "geometry": {"type": "Point", "coordinates": [15.8585681, 48.8536837]}}, {"type": "Feature", "properties": {"type": "node", "id": 60041539, "tags": {"name": "Tulln", "name:hu": "Tulln", "name:la": "Comagena", "name:ru": "\u0422\u0443\u043b\u044c\u043d", "official_name": "Tulln an der Donau", "place": "town", "population": "12357", "source": "http://www.statistik.at/wcm/idc/idcplg?IdcService=GET_PDF_FILE&RevisionSelectionMethod=LatestReleased&dDocName=103419", "url": "https://www.tulln.at", "wikidata": "Q489810"}}, "geometry": {"type": "Point", "coordinates": [16.0567744, 48.3311686]}}, {"type": "Feature", "properties": {"type": "node", "id": 802050695, "tags": {"name": "Klosterneuburg", "name:hu": "Klosterneuburg", "name:ru": "\u041a\u043b\u043e\u0441\u0442\u0435\u0440\u043d\u043e\u0439\u0431\u0443\u0440\u0433", "place": "town", "population": "26816", "population:date": "2017-01-01", "population:source": "Statistik Austria", "wikidata": "Q487522", "wikipedia": "de:Klosterneuburg"}}, "geometry": {"type": "Point", "coordinates": [16.323756, 48.30499]}}, {"type": "Feature", "properties": {"type": "node", "id": 27270107, "tags": {"name": "Korneuburg", "name:hu": "Korneuburg", "name:ru": "\u041a\u043e\u0440\u043d\u043e\u0439\u0431\u0443\u0440\u0433", "place": "town", "source": "gns"}}, "geometry": {"type": "Point", "coordinates": [16.3334321, 48.3440605]}}, {"type": "Feature", "properties": {"type": "node", "id": 27270106, "tags": {"name": "Stockerau", "name:hu": "Stockerau", "name:ru": "\u0428\u0442\u043e\u043a\u043a\u0435\u0440\u0430\u0443", "place": "town", "population": "16858", "source": "gns"}}, "geometry": {"type": "Point", "coordinates": [16.2076303, 48.3846124]}}, {"type": "Feature", "properties": {"type": "node", "id": 54790820, "tags": {"name": "Hollabrunn", "name:ru": "\u0425\u043e\u043b\u043b\u0430\u0431\u0440\u0443\u043d\u043d", "place": "town", "population": "6005"}}, "geometry": {"type": "Point", "coordinates": [16.0798033, 48.5625384]}}, {"type": "Feature", "properties": {"type": "node", "id": 746030027, "tags": {"name": "Deutsch-Wagram", "name:cz": "N\u011bmeck\u00fd Ogrun", "name:hr": "Nim\u0161ki Ogrun", "name:ru": "\u0414\u043e\u0439\u0447-\u0412\u0430\u0433\u0440\u0430\u043c", "name:sk": "Nemeck\u00fd Ogr\u00fan", "place": "town", "population": "7830"}}, "geometry": {"type": "Point", "coordinates": [16.5568452, 48.2959872]}}, {"type": "Feature", "properties": {"type": "node", "id": 240039905, "tags": {"addr:postcode": "2120", "name": "Wolkersdorf im Weinviertel", "name:ru": "\u0412\u043e\u043b\u044c\u043a\u0435\u0440\u0441\u0434\u043e\u0440\u0444-\u0438\u043c-\u0412\u0430\u0439\u043d\u0444\u0438\u0440\u0442\u0435\u043b\u044c", "place": "town", "population": "3359", "ref:at:gkz": "31655", "ref:at:okz": "05138", "short_name": "Wolkersdorf"}}, "geometry": {"type": "Point", "coordinates": [16.5181068, 48.3829773]}}, {"type": "Feature", "properties": {"type": "node", "id": 59599529, "tags": {"name": "Strasshof an der Nordbahn", "name:ru": "\u0428\u0442\u0440\u0430\u0441\u0445\u043e\u0444-\u0430\u043d-\u0434\u0435\u0440-\u041d\u043e\u0440\u0434\u0431\u0430\u043d", "old_name": "Stra\u00dfhof an der Nordbahn", "place": "town", "population": "6993", "postal_code": "2231", "short_name": "Strasshof"}}, "geometry": {"type": "Point", "coordinates": [16.6429437, 48.3189487]}}, {"type": "Feature", "properties": {"type": "node", "id": 240080957, "tags": {"addr:city": "G\u00e4nserndorf", "addr:postcode": "2230", "ele": "167", "name": "G\u00e4nserndorf", "name:cs": "Husn\u00edk", "name:hu": "G\u00e4nserndorf", "name:ru": "\u0413\u0435\u043d\u0437\u0435\u0440\u043d\u0434\u043e\u0440\u0444", "name:sk": "Gen\u0161dorf", "place": "town", "population": "10830", "postal_code": "2230", "wikidata": "Q259579", "wikipedia": "de:G\u00e4nserndorf"}}, "geometry": {"type": "Point", "coordinates": [16.7184526, 48.3404132]}}, {"type": "Feature", "properties": {"type": "node", "id": 44848916, "tags": {"name": "Ernstbrunn", "name:ru": "\u042d\u0440\u043d\u0441\u0442\u0431\u0440\u0443\u043d", "place": "town", "population": "1332"}}, "geometry": {"type": "Point", "coordinates": [16.3628114, 48.5282016]}}, {"type": "Feature", "properties": {"type": "node", "id": 44833357, "tags": {"name": "Zistersdorf", "name:cs": "\u010cist\u011bjov", "name:ru": "\u0426\u0438\u0441\u0442\u0435\u0440\u0441\u0434\u043e\u0440\u0444", "name:sk": "\u010cistejov", "place": "town", "population": "3138", "website": "www.zistersdorf.at"}}, "geometry": {"type": "Point", "coordinates": [16.7621379, 48.5447465]}}, {"type": "Feature", "properties": {"type": "node", "id": 44846322, "tags": {"name": "Mistelbach", "name:cs": "Mysliboch", "name:hu": "Mistelbach", "name:ru": "\u041c\u0438\u0441\u0442\u0435\u043b\u044c\u0431\u0430\u0445", "name:sk": "Mysliboch", "openGeoDB:auto_update": "population", "openGeoDB:community_identification_number": "3163308", "openGeoDB:is_in": "Mistelbach,Mistelbach,Nieder\u00f6sterreich,\u00d6sterreich,Europe", "openGeoDB:is_in_loc_id": "65316", "openGeoDB:layer": "7", "openGeoDB:loc_id": "29782", "openGeoDB:name": "Mistelbach", "openGeoDB:population": "85", "openGeoDB:postal_codes": "2130", "openGeoDB:sort_name": "MISTELBACH", "openGeoDB:type": "Ort", "openGeoDB:version": "0.2.6.11 / 2007-12-04 / http://fa-technik.adfc.de/code/opengeodb/dump/", "opengeodb:lat": "48.5688931", "opengeodb:lon": "16.5714042", "place": "town", "population": "10643", "website": "https://www.mistelbach.at/"}}, "geometry": {"type": "Point", "coordinates": [16.5720327, 48.5694535]}}, {"type": "Feature", "properties": {"type": "node", "id": 87079818, "tags": {"name": "Poysdorf", "name:cs": "Pu\u0161dorf", "name:ru": "\u041f\u043e\u0439\u0441\u0434\u043e\u0440\u0444", "name:sk": "Pu\u0161dorf", "openGeoDB:auto_update": "population", "openGeoDB:community_identification_number": "3164407", "openGeoDB:is_in": "Poysdorf,Mistelbach,Nieder\u00f6sterreich,\u00d6sterreich,Europe", "openGeoDB:is_in_loc_id": "65333", "openGeoDB:layer": "7", "openGeoDB:loc_id": "29984", "openGeoDB:name": "Poysdorf", "openGeoDB:population": "2480", "openGeoDB:postal_codes": "2170", "openGeoDB:sort_name": "POYSDORF", "openGeoDB:type": "Ort", "openGeoDB:version": "0.2.6.11 / 2007-12-04 / http://fa-technik.adfc.de/code/opengeodb/dump/", "opengeodb:lat": "48.6678759", "opengeodb:lon": "16.6304382", "place": "town", "population": "2480"}}, "geometry": {"type": "Point", "coordinates": [16.6291796, 48.6678922]}}, {"type": "Feature", "properties": {"type": "node", "id": 240040704, "tags": {"alt_name:cs": "Rec", "is_in": "Retz,Hollabrunn,Nieder\u00f6sterreich,\u00d6sterreich,Europe", "name": "Retz", "name:cs": "Rete\u010d", "openGeoDB:auto_update": "population", "openGeoDB:community_identification_number": "3103705", "openGeoDB:is_in": "Retz,Hollabrunn,Nieder\u00f6sterreich,\u00d6sterreich,Europe", "openGeoDB:is_in_loc_id": "64039", "openGeoDB:layer": "7", "openGeoDB:loc_id": "64044", "openGeoDB:location": "locality", "openGeoDB:name": "Retz", "openGeoDB:population": "2529", "openGeoDB:postal_codes": "2070", "openGeoDB:sort_name": "RETZ", "openGeoDB:type": "Ort", "openGeoDB:version": "0.2.6.11 / 2007-12-04 / http://fa-technik.adfc.de/code/opengeodb/dump/", "place": "town", "population": "2529"}}, "geometry": {"type": "Point", "coordinates": [15.9511119, 48.7569663]}}, {"type": "Feature", "properties": {"type": "node", "id": 44926987, "tags": {"addr:city": "Laa an der Thaya", "addr:country": "AT", "addr:postcode": "2136", "ele": "183", "name": "Laa an der Thaya", "name:cs": "L\u00e1va nad Dyj\u00ed", "name:ru": "\u041b\u0430-\u0430\u043d-\u0434\u0435\u0440-\u0422\u0430\u0439\u044f", "name:sk": "Lava nad Dyjou", "openGeoDB:community_identification_number": "3162903", "openGeoDB:is_in_loc_id": "65304", "openGeoDB:layer": "7", "openGeoDB:loc_id": "29646", "place": "town", "population": "6210", "wikidata": "Q661283", "wikipedia": "de:Laa an der Thaya"}}, "geometry": {"type": "Point", "coordinates": [16.3916766, 48.7218933]}}, {"type": "Feature", "properties": {"type": "node", "id": 205753242, "tags": {"alt_name": "Fert\u0151boldogasszony", "ele": "124", "name": "Frauenkirchen", "name:hr": "Svetica za Jezerom", "name:hu": "Boldogasszony", "name:ru": "\u0424\u0440\u0430\u0443\u044d\u043d\u043a\u0438\u0440\u0445\u0435\u043d", "place": "town", "population": "2856"}}, "geometry": {"type": "Point", "coordinates": [16.9241358, 47.837745]}}, {"type": "Feature", "properties": {"type": "node", "id": 61102063, "tags": {"ele": "131", "name": "Neusiedl am See", "name:bg": "\u041d\u043e\u0439\u0437\u0438\u0434\u044a\u043b \u0430\u043c \u0417\u0435\u0435", "name:cs": "Nezider", "name:hr": "Niuzal", "name:hu": "Nezsider", "name:ru": "\u041d\u043e\u0439\u0437\u0438\u0434\u043b\u044c-\u0430\u043c-\u0417\u0435", "name:sk": "Nezider", "place": "town", "population": "8585", "website": "www.neusiedl-am-see.at"}}, "geometry": {"type": "Point", "coordinates": [16.8425149, 47.9491855]}}, {"type": "Feature", "properties": {"type": "node", "id": 29749984, "tags": {"name": "Bruck an der Leitha", "name:cs": "Most nad Litavou", "name:hu": "Lajtabruck", "name:ru": "\u0411\u0440\u0443\u043a-\u0430\u043d-\u0434\u0435\u0440-\u041b\u0430\u0439\u0442\u0430", "name:sk": "Most nad Litavou", "place": "town", "reg_name": "Bruck"}}, "geometry": {"type": "Point", "coordinates": [16.7790041, 48.0255094]}}, {"type": "Feature", "properties": {"type": "node", "id": 240096250, "tags": {"ele": "161", "name": "Hainburg", "name:sk": "Hainburg nad Dunajom", "official_name": "Hainburg an der Donau", "place": "town", "population": "6725", "postal_code": "2410", "website": "www.hainburg-donau.gv.at", "wikidata": "Q752107", "wikipedia": "de:Hainburg an der Donau"}}, "geometry": {"type": "Point", "coordinates": [16.9422459, 48.1466103]}}, {"type": "Feature", "properties": {"type": "node", "id": 240040458, "tags": {"name": "Marchegg", "name:hr": "Muriek", "name:sk": "Marchek", "openGeoDB:auto_update": "population,place,name,is_in", "openGeoDB:community_identification_number": "3083502", "openGeoDB:is_in": "Marchegg,G\u00e4nserndorf,Nieder\u00f6sterreich,\u00d6sterreich,Europe", "openGeoDB:is_in_loc_id": "63720", "openGeoDB:layer": "7", "openGeoDB:loc_id": "63722", "openGeoDB:location": "locality", "openGeoDB:name": "Marchegg", "openGeoDB:population": "2118", "openGeoDB:postal_codes": "2293,2294", "openGeoDB:sort_name": "MARCHEGG", "openGeoDB:type": "Ort", "openGeoDB:version": "0.2.6.11 / 2007-12-04 / http://fa-technik.adfc.de/code/opengeodb/dump/", "place": "town", "population": "2118", "website": "www.marchegg.at", "wikidata": "Q546273", "wikipedia": "de:Marchegg"}}, "geometry": {"type": "Point", "coordinates": [16.9097882, 48.2778951]}}, {"type": "Feature", "properties": {"type": "node", "id": 240068089, "tags": {"ele": "155", "name": "Hohenau an der March", "name:cs": "C\u00e1hnov", "name:ru": "\u0425\u043e\u044d\u043d\u0430\u0443-\u0430\u043d-\u0434\u0435\u0440-\u041c\u0430\u0440\u0445", "name:sk": "Cahnov", "openGeoDB:community_identification_number": "30827", "openGeoDB:loc_id": "63709", "place": "town", "population": "2737", "postal_code": "2273", "wikidata": "Q660761", "wikipedia": "de:Hohenau an der March"}}, "geometry": {"type": "Point", "coordinates": [16.9020685, 48.6064895]}}]}