{"type": "FeatureCollection", "features": [{"type": "Feature", "properties": {"type": "node", "id": 32669193, "tags": {"addr:postcode": "5003", "addr:street": "Svensg\u00e5rden", "description": "UNESCO World Heritage Site", "heritage": "1", "heritage:operator": "whc", "heritage:website": "http://whc.unesco.org/en/list/59", "historic": "heritage", "image": "http://commons.wikimedia.org/wiki/File:Bergen-Bryggen17.jpg", "name": "Bryggen", "name:en": "Bryggen Hanseatic Wharf", "name:ko": "\ube0c\ub9ac\uac90", "ref:whc": "59", "tourism": "attraction", "whc:criteria": "(iii)", "whc:inscription_date": "1979", "wheelchair": "limited", "wikidata": "Q153430", "wikipedia": "no:Bryggen i Bergen"}}, "geometry": {"type": "Point", "coordinates": [5.3235356, 60.3974347]}}, {"type": "Feature", "properties": {"type": "node", "id": 433327779, "tags": {"heritage": "1", "heritage:operator": "whc", "historic": "monument", "man_made": "survey_point", "name": "Meridianst\u00f8tten", "name:de": "Struve Meridianbogen - Hammerfest", "name:en": "The Struve Geodetic Arc - Hammerfest", "name:sv": "Struves meridianb\u00e5ge - Hammerfest", "ref:whc": "1187-001", "start_date": "1854", "whc:inscription_date": "2005"}}, "geometry": {"type": "Point", "coordinates": [23.663434, 70.669991]}}, {"type": "Feature", "properties": {"type": "node", "id": 3741420025, "tags": {"heritage": "1", "heritage:operator": "whc", "man_made": "survey_point", "name": "Baeljasvarri", "ref:whc": "1187-004", "start_date": "1846", "whc:inscription_date": "2005"}}, "geometry": {"type": "Point", "coordinates": [23.3053396, 69.0278913]}}, {"type": "Feature", "properties": {"type": "node", "id": 3741420325, "tags": {"heritage": "1", "heritage:operator": "whc", "man_made": "survey_point", "name": "Struves meridianbue", "name:en": "Struve Geodetic Arc", "name:no": "Struves meridianbue", "ref:whc": "1187-003", "start_date": "1846", "whc:inscription_date": "2005"}}, "geometry": {"type": "Point", "coordinates": [23.6023749, 69.6644401]}}, {"type": "Feature", "properties": {"type": "node", "id": 3741420425, "tags": {"heritage": "1", "heritage:operator": "whc", "man_made": "survey_point", "ref:whc": "1187-002", "whc:inscription_date": "2005"}}, "geometry": {"type": "Point", "coordinates": [23.3605693, 69.9385382]}}, {"type": "Feature", "properties": {"type": "node", "id": 4417251443, "tags": {"heritage": "1", "heritage:operator": "whc", "heritage:website": "http://whc.unesco.org/en/list/55", "historic:period": "1646 - 1977", "image": "https://commons.wikimedia.org/wiki/File:R%C3%B8rosKirke.jpg", "name": "R\u00f8ros", "name:en": "R\u00f8ros Mining Town", "ref:whc": "55bis", "wikidata": "Q10428572", "wikipedia": "en:R\u00f8ros (town)"}}, "geometry": {"type": "Point", "coordinates": [11.3853965, 62.5754726]}}, {"type": "Feature", "properties": {"type": "node", "id": 8273593827, "tags": {"field": "yes", "heritage": "1", "heritage:operator": "whc", "heritage:website": "http://whc.unesco.org/en/list/352", "historic": "archaeological_site", "historic:period": "stone-age", "name": "Bergkunsten i Alta", "name:en": "The Rock Art of Alta", "ref:whc": "352", "site_type": "petroglyph", "site_type_1": "rock_art", "tourism": "attraction", "whc:criteria": "(iii)", "whc:inscription_date": "1985", "wikidata": "Q433634", "wikimedia_commons": "Category:Rock art of Alta", "wikipedia": "no:Bergkunsten i Alta"}}, "geometry": {"type": "Point", "coordinates": [23.186483, 69.9480206]}}, {"type": "Feature", "properties": {"type": "node", "id": 8446606387, "tags": {"addr:city": "Borg", "addr:country": "NO", "addr:housenumber": "539", "addr:postcode": "8360", "addr:street": "Vikingveien", "heritage": "2", "historic": "archaeological_site", "name": "archaeological excavations of Borg", "site_type": "settlement", "tourism": "attraction", "url": "https://lofotr.no/en/the-history/research-and-archeology"}}, "geometry": {"type": "Point", "coordinates": [13.7604108, 68.2446658]}}, {"type": "Feature", "properties": {"type": "way", "id": 225121728, "tags": {"addr:housename": "Larvik Hospital", "architect": "Caspar M\u00fcller", "building": "hospital", "building:levels": "1", "building:material": "plaster", "heritage": "2", "historic": "building", "name": "Laurvig Hospital", "roof:colour": "red", "roof:levels": "1", "roof:material": "roof_tiles", "start_date": "1762", "wikidata": "Q11983475"}}, "geometry": {"type": "Point", "coordinates": [10.0366034, 59.0469284]}}, {"type": "Feature", "properties": {"type": "way", "id": 238179458, "tags": {"bicycle": "designated", "foot": "designated", "heritage": "2", "heritage:operator": "Riksantikvaren", "highway": "cycleway", "name": "Tokagjelet", "oneway": "no"}}, "geometry": {"type": "Point", "coordinates": [6.0426804, 60.3699458]}}, {"type": "Feature", "properties": {"type": "way", "id": 272787120, "tags": {"bicycle": "designated", "foot": "designated", "heritage": "2", "heritage:operator": "Riksantikvaren", "highway": "cycleway", "name": "Tokagjelet", "oneway": "no"}}, "geometry": {"type": "Point", "coordinates": [6.0541613, 60.3627511]}}, {"type": "Feature", "properties": {"type": "way", "id": 272787121, "tags": {"bicycle": "designated", "foot": "designated", "heritage": "2", "heritage:operator": "Riksantikvaren", "highway": "cycleway", "name": "Tokagjelet", "oneway": "no"}}, "geometry": {"type": "Point", "coordinates": [6.0434572, 60.3650651]}}, {"type": "Feature", "properties": {"type": "way", "id": 441801479, "tags": {"amenity": "place_of_worship", "building": "church", "building:architecture": "romanesque", "building:material": "wood", "deanery": "Indre Sogn", "diocese": "Bj\u00f8rgvin", "heritage": "1", "heritage:operator": "whc", "heritage:website": "http://whc.unesco.org/en/list/58", "historic": "building", "historic:period": "medieval", "name": "Urnes stavkyrkje", "name:en": "Urnes Stave Church", "name:nb": "Urnes stavkirke", "name:nn": "Urnes stavkyrkje", "note": "Fortidsminne", "operator": "Fortidsminneforeningen", "parish": "Solvorn", "ref:whc": "58", "religion": "christian", "start_date": "~1130", "tourism": "attraction", "wheelchair": "no", "wikidata": "Q210678", "wikimedia_commons": "Category:Urnes stavkirke", "wikipedia": "no:Urnes stavkirke"}}, "geometry": {"type": "Point", "coordinates": [7.3226115, 61.2981165]}}, {"type": "Feature", "properties": {"type": "relation", "id": 5246310, "tags": {"bay": "fjord", "heritage": "1", "heritage:operator": "whc", "heritage:website": "http://whc.unesco.org/en/list/1195", "image": "https://commons.wikimedia.org/wiki/File:GeirangerFjord.jpg", "name": "Geirangerfjorden", "name:de": "Geirangerfjord", "name:en": "Geirangerfjord", "natural": "bay", "ref:whc": "1195", "type": "multipolygon", "wikidata": "Q193989", "wikipedia": "no:Geirangerfjorden"}}, "geometry": {"type": "Point", "coordinates": [7.0740381, 62.1047664]}}, {"type": "Feature", "properties": {"type": "relation", "id": 5285160, "tags": {"bay": "fjord", "heritage": "1", "heritage:operator": "whc", "heritage:website": "http://whc.unesco.org/en/list/1195", "image": "https://commons.wikimedia.org/wiki/File:N\u00e6r\u00f8yfjorden_mot_Gudvangen.jpg", "name": "N\u00e6r\u00f8yfjorden", "natural": "bay", "ref:whc": "1195", "type": "multipolygon"}}, "geometry": {"type": "Point", "coordinates": [6.9435873, 60.9348526]}}]}