{"type": "FeatureCollection", "features": [{"type": "Feature", "properties": {"type": "node", "id": 1453589408, "tags": {"heritage": "1", "heritage:operator": "whc", "historic": "archaeological_site", "name": "Morges - Stations de Morges", "ref": "35 COM 8B.35", "ref:whc": "1363-043", "source": "http://www.palafittes.org/uploads/media/Volume_II_CH_P_208-339.pdf", "whc:criteria": "(iv), (v)", "whc:inscription_date": "2011", "wikidata": "Q3324044"}}, "geometry": {"type": "Point", "coordinates": [6.5025766, 46.5094325]}}, {"type": "Feature", "properties": {"type": "node", "id": 1453589407, "tags": {"heritage": "1", "heritage:operator": "whc", "historic": "archaeological_site", "name": "Morges - Les Roseaux", "ref": "35 COM 8B.35", "ref:whc": "1363-042", "source": "http://www.palafittes.org/uploads/media/Volume_II_CH_P_208-339.pdf", "whc:criteria": "(iv), (v)", "whc:inscription_date": "2011", "wikidata": "Q3324041"}}, "geometry": {"type": "Point", "coordinates": [6.508096, 46.5148408]}}, {"type": "Feature", "properties": {"type": "node", "id": 26863957, "tags": {"ele": "1097", "heritage": "1", "heritage:operator": "whc", "name": "Monte San Giorgio", "natural": "peak", "ref:whc": "1090bis", "whc:inscription_date": "2003", "wikidata": "Q16648", "wikipedia": "it:Monte San Giorgio"}}, "geometry": {"type": "Point", "coordinates": [8.9498905, 45.9137631]}}, {"type": "Feature", "properties": {"type": "node", "id": 3256406527, "tags": {"castle_type": "defensive", "heritage": "1", "heritage:operator": "whc", "historic": "castle", "historic:civilization": "medieval", "name": "Castelgrande", "name:ru": "\u041a\u0430\u0441\u0442\u0435\u043b\u044c\u0433\u0440\u0430\u043d\u0434\u0435", "ref:whc": "884-001", "tourism": "attraction", "website": "https://www.ticino.ch/de/commons/details/Castelgrande/2793.html", "whc:inscription_date": "2000", "wikidata": "Q664376", "wikipedia": "it:Castelgrande (castello)"}}, "geometry": {"type": "Point", "coordinates": [9.0217456, 46.1929023]}}, {"type": "Feature", "properties": {"type": "node", "id": 3256443027, "tags": {"castle_type": "defensive", "heritage": "1", "heritage:operator": "whc", "historic": "castle", "name": "Castello di Montebello", "name:fr": "Ch\u00e2teau de Montebello", "name:it": "Castello di Montebello", "name:ru": "\u041c\u043e\u043d\u0442\u0435\u0431\u0435\u043b\u043b\u043e", "opening_hours": "Apr-Nov: Mo-Su 10:00-18:00", "ref:whc": "884-002", "source": "website and survey", "tourism": "attraction", "website": "https://www.ticino.ch/de/commons/details/Burg-Montebello/2796.html", "whc:inscription_date": "2000", "wikidata": "Q664346", "wikipedia": "it:Montebello (castello)"}}, "geometry": {"type": "Point", "coordinates": [9.0265655, 46.1912869]}}, {"type": "Feature", "properties": {"type": "node", "id": 3256443038, "tags": {"castle_type": "defensive", "heritage": "1", "heritage:operator": "whc", "historic": "castle", "historic:civilization": "medieval", "name": "Castello di Sasso Corbaro", "name:fr": "Ch\u00e2teau de Sasso Corbaro", "name:it": "Castello di Sasso Corbaro", "name:ru": "\u0421\u0430\u0441\u0441\u043e-\u041a\u043e\u0440\u0431\u0430\u0440\u043e", "opening_hours": "Apr-Nov: Mo-Su 10:00-18:00", "ref:whc": "884-003", "source": "website and survey", "tourism": "attraction", "website": "https://www.bellinzonese-altoticino.ch/it/commons/details/Castello-di-Sasso-Corbaro/2797.html", "whc:inscription_date": "2000", "wikidata": "Q663436", "wikipedia": "it:Sasso Corbaro"}}, "geometry": {"type": "Point", "coordinates": [9.030132, 46.1881229]}}, {"type": "Feature", "properties": {"type": "node", "id": 3098063677, "tags": {"alt_name": "Lichtspiel / Kinemathek Bern", "amenity": "cinema", "contact:addr": "Sandrainstrasse 3, 3007 Bern", "contact:email": "info@lichtspiel.ch", "contact:fax": "+41 31 3811541", "contact:phone": "+41 31 3811505", "heritage": "2", "heritage:operator": "babs", "image": "https://upload.wikimedia.org/wikipedia/commons/thumb/2/25/Lictspiel_Sammlung_Kleinprojektoren.jpg/800px-Lictspiel_Sammlung_Kleinprojektoren.jpg", "name": "Lichtspiel / Kinemathek", "note": "KGS-Nr: Nummer des Kulturgutes, zu finden in den KGS-Listen des Bundes und der Kantone. BABS: Bundesamt f\u00fcr Bev\u00f6lkerungsschutz", "opening_hours:url": "http://www.lichtspiel.ch/agenda/aktuelles-programm/", "ref:kgs": "8488", "source": "website", "tourism": "museum", "website": "http://www.lichtspiel.ch", "wheelchair": "yes", "wikidata": "Q681911", "wikipedia": "de:Lichtspiel / Kinemathek Bern"}}, "geometry": {"type": "Point", "coordinates": [7.4421399, 46.9404989]}}, {"type": "Feature", "properties": {"type": "node", "id": 815443389, "tags": {"addr:city": "Bern", "addr:country": "CH", "addr:housenumber": "15", "addr:postcode": "3008", "addr:street": "Schanzenstrasse", "contact:email": "info@theatersammlung.ch", "contact:phone": "+41 31 3015252", "heritage": "2", "heritage:operator": "babs", "image": "https://upload.wikimedia.org/wikipedia/commons/3/3c/Swiss_Theater_Collection_Bern_Jul_2011.jpg", "name": "Schweizerische Theatersammlung", "note": "KGS-Nr: Nummer des Kulturgutes, zu finden in den KGS-Listen des Bundes und der Kantone. BABS: Bundesamt f\u00fcr Bev\u00f6lkerungsschutz", "opening_hours": "Mo-Th off; Fr-Su 11:00-16:00", "operator": "Stiftung SAPA, Schweizer Archiv der Darstellenden K\u00fcnste", "ref:kgs": "650", "source": "survey and website", "tourism": "museum", "website": "http://www.theatersammlung.ch", "wikidata": "Q16856791", "wikimedia_commons": "Category:Swiss Theater Collection", "wikipedia": "de:Schweizerische Theatersammlung"}}, "geometry": {"type": "Point", "coordinates": [7.4364254, 46.9491495]}}, {"type": "Feature", "properties": {"type": "node", "id": 2194901120, "tags": {"heritage": "1", "heritage:operator": "whc", "image": "https://commons.wikimedia.org/wiki/File:Altstadt_von_Bern,_Weltkulturerbe.jpg", "name": "Altstadt", "name:ar": "\u0627\u0644\u0645\u062f\u064a\u0646\u0629 \u0627\u0644\u0642\u062f\u064a\u0645\u0629", "name:de": "Altstadt", "name:en": "Old City", "name:es": "Casco antiguo", "name:fr": "Vieille ville", "name:it": "Citt\u00e0 vecchia", "name:zh": "\u4f2f\u57ce", "note": "KGS-Nr: Nummer des Kulturgutes, zu finden in den KGS-Listen des Bundes und der Kantone.", "place": "quarter", "ref:kgs": "9554", "ref:whc": "267", "whc:inscription_date": "1983", "wikidata": "Q687973", "wikimedia_commons": "Category:Old_City_of_Bern", "wikipedia": "de:Berner Altstadt"}}, "geometry": {"type": "Point", "coordinates": [7.4512729, 46.9482888]}}, {"type": "Feature", "properties": {"type": "node", "id": 2195309046, "tags": {"alt_name": "UNESCO-Welterbe - Pr\u00e4historische Pfahlbauten um die Alpen", "geological": "palaeontological_site", "heritage": "1", "heritage:operator": "whc", "historic": "archaeological_site", "image": "https://commons.wikimedia.org/wiki/File:Lobsigensee_Originalfoto.jpg", "name": "UNESCO-Welterbe - Lobsigesee", "name:de": "UNESCO-Welterbe - Lobsigesee", "name:en": "UNESCO World Heritage Site - Lobsigesee", "name:fr": "Patrimoine mondial de l'UNESCO - Lobsigesee", "name:it": "Patrimoni dell'umanit\u00e0 dell'UNESCO - Lobsigesee", "ref:whc": "1363-005", "whc:inscription_date": "2011", "wikidata": "Q664706", "wikimedia_commons": "Category:Lobsigensee", "wikipedia": "pt:Lago Lobsigensee"}}, "geometry": {"type": "Point", "coordinates": [7.2977226, 47.0316159]}}, {"type": "Feature", "properties": {"type": "node", "id": 775761161, "tags": {"addr:city": "Haldenstein", "addr:country": "CH", "addr:postcode": "7023", "alt_name": "Burg Haldenstein", "castle_type": "defensive", "heritage": "2", "heritage:operator": "babs", "historic": "castle", "image": "https://upload.wikimedia.org/wikipedia/commons/6/64/Haldenstein_Ruine.jpg", "name": "Ruine Haldenstein", "note": "KGS-Nr: Nummer des Kulturgutes, zu finden in den KGS-Listen des Bundes und der Kantone. BABS: Bundesamt f\u00fcr Bev\u00f6lkerungsschutz", "ref:kgs": "3032", "ruins": "yes", "tourism": "attraction", "wheelchair": "no", "wikidata": "Q1012170", "wikipedia": "de:Burg Haldenstein"}}, "geometry": {"type": "Point", "coordinates": [9.5235064, 46.8804459]}}, {"type": "Feature", "properties": {"type": "way", "id": 175604117, "tags": {"addr:city": "C\u00e9ligny", "addr:country": "CH", "addr:housenumber": "75", "addr:postcode": "1298", "addr:street": "Route de C\u00e9ligny", "building": "yes", "castle_type": "manor", "heritage": "2", "historic": "castle", "name": "Domaine de Garengo", "note": "Correctly the name \u201cDomaine de Garengo\u201d applies to *all* buildings togther.", "ref:kgs": "2402", "wikidata": "Q11503134", "wikipedia": "fr:Ch\u00e2teau de Garengo"}}, "geometry": {"type": "Point", "coordinates": [6.1946127, 46.3497276]}}, {"type": "Feature", "properties": {"type": "way", "id": 175604104, "tags": {"addr:city": "C\u00e9ligny", "addr:housenumber": "10", "addr:street": "Route de Crans", "building": "yes", "castle_type": "manor", "heritage": "2", "historic": "castle", "name": "Domaine de l\u2019Elys\u00e9e", "note": "Correctly the name \u201cDomaine de l\u2019Elys\u00e9e\u201d applies to *all* buildings togther.", "ref:kgs": "2403", "wikidata": "Q11722336"}}, "geometry": {"type": "Point", "coordinates": [6.1965017, 46.3509545]}}, {"type": "Feature", "properties": {"type": "way", "id": 387204315, "tags": {"addr:city": "Magliaso", "addr:country": "CH", "addr:postcode": "6983", "addr:street": "Via San Giorgio", "building": "yes", "castle_type": "manor", "heritage": "2", "heritage:operator": "babs", "historic": "castle", "image": "https://upload.wikimedia.org/wikipedia/commons/b/bf/Castello_Magliaso_511.jpg", "name": "Castello di San Giorgio", "note": "KGS-Nr: Nummer des Kulturgutes, zu finden in den KGS-Listen des Bundes und der Kantone. BABS: Bundesamt f\u00fcr Bev\u00f6lkerungsschutz", "ref:kgs": "10393", "wikidata": "Q7387495", "wikimedia_commons": "Category:Castello di San Giorgio (Magliaso)"}}, "geometry": {"type": "Point", "coordinates": [8.888552, 45.9869411]}}, {"type": "Feature", "properties": {"type": "way", "id": 213864906, "tags": {"addr:city": "Samedan", "addr:country": "CH", "addr:housenumber": "19", "addr:postcode": "7503", "addr:street": "Surtour", "amenity": "place_of_worship", "building": "church", "denomination": "catholic", "heritage": "2", "heritage:operator": "babs", "image": "https://upload.wikimedia.org/wikipedia/commons/5/5d/Samedan-Herz-Jesu-Kirche.jpg?uselang=de", "name": "Katholische Herz-Jesu-Kirche", "note": "KGS-Nr: Nummer des Kulturgutes, zu finden in den KGS-Listen des Bundes und der Kantone. BABS: Bundesamt f\u00fcr Bev\u00f6lkerungsschutz", "ref:kgs": "10055", "religion": "christian", "wikidata": "Q29521545", "wikipedia": "de:Herz-Jesu-Kirche (Samedan)"}}, "geometry": {"type": "Point", "coordinates": [9.8675162, 46.5340735]}}, {"type": "Feature", "properties": {"type": "way", "id": 96261447, "tags": {"addr:city": "Bern", "addr:country": "CH", "addr:housenumber": "40", "addr:postcode": "3018", "addr:street": "Br\u00fcnnenstrasse", "alt_name": "Stapfenackerschulhaus", "building": "school", "heritage": "2", "heritage:operator": "babs", "historic": "building", "image": "https://upload.wikimedia.org/wikipedia/commons/thumb/1/17/Primarschule_Stapfenacker_Eingang.jpg/799px-Primarschule_Stapfenacker_Eingang.jpg", "name": "Primarschule Stapfenacker", "note": "KGS-Nr: Nummer des Kulturgutes, zu finden in den KGS-Listen des Bundes und der Kantone. BABS: Bundesamt f\u00fcr Bev\u00f6lkerungsschutz", "ref:kgs": "9015", "source": "Survey", "wikidata": "Q19362505", "wikimedia_commons": "Category:Primarschule Stapfenacker"}}, "geometry": {"type": "Point", "coordinates": [7.3833852, 46.944251]}}, {"type": "Feature", "properties": {"type": "way", "id": 693069805, "tags": {"access": "private", "building": "yes", "castle_type": "stately", "contact:addr": "Holligenstrasse 44-46, 3008 Bern", "contact:email": "info@schlossholligen.ch", "description": "Heutuges Schloss ist aus dem 15 Jahrhundert und wurde in der Folge mehrfach um- und ausgebaut.", "heritage": "2", "heritage:operator": "babs", "historic": "castle", "historic:civilization": "medieval", "image": "https://upload.wikimedia.org/wikipedia/commons/thumb/b/b9/Schloss_Holligen_SC05808.jpg/800px-Schloss_Holligen_SC05808.jpg", "name": "Schloss Holligen", "name:de": "Schloss Holligen", "name:en": "Holligen Castle", "name:fr": "Ch\u00e2teau Holligen", "name:it": "Castello Holligen", "note": "KGS-Nr: Nummer des Kulturgutes, zu finden in den KGS-Listen des Bundes und der Kantone.", "ref:kgs": "721", "website": "http://www.schlossholligen.ch", "wikidata": "Q2241642", "wikimedia_commons": "Category:Schloss Holligen", "wikipedia": "de:Schloss Holligen"}}, "geometry": {"type": "Point", "coordinates": [7.4184922, 46.9435681]}}, {"type": "Feature", "properties": {"type": "way", "id": 540490250, "tags": {"alt_name": "Loryspital", "building": "hospital", "building:levels": "4", "heritage": "2", "heritage:operator": "babs", "historic": "building", "image": "https://upload.wikimedia.org/wikipedia/commons/thumb/9/94/Loryspital_1.jpg/799px-Loryspital_1.jpg", "name": "Carl-Ludwig-Lory-Haus", "note": "KGS-Nr: Nummer des Kulturgutes, zu finden in den KGS-Listen des Bundes und der Kantone. BABS: Bundesamt f\u00fcr Bev\u00f6lkerungsschutz", "ref:kgs": "712", "wheelchair": "yes", "wikidata": "Q19362503", "wikimedia_commons": "Category:Loryspital"}}, "geometry": {"type": "Point", "coordinates": [7.4213829, 46.9452204]}}, {"type": "Feature", "properties": {"type": "way", "id": 66334629, "tags": {"amenity": "place_of_worship", "building": "church", "contact:addr": "Freiestrasse 8, 3012 Bern", "contact:email": "info@pauluskirche.ch", "contact:phone": "+41 31 3090000", "denomination": "protestant", "heritage": "2", "heritage:operator": "babs", "image": "https://upload.wikimedia.org/wikipedia/commons/thumb/7/76/Pauluskirche_in_Bern.jpg/309px-Pauluskirche_in_Bern.jpg", "name": "Pauluskirche", "name:de": "Pauluskirche", "name:en": "Saint Paul's Church", "name:fr": "\u00c9glise Saint-Paul", "note": "KGS-Nr: Nummer des Kulturgutes, zu finden in den KGS-Listen des Bundes und der Kantone. BABS: Bundesamt f\u00fcr Bev\u00f6lkerungsschutz", "ref:kgs": "720", "religion": "christian", "roof:colour": "maroon", "roof:shape": "gabled", "source": "Orthofoto Bern", "website": "https://paulus.refbern.ch/", "wikidata": "Q2064298", "wikimedia_commons": "Category:Pauluskirche Bern", "wikipedia": "de:Pauluskirche (Bern)"}}, "geometry": {"type": "Point", "coordinates": [7.430282, 46.9529512]}}, {"type": "Feature", "properties": {"type": "way", "id": 37747971, "tags": {"addr:full": "Monbijoustrasse 40, 3007 Bern", "alt_name": "Oberzolldirektion", "building": "office", "heritage": "2", "heritage:operator": "babs", "image": "https://upload.wikimedia.org/wikipedia/commons/thumb/7/75/Oberzolldirektion_Bern.jpg/800px-Oberzolldirektion_Bern.jpg", "name": "Eidgen\u00f6ssische Zollverwaltung", "note": "KGS-Nr: Nummer des Kulturgutes, zu finden in den KGS-Listen des Bundes und der Kantone. BABS: Bundesamt f\u00fcr Bev\u00f6lkerungsschutz", "ref:kgs": "686", "wikidata": "Q19362476", "wikimedia_commons": "Category:Eidgen\u00f6ssische Zollverwaltung (Bern)"}}, "geometry": {"type": "Point", "coordinates": [7.4354299, 46.9423296]}}, {"type": "Feature", "properties": {"type": "way", "id": 25335100, "tags": {"addr:full": "Hochschulstrasse 4, 3012 Bern", "alt_name": "Uni Bern", "building": "public", "building:levels": "3", "heritage": "2", "heritage:operator": "babs", "image": "https://upload.wikimedia.org/wikipedia/commons/thumb/8/86/UNI-bern-Front.jpg/800px-UNI-bern-Front.jpg", "name": "Hauptgeb\u00e4ude Universit\u00e4t Bern", "name:de": "Hauptgeb\u00e4ude Universit\u00e4t Bern", "name:en": "Main building of the University of Bern", "name:fr": "B\u00e2timent principal de l'Universit\u00e9 de Berne", "name:it": "Edificio principale dell'Universit\u00e0 di Berna", "note": "KGS-Nr: Nummer des Kulturgutes, zu finden in den KGS-Listen des Bundes und der Kantone. BABS: Bundesamt f\u00fcr Bev\u00f6lkerungsschutz", "ref:kgs": "733", "roof:levels": "1", "roof:shape": "many", "source": "Orthofoto Bern", "wikidata": "Q1589476", "wikimedia_commons": "Category:Main building of the University of Bern", "wikipedia": "de:Hauptgeb\u00e4ude der Universit\u00e4t Bern"}}, "geometry": {"type": "Point", "coordinates": [7.438065, 46.9505156]}}, {"type": "Feature", "properties": {"type": "way", "id": 37835587, "tags": {"building": "yes", "heritage": "2", "heritage:operator": "babs", "historic": "building", "image": "https://upload.wikimedia.org/wikipedia/commons/thumb/f/f4/Suvahaus.jpg/799px-Suvahaus.jpg", "name": "SUVA-Haus", "note": "KGS-Nr: Nummer des Kulturgutes, zu finden in den KGS-Listen des Bundes und der Kantone. BABS: Bundesamt f\u00fcr Bev\u00f6lkerungsschutz", "ref:kgs": "730", "wikidata": "Q19362515", "wikimedia_commons": "Category:SUVA-Haus"}}, "geometry": {"type": "Point", "coordinates": [7.4360019, 46.9468813]}}, {"type": "Feature", "properties": {"type": "way", "id": 331761778, "tags": {"addr:city": "Bern", "addr:country": "CH", "addr:housenumber": "31", "addr:postcode": "3012", "addr:street": "L\u00e4nggassstrasse", "building": "yes", "building:levels": "3", "heritage": "2", "heritage:operator": "babs", "image": "https://upload.wikimedia.org/wikipedia/commons/thumb/8/87/Alkoholverwaltung_01.jpg/800px-Alkoholverwaltung_01.jpg", "note": "KGS-Nr: Nummer des Kulturgutes, zu finden in den KGS-Listen des Bundes und der Kantone. BABS: Bundesamt f\u00fcr Bev\u00f6lkerungsschutz", "note:de": "Geb\u00e4ude das Sitz der Eidgen\u00f6ssischen Alkoholverwaltung war.", "ref:kgs": "8984", "roof:levels": "1", "roof:shape": "mansard", "source": "Orthofoto Bern", "wikidata": "Q19362475", "wikimedia_commons": "Category:Eidgen\u00f6ssische Alkoholverwaltung Bern"}}, "geometry": {"type": "Point", "coordinates": [7.4321917, 46.9531288]}}, {"type": "Feature", "properties": {"type": "way", "id": 28872696, "tags": {"addr:full": "Hochschulstrasse 6, 3012 Bern", "building": "public", "building:levels": "3", "heritage": "2", "heritage:operator": "babs", "image": "https://upload.wikimedia.org/wikipedia/commons/thumb/3/35/GD-SBB_001.jpg/800px-GD-SBB_001.jpg", "layer": "1", "name": "Universit\u00e4t Bern - Zentralbereich", "name:de": "Universit\u00e4t Bern - Zentralbereich", "name:en": "University of Bern - Central Administration", "note": "KGS-Nr: Nummer des Kulturgutes, zu finden in den KGS-Listen des Bundes und der Kantone. BABS: Bundesamt f\u00fcr Bev\u00f6lkerungsschutz", "old_name": "SBB Generaldirektion", "ref:kgs": "691", "roof:levels": "2", "roof:shape": "many", "wikidata": "Q19362480", "wikimedia_commons": "Category:Headquarters of the Swiss Federal Railways"}}, "geometry": {"type": "Point", "coordinates": [7.4368977, 46.9502714]}}, {"type": "Feature", "properties": {"type": "way", "id": 25330016, "tags": {"addr:city": "Bern", "addr:country": "CH", "addr:housename": "Heiliggeistkirche", "addr:housenumber": "44", "addr:postcode": "3011", "addr:street": "Spitalgasse", "amenity": "place_of_worship", "building": "church", "denomination": "protestant", "heritage": "2", "heritage:operator": "babs", "image": "https://commons.wikimedia.org/wiki/Category:Heiliggeistkirche_Bern", "name": "Heiliggeistkirche", "name:hr": "Crkva Duha Svetog", "name:ko": "\uc131\ub839 \uad50\ud68c", "note": "KGS-Nr: Nummer des Kulturgutes, zu finden in den KGS-Listen des Bundes und der Kantone.", "ref:kgs": "642", "religion": "christian", "wheelchair": "yes", "wikidata": "Q1595348", "wikimedia_commons": "Category:Heiliggeistkirche Bern", "wikipedia": "de:Heiliggeistkirche (Bern)"}}, "geometry": {"type": "Point", "coordinates": [7.4407324, 46.9480277]}}, {"type": "Feature", "properties": {"type": "way", "id": 44465116, "tags": {"addr:full": "Hodlerstrasse 8, 3011 Bern", "building": "public", "description": "Das Kunsthistorisches Seminar, Hodlerstrasse 8 ist Teil des Ensembles \"Kunstmuseum und Kunsthistorisches Seminar\", zusammen mit dem Kunstmuseum, Hodlerstrasse 12, mit der jeweils gleichen KGS Nummer 634", "heritage": "2", "heritage:operator": "babs", "image": "https://upload.wikimedia.org/wikipedia/commons/thumb/9/9c/Bern_Kunstmuseum_3.jpg/800px-Bern_Kunstmuseum_3.jpg", "name": "Kunsthistorisches Seminar", "ref:kgs": "634", "source": "Orthofotos Bern", "wikidata": "Q194622", "wikimedia_commons": "Category:Kunstmuseum Bern", "wikipedia": "de:Kunstmuseum Bern"}}, "geometry": {"type": "Point", "coordinates": [7.4435358, 46.9510031]}}, {"type": "Feature", "properties": {"type": "way", "id": 251236204, "tags": {"addr:city": "Bern", "addr:country": "CH", "addr:housenumber": "67", "addr:postcode": "3011", "addr:street": "Marktgasse", "building": "tower", "height": "49", "heritage": "2", "heritage:operator": "babs", "historic": "city_gate", "image": "https://upload.wikimedia.org/wikipedia/commons/thumb/f/f7/Bern_Kaefigturm.jpg/290px-Bern_Kaefigturm.jpg", "man_made": "tower", "name": "K\u00e4figturm", "name:de": "K\u00e4figturm", "name:en": "Prison Tower", "name:es": "La Torre de la Prisi\u00f3n", "name:fr": "Tour des Prisons", "name:gsw": "Chefigturm", "name:it": "La Torre delle Prigioni", "name:ru": "\u041a\u0435\u0444\u0438\u0433\u0442\u0443\u0440\u043c", "name:zh": "\u76d1\u72f1\u5854", "note": "KGS-Nr: Nummer des Kulturgutes, zu finden in den KGS-Listen des Bundes und der Kantone. BABS: Bundesamt f\u00fcr Bev\u00f6lkerungsschutz", "ref:kgs": "629", "roof:height": "26", "roof:shape": "pyramidal", "source": "Orthofotos Bern", "tourism": "attraction", "tower:type": "defensive", "wheelchair": "no", "wikidata": "Q1588585", "wikipedia": "de:K\u00e4figturm"}}, "geometry": {"type": "Point", "coordinates": [7.4439839, 46.9481484]}}, {"type": "Feature", "properties": {"type": "way", "id": 289742245, "tags": {"building": "public", "contact:addr": "Hodlerstrasse 12, 3011 Bern", "contact:email": "info@kunstmuseumbern.ch", "contact:fax": "+41 31 3280955", "contact:phone": "+41 31 3280944", "contact:website": "http://www.kunstmuseumbern.ch/en/footer/kontakt_0-185.html", "description": "Das Kunstmuseum, Hodlerstrasse 12 ist Teil des Ensembles \"Kunstmuseum und Kunsthistorisches Seminar\", zusammen mit dem Kunsthistorisches Seminar, Hodlerstrasse 8, mit der jeweils gleichen KGS Nummer 634", "heritage": "2", "heritage:operator": "babs", "image": "https://upload.wikimedia.org/wikipedia/commons/thumb/6/69/Kunsthaus_di_berna%2C_ext.%2C_02.JPG/800px-Kunsthaus_di_berna%2C_ext.%2C_02.JPG", "name": "Kunstmuseum Bern", "name:de": "Kunstmuseum Bern", "name:en": "Museum of Fine Arts Bern", "name:fr": "Mus\u00e9e des Beaux-Arts de Berne", "name:it": "Museo dell'Arte di Berna", "opening_hours": "Mo off; Tu 10:00-21:00; We-Su 10:00-17:00", "ref:kgs": "634", "tourism": "museum", "website": "https://www.kunstmuseumbern.ch/", "wheelchair": "yes", "wikidata": "Q19362502", "wikimedia_commons": "Category:Kunstmuseum Bern", "wikipedia": "de:Kunstmuseum Bern"}}, "geometry": {"type": "Point", "coordinates": [7.4431395, 46.9512018]}}, {"type": "Feature", "properties": {"type": "way", "id": 40607192, "tags": {"alt_name": "gibb Gewerblich-Industrielle Berufsschule Bern Hauptgeb\u00e4ude", "amenity": "school", "building": "yes", "contact:addr": "Lorrainestrasse 1, 3013 Bern", "contact:fax": "+41 31 3359102", "contact:phone": "+41 31 3359145", "heritage": "2", "heritage:operator": "babs", "historic": "yes", "image": "https://upload.wikimedia.org/wikipedia/commons/thumb/1/16/Gewerbeschule_S\u00fcd-Ost.jpg/800px-Gewerbeschule_S\u00fcd-Ost.jpg", "name": "Gewerbeschule", "operator": "Stadt Bern", "ref:kgs": "623", "start_date": "1939", "website": "https://www.gibb.ch", "wheelchair": "yes", "wikidata": "Q1520485", "wikimedia_commons": "Category:Gewerbeschule Bern", "wikipedia": "de:Gewerblich Industrielle Berufsschule Bern"}}, "geometry": {"type": "Point", "coordinates": [7.4448101, 46.9547028]}}, {"type": "Feature", "properties": {"type": "way", "id": 368819942, "tags": {"alt_name": "Neubr\u00fcck", "heritage": "2", "heritage:operator": "babs", "historic": "bridge", "image": "https://upload.wikimedia.org/wikipedia/commons/thumb/6/64/Neubr\u00fcgg_011_Nordwestseite.JPG/800px-Neubr\u00fcgg_011_Nordwestseite.JPG", "layer": "1", "man_made": "bridge", "name": "Neubr\u00fccke", "name:de": "Neubr\u00fccke", "name:gsw": "Neubr\u00fcgg", "note": "KGS-Nr: Nummer des Kulturgutes, zu finden in den KGS-Listen des Bundes und der Kantone. BABS: Bundesamt f\u00fcr Bev\u00f6lkerungsschutz", "ref:kgs": "638", "wikidata": "Q1688816", "wikimedia_commons": "Category:Neubr\u00fcgg (Bern)", "wikipedia": "de:Neubr\u00fcgg"}}, "geometry": {"type": "Point", "coordinates": [7.4280975, 46.9737667]}}, {"type": "Feature", "properties": {"type": "way", "id": 680958659, "tags": {"addr:city": "Belp", "addr:country": "CH", "addr:housenumber": "120", "addr:postcode": "3123", "alt_name": "Schloss Oberried", "building": "yes", "building:material": "stone", "castle_type": "stately", "contact:email": "campagne-oberried@bluewin.ch", "contact:fax": "+41 31 8198047", "contact:phone": "+41 31 8198048", "ele": "566", "heritage": "2", "heritage:operator": "babs", "historic": "castle", "image": "https://upload.wikimedia.org/wikipedia/commons/thumb/e/e5/Campagna_Oberried01843.jpg/800px-Campagna_Oberried01843.jpg", "name": "Campagne Oberried", "name:en": "Oberried Estate", "note": "KGS-Nr: Nummer des Kulturgutes, zu finden in den KGS-Listen des Bundes und der Kantone. BABS: Bundesamt f\u00fcr Bev\u00f6lkerungsschutz", "old_name": "Gut Oberried", "ref:kgs": "605", "source:addr": "Geb\u00e4udeadressen des Kantons Bern \u00a9 Amt f\u00fcr Geoinformation des Kantons Bern", "website": "https://www.campagne-oberried.ch", "wikidata": "Q1030112", "wikimedia_commons": "Category:Schloss Oberried", "wikipedia": "de:Campagne Oberried"}}, "geometry": {"type": "Point", "coordinates": [7.4946381, 46.8886866]}}, {"type": "Feature", "properties": {"type": "way", "id": 141372457, "tags": {"alt_name": "Bundesarchiv", "building": "public", "contact:addr": "Archivstrasse 24, 3005 Bern", "contact:email": "bundesarchiv@bar.admin.ch", "contact:fax": "+41 31 3227823", "contact:phone": "+41 31 3228989", "heritage": "2", "heritage:operator": "babs", "image": "https://upload.wikimedia.org/wikipedia/commons/thumb/a/a7/Swiss_Federal_Archives_building.JPG/800px-Swiss_Federal_Archives_building.JPG", "name": "Schweizerisches Bundesarchiv", "name:de": "Schweizerisches Bundesarchiv", "name:en": "Swiss Federal Archives", "name:fr": "Archives f\u00e9d\u00e9rales suisses", "name:it": "Archivio federale svizzero", "note": "KGS-Nr: Nummer des Kulturgutes, zu finden in den KGS-Listen des Bundes und der Kantone. BABS: Bundesamt f\u00fcr Bev\u00f6lkerungsschutz", "office": "government", "opening_hours": "Mo off; Tu-Th 09:00-19:00; Fr-Su off", "ref:kgs": "614", "short_name": "BAR", "source": "Orthofotos Bern", "website": "https://www.bar.admin.ch/", "wheelchair": "yes", "wikidata": "Q679141", "wikimedia_commons": "Category:Swiss Federal Archives", "wikipedia": "de:Schweizerisches Bundesarchiv"}}, "geometry": {"type": "Point", "coordinates": [7.4465906, 46.9404124]}}, {"type": "Feature", "properties": {"type": "way", "id": 40886762, "tags": {"addr:city": "Bern", "addr:country": "CH", "addr:housenumber": "101", "addr:postcode": "3005", "addr:street": "Jubil\u00e4umsstrasse", "alt_name": "Hauptgeb\u00e4ude Ka-We-De", "building": "public", "heritage": "2", "heritage:operator": "babs", "image": "https://upload.wikimedia.org/wikipedia/commons/thumb/c/c5/Ka-We-De_DSC05005.jpg/800px-Ka-We-De_DSC05005.jpg", "name": "Ka-We-De", "note": "KGS-Nr: Nummer des Kulturgutes, zu finden in den KGS-Listen des Bundes und der Kantone. BABS: Bundesamt f\u00fcr Bev\u00f6lkerungsschutz", "ref:kgs": "700", "source": "Orthofotos Bern", "wikidata": "Q8984935", "wikimedia_commons": "Category:Ka-We-De", "wikipedia": "de:Ka-We-De"}}, "geometry": {"type": "Point", "coordinates": [7.4473704, 46.9353833]}}, {"type": "Feature", "properties": {"type": "way", "id": 261143425, "tags": {"alt_name": "Elfenaupark;Landgut Elfenau;Campagne Elfenau", "heritage": "2", "heritage:operator": "babs", "image": "https://upload.wikimedia.org/wikipedia/commons/thumb/0/09/Bern_Elfenau_Orangerie.jpg/800px-Bern_Elfenau_Orangerie.jpg", "leisure": "park", "name": "Elfenau", "note": "KGS-Nr: Nummer des Kulturgutes, zu finden in den KGS-Listen des Bundes und der Kantone. BABS: Bundesamt f\u00fcr Bev\u00f6lkerungsschutz", "ref:kgs": "10468", "wikidata": "Q1328444", "wikimedia_commons": "Category:Elfenaupark (Bern)", "wikipedia": "de:Elfenau"}}, "geometry": {"type": "Point", "coordinates": [7.4661242, 46.9327528]}}, {"type": "Feature", "properties": {"type": "way", "id": 25464268, "tags": {"building": "public", "contact:addr": "Helvetiaplatz 4, 3005 Bern", "contact:email": "info@alpinesmuseum.ch", "contact:facebook": "https://www.facebook.com/alpinesmuseum", "contact:fax": "+41 31 3510751", "contact:phone": "+41 31 3500440", "contact:twitter": "https://twitter.com/AlpinesMuseum", "heritage": "2", "heritage:operator": "babs", "image": "https://upload.wikimedia.org/wikipedia/commons/thumb/8/8a/Alpines_Museum_Bern.JPG/800px-Alpines_Museum_Bern.JPG", "name": "Alpines Museum der Schweiz", "name:en": "Swiss Alpine Museum", "name:fr": "Mus\u00e9e Alpin Suisse", "name:it": "Museo Alpino Svizzera", "name:rm": "Museo di alps svizra", "name:zh": "\u745e\u58eb\u963f\u5c14\u5351\u65af\u535a\u7269\u9986", "note": "KGS-Nr: Nummer des Kulturgutes, zu finden in den KGS-Listen des Bundes und der Kantone. BABS: Bundesamt f\u00fcr Bev\u00f6lkerungsschutz", "opening_hours": "Mo off; Tu-We 10:00-17:00; Th 10:00-20:00, Fr-Su 10:00-17:00", "ref:kgs": "609", "tourism": "museum", "website": "https://www.alpinesmuseum.ch", "wheelchair": "limited", "wikidata": "Q452375", "wikimedia_commons": "Category:Swiss Alpine Museum", "wikipedia": "de:Alpines Museum der Schweiz"}}, "geometry": {"type": "Point", "coordinates": [7.4481787, 46.9440652]}}, {"type": "Feature", "properties": {"type": "way", "id": 40422946, "tags": {"alt_name": "Historisches Museum", "building": "public", "contact:addr": "Helvetiaplatz 5, 3005 Bern", "email": "info@bhm.ch", "fax": "+41 31 350 77 99", "heritage": "2", "heritage:operator": "babs", "historic": "building", "image": "https://upload.wikimedia.org/wikipedia/commons/thumb/2/23/Bern_Historisches_Museum_DSC04967.jpg/800px-Bern_Historisches_Museum_DSC04967.jpg", "name": "Bernisches Historisches Museum", "name:de": "Bernisches Historisches Museum", "name:en": "Historical Museum of Bern", "name:fr": "Mus\u00e9e d'Histoire de Berne", "note": "KGS-Nr: Nummer des Kulturgutes, zu finden in den KGS-Listen des Bundes und der Kantone. BABS: Bundesamt f\u00fcr Bev\u00f6lkerungsschutz", "opening_hours": "Tu-Su 09:00-18:00", "phone": "+41 31 350 77 11", "ref:kgs": "627", "source": "survey and Orthofotos Bern and website", "toilets:wheelchair": "yes", "tourism": "museum", "website": "https://www.bhm.ch", "wheelchair": "limited", "wheelchair:source": "https://www.bhm.ch/de/informationen/menschen-mit-einer-behinderung/rollstuhlfahrende-gehbehinderte/", "wikidata": "Q670058", "wikimedia_commons": "Category:Historisches Museum Bern", "wikipedia": "de:Bernisches Historisches Museum"}}, "geometry": {"type": "Point", "coordinates": [7.4491998, 46.9429679]}}, {"type": "Feature", "properties": {"type": "way", "id": 40859920, "tags": {"alt_name": "Geb\u00e4ude Schweizerische Landesbibliothek", "building": "public", "building:levels": "5", "contact:addr": "Hallwylstrasse 15, 3005 Bern", "heritage": "2", "heritage:operator": "babs", "image": "https://upload.wikimedia.org/wikipedia/commons/thumb/0/0b/Swiss_National_Library_building.jpg/800px-Swiss_National_Library_building.jpg", "name": "Schweizerische Nationalbibliothek", "name:de": "Schweizerische Nationalbibliothek", "name:en": "Swiss National Library", "name:fr": "Biblioth\u00e8que nationale suisse", "name:it": "Biblioteca nazionale svizzera", "name:rm": "Biblioteca naziunala svizra", "note": "Geb\u00e4ude - KGS-Nr: Nummer des Kulturgutes, zu finden in den KGS-Listen des Bundes und der Kantone. BABS: Bundesamt f\u00fcr Bev\u00f6lkerungsschutz", "opening_hours": "Mo-Fr 09:00-18:00; Sa 09:00-16:00; Su off", "ref:kgs": "649", "short_name": "NB", "source": "Orthofotos Bern", "website": "https://www.nb.admin.ch", "wikidata": "Q201787", "wikimedia_commons": "Category:Swiss National Library", "wikipedia": "de:Schweizerische Nationalbibliothek"}}, "geometry": {"type": "Point", "coordinates": [7.4497571, 46.9413474]}}, {"type": "Feature", "properties": {"type": "way", "id": 331291933, "tags": {"heritage": "2", "heritage:operator": "babs", "image": "https://upload.wikimedia.org/wikipedia/commons/4/4e/Aare_river_in_Bern.jpg", "layer": "1", "man_made": "bridge", "name": "Kirchenfeldbr\u00fccke", "name:ko": "\ud0a4\ub974\ud5e8\ud3a0\ud2b8 \ub2e4\ub9ac", "note": "KGS-Nr: Nummer des Kulturgutes, zu finden in den KGS-Listen des Bundes und der Kantone. BABS: Bundesamt f\u00fcr Bev\u00f6lkerungsschutz", "ref:kgs": "701", "wikidata": "Q1743111", "wikimedia_commons": "Category:Kirchenfeldbr\u00fccke", "wikipedia": "de:Kirchenfeldbr\u00fccke"}}, "geometry": {"type": "Point", "coordinates": [7.4486508, 46.9454531]}}, {"type": "Feature", "properties": {"type": "way", "id": 7996249, "tags": {"alt_name": "Berner M\u00fcnster", "amenity": "place_of_worship", "building": "church", "contact:addr:full": "M\u00fcnsterplatz 1, 3011 Bern", "contact:email": "infostelle@bernermuenster.ch", "denomination": "protestant", "height": "20.7", "heritage": "2", "heritage:operator": "babs", "image": "https://upload.wikimedia.org/wikipedia/commons/thumb/7/70/Berner_Muenster2.jpg/293px-Berner_Muenster2.jpg", "int_name": "Cathedral", "name": "M\u00fcnster", "name:ko": "\ubca0\ub978 \ub300\uc131\ub2f9", "name:zh": "\u4f2f\u5c14\u5c3c\u5927\u6559\u5802", "note": "KGS-Nr: Nummer des Kulturgutes, zu finden in den KGS-Listen des Bundes und der Kantone. BABS: Bundesamt f\u00fcr Bev\u00f6lkerungsschutz", "opening_hours:url": "http://www.bernermuenster.ch/de/berner-muenster/infos-kontakt/oeffnungszeiten.php", "ref:kgs": "643", "religion": "christian", "website": "https://www.bernermuenster.ch/", "wheelchair": "limited", "wikidata": "Q688315", "wikimedia_commons": "Category:Bern Minster", "wikipedia": "de:Berner M\u00fcnster"}}, "geometry": {"type": "Point", "coordinates": [7.4515947, 46.9472409]}}, {"type": "Feature", "properties": {"type": "way", "id": 27132599, "tags": {"alt_name": "Kulturcasino der Burgergemeinde Bern", "building": "public", "contact:addr": "Casinoplatz 1, 3011 Bern", "contact:email": "info@kulturcasino.ch", "contact:fax": "+41 31 3280222", "contact:phone": "+41 31 3280228", "disused:amenity": "theatre", "heritage": "2", "heritage:operator": "babs", "image": "https://upload.wikimedia.org/wikipedia/commons/thumb/1/13/Bern_Casino_1.jpg/700px-Bern_Casino_1.jpg", "name": "Casino", "name:ko": "\uce74\uc9c0\ub178", "note": "KGS-Nr: Nummer des Kulturgutes, zu finden in den KGS-Listen des Bundes und der Kantone. BABS: Bundesamt f\u00fcr Bev\u00f6lkerungsschutz", "note_1": "Wiederer\u00f6ffnung Sp\u00e4tsommer 2019", "ref:kgs": "8996", "theatre": "concert_hall", "website": "https://www.casinobern.ch", "wheelchair": "yes", "wikidata": "Q1791644", "wikimedia_commons": "Category:Casino (Bern)", "wikipedia": "de:Casino Bern"}}, "geometry": {"type": "Point", "coordinates": [7.4486485, 46.9468649]}}, {"type": "Feature", "properties": {"type": "way", "id": 39374343, "tags": {"addr:city": "Bern", "addr:country": "CH", "addr:housename": "Kirche St. Peter und Paul", "addr:housenumber": "2", "addr:postcode": "3011", "addr:street": "Rathausgasse", "alt_name": "Sankt-Peter- und Paul-Kirche", "amenity": "place_of_worship", "building": "church", "denomination": "old_catholic", "heritage": "2", "heritage:operator": "babs", "image": "https://upload.wikimedia.org/wikipedia/commons/thumb/e/ee/Bern_St_Peter_and_Paul.jpg/800px-Bern_St_Peter_and_Paul.jpg", "name": "Kirche St. Peter und Paul", "note": "KGS-Nr: Nummer des Kulturgutes, zu finden in den KGS-Listen des Bundes und der Kantone. BABS: Bundesamt f\u00fcr Bev\u00f6lkerungsschutz", "ref:kgs": "679", "religion": "christian", "source": "Orthofotos Bern", "start_date": "1864", "website": "https://www.christkath-bern.ch/kirche-st-peter-und-paul/", "wikidata": "Q684054", "wikimedia_commons": "Category:Kirche Sankt Peter und Paul (Bern)", "wikipedia": "de:St. Peter und Paul (Bern)"}}, "geometry": {"type": "Point", "coordinates": [7.4516145, 46.9486941]}}, {"type": "Feature", "properties": {"type": "way", "id": 22274572, "tags": {"addr:city": "Bern", "addr:country": "CH", "addr:housenumber": "61", "addr:postcode": "3011", "addr:street": "M\u00fcnstergasse", "alt_name": "Zentralbibliothek der Universit\u00e4tsbibliothek", "amenity": "library", "building": "public", "contact:email": "muenstergasse@ub.unibe.ch", "contact:fax": "+41 31 6319211", "contact:phone": "+41 31 6319222", "heritage": "2", "heritage:operator": "babs", "image": "https://upload.wikimedia.org/wikipedia/commons/thumb/b/bc/Zentralbibliothek_bern.jpg/800px-Zentralbibliothek_bern.jpg", "name": "Bibliothek M\u00fcnstergasse", "name:en": "University of Berne - Central library", "name:fr": "Universit\u00e9 de Berne - Biblioth\u00e8que centrale de", "note": "KGS-Nr: Nummer des Kulturgutes, zu finden in den KGS-Listen des Bundes und der Kantone. BABS: Bundesamt f\u00fcr Bev\u00f6lkerungsschutz", "opening_hours": "Mo-Fr 10:00-18:00; Sa 10:00-12:00; Su off", "operator": "Universit\u00e4tsbibliothek Bern UB", "ref:isil": "CH-000011-1", "ref:kgs": "654", "website": "https://www.unibe.ch/universitaet/dienstleistungen/universitaetsbibliothek/teilbibliotheken/bibliothek_muenstergasse/index_ger.html", "wheelchair": "yes", "wikidata": "Q190254", "wikimedia_commons": "Category:Universit\u00e4tsbibliothek und Burgerbibliothek, Bern", "wikipedia": "de:Bibliothek M\u00fcnstergasse"}}, "geometry": {"type": "Point", "coordinates": [7.4486818, 46.9472714]}}, {"type": "Feature", "properties": {"type": "way", "id": 39022163, "tags": {"addr:city": "Bern", "addr:country": "CH", "addr:housename": "Oberes May-Haus", "addr:postcode": "3011", "addr:street": "M\u00fcnstergasse", "building": "yes", "heritage": "2", "heritage:operator": "babs", "image": "https://upload.wikimedia.org/wikipedia/commons/thumb/a/af/Bern_von_Mayhaus.jpg/450px-Bern_von_Mayhaus.jpg", "name": "Oberes May-Haus", "note": "KGS-Nr: Nummer des Kulturgutes, zu finden in den KGS-Listen des Bundes und der Kantone. BABS: Bundesamt f\u00fcr Bev\u00f6lkerungsschutz", "ref:kgs": "639", "source": "Orthofotos Bern", "wikidata": "Q19362504", "wikimedia_commons": "Category:Oberes Mayhaus (Bern)"}}, "geometry": {"type": "Point", "coordinates": [7.4489899, 46.9475899]}}, {"type": "Feature", "properties": {"type": "way", "id": 39022237, "tags": {"addr:city": "Bern", "addr:country": "CH", "addr:housenumber": "3", "addr:postcode": "3011", "addr:street": "M\u00fcnsterplatz", "building": "office", "heritage": "2", "heritage:operator": "babs", "image": "https://upload.wikimedia.org/wikipedia/commons/thumb/d/d5/Bern_Stiftsgeb%C3%A4ude_M%C3%BCnsterplatz3.jpg/800px-Bern_Stiftsgeb%C3%A4ude_M%C3%BCnsterplatz3.jpg", "name": "Stiftsgeb\u00e4ude", "note": "KGS-Nr: Nummer des Kulturgutes, zu finden in den KGS-Listen des Bundes und der Kantone. BABS: Bundesamt f\u00fcr Bev\u00f6lkerungsschutz", "ref:kgs": "655", "wikidata": "Q2348735", "wikimedia_commons": "Category:Stiftsgeb\u00e4ude M\u00fcnsterplatz (Bern)", "wikipedia": "de:Stiftsgeb\u00e4ude"}}, "geometry": {"type": "Point", "coordinates": [7.4509105, 46.9469203]}}, {"type": "Feature", "properties": {"type": "way", "id": 39022246, "tags": {"building": "residential", "contact:addr": "Herrengasse 23, 3011 Bern", "heritage": "2", "heritage:operator": "babs", "image": "https://upload.wikimedia.org/wikipedia/commons/thumb/8/8a/Von-Wattenwyl-Haus%2C_Herrengasse_23%2C_Nordseite.jpg/737px-Von-Wattenwyl-Haus%2C_Herrengasse_23%2C_Nordseite.jpg", "name": "Von-Wattenwyl-Haus", "note": "KGS-Nr: Nummer des Kulturgutes, zu finden in den KGS-Listen des Bundes und der Kantone. BABS: Bundesamt f\u00fcr Bev\u00f6lkerungsschutz", "ref:kgs": "742", "source": "Orthofotos Bern", "wikimedia_commons": "Category:Herrengasse 23 (Bern)"}}, "geometry": {"type": "Point", "coordinates": [7.4494383, 46.9469019]}}, {"type": "Feature", "properties": {"type": "way", "id": 39374439, "tags": {"addr:city": "Bern", "addr:country": "CH", "addr:housenumber": "3", "addr:postcode": "3011", "addr:street": "Bim Zytglogge", "alt_name": "Zeitglockenturm", "building": "tower", "height": "50", "heritage": "2", "heritage:operator": "babs", "historic": "city_gate", "image": "http://upload.wikimedia.org/wikipedia/commons/thumb/1/17/Zytglogge_01.jpg/400px-Zytglogge_01.jpg", "man_made": "tower", "name": "Zytglogge", "name:de": "Zeitglockenturm", "name:en": "Clock Tower", "name:es": "Torre del Reloj", "name:fr": "Tour de l'Horloge", "name:gsw": "Zytglogge", "name:it": "Torre dell'orologio", "name:ja": "\u6642\u8a08\u5854", "name:ko": "\uce58\ud2b8\uae00\ub85c\uac8c(\uc2dc\uacc4\ud0d1)", "name:ru": "\u0426\u0438\u0442\u0433\u043b\u043e\u0433\u0433\u0435", "note": "KGS-Nr: Nummer des Kulturgutes, zu finden in den KGS-Listen des Bundes und der Kantone. BABS: Bundesamt f\u00fcr Bev\u00f6lkerungsschutz", "ref:kgs": "665", "roof:height": "25", "roof:shape": "pyramidal", "source": "survey and Orthofotos Bern", "tourism": "attraction", "tower:type": "defensive", "website": "http://www.zeitglockenturm.ch", "wikidata": "Q246105", "wikimedia_commons": "Category:Zytglogge", "wikipedia": "de:Zytglogge"}}, "geometry": {"type": "Point", "coordinates": [7.4478104, 46.9479546]}}, {"type": "Feature", "properties": {"type": "way", "id": 41808261, "tags": {"addr:full": "Theaterplatz 7, 3011 Bern", "building": "yes", "heritage": "2", "heritage:operator": "babs", "image": "https://upload.wikimedia.org/wikipedia/commons/thumb/7/74/Hotel_de_Music.JPG/800px-Hotel_de_Music.JPG", "name": "H\u00f4tel de Musique", "note": "KGS-Nr: Nummer des Kulturgutes, zu finden in den KGS-Listen des Bundes und der Kantone. BABS: Bundesamt f\u00fcr Bev\u00f6lkerungsschutz", "ref:kgs": "628", "source": "Orthofotos Bern and survey", "wikidata": "Q1249510", "wikimedia_commons": "Category:H\u00f4tel de Musique (Bern)", "wikipedia": "de:H\u00f4tel de Musique"}}, "geometry": {"type": "Point", "coordinates": [7.447805, 46.9475328]}}, {"type": "Feature", "properties": {"type": "way", "id": 41808264, "tags": {"addr:city": "Bern", "addr:country": "CH", "addr:housename": "Hauptwache", "addr:housenumber": "13", "addr:postcode": "3011", "addr:street": "Theaterplatz", "building": "yes", "heritage": "2", "heritage:operator": "babs", "image": "https://upload.wikimedia.org/wikipedia/commons/thumb/3/34/Bern_Hauptwache_frontal.jpg/800px-Bern_Hauptwache_frontal.jpg", "name": "Hauptwache", "note": "KGS-Nr: Nummer des Kulturgutes, zu finden in den KGS-Listen des Bundes und der Kantone. BABS: Bundesamt f\u00fcr Bev\u00f6lkerungsschutz", "ref:kgs": "624", "source": "Orthofotos Bern and survey", "wikidata": "Q19362481"}}, "geometry": {"type": "Point", "coordinates": [7.4474332, 46.9472108]}}, {"type": "Feature", "properties": {"type": "way", "id": 41808321, "tags": {"addr:full": "Kornhausplatz 18, 3011 Bern", "building": "granary", "heritage": "2", "heritage:operator": "babs", "historic": "building", "image": "https://upload.wikimedia.org/wikipedia/commons/thumb/7/77/Kornhaus_Bern_(3).jpg/800px-Kornhaus_Bern_(3).jpg", "name": "Kornhaus", "name:en": "Granary", "name:es": "Granero", "name:fr": "Grenier", "name:it": "Granaio", "name:ko": "\ucf58\ud558\uc6b0\uc2a4", "name:language": "de", "name:zh": "\u8c37\u4ed3", "note": "KGS-Nr: Nummer des Kulturgutes, zu finden in den KGS-Listen des Bundes und der Kantone. BABS: Bundesamt f\u00fcr Bev\u00f6lkerungsschutz", "ref:kgs": "632", "tourism": "attraction", "wikidata": "Q1784541", "wikimedia_commons": "Category:Kornhaus (Bern)", "wikipedia": "de:Kornhaus (Bern)"}}, "geometry": {"type": "Point", "coordinates": [7.4472891, 46.9488203]}}, {"type": "Feature", "properties": {"type": "way", "id": 41808322, "tags": {"addr:city": "Bern", "addr:country": "CH", "addr:housename": "Stadttheater", "addr:housenumber": "20", "addr:postcode": "3011", "addr:street": "Kornhausplatz", "amenity": "theatre", "building": "public", "email": "info@konzerttheaterbern.ch", "heritage": "2", "heritage:operator": "babs", "image": "https://upload.wikimedia.org/wikipedia/commons/thumb/e/e4/Stadttheater_Bern.jpg/800px-Stadttheater_Bern.jpg", "name": "Stadttheater", "note": "KGS-Nr: Nummer des Kulturgutes, zu finden in den KGS-Listen des Bundes und der Kantone. BABS: Bundesamt f\u00fcr Bev\u00f6lkerungsschutz", "opening_hours": "Mo-Fr 10:00-18:30; Sa 10:00-14:00; Su off; PH off", "operator": "Konzert Theater Bern", "phone": "+41 313295111", "ref:kgs": "729", "source": "Orthofotos Bern", "website": "https://www.konzerttheaterbern.ch/", "wheelchair": "yes", "wikidata": "Q869926", "wikimedia_commons": "Category:Stadttheater Bern", "wikipedia": "de:Stadttheater Bern"}}, "geometry": {"type": "Point", "coordinates": [7.4472286, 46.949371]}}, {"type": "Feature", "properties": {"type": "way", "id": 41808323, "tags": {"addr:city": "Bern", "addr:country": "CH", "addr:housename": "Franz\u00f6sische Kirche", "addr:housenumber": "1", "addr:postcode": "3011", "addr:street": "Predigergasse", "amenity": "place_of_worship", "building": "church", "denomination": "protestant", "heritage": "2", "heritage:operator": "babs", "image": "https://upload.wikimedia.org/wikipedia/commons/thumb/9/96/Bern_Franzoesische_Kirche.jpg/800px-Bern_Franzoesische_Kirche.jpg", "name": "\u00c9glise fran\u00e7aise", "name:de": "Franz\u00f6sische Kirche", "name:en": "The french Church", "name:es": "La iglesia francesa", "name:fr": "\u00c9glise fran\u00e7aise", "name:it": "La chiesa francese", "note": "KGS-Nr: Nummer des Kulturgutes, zu finden in den KGS-Listen des Bundes und der Kantone. BABS: Bundesamt f\u00fcr Bev\u00f6lkerungsschutz", "ref:kgs": "641", "religion": "christian", "source": "Orthofotos und Parzellenplan Bern", "tourism": "attraction", "website": "http://www.paroisse.gkgbe.ch", "wheelchair": "yes", "wikidata": "Q1450580", "wikipedia": "de:Franz\u00f6sische Kirche (Bern)"}}, "geometry": {"type": "Point", "coordinates": [7.4464806, 46.9489963]}}, {"type": "Feature", "properties": {"type": "way", "id": 45830701, "tags": {"addr:city": "Bern", "addr:country": "CH", "addr:housenumber": "14", "addr:postcode": "3013", "addr:street": "Sonnenbergstrasse", "building": "yes", "heritage": "2", "heritage:operator": "babs", "image": "https://upload.wikimedia.org/wikipedia/commons/thumb/1/17/Bern_Viktoria_Krankenhaus.jpg/800px-Bern_Viktoria_Krankenhaus.jpg", "name": "Viktoriaspital", "note": "KGS-Nr: Nummer des Kulturgutes, zu finden in den KGS-Listen des Bundes und der Kantone. BABS: Bundesamt f\u00fcr Bev\u00f6lkerungsschutz", "ref:kgs": "737", "source": "Orthofotos Bern", "wikimedia_commons": "Category:Viktoriaspital (Bern)"}}, "geometry": {"type": "Point", "coordinates": [7.4500417, 46.9526197]}}, {"type": "Feature", "properties": {"type": "way", "id": 223634973, "tags": {"alt_name": "Fischerhaus", "building": "yes", "contact:addr": "Amthausgasse 5, 3011 Bern", "heritage": "2", "heritage:operator": "babs", "image": "https://upload.wikimedia.org/wikipedia/commons/thumb/b/b4/Burgerhaus_Garten_hoch.jpg/450px-Burgerhaus_Garten_hoch.jpg", "name": "Burgerhaus", "note": "KGS-Nr: Nummer des Kulturgutes, zu finden in den KGS-Listen des Bundes und der Kantone. BABS: Bundesamt f\u00fcr Bev\u00f6lkerungsschutz - Bauinventar: http://bauinventar.bern.ch/pdfs/amthausgasse_5.pdf", "old_name": "Marcuardhaus", "ref:kgs": "616", "source": "Orthofotos Bern", "wikidata": "Q19362472", "wikimedia_commons": "Category:Burgerhaus, Bern"}}, "geometry": {"type": "Point", "coordinates": [7.4464488, 46.9471703]}}, {"type": "Feature", "properties": {"type": "way", "id": 254154237, "tags": {"addr:full": "Bim Zytglogge 1, 3011 Bern", "building": "yes", "heritage": "2", "heritage:operator": "babs", "image": "https://upload.wikimedia.org/wikipedia/commons/thumb/9/9c/Bern_Bim_Zytglogge1.jpg/450px-Bern_Bim_Zytglogge1.jpg", "name": "Haus", "note": "KGS-Nr: Nummer des Kulturgutes, zu finden in den KGS-Listen des Bundes und der Kantone. BABS: Bundesamt f\u00fcr Bev\u00f6lkerungsschutz", "ref:kgs": "696", "source": "Orthofotos Bern"}}, "geometry": {"type": "Point", "coordinates": [7.4478845, 46.947869]}}, {"type": "Feature", "properties": {"type": "way", "id": 307000817, "tags": {"addr:city": "Bern", "addr:country": "CH", "addr:housenumber": "12", "addr:postcode": "3011", "addr:street": "M\u00fcnsterplatz", "building": "office", "heritage": "2", "heritage:operator": "babs", "image": "https://upload.wikimedia.org/wikipedia/commons/thumb/3/33/Bern_Muensterplatz_12_Tschanernerhaus.jpg/800px-Bern_Muensterplatz_12_Tschanernerhaus.jpg", "name": "Tscharnerhaus", "note": "KGS-Nr: Nummer des Kulturgutes, zu finden in den KGS-Listen des Bundes und der Kantone. BABS: Bundesamt f\u00fcr Bev\u00f6lkerungsschutz", "ref:kgs": "657", "source": "Orthofotos Bern", "wikimedia_commons": "Category:Tscharnerhaus, M\u00fcnsterplatz 12"}}, "geometry": {"type": "Point", "coordinates": [7.4504857, 46.9472485]}}, {"type": "Feature", "properties": {"type": "way", "id": 329760970, "tags": {"alt_name": "Ehemaliges Rathaus zum \u00c4usseren Stand", "building": "yes", "contact:addr": "Zeughausgasse 17, 3011 Bern", "heritage": "2", "heritage:operator": "babs", "image": "https://upload.wikimedia.org/wikipedia/commons/thumb/4/4b/Bern_Rathaus_zum_aeusseren_Stand_2013.jpg/800px-Bern_Rathaus_zum_aeusseren_Stand_2013.jpg", "name": "Rathaus zum \u00c4usseren Stand", "note": "KGS-Nr: Nummer des Kulturgutes, zu finden in den KGS-Listen des Bundes und der Kantone. BABS: Bundesamt f\u00fcr Bev\u00f6lkerungsschutz", "ref:kgs": "683", "source": "Orthofotos Bern and survey", "wikidata": "Q2132645", "wikimedia_commons": "Category:Rathaus zum \u00e4usseren Stand", "wikipedia": "de:Rathaus zum \u00c4usseren Stand"}}, "geometry": {"type": "Point", "coordinates": [7.4458905, 46.9486605]}}, {"type": "Feature", "properties": {"type": "way", "id": 330835271, "tags": {"addr:city": "Bern", "addr:country": "CH", "addr:housenumber": "61", "addr:postcode": "3011", "addr:street": "Kramgasse", "building": "yes", "heritage": "2", "heritage:operator": "babs", "image": "https://upload.wikimedia.org/wikipedia/commons/thumb/9/9e/Bern_Kirchbergerhaus-2.jpg/399px-Bern_Kirchbergerhaus-2.jpg", "name": "Kirchberger-Haus", "note": "KGS-Nr: Nummer des Kulturgutes, zu finden in den KGS-Listen des Bundes und der Kantone. BABS: Bundesamt f\u00fcr Bev\u00f6lkerungsschutz", "ref:kgs": "9118", "source": "Orthofotos Bern", "wikidata": "Q19362500"}}, "geometry": {"type": "Point", "coordinates": [7.4493483, 46.9477647]}}, {"type": "Feature", "properties": {"type": "way", "id": 368816160, "tags": {"bridge:structure": "arch", "heritage": "2", "heritage:operator": "babs", "image": "https://upload.wikimedia.org/wikipedia/commons/thumb/2/2b/Altenbergsteg.jpg/800px-Altenbergsteg.jpg", "layer": "1", "man_made": "bridge", "name": "Altenbergsteg", "note": "KGS-Nr: Nummer des Kulturgutes, zu finden in den KGS-Listen des Bundes und der Kantone. BABS: Bundesamt f\u00fcr Bev\u00f6lkerungsschutz", "ref:kgs": "666", "start_date": "1857", "wikidata": "Q436771", "wikimedia_commons": "Category:Altenbergsteg", "wikipedia": "de:Altenbergsteg"}}, "geometry": {"type": "Point", "coordinates": [7.4485402, 46.9502031]}}, {"type": "Feature", "properties": {"type": "way", "id": 368816167, "tags": {"heritage": "2", "heritage:operator": "babs", "image": "http://upload.wikimedia.org/wikipedia/commons/thumb/d/d0/Bern_Kornhausbr%C3%BCcke_DSC05932.jpg/800px-Bern_Kornhausbr%C3%BCcke_DSC05932.jpg", "layer": "1", "man_made": "bridge", "name": "Kornhausbr\u00fccke", "name:de": "Kornhausbr\u00fccke", "name:fr": "Pont du Kornhaus", "name:ko": "\ucf54\ub978\ud558\uc6b0\uc2a4\ube0c\ub93c\ud06c", "name:nl": "Korenhuisbrug", "note": "KGS-Nr: Nummer des Kulturgutes, zu finden in den KGS-Listen des Bundes und der Kantone. BABS: Bundesamt f\u00fcr Bev\u00f6lkerungsschutz", "ref:kgs": "702", "wikidata": "Q1784559", "wikimedia_commons": "Category:Kornhausbr\u00fccke (Bern)", "wikipedia": "de:Kornhausbr\u00fccke (Bern)"}}, "geometry": {"type": "Point", "coordinates": [7.4486606, 46.9509755]}}, {"type": "Feature", "properties": {"type": "way", "id": 38906499, "tags": {"addr:city": "Bern", "addr:country": "CH", "addr:housenumber": "81", "addr:postcode": "3011", "addr:street": "Kramgasse", "building": "yes", "heritage": "2", "heritage:operator": "babs", "image": "https://upload.wikimedia.org/wikipedia/commons/thumb/0/09/Gerechtigkeitsgasse_81_Gesamtansicht.JPG/398px-Gerechtigkeitsgasse_81_Gesamtansicht.JPG", "name": "Sinner-Haus", "note": "KGS-Nr: Nummer des Kulturgutes, zu finden in den KGS-Listen des Bundes und der Kantone. BABS: Bundesamt f\u00fcr Bev\u00f6lkerungsschutz", "ref:kgs": "11785", "source": "Orthofotos Bern", "wikidata": "Q19362489", "wikimedia_commons": "Category:Gerechtigkeitsgasse 81 (Bern)"}}, "geometry": {"type": "Point", "coordinates": [7.4524725, 46.9478395]}}, {"type": "Feature", "properties": {"type": "way", "id": 39022103, "tags": {"addr:city": "Bern", "addr:country": "CH", "addr:housenumber": "6", "addr:postcode": "3011", "addr:street": "M\u00fcnstergasse", "building": "yes", "heritage": "2", "heritage:operator": "babs", "image": "https://upload.wikimedia.org/wikipedia/commons/thumb/e/e2/Bern_Muenstergasse_6.jpg/398px-Bern_Muenstergasse_6.jpg", "name": "Unteres May-Haus", "note": "KGS-Nr: Nummer des Kulturgutes, zu finden in den KGS-Listen des Bundes und der Kantone. BABS: Bundesamt f\u00fcr Bev\u00f6lkerungsschutz", "ref:kgs": "734", "source": "Orthofotos Bern", "wikimedia_commons": "Category:Unteres Mayhaus (Bern)"}}, "geometry": {"type": "Point", "coordinates": [7.4518829, 46.9476197]}}, {"type": "Feature", "properties": {"type": "way", "id": 255841896, "tags": {"addr:city": "Bern", "addr:country": "CH", "addr:housenumber": "2", "addr:postcode": "3011", "addr:street": "M\u00fcnstergasse", "building": "office", "heritage": "2", "heritage:operator": "babs", "image": "https://upload.wikimedia.org/wikipedia/commons/thumb/b/b3/Diesbachhaus.jpg/432px-Diesbachhaus.jpg", "name": "Diesbachhaus", "note": "KGS-Nr: Nummer des Kulturgutes, zu finden in den KGS-Listen des Bundes und der Kantone. BABS: Bundesamt f\u00fcr Bev\u00f6lkerungsschutz", "ref:kgs": "681", "source": "Orthofotos Bern", "wikimedia_commons": "Category:Diesbachhaus (Bern)"}}, "geometry": {"type": "Point", "coordinates": [7.4521714, 46.9476495]}}, {"type": "Feature", "properties": {"type": "way", "id": 295875615, "tags": {"building": "yes", "contact:addr": "Kramgasse 5, 3011 Bern", "contact:email": "info@affen.ch", "contact:phone": "+41 31 3110639", "heritage": "2", "heritage:operator": "babs", "image": "https://upload.wikimedia.org/wikipedia/commons/thumb/5/58/Kramgasse.jpg/450px-Kramgasse.jpg", "name": "Zunfthaus Affen", "note": "KGS-Nr: Nummer des Kulturgutes, zu finden in den KGS-Listen des Bundes und der Kantone. BABS: Bundesamt f\u00fcr Bev\u00f6lkerungsschutz", "ref:kgs": "9109", "source": "Orthofotos Bern", "website": "https://www.affen.ch/", "wikidata": "Q229898", "wikipedia": "de:Zunftgesellschaft zum Affen"}}, "geometry": {"type": "Point", "coordinates": [7.4519986, 46.9477993]}}, {"type": "Feature", "properties": {"type": "way", "id": 305206259, "tags": {"addr:city": "Bern", "addr:country": "CH", "addr:housename": "Zunfthaus zu Pfistern", "addr:housenumber": "9", "addr:postcode": "3011", "addr:street": "Kramgasse", "building": "yes", "contact:phone": "+41 31 3120008", "heritage": "2", "heritage:operator": "babs", "image": "https://upload.wikimedia.org/wikipedia/commons/thumb/9/9a/Bern_Zunfthaus_zu_Pfistern_2.jpg/450px-Bern_Zunfthaus_zu_Pfistern_2.jpg", "name": "Zunfthaus Pfistern", "note": "KGS-Nr: Nummer des Kulturgutes, zu finden in den KGS-Listen des Bundes und der Kantone. BABS: Bundesamt f\u00fcr Bev\u00f6lkerungsschutz", "ref:kgs": "11620", "source": "Orthofotos Bern", "website": "https://www.pfistern.ch/", "wikidata": "Q1518622", "wikimedia_commons": "Category:Gesellschaftshaus zu Pfistern", "wikipedia": "de:Gesellschaft zu Pfistern"}}, "geometry": {"type": "Point", "coordinates": [7.4517629, 46.9477196]}}, {"type": "Feature", "properties": {"type": "way", "id": 231253647, "tags": {"addr:city": "Bern", "addr:country": "CH", "addr:housename": "Felsenburg", "addr:housenumber": "4", "addr:postcode": "3013", "addr:street": "Kl\u00f6sterlistutz", "alt_name": "Felsenburg", "building": "tower", "description": "Die Felsenburg, Kl\u00f6sterlistutz 4 ist Teil des Ensembles \"Untertorbr\u00fccke und Felsenburg", "heritage": "2", "heritage:operator": "babs", "historic": "yes", "image": "https://upload.wikimedia.org/wikipedia/commons/thumb/3/3f/Bern_Felsenburg_DSC05960_ShiftN.jpg/371px-Bern_Felsenburg_DSC05960_ShiftN.jpg", "man_made": "tower", "name": "Untertorturm", "note": "de:Teil von Ensemble Untertorbr\u00fccke und Felsenburg ref:kgs", "ref:kgs": "659", "source": "Orthofotos Bern", "tower:type": "defensive", "wikidata": "Q2499186", "wikimedia_commons": "Category:Felsenburg (Bern)", "wikipedia": "de:Untertorturm"}}, "geometry": {"type": "Point", "coordinates": [7.4590284, 46.949373]}}, {"type": "Feature", "properties": {"type": "way", "id": 253511965, "tags": {"addr:city": "Bern", "addr:country": "CH", "addr:postcode": "3011", "addr:street": "Untertorbr\u00fccke", "description": "Die Untertorbr\u00fccke ist Teil des Ensembles \"Untertorbr\u00fccke und Felsenburg", "heritage": "2", "heritage:operator": "babs", "image": "https://upload.wikimedia.org/wikipedia/commons/thumb/d/df/Untertorbr%C3%BCcke_DSC04483.jpg/800px-Untertorbr%C3%BCcke_DSC04483.jpg", "layer": "2", "man_made": "bridge", "name": "Untertorbr\u00fccke", "name:ko": "\uc6b4\ud14c\ub974\ud1a0\ub974 \ub2e4\ub9ac", "note": "de:Teil von Ensemble Untertorbr\u00fccke und Felsenburg ref:kgs", "ref:kgs": "659", "wikidata": "Q665373", "wikimedia_commons": "Category:Untertorbr\u00fccke", "wikipedia": "de:Untertorbr\u00fccke"}}, "geometry": {"type": "Point", "coordinates": [7.4584624, 46.9493683]}}, {"type": "Feature", "properties": {"type": "way", "id": 523340227, "tags": {"contact:addr": "Grosser Muristalden 4, 3006 Bern", "contact:phone": "+41 31 3571515", "fee": "no", "heritage": "2", "heritage:operator": "babs", "historic": "bear_pit", "image": "https://upload.wikimedia.org/wikipedia/commons/thumb/f/fc/B%C3%A4rengraben_Bern.JPG/800px-B%C3%A4rengraben_Bern.JPG", "name": "B\u00e4rengraben", "name:de": "B\u00e4rengraben", "name:en": "Bear pit", "name:fr": "Fosse aux ours", "name:gsw": "B\u00e4regrabe", "name:it": "Fossa degli orsi", "name:ko": "\ube44\uc5b4\ub80c\uadf8\ub77c\ube10(\ubca0\uc5b4 \ud53c\ud2b8)", "note": "KGS-Nr: Nummer des Kulturgutes, zu finden in den KGS-Listen des Bundes und der Kantone. BABS: Bundesamt f\u00fcr Bev\u00f6lkerungsschutz", "opening_hours": "24/7", "operator": "Tierpark Bern, D\u00e4hlh\u00f6lzli + B\u00e4renPark", "ref:kgs": "612", "tourism": "attraction", "website": "https://www.tierpark-bern.ch/index-de.php?frameset=270", "wheelchair": "limited", "wikidata": "Q666040", "wikimedia_commons": "Category:B\u00e4rengraben", "wikipedia": "en:B\u00e4rengraben"}}, "geometry": {"type": "Point", "coordinates": [7.4596446, 46.9479917]}}, {"type": "Feature", "properties": {"type": "way", "id": 883761482, "tags": {"castle_type": "stately", "contact:addr": "Melchenb\u00fchlweg 137, 137a & 137b, 3006 Bern", "heritage": "2", "heritage:operator": "babs", "historic": "castle", "historic:civilization": "medieval", "image": "https://upload.wikimedia.org/wikipedia/commons/thumb/b/b9/Schloss_Wittigkofen3.jpg/800px-Schloss_Wittigkofen3.jpg", "name": "Schloss Wittigkofen", "note": "KGS-Nr: Nummer des Kulturgutes, zu finden in den KGS-Listen des Bundes + der Kantone. BABS: Bundesamt f\u00fcr Bev\u00f6lkerungsschutz - https://bauinventar.bern.ch/gruppen/schloss-wittigkofen.pdf + https://bauinventar.bern.ch/pdfs/melchenbuehlweg_137_137a_137b.pdf", "ref:kgs": "647", "wikidata": "Q1355887", "wikimedia_commons": "Category:Schloss Wittigkofen", "wikipedia": "de:Schloss Wittigkofen"}}, "geometry": {"type": "Point", "coordinates": [7.4817402, 46.9425688]}}, {"type": "Feature", "properties": {"type": "way", "id": 248205594, "tags": {"addr:city": "Bern", "addr:country": "CH", "addr:housenumber": "3", "addr:postcode": "3006", "addr:street": "Monument im Fruchtland", "building": "yes", "heritage": "2", "heritage:operator": "babs", "image": "https://upload.wikimedia.org/wikipedia/commons/thumb/1/15/Paul-klee-zentrum-ansicht-zoom.jpg/800px-Paul-klee-zentrum-ansicht-zoom.jpg", "name": "Zentrum Paul Klee", "name:ko": "\ud30c\uc6b8 \ud074\ub808 \uc13c\ud130", "note": "KGS-Nr: Nummer des Kulturgutes, zu finden in den KGS-Listen des Bundes und der Kantone. BABS: Bundesamt f\u00fcr Bev\u00f6lkerungsschutz", "ref:kgs": "8561", "start_date": "2005", "wikidata": "Q191189", "wikimedia_commons": "Category:Zentrum Paul Klee", "wikipedia": "de:Zentrum Paul Klee"}}, "geometry": {"type": "Point", "coordinates": [7.4742912, 46.9490286]}}, {"type": "Feature", "properties": {"type": "way", "id": 74014310, "tags": {"addr:city": "Bern", "addr:country": "CH", "addr:postcode": "3004", "addr:street": "Reichenbachstrasse", "heritage": "2", "heritage:operator": "babs", "historic": "archaeological_site", "image": "https://upload.wikimedia.org/wikipedia/commons/thumb/b/b2/Engehalbinsel_R%C3%B6mertheater_von_oben.jpg/800px-Engehalbinsel_R%C3%B6mertheater_von_oben.jpg", "name": "R\u00f6misches Amphitheater", "note": "KGS-Nr: Nummer des Kulturgutes, zu finden in den KGS-Listen des Bundes und der Kantone. BABS: Bundesamt f\u00fcr Bev\u00f6lkerungsschutz", "ref:kgs": "620", "wheelchair": "limited", "wikidata": "Q1341754", "wikimedia_commons": "Category:Engehalbinsel", "wikipedia": "de:Engehalbinsel"}}, "geometry": {"type": "Point", "coordinates": [7.4510643, 46.975753]}}, {"type": "Feature", "properties": {"type": "way", "id": 559490976, "tags": {"addr:city": "Oey", "addr:country": "CH", "addr:housenumber": "10", "addr:postcode": "3753", "addr:street": "Selbezen", "building": "residential", "ele": "798", "heritage": "2", "heritage:operator": "babs", "note": "KGS-Nr: Nummer des Kulturgutes, zu finden in den KGS-Listen des Bundes und der Kantone. BABS: Bundesamt f\u00fcr Bev\u00f6lkerungsschutz", "ref:kgs": "869", "wikidata": "Q19362570"}}, "geometry": {"type": "Point", "coordinates": [7.5851188, 46.6534723]}}, {"type": "Feature", "properties": {"type": "way", "id": 259376130, "tags": {"addr:city": "Amsoldingen", "addr:country": "CH", "addr:full": "Chorherrengasse 4, 3633 Amsoldingen", "addr:housenumber": "4", "addr:postcode": "3633", "addr:street": "Chorherrengasse", "amenity": "place_of_worship", "building": "church", "denomination": "protestant", "description:de": "Kirche und Schloss bilden ein Ensemble unter der gleichen KGS-Nr. 594", "heritage": "2", "heritage:operator": "babs", "image": "https://upload.wikimedia.org/wikipedia/commons/thumb/b/bd/Amsoldingen-Kirche.jpg/393px-Amsoldingen-Kirche.jpg", "name": "Kirche Amsoldingen", "note": "KGS-Nr: Nummer des Kulturgutes, zu finden in den KGS-Listen des Bundes und der Kantone. BABS: Bundesamt f\u00fcr Bev\u00f6lkerungsschutz", "ref:kgs": "594", "religion": "christian", "wikidata": "Q1562523", "wikimedia_commons": "Category:Kirche Amsoldingen", "wikipedia": "de:Kirche Amsoldingen"}}, "geometry": {"type": "Point", "coordinates": [7.5789022, 46.7272066]}}, {"type": "Feature", "properties": {"type": "way", "id": 259376131, "tags": {"addr:city": "Amsoldingen", "addr:country": "CH", "addr:full": "Schloss 1, 3633 Amsoldingen", "addr:housenumber": "1", "addr:postcode": "3633", "addr:street": "Schloss", "building": "yes", "castle_type": "stately", "description:de": "Schloss und Kirche bilden ein Ensemble unter der gleichen KGS-Nr. 594", "heritage": "2", "heritage:operator": "babs", "historic": "castle", "image": "https://upload.wikimedia.org/wikipedia/commons/thumb/b/b5/SchlossAmsoldingen_6354.jpg/800px-SchlossAmsoldingen_6354.jpg", "name": "Schloss Amsoldingen", "note": "KGS-Nr: Nummer des Kulturgutes, zu finden in den KGS-Listen des Bundes und der Kantone. BABS: Bundesamt f\u00fcr Bev\u00f6lkerungsschutz", "ref:kgs": "594", "wikidata": "Q2240050", "wikimedia_commons": "Category:Schloss Amsoldingen", "wikipedia": "de:Schloss Amsoldingen"}}, "geometry": {"type": "Point", "coordinates": [7.5785313, 46.7271084]}}, {"type": "Feature", "properties": {"type": "way", "id": 208480496, "tags": {"building": "yes", "castle_type": "stately", "contact:addr": "Schloss-Strasse 50, 3672 Oberdiessbach", "contact:email": "info@schloss-oberdiessbach.ch", "contact:phone": "+41 31 7710928", "ele": "631", "heritage": "2", "heritage:operator": "babs", "historic": "castle", "name": "Neues Schloss Oberdiessbach", "note": "KGS-Nr: Nummer des Kulturgutes, zu finden in den KGS-Listen des Bundes und der Kantone.", "ref:kgs": "9502", "source": "bing, Geb\u00e4udeadressen des Kantons Bern \u00a9 Amt f\u00fcr Geoinformation des Kantons Bern", "source:addr": "Geb\u00e4udeadressen des Kantons Bern \u00a9 Amt f\u00fcr Geoinformation des Kantons Bern", "website": "http://schloss-oberdiessbach.ch", "wikidata": "Q1980415", "wikipedia": "de:Neues Schloss Oberdiessbach"}}, "geometry": {"type": "Point", "coordinates": [7.6260755, 46.8389278]}}, {"type": "Feature", "properties": {"type": "way", "id": 167369171, "tags": {"addr:city": "Wangen an der Aare", "addr:country": "CH", "addr:housenumber": "26", "addr:postcode": "3380", "addr:street": "St\u00e4dtli", "building": "yes", "castle_type": "stately", "heritage": "2", "heritage:operator": "babs", "historic": "castle", "historic:civilization": "medieval", "image": "https://upload.wikimedia.org/wikipedia/commons/thumb/5/5c/Wangen-an-der-Aare-Schloss.jpg/400px-Wangen-an-der-Aare-Schloss.jpg", "name": "Schloss Wangen an der Aare", "note": "KGS-Nr: Nummer des Kulturgutes, zu finden in den KGS-Listen des Bundes und der Kantone. BABS: Bundesamt f\u00fcr Bev\u00f6lkerungsschutz", "ref:kgs": "1337", "roof:orientation": "along", "roof:shape": "gabled", "source": "survey", "wikidata": "Q2243970", "wikimedia_commons": "Category:Schloss Wangen an der Aare", "wikipedia": "de:Schloss Wangen an der Aare"}}, "geometry": {"type": "Point", "coordinates": [7.6546863, 47.2361455]}}, {"type": "Feature", "properties": {"type": "way", "id": 842435665, "tags": {"boundary": "protected_area", "heritage": "2", "heritage:operator": "ISOS - Bundesinventar der sch\u00fctzenswerten Ortsbilder der Schweiz von nationaler Bedeutung ISOS (Bundesamt f\u00fcr Kultur)", "name": "Ortsbild \tCuraglia (Medel)", "protect_class": "22", "protection_title": "Ortsbild \tCuraglia (Medel)", "ref": "ISOS 2008", "website": "https://data.geo.admin.ch/ch.bak.bundesinventar-schuetzenswerte-ortsbilder/PDF/ISOS_2008.pdf"}}, "geometry": {"type": "Point", "coordinates": [8.858626, 46.6735716]}}, {"type": "Feature", "properties": {"type": "way", "id": 842428295, "tags": {"boundary": "protected_area", "heritage": "2", "heritage:operator": "ISOS - Bundesinventar der sch\u00fctzenswerten Ortsbilder der Schweiz von nationaler Bedeutung ISOS (Bundesamt f\u00fcr Kultur)", "name": "Bebauung Peisel", "protect_class": "22", "protection_title": "Geamtanlage", "ref": "GR14;2221", "website": "https://data.geo.admin.ch/ch.bak.bundesinventar-schuetzenswerte-ortsbilder/PDF/ISOS_2221.pdf"}}, "geometry": {"type": "Point", "coordinates": [8.8272346, 46.6969282]}}, {"type": "Feature", "properties": {"type": "way", "id": 842428296, "tags": {"boundary": "protected_area", "heritage": "2", "heritage:operator": "ISOS - Bundesinventar der sch\u00fctzenswerten Ortsbilder der Schweiz von nationaler Bedeutung ISOS (Bundesamt f\u00fcr Kultur)", "name": "Ortsbild Segnes", "protect_class": "22", "protection_title": "Ortsbild Segnes", "ref": "GR14;2221", "website": "https://data.geo.admin.ch/ch.bak.bundesinventar-schuetzenswerte-ortsbilder/PDF/ISOS_2221.pdf"}}, "geometry": {"type": "Point", "coordinates": [8.8285099, 46.6948643]}}, {"type": "Feature", "properties": {"type": "way", "id": 89060423, "tags": {"alt_name": "Neuer Botanischer Garten", "fee": "no", "garden:type": "botanical", "heritage": "2", "leisure": "garden", "name": "Botanischer Garten der Universit\u00e4t Z\u00fcrich", "name:de": "Botanischer Garten der Universit\u00e4t Z\u00fcrich", "name:es": "Jard\u00edn Bot\u00e1nico de Z\u00farich", "old_name": "Sch\u00f6naupark", "opening_hours": "Mo-Fr 08:00-18:00; Sa-Su 08:00-17:00; Mar-Sep: Mo-Fr 07:00-19:00; Mar-Sep: Sa-Su 08:00-18:00", "ref:kgs": "8578", "start_date": "1977", "website": "http://www.bg.uzh.ch/", "wikidata": "Q686324", "wikipedia": "de:Botanischer Garten Z\u00fcrich"}}, "geometry": {"type": "Point", "coordinates": [8.560806, 47.3584207]}}, {"type": "Feature", "properties": {"type": "way", "id": 318866103, "tags": {"architect": "Evariste Mertens", "description": "Gartendenkmal im Besitz der Stadt Z\u00fcrich, der Stiftung Patumbah, und Privat (Nordteil, seit 2013 \u00f6ffentlich zug\u00e4nglich); Unterhalt durch Gr\u00fcn Stadt Z\u00fcrich, Gartendenkmalpflege", "heritage": "2", "leisure": "park", "name": "Patumbah-Park", "opening_hours": "Apr 1-Sep 30: 06:00-22:00; Oct 1-Mar 31: 06:00-18:45", "operator": "Gr\u00fcn Stadt Z\u00fcrich", "ref:kgs": "8015", "start_date": "1885..1891"}}, "geometry": {"type": "Point", "coordinates": [8.5591704, 47.3570078]}}, {"type": "Feature", "properties": {"type": "way", "id": 89060416, "tags": {"addr:city": "Z\u00fcrich", "addr:country": "CH", "addr:housenumber": "130", "addr:postcode": "8008", "addr:street": "Zollikerstrasse", "building": "yes", "heritage": "2", "historic": "building", "owner": "Stiftung Patumbah", "ref:kgs": "8015", "source": "Stadt Z\u00fcrich Open Government Data; Geomatik + Vermessung; Tiefbau- und Entsorgungsdepartement"}}, "geometry": {"type": "Point", "coordinates": [8.5600154, 47.3567193]}}, {"type": "Feature", "properties": {"type": "way", "id": 89060417, "tags": {"addr:city": "Z\u00fcrich", "addr:country": "CH", "addr:housenumber": "128", "addr:postcode": "8008", "addr:street": "Zollikerstrasse", "building": "house", "building:use": "public", "heritage": "2", "historic": "building", "name": "Villa Patumbah", "owner": "Stiftung Patumbah", "ref:kgs": "8015", "source": "Stadt Z\u00fcrich Open Government Data;Geomatik + Vermessung;Tiefbau- und Entsorgungsdepartement", "start_date": "1883..1885", "wikidata": "Q1588172", "wikipedia": "de:Villa Patumbah"}}, "geometry": {"type": "Point", "coordinates": [8.5596684, 47.3569081]}}, {"type": "Feature", "properties": {"type": "way", "id": 97972044, "tags": {"addr:city": "Z\u00fcrich", "addr:country": "CH", "addr:housenumber": "169", "addr:postcode": "8008", "addr:street": "M\u00fchlebachstrasse", "building": "yes", "heritage": "2", "ref:kgs": "8015"}}, "geometry": {"type": "Point", "coordinates": [8.5595079, 47.3564518]}}, {"type": "Feature", "properties": {"type": "way", "id": 563070410, "tags": {"addr:city": "Z\u00fcrich", "addr:country": "CH", "addr:housenumber": "128a", "addr:postcode": "8008", "addr:street": "Zollikerstrasse", "building": "yes", "heritage": "2", "historic": "building", "owner": "Stiftung Patumbah", "ref:kgs": "8015", "source": "Stadt Z\u00fcrich Open Government Data; Geomatik + Vermessung; Tiefbau- und Entsorgungsdepartement"}}, "geometry": {"type": "Point", "coordinates": [8.5598188, 47.3568049]}}, {"type": "Feature", "properties": {"type": "way", "id": 28660060, "tags": {"addr:city": "Z\u00fcrich", "addr:housenumber": "15", "addr:postcode": "8002", "addr:street": "B\u00fcrglistrasse", "amenity": "place_of_worship", "building": "church", "denomination": "protestant", "heritage": "2", "heritage:operator": "babs", "name": "Kirche Enge", "ref:kgs": "7987", "religion": "christian", "wikidata": "Q1742531", "wikipedia": "de:Kirche Enge"}}, "geometry": {"type": "Point", "coordinates": [8.5297261, 47.3625477]}}, {"type": "Feature", "properties": {"type": "way", "id": 89967877, "tags": {"addr:city": "Z\u00fcrich", "addr:country": "CH", "addr:housenumber": "2", "addr:postcode": "8001", "addr:street": "M\u00fcnsterhof", "amenity": "place_of_worship", "building": "church", "denomination": "protestant", "fee": "yes", "height": "80", "heritage": "2", "heritage:operator": "babs", "image": "https://commons.wikimedia.org/wiki/Category:Fraum%C3%BCnster", "name": "Fraum\u00fcnster", "name:ko": "\ud504\ub77c\uc6b0\ubb8c\uc2a4\ud130", "name:ru": "\u0424\u0440\u0430\u0443\u043c\u044e\u043d\u0441\u0442\u0435\u0440", "name:zh": "\u82cf\u9ece\u4e16\u5723\u6bcd\u5927\u6559\u5802", "note": "KGS-Nr: Nummer des Kulturgutes, zu finden in den KGS-Listen des Bundes und der Kantone. BABS: Bundesamt f\u00fcr Bev\u00f6lkerungsschutz", "ref:kgs": "7863", "religion": "christian", "wheelchair": "limited", "wikidata": "Q690944", "wikipedia": "de:Fraum\u00fcnster"}}, "geometry": {"type": "Point", "coordinates": [8.5412015, 47.3697146]}}, {"type": "Feature", "properties": {"type": "way", "id": 147692714, "tags": {"bridge": "yes", "heritage": "2", "heritage:operator": "babs", "highway": "residential", "image": "https://commons.wikimedia.org/wiki/File:Grossm%C3%BCnster_-_Helmhaus-Wasserkirche_-_M%C3%BCnsterbr%C3%BCcke_-_W%C3%BChre_2011-08-02_14-57-06_ShiftN.jpg", "layer": "1", "lcn": "yes", "lit": "yes", "maxspeed": "30", "name": "M\u00fcnsterbr\u00fccke", "note": "KGS-Nr: Nummer des Kulturgutes, zu finden in den KGS-Listen des Bundes und der Kantone. BABS: Bundesamt f\u00fcr Bev\u00f6lkerungsschutz", "ref:kgs": "7972", "surface": "sett", "wikidata": "Q18716357", "wikimedia_commons": "Category:M\u00fcnsterbr\u00fccke_Z\u00fcrich", "wikipedia": "de:M\u00fcnsterbr\u00fccke (Z\u00fcrich)"}}, "geometry": {"type": "Point", "coordinates": [8.5425272, 47.3699448]}}, {"type": "Feature", "properties": {"type": "way", "id": 36915742, "tags": {"addr:city": "Z\u00fcrich", "addr:country": "CH", "addr:housenumber": "10", "addr:postcode": "8008", "addr:street": "Neum\u00fcnsterstrasse", "amenity": "place_of_worship", "building": "church", "denomination": "protestant", "heritage": "2", "name": "Kirche Neum\u00fcnster", "ref:kgs": "7865", "religion": "christian", "source": "Stadt Z\u00fcrich Open Government Data; Geomatik + Vermessung; Tiefbau- und Entsorgungsdepartement", "wikidata": "Q1980945"}}, "geometry": {"type": "Point", "coordinates": [8.5584532, 47.3604163]}}, {"type": "Feature", "properties": {"type": "way", "id": 61588257, "tags": {"addr:city": "Z\u00fcrich", "addr:country": "CH", "addr:housenumber": "32", "addr:postcode": "8008", "addr:street": "Zollikerstrasse", "architect": "Alfred Friedrich Bluntschli", "building": "house", "heritage": "2", "name": "Villa Bleuler", "ref:kgs": "8011", "source": "Stadt Z\u00fcrich Open Government Data;Geomatik + Vermessung;Tiefbau- und Entsorgungsdepartement", "start_date": "1885..1888", "wikidata": "Q2256716"}}, "geometry": {"type": "Point", "coordinates": [8.5551922, 47.3622685]}}, {"type": "Feature", "properties": {"type": "way", "id": 338100075, "tags": {"architect": "Alfred Friedrich Bluntschli;Otto Froebel;Evariste Mertens", "description": "Gartendenkmal der Stadt Z\u00fcrich, seit 1971 unter Schutz, 1991-1993 restauriert; Unterhalt durch Gr\u00fcn Stadt Z\u00fcrich, Gartendenkmalpflege", "heritage": "2", "leisure": "park", "name": "Villa Bleuler", "opening_hours": "Apr-Sep Mo-Su,PH 05:00-22:00; Oct-Mar Mo-Su,PH 05:00-18:30", "operator": "Gr\u00fcn Stadt Z\u00fcrich", "ref:kgs": "8011", "start_date": "1886..1889"}}, "geometry": {"type": "Point", "coordinates": [8.5554325, 47.3619508]}}, {"type": "Feature", "properties": {"type": "way", "id": 22986000, "tags": {"bridge": "viaduct", "bridge:name": "Landwasserviadukt", "bridge:structure": "arch", "electrified": "contact_line", "frequency": "16.7", "gauge": "1000", "heritage": "1", "heritage:operator": "whc", "image": "https://commons.wikimedia.org/wiki/File:Landwasserviadukt_unten.jpg", "layer": "1", "maxspeed": "45", "name": "Landwasserviadukt", "name:be": "\u0412\u0456\u0430\u0434\u0443\u043a \u041b\u0430\u043d\u0434\u0432\u0430\u0441\u0441\u044d\u0440", "name:de": "Landwasserviadukt", "name:en": "Landwasser Viaduct", "name:rm": "Viaduct da la Landwasser", "name:ru": "\u0412\u0438\u0430\u0434\u0443\u043a \u041b\u0430\u043d\u0434\u0432\u0430\u0441\u0441\u0435\u0440", "operator": "RhB", "operator:wikidata": "Q177598", "railway": "narrow_gauge", "ref:whc": "10499", "start_date": "1903", "tracks": "1", "usage": "branch", "voltage": "11000", "whc:inscription_date": "2008-07-07", "wikidata": "Q113645", "wikimedia_commons": "Category:Landwasserviadukt", "wikipedia": "en:Landwasser Viaduct"}}, "geometry": {"type": "Point", "coordinates": [9.6758311, 46.6807967]}}, {"type": "Feature", "properties": {"type": "way", "id": 8081312, "tags": {"heritage": "1", "heritage:operator": "whc", "historic": "unesco_world_heritage", "name": "Stiftsbezirk", "ref:whc": "268", "whc:criteria": "2,4", "whc:inscription_date": "1983", "wikipedia": "de:F\u00fcrstabtei St. Gallen"}}, "geometry": {"type": "Point", "coordinates": [9.3777203, 47.4232975]}}, {"type": "Feature", "properties": {"type": "way", "id": 131605938, "tags": {"addr:city": "St.Gallen", "addr:country": "CH", "addr:housenumber": "4", "addr:postcode": "9000", "addr:street": "Klosterhof", "amenity": "place_of_worship", "building": "cathedral", "denomination": "roman_catholic", "height": "68", "heritage": "1", "heritage:operator": "whc", "historic": "unesco_world_heritage", "loc_name": "Dom", "name": "Stiftskirche", "name:de": "Stiftskirche", "name:en": "Cathedral", "ref:whc": "268", "religion": "christian", "source": "geodieste.ch", "toilets:wheelchair": "yes", "whc:criteria": "(ii)(iv)", "whc:inscription_date": "1983", "wheelchair": "yes", "wikidata": "Q144945", "wikipedia": "de:Stiftskirche St. Gallen"}}, "geometry": {"type": "Point", "coordinates": [9.3767352, 47.4231469]}}, {"type": "Feature", "properties": {"type": "relation", "id": 6356998, "tags": {"heritage": "1", "heritage:operator": "whc", "heritage:website": "http://whc.unesco.org/en/list/1363/", "historic": "archaeological_site", "image": "File:D-BW-Uhldingen-M\u00fchlhofen_-_Pfahlbaumuseum_-_Haus_Schussenried.jpg", "name": "Pr\u00e4historische Pfahlbauten um die Alpen", "name:de": "Pr\u00e4historische Pfahlbauten um die Alpen", "name:en": "Prehistoric Pile dwellings around the Alps", "name:fr": "Sites palafittiques pr\u00e9historiques autour des Alpes", "name:it": "Siti palafitticoli preistorici attorno alle Alpi", "name:sl": "Prazgodovinska koli\u0161\u010da okoli Alp", "ref:whc": "1363", "site_type": "settlement", "type": "collection", "wikidata": "Q4580", "wikipedia": "de:Pr\u00e4historische Pfahlbauten um die Alpen"}}, "geometry": {"type": "Point", "coordinates": [8.9073898, 47.460139]}}, {"type": "Feature", "properties": {"type": "relation", "id": 89842, "tags": {"heritage": "1", "heritage:operator": "whc", "historic": "railway", "image": "https://commons.wikimedia.org/wiki/File:RhB_ABe_4-4_III_Kreisviadukt_Brusio.jpg", "name": "Berninabahn", "network": "RhB", "operator": "RhB", "public_transport:version": "1", "ref": "R 5", "route": "train", "type": "route", "whc:inscription_date": "2008-07-07", "wikidata": "Q277177", "wikimedia_commons": "Category:Bernina_railway", "wikipedia": "de:Berninabahn"}}, "geometry": {"type": "Point", "coordinates": [10.0059797, 46.3637425]}}, {"type": "Feature", "properties": {"type": "relation", "id": 1756886, "tags": {"from": "Thusis", "heritage": "1", "heritage:operator": "whc", "image": "https://commons.wikimedia.org/wiki/File:Mh_rhb_706_auf_landwasserviadukt.jpeg", "name": "Albulabahn", "operator": "RhB", "route": "railway", "to": "St. Moritz", "type": "route", "whc:inscription_date": "2008-07-07", "wikidata": "Q680834", "wikimedia_commons": "Category:Albula line", "wikipedia": "de:Albulabahn"}}, "geometry": {"type": "Point", "coordinates": [9.6647606, 46.6260341]}}, {"type": "Feature", "properties": {"type": "relation", "id": 5192625, "tags": {"contact:addr": "Baltzerstrasse 1-5, 3012 Bern", "heritage": "2", "heritage:operator": "babs", "image": "https://upload.wikimedia.org/wikipedia/commons/thumb/0/0a/Baltzerstrasse_5_Bern_Sep_2011.jpg/800px-Baltzerstrasse_5_Bern_Sep_2011.jpg", "name": "Universit\u00e4t Bern, Institute", "note": "KGS-Nr: Nummer des Kulturgutes, zu finden in den KGS-Listen des Bundes und der Kantone. BABS: Bundesamt f\u00fcr Bev\u00f6lkerungsschutz", "ref:kgs": "658", "source": "survey", "type": "site", "wikidata": "Q19362519", "wikimedia_commons": "Category:University of Bern, Institut"}}, "geometry": {"type": "Point", "coordinates": [7.4283383, 46.9515998]}}, {"type": "Feature", "properties": {"type": "relation", "id": 4656240, "tags": {"addr:city": "Bern", "addr:country": "CH", "addr:housenumber": "7-11", "addr:postcode": "3011", "addr:street": "Neubr\u00fcckstrasse 6, 8 / Sch\u00fctzenmattstrasse 7-11", "description": "Grosse Reithalle mit Nebengeb\u00e4uden - Stallgeb\u00e4ude, Stallmeister- und Bedienstetenhaus sowie Remisen - bilden zusammen ein Ensemble mit der selben KGS Nummer", "heritage": "2", "heritage:operator": "babs", "image": "https://upload.wikimedia.org/wikipedia/commons/thumb/1/1d/Reitschule_DSC04014.jpg/800px-Reitschule_DSC04014.jpg", "name": "Ehemalige St\u00e4dtische Reitschule", "note": "KGS-Nr: Nummer des Kulturgutes, zu finden in den KGS-Listen des Bundes und der Kantone. BABS: Bundesamt f\u00fcr Bev\u00f6lkerungsschutz", "ref:kgs": "9013", "type": "site", "wikidata": "Q693020", "wikimedia_commons": "Category:Kulturzentrum Reithalle", "wikipedia": "de:Kulturzentrum Reithalle"}}, "geometry": {"type": "Point", "coordinates": [7.4406152, 46.9529634]}}, {"type": "Feature", "properties": {"type": "relation", "id": 9252024, "tags": {"building": "office", "contact:addr": "Bundesplatz 1, 3011 Bern", "contact:email": "snb@snb.ch", "contact:fax": "+41 31 3270221", "contact:phone": "+41 31 3270211", "heritage": "2", "heritage:operator": "babs", "image": "https://upload.wikimedia.org/wikipedia/commons/thumb/8/8a/Schweizerische_Nationalbank_Bern.jpg/748px-Schweizerische_Nationalbank_Bern.jpg", "name": "Schweizerische Nationalbank", "name:de": "Schweizerische Nationalbank", "name:en": "Swiss National Bank", "name:fr": "Banque Nationale Suisse", "name:it": "Banca Nazionale Svizzera", "name:rm": "Banca Naziunala Svizra", "note": "KGS-Nr: Nummer des Kulturgutes, zu finden in den KGS-Listen des Bundes und der Kantone. BABS: Bundesamt f\u00fcr Bev\u00f6lkerungsschutz", "opening_hours": "Mo-Fr 08:00-12:00, 13:00-15:30", "operator": "Schweizerische Nationalbank (Spezialgesetzliche Aktiengesellschaft)", "ref:kgs": "715", "short_name": "SNB", "source": "Orthofotos Bern", "type": "multipolygon", "website": "https://www.snb.ch/", "wikidata": "Q597394", "wikimedia_commons": "Category:Schweizerische Nationalbank (Bern)", "wikipedia": "de:Schweizerische Nationalbank"}}, "geometry": {"type": "Point", "coordinates": [7.4450398, 46.9470838]}}, {"type": "Feature", "properties": {"type": "relation", "id": 9526772, "tags": {"addr:city": "Bern", "addr:country": "CH", "addr:housename": "Parlamentsgeb\u00e4ude", "addr:housenumber": "3", "addr:postcode": "3011", "addr:street": "Bundesplatz", "building": "public", "heritage": "2", "heritage:operator": "babs", "image": "https://upload.wikimedia.org/wikipedia/commons/thumb/4/45/Bundeshaus_Bern_2009%2C_Flooffy.jpg/800px-Bundeshaus_Bern_2009%2C_Flooffy.jpg", "layer": "2", "name": "Bundeshaus - Parlamentsgeb\u00e4ude", "name:de": "Bundeshaus - Parlamentsgeb\u00e4ude", "name:en": "Federal Palace - House of Parliament", "name:es": "Palacio federal - Edificio del parlamento", "name:fr": "Palais f\u00e9d\u00e9ral - Palais du parlement", "name:gsw": "Bundeshuus", "name:hr": "Federalna pala\u010da - Dom parlamenta", "name:it": "Palazzo federale - Palazzo del parlamento", "note": "KGS-Nr: Nummer des Kulturgutes, zu finden in den KGS-Listen des Bundes und der Kantone. BABS: Bundesamt f\u00fcr Bev\u00f6lkerungsschutz", "ref:kgs": "615", "type": "multipolygon", "website": "https://www.parlament.ch", "wikidata": "Q30911", "wikimedia_commons": "Category:Bundeshaus Bern", "wikipedia": "de:Bundeshaus (Bern)"}}, "geometry": {"type": "Point", "coordinates": [7.444216, 46.946498]}}, {"type": "Feature", "properties": {"type": "relation", "id": 3829027, "tags": {"alt_name": "Generationenhaus Burgergemeinde", "building": "yes", "contact:addr": "Bahnhofplatz 2, 3011 Bern", "contact:email": "info@begh.ch", "contact:facebook": "https://www.facebook.com/BernerGenerationenHaus", "contact:phone": "+41 31 3288700", "description": "Das Burgerspital, fr\u00fcher als Burgerspittel bekannt, heisst heute Berner GenerationenHaus.", "height": "12", "heritage": "2", "heritage:operator": "babs", "historic": "building", "image": "https://upload.wikimedia.org/wikipedia/commons/thumb/3/33/Burgerspital_Bubenbergplatz4_Bern.jpg/800px-Burgerspital_Bubenbergplatz4_Bern.jpg", "local_name": "Burgerspittel am Bahnhofplatz", "name": "Berner GenerationenHaus", "note": "KGS-Nr: Nummer des Kulturgutes, zu finden in den KGS-Listen des Bundes und der Kantone. BABS: Bundesamt f\u00fcr Bev\u00f6lkerungsschutz", "old_name": "Burgerspital", "ref:kgs": "617", "source": "Orthofotos Bern", "type": "multipolygon", "website": "https://www.begh.ch/", "wikidata": "Q1014903", "wikimedia_commons": "Category:Burgerspital (Bern)", "wikipedia": "de:Burgerspital"}}, "geometry": {"type": "Point", "coordinates": [7.4393073, 46.9479708]}}, {"type": "Feature", "properties": {"type": "relation", "id": 3908237, "tags": {"amenity": "fountain", "artist:wikidata": "Q679296", "artist_name": "Hans Gieng", "artwork_type": "statue", "brand": "ewb", "description:de": "Der Pfeiferbrunnen steht in der Mitte der Spitalgasse in der Berner Altstadt und geh\u00f6rt zu den Figurenbrunnen aus dem 16. Jahrhundert. Er steht unter Kulturg\u00fcterschutz;KGS-Nr. 640.", "drinking_water": "yes", "ele": "542", "heritage": "2", "heritage:operator": "babs", "image": "https://upload.wikimedia.org/wikipedia/commons/thumb/6/62/Pfeiferbrunnen_Spitalgasse_Bern.JPG/398px-Pfeiferbrunnen_Spitalgasse_Bern.JPG", "loc_name": "Pfyfferbrunnen", "loc_ref": "BRU 011 Pfyfferbrunnen", "location:description:de": "In der Gassenmitte vor dem Geb\u00e4ude Spitalgasse 28, 3011 Bern.", "name": "Pfeiferbrunnen", "note": "KGS-Nr: Nummer des Kulturgutes, zu finden in den KGS-Listen des Bundes und der Kantone. BABS: Bundesamt f\u00fcr Bev\u00f6lkerungsschutz", "operator": "Energie Wasser Bern", "owner": "Stadt Bern", "ref:kgs": "640", "start_date": "1546", "tourism": "artwork", "type": "multipolygon", "wikidata": "Q2083493", "wikimedia_commons": "Category:Pfeiferbrunnen (Hans Gieng 1546)", "wikipedia": "de:Pfeiferbrunnen"}}, "geometry": {"type": "Point", "coordinates": [7.442328, 46.9480327]}}, {"type": "Feature", "properties": {"type": "relation", "id": 4648540, "tags": {"addr:full": "Hodlerstrasse 8-12, 3011 Bern", "description": "Das Ensemble \"Kunstmuseum und Kunsthistorisches Seminar", "heritage": "2", "heritage:operator": "babs", "image": "https://upload.wikimedia.org/wikipedia/commons/thumb/4/45/Bern_Kunstmuseum_4.jpg/800px-Bern_Kunstmuseum_4.jpg", "name": "Kunstmuseum und Kunsthistorisches Seminar", "note_1": "KGS-Nr: Nummer des Kulturgutes, zu finden in den KGS-Listen des Bundes und der Kantone. BABS: Bundesamt f\u00fcr Bev\u00f6lkerungsschutz", "note_2": "de:Ensemble aus Kunstmuseum und Kunsthistorisches Seminar", "ref:kgs": "634", "type": "site", "wikidata": "Q194622", "wikimedia_commons": "Category:Kunstmuseum Bern", "wikipedia": "de:Kunstmuseum Bern"}}, "geometry": {"type": "Point", "coordinates": [7.4433561, 46.95109]}}, {"type": "Feature", "properties": {"type": "relation", "id": 8210241, "tags": {"amenity": "fountain", "drinking_water": "yes", "ele": "540.5", "heritage": "2", "heritage:operator": "KGS-Nr: Nummer des Kulturgutes, zu finden in den KGS-Listen des Bundes und der Kantone. BABS: Bundesamt f\u00fcr Bev\u00f6lkerungsschutz", "image": "https://upload.wikimedia.org/wikipedia/commons/thumb/3/36/Ryfflibrunnen_01.jpg/800px-Ryfflibrunnen_01.jpg", "loc_ref": "BRU 018 Ryfflibrunnen", "location:description:de": "Vor dem Eckgeb\u00e4ude Ryfflig\u00e4sschen / Aarbergergasse 35 in 3011 Bern.", "name": "Ryfflibrunnen", "note": "KGS-Nr: Nummer des Kulturgutes, zu finden in den KGS-Listen des Bundes und der Kantone. BABS: Bundesamt f\u00fcr Bev\u00f6lkerungsschutz", "operator": "Energie Wasser Bern", "owner": "Stadt Bern", "ref:kgs": "646", "type": "site", "wikidata": "Q1452707", "wikimedia_commons": "Category:Ryfflibrunnen", "wikipedia": "de:Ryfflibrunnen"}}, "geometry": {"type": "Point", "coordinates": [7.4425362, 46.94959]}}, {"type": "Feature", "properties": {"type": "relation", "id": 5212961, "tags": {"addr:street": "Halenbr\u00fccke", "heritage": "2", "heritage:operator": "babs", "historic": "bridge", "image": "https://upload.wikimedia.org/wikipedia/commons/thumb/e/e9/Halenbr\u00fccke1_004.jpg/800px-Halenbr\u00fccke1_004.jpg", "name": "Halenbr\u00fccke", "note": "KGS-Nr: Nummer des Kulturgutes, zu finden in den KGS-Listen des Bundes und der Kantone. BABS: Bundesamt f\u00fcr Bev\u00f6lkerungsschutz", "ref:kgs": "693", "type": "site", "wikidata": "Q1570866", "wikimedia_commons": "Category:Halenbr\u00fccke (Bern)", "wikipedia": "de:Halenbr\u00fccke"}}, "geometry": {"type": "Point", "coordinates": [7.4182029, 46.9716976]}}, {"type": "Feature", "properties": {"type": "relation", "id": 5223502, "tags": {"addr:city": "Bern", "addr:country": "CH", "addr:postcode": "3006", "addr:street": "Thunstrasse", "heritage": "2", "heritage:operator": "babs", "image": "https://upload.wikimedia.org/wikipedia/commons/thumb/5/5d/Bern_Thunplatz_Villa_des_p%C3%A4pstlichen_Nuntius_DSC04129.jpg/800px-Bern_Thunplatz_Villa_des_p%C3%A4pstlichen_Nuntius_DSC04129.jpg", "name": "Villenensemble Thunplatz", "note": "KGS-Nr: Nummer des Kulturgutes, zu finden in den KGS-Listen des Bundes und der Kantone. BABS: Bundesamt f\u00fcr Bev\u00f6lkerungsschutz", "ref:kgs": "738", "type": "site", "wikimedia_commons": "Category:Villenensemble Thunplatz"}}, "geometry": {"type": "Point", "coordinates": [7.4586391, 46.9405984]}}, {"type": "Feature", "properties": {"type": "relation", "id": 3379060, "tags": {"addr:city": "Bern", "addr:country": "CH", "addr:housenumber": "1", "addr:postcode": "3005", "addr:street": "Thunplatz", "alt_name": "Thunplatzbrunnen", "building": "yes", "heritage": "2", "heritage:operator": "babs", "historic": "monument", "image": "http://upload.wikimedia.org/wikipedia/commons/thumb/2/2e/Thunplatzbrunnen.jpg/461px-Thunplatzbrunnen.jpg", "name": "Wasserschloss", "note": "KGS-Nr: Nummer des Kulturgutes, zu finden in den KGS-Listen des Bundes und der Kantone. BABS: Bundesamt f\u00fcr Bev\u00f6lkerungsschutz", "ref:kgs": "656", "type": "site", "wikimedia_commons": "Category:Wasserschloss (Bern)"}}, "geometry": {"type": "Point", "coordinates": [7.4589609, 46.9402463]}}, {"type": "Feature", "properties": {"type": "relation", "id": 4640719, "tags": {"access": "private", "addr:city": "Bern", "addr:country": "CH", "addr:housenumber": "12", "addr:postcode": "3006", "addr:street": "Kalcheggweg", "heritage": "2", "heritage:operator": "babs", "image": "https://upload.wikimedia.org/wikipedia/commons/thumb/b/bc/Garten_der_Villa_Bomonti_DSC05862.jpg/800px-Garten_der_Villa_Bomonti_DSC05862.jpg", "leisure": "garden", "name": "Garten Villa Bomonti", "note": "KGS-Nr: Nummer des Kulturgutes, zu finden in den KGS-Listen des Bundes und der Kantone. BABS: Bundesamt f\u00fcr Bev\u00f6lkerungsschutz", "ref:kgs": "10476", "type": "multipolygon", "wikidata": "Q19362479", "wikimedia_commons": "Category:Garten der Villa Bomonti"}}, "geometry": {"type": "Point", "coordinates": [7.46519, 46.9389659]}}, {"type": "Feature", "properties": {"type": "relation", "id": 3558031, "tags": {"alt_name": "Swissmint", "building": "public", "building:levels": "3", "contact:addr": "Bernastrasse 28, 3005 Bern", "heritage": "2", "heritage:operator": "babs", "image": "https://upload.wikimedia.org/wikipedia/commons/thumb/0/0f/Eidgen\u00f6ssische_M\u00fcnzst\u00e4tte_Bernastrasse_28,_Frontansicht.jpg/800px-Eidgen\u00f6ssische_M\u00fcnzst\u00e4tte_Bernastrasse_28,_Frontansicht.jpg", "name": "Eidgen\u00f6ssische M\u00fcnzst\u00e4tte", "name:ar": "\u062f\u0627\u0631 \u0627\u0644\u0635\u0643 \u0627\u0644\u0633\u0648\u064a\u0633\u0631\u064a\u0629", "name:de": "Eidgen\u00f6ssische M\u00fcnzst\u00e4tte", "name:en": "Swissmint", "name:fr": "Swissmint", "name:it": "Swissmint", "name:ru": "\u041c\u043e\u043d\u0435\u0442\u043d\u044b\u0439 \u0434\u0432\u043e\u0440 \u0428\u0432\u0435\u0439\u0446\u0430\u0440\u0438\u0438", "note": "KGS-Nr: Nummer des Kulturgutes, zu finden in den KGS-Listen des Bundes und der Kantone. BABS: Bundesamt f\u00fcr Bev\u00f6lkerungsschutz", "ref:kgs": "619", "roof:levels": "1", "short_name": "Swissmint", "source": "Orthofotos Stadt Bern", "type": "multipolygon", "wikidata": "Q672792", "wikimedia_commons": "Category:Eidgen\u00f6ssische M\u00fcnzst\u00e4tte (Bern)", "wikipedia": "de:Swissmint"}}, "geometry": {"type": "Point", "coordinates": [7.4483378, 46.940566]}}, {"type": "Feature", "properties": {"type": "relation", "id": 10686384, "tags": {"heritage": "2", "heritage:operator": "babs", "image": "https://upload.wikimedia.org/wikipedia/commons/d/dc/Nydeggbruecke_Untertorbruecke_Bern.jpg", "name": "Nydeggbr\u00fccke", "name:ko": "\ub098\uc774\ub371\ube0c\ub93c\ud06c(\ub2c8\ub370\ud06c \ub2e4\ub9ac)", "note": "KGS-Nr: Nummer des Kulturgutes, zu finden in den KGS-Listen des Bundes und der Kantone. BABS: Bundesamt f\u00fcr Bev\u00f6lkerungsschutz", "ref:kgs": "716", "type": "bridge", "wikidata": "Q458115", "wikimedia_commons": "Category:Nydeggbr\u00fccke (Bern)", "wikipedia": "de:Nydeggbr\u00fccke"}}, "geometry": {"type": "Point", "coordinates": [7.4584854, 46.9484689]}}, {"type": "Feature", "properties": {"type": "relation", "id": 2989491, "tags": {"access": "yes", "alt_name": "Chindlifr\u00e4sserbrunnen", "amenity": "fountain", "artist:wikidata": "Q679296", "artist_name": "Hans Gieng", "artwork_type": "statue", "brand": "ewb", "drinking_water": "yes", "fee": "no", "heritage": "2", "heritage:operator": "babs", "image": "https://upload.wikimedia.org/wikipedia/commons/thumb/d/db/Bern_-_panoramio_%2833%29.jpg/450px-Bern_-_panoramio_%2833%29.jpg", "location:description:de": "Auf dem Kornhausplatz vor der Einm\u00fcndung des Schmiedenplatzes zwischen dem Geb\u00e4ude Kornhausplatz 16 und Kornhaus Kornhausplatz 18 in 3011 Bern.", "name": "Kindlifresserbrunnen", "name:de": "Kindlifresserbrunnen", "name:en": "Child Eater Fountain", "name:es": "Fuente del Ogro", "name:fr": "Fontaine du d\u00e9voreur d'enfants", "name:gsw": "Chindlifr\u00e4sserbrunne", "name:it": "Fontana del mangiatore di bambini", "natural": "water", "note": "KGS-Nr: Nummer des Kulturgutes, zu finden in den KGS-Listen des Bundes und der Kantone. BABS: Bundesamt f\u00fcr Bev\u00f6lkerungsschutz", "operator": "Energie Wasser Bern", "owner": "Stadt Bern", "ref:kgs": "631", "source": "Survey and Orthofotos Stadt Bern", "start_date": "1545", "tourism": "artwork", "type": "multipolygon", "wikidata": "Q665800", "wikimedia_commons": "Category:Kindlifresserbrunnen (Hans Gieng 1545)", "wikipedia": "de:Kindlifresserbrunnen"}}, "geometry": {"type": "Point", "coordinates": [7.4474906, 46.948463]}}, {"type": "Feature", "properties": {"type": "relation", "id": 4590678, "tags": {"addr:city": "Bern", "addr:country": "CH", "addr:housenumber": "4", "addr:postcode": "3011", "addr:street": "Herrengasse", "building": "yes", "heritage": "2", "heritage:operator": "babs", "image": "https://upload.wikimedia.org/wikipedia/commons/thumb/9/9c/Bern_Herrengasse_4-1.jpg/400px-Bern_Herrengasse_4-1.jpg", "name": "Tscharnerhaus", "note": "KGS-Nr: Nummer des Kulturgutes, zu finden in den KGS-Listen des Bundes und der Kantone. BABS: Bundesamt f\u00fcr Bev\u00f6lkerungsschutz", "ref:kgs": "9120", "source": "Orthofotos Bern", "type": "multipolygon", "wikidata": "Q1336224", "wikimedia_commons": "Category:Herrengasse 4 (Bern)", "wikipedia": "de:Tscharnerhaus (Herrengasse 4)"}}, "geometry": {"type": "Point", "coordinates": [7.4503123, 46.9471505]}}, {"type": "Feature", "properties": {"type": "relation", "id": 8144012, "tags": {"amenity": "fountain", "brand": "ewb", "description:de": "Der Mosesbrunnen geh\u00f6rt zu den Figurenbrunnen aus dem 16. Jahrhundert. Er steht unter Kulturg\u00fcterschutz;KGS-Nr. 636.", "drinking_water": "yes", "ele": "536.5", "heritage": "2", "heritage:operator": "babs", "image": "https://upload.wikimedia.org/wikipedia/commons/thumb/b/bb/4397_-_Bern_-_Mosesbrunnen_am_M%C3%BCnsterplatz.JPG/800px-4397_-_Bern_-_Mosesbrunnen_am_M%C3%BCnsterplatz.JPG", "layer": "1", "loc_ref": "BRU 038 Mosesbrunnen", "location:description:de": "In der nordwestlichen Ecke des M\u00fcnsterplatzes vor dem Geb\u00e4ude M\u00fcnsterplatz 12 in 3011 Bern.", "name": "Mosesbrunnen", "name:de": "Mosesbrunnen", "name:en": "Moses Fountain", "name:es": "Fuente de Mois\u00e9s", "name:fr": "Fontaine de Mo\u00efse", "name:it": "Fontana del Mos\u00e8", "note": "KGS-Nr: Nummer des Kulturgutes, zu finden in den KGS-Listen des Bundes und der Kantone.", "operator": "Energie Wasser Bern", "owner": "Stadt Bern", "ref:kgs": "636", "type": "multipolygon", "wikidata": "Q686102", "wikimedia_commons": "Category:Mosesbrunnen (Bern)", "wikipedia": "de:Mosesbrunnen (Bern)"}}, "geometry": {"type": "Point", "coordinates": [7.4505741, 46.9474084]}}, {"type": "Feature", "properties": {"type": "relation", "id": 3426121, "tags": {"alt_name": "Von-Wattenwyl-Haus", "building": "residential", "contact:addr": "Junkerngasse 59, 3011 Bern", "heritage": "2", "heritage:operator": "babs", "image": "https://upload.wikimedia.org/wikipedia/commons/thumb/9/96/Junkerngasse_59_north_face%2C_Berne.jpg/533px-Junkerngasse_59_north_face%2C_Berne.jpg", "name": "B\u00e9atrice von Wattenwyl-Haus", "name:de": "B\u00e9atrice von Wattenwyl-Haus", "name:fr": "Maison B\u00e9atrice de Wattenwyl", "name:it": "Casa Beatrice von Wattenwyl", "note": "KGS-Nr: Nummer des Kulturgutes, zu finden in den KGS-Listen des Bundes und der Kantone. BABS: Bundesamt f\u00fcr Bev\u00f6lkerungsschutz", "old_name": "Frisching-Haus", "opening_hours:url": "https://www.bbl.admin.ch/bbl/de/home/themen/besichtigungen/beatrice-von-wattenwyl-haus.html#accordion1591620984222", "ref:kgs": "662", "type": "multipolygon", "wikidata": "Q1019354", "wikipedia": "de:B\u00e9atrice-von-Wattenwyl-Haus"}}, "geometry": {"type": "Point", "coordinates": [7.45279, 46.9473416]}}, {"type": "Feature", "properties": {"type": "relation", "id": 3426837, "tags": {"addr:full": "Junkerngasse 51, 3011 Bern", "alt_name": "Zeerlederhaus", "building": "residential", "heritage": "2", "heritage:operator": "babs", "image": "https://upload.wikimedia.org/wikipedia/commons/thumb/8/8e/Junkerngasse_51%2C_Berne.jpg/509px-Junkerngasse_51%2C_Berne.jpg", "name": "Zeerleder-Haus", "note": "KGS-Nr: Nummer des Kulturgutes, zu finden in den KGS-Listen des Bundes und der Kantone. BABS: Bundesamt f\u00fcr Bev\u00f6lkerungsschutz", "ref:kgs": "9111", "type": "multipolygon", "wikidata": "Q19362524", "wikimedia_commons": "Category:Zeerlederhaus (Bern)"}}, "geometry": {"type": "Point", "coordinates": [7.4532714, 46.9473928]}}, {"type": "Feature", "properties": {"type": "relation", "id": 3427358, "tags": {"addr:full": "Junkerngasse 47, 3011 Bern", "building": "office", "heritage": "2", "heritage:operator": "babs", "image": "https://upload.wikimedia.org/wikipedia/commons/thumb/5/53/Erlacherhof_Hauptfront_Bern.jpg/800px-Erlacherhof_Hauptfront_Bern.jpg", "name": "Erlacherhof", "note": "KGS-Nr: Nummer des Kulturgutes, zu finden in den KGS-Listen des Bundes und der Kantone. BABS: Bundesamt f\u00fcr Bev\u00f6lkerungsschutz", "ref:kgs": "621", "type": "multipolygon", "wikidata": "Q1355223", "wikimedia_commons": "Category:Erlacherhof", "wikipedia": "de:Erlacherhof"}}, "geometry": {"type": "Point", "coordinates": [7.4537142, 46.9474348]}}, {"type": "Feature", "properties": {"type": "relation", "id": 3902184, "tags": {"addr:full": "L\u00e4uferplatz 6, 3011 Bern", "alt_name": "L\u00e4uferplatzbrunnen", "amenity": "fountain", "artist:wikidata": "Q679296", "artist_name": "Hans Gieng", "artwork_type": "statue", "barrier": "retaining_wall", "brand": "ewb", "description:de": "Der L\u00e4uferbrunnen besteht aus Hauptbecken mit Stock und Figur sowie einem Nebentrog. Er geh\u00f6rt zu den Figurenbrunnen in der Berner Altstadt aus dem 16. Jahrhundert und wird Hans Gieng zugeschrieben. Das Objekt steht unter Kulturg\u00fcterschutz: KGS-Nr. 635.", "drinking_water": "yes", "ele": "503.5", "heritage": "2", "heritage:operator": "babs", "image": "https://upload.wikimedia.org/wikipedia/commons/thumb/1/18/Keine_L\u00e4ufer_am_L\u00e4uferplatz_-_panoramio.jpg/800px-Keine_L\u00e4ufer_am_L\u00e4uferplatz_-_panoramio.jpg", "landuse": "basin", "location:description:de": "In der Mitte des L\u00e4uferplatzes s\u00fcdlich des Geb\u00e4udes L\u00e4uferplatz 6 in 3011 Bern", "name": "L\u00e4uferbrunnen", "name:de": "L\u00e4uferbrunnen", "name:en": "Runner Fountain", "note": "KGS-Nr: Nummer des Kulturgutes, zu finden in den KGS-Listen des Bundes und der Kantone. BABS: Bundesamt f\u00fcr Bev\u00f6lkerungsschutz", "operator": "Energie Wasser Bern", "owner": "Stadt Bern", "ref:kgs": "635", "source": "Survey andt Orthofotos Stadt Bern", "start_date": "1545", "tourism": "artwork", "type": "multipolygon", "wikidata": "Q1536420", "wikimedia_commons": "Category:L\u00e4uferbrunnen (Hans Gieng 1545)", "wikipedia": "de:L\u00e4uferbrunnen"}}, "geometry": {"type": "Point", "coordinates": [7.4577107, 46.9495445]}}, {"type": "Feature", "properties": {"type": "relation", "id": 3988433, "tags": {"addr:full": "Rathausplatz 2, 3011 Bern", "amenity": "townhall", "building": "public", "heritage": "2", "heritage:operator": "babs", "image": "https://upload.wikimedia.org/wikipedia/commons/thumb/3/37/Rathaus_(Bern).jpg/779px-Rathaus_(Bern).jpg", "name": "Rathaus", "name:de": "Rathaus", "name:en": "Town Hall", "name:es": "Ayuntamiento", "name:fr": "H\u00f4tel de ville", "name:it": "Municipio", "note": "KGS-Nr: Nummer des Kulturgutes, zu finden in den KGS-Listen des Bundes und der Kantone. BABS: Bundesamt f\u00fcr Bev\u00f6lkerungsschutz", "ref:kgs": "645", "tourism": "attraction", "type": "multipolygon", "website": "https://www.sta.be.ch/sta/de/index/politik-oeffentlichkeit/rathaus.html", "wheelchair": "yes", "wikidata": "Q2132400", "wikimedia_commons": "Category:Rathaus Bern", "wikipedia": "de:Rathaus (Bern)"}}, "geometry": {"type": "Point", "coordinates": [7.4523909, 46.9487306]}}, {"type": "Feature", "properties": {"type": "relation", "id": 3988482, "tags": {"addr:full": "Rathausplatz 1, 3011 Bern", "amenity": "fountain", "artist:wikidata": "Q679296", "artist_name": "Hans Gieng", "artwork_type": "statue", "barrier": "retaining_wall", "brand": "ewb", "description:de": "Figurenbrunnen von Hans Gieng, 1542, mit quadratischem Becken und mittigem Stock aus Kalkstein und vier Brunnenr\u00f6hren aus Gusseisen. Darauf Skulptur des Venners, ein geharnischter Berner Bannertr\u00e4ger. Das Objekt steht unter Kulturg\u00fcterschutz: KGS-Nr. 660", "drinking_water": "yes", "ele": "532.5", "heritage": "2", "heritage:operator": "babs", "image": "https://upload.wikimedia.org/wikipedia/commons/thumb/6/6b/Bern_-_panoramio_%2814%29.jpg/599px-Bern_-_panoramio_%2814%29.jpg", "landuse": "basin", "layer": "2", "location:description:de": "In der s\u00fcd\u00f6stlichen Ecke des Rathausplatz vor dem Geb\u00e4ude Rathausplatz 1 in 3011 Bern", "name": "Vennerbrunnen", "note": "KGS-Nr: Nummer des Kulturgutes, zu finden in den KGS-Listen des Bundes und der Kantone. BABS: Bundesamt f\u00fcr Bev\u00f6lkerungsschutz", "operator": "Energie Wasser Bern", "owner": "Stadt Bern", "ref:kgs": "660", "start_date": "1542", "tourism": "artwork", "type": "multipolygon", "wikidata": "Q685445", "wikimedia_commons": "Category:Vennerbrunnen (Hans Gieng 1542)", "wikipedia": "de:Vennerbrunnen", "wikipedia:en": "Vennerbrunnen", "wikipedia:fr": "Fontaine du Banneret (Berne)", "wikipedia:ru": "\u0417\u043d\u0430\u043c\u0435\u043d\u043e\u0441\u0435\u0446 (\u0444\u043e\u043d\u0442\u0430\u043d)"}}, "geometry": {"type": "Point", "coordinates": [7.4524509, 46.9484404]}}, {"type": "Feature", "properties": {"type": "relation", "id": 9050608, "tags": {"addr:full": "Junkerngasse 32, 3011 Bern", "building": "apartments", "heritage": "2", "heritage:operator": "babs", "image": "https://upload.wikimedia.org/wikipedia/commons/thumb/4/42/Bern_Morlothaus_DSC05979_GIMP.jpg/450px-Bern_Morlothaus_DSC05979_GIMP.jpg", "name": "Morlothaus", "note": "KGS-Nr: Nummer des Kulturgutes, zu finden in den KGS-Listen des Bundes und der Kantone. BABS: Bundesamt f\u00fcr Bev\u00f6lkerungsschutz", "ref:kgs": "11716", "type": "multipolygon", "wikidata": "Q19362491", "wikimedia_commons": "Category:Morlothaus (Bern)"}}, "geometry": {"type": "Point", "coordinates": [7.4538465, 46.9479414]}}, {"type": "Feature", "properties": {"type": "relation", "id": 9151097, "tags": {"amenity": "fountain", "brand": "ewb", "description:de": "Der Kreuzgassbrunnen steht am \u00f6stlichen Ende der Kramgassgasse in der Berner Altstadt und geh\u00f6rt zu den nichtfig\u00fcrlichen Brunnen des 18./19. Jahrhunderts. Er steht unter Kulturg\u00fcterschutz;KGS-Nr. 633.", "drinking_water": "yes", "ele": "534", "heritage": "2", "heritage:operator": "babs", "image": "https://upload.wikimedia.org/wikipedia/commons/thumb/6/62/Bern_-_panoramio_%28114%29.jpg/800px-Bern_-_panoramio_%28114%29.jpg", "location:description:de": "Vor dem Zunfthaus Affen Kramgasse 5 in 3011 Bern.", "name": "Kreuzgassbrunnen", "note": "KGS-Nr: Nummer des Kulturgutes, zu finden in den KGS-Listen des Bundes und der Kantone. BABS: Bundesamt f\u00fcr Bev\u00f6lkerungsschutz", "operator": "Energie Wasser Bern", "owner": "Stadt Bern", "ref:kgs": "633", "source": "Survey and Orthofotos Stadt Bern", "type": "multipolygon", "wikidata": "Q19362501", "wikimedia_commons": "Category:Kreuzgassbrunnen (Bern)", "wikipedia": "de:Kreuzgassbrunnen"}}, "geometry": {"type": "Point", "coordinates": [7.4520579, 46.9479982]}}, {"type": "Feature", "properties": {"type": "relation", "id": 4638968, "tags": {"alt_name": "Bruder Klaus Kirche", "contact:addr": "Ostring 1, 3006 Bern", "heritage": "2", "heritage:operator": "babs", "image": "https://upload.wikimedia.org/wikipedia/commons/e/e0/Bruderklausbern.jpg", "name": "Katholische Kirche Bruder Klaus", "note": "KGS-Nr: Nummer des Kulturgutes, zu finden in den KGS-Listen des Bundes und der Kantone. BABS: Bundesamt f\u00fcr Bev\u00f6lkerungsschutz", "ref:kgs": "699", "type": "site", "website": "https://www.kathbern.ch/pfarreien-seelsorge/pfarreien/bern-bruder-klaus", "wikidata": "Q19362499", "wikimedia_commons": "Category:Bruder Klaus (Bern)", "wikipedia": "de:Bruder Klaus (Bern)"}}, "geometry": {"type": "Point", "coordinates": [7.4663664, 46.942372]}}, {"type": "Feature", "properties": {"type": "relation", "id": 4648499, "tags": {"addr:city": "Bern", "addr:country": "CH", "addr:housenumber": "2-4", "addr:postcode": "3013", "addr:street": "Kl\u00f6sterlistutz", "description": "Untertorbr\u00fccke und Felsenburg, Kl\u00f6sterlistutz 4 bilden zusammen ein Ensemble mit der selben KGS Nummer 659", "heritage": "2", "heritage:operator": "babs", "image": "https://upload.wikimedia.org/wikipedia/commons/thumb/2/25/Bern_Untertorbr%C3%BCcke_und_Felsenburg_DSC05601.jpg/800px-Bern_Untertorbr%C3%BCcke_und_Felsenburg_DSC05601.jpg", "name": "Untertorbr\u00fccke und Felsenburg", "note_1": "KGS-Nr: Nummer des Kulturgutes, zu finden in den KGS-Listen des Bundes und der Kantone. BABS: Bundesamt f\u00fcr Bev\u00f6lkerungsschutz", "note_2": "Ensemble mit Untertorbr\u00fccke und Felsenburg", "ref:kgs": "659", "type": "site", "wikimedia_commons": "Category:Untertorbr\u00fccke and Felsenburg (Bern)"}}, "geometry": {"type": "Point", "coordinates": [7.4586066, 46.9493683]}}, {"type": "Feature", "properties": {"type": "relation", "id": 4655846, "tags": {"contact:addr": "Papierm\u00fchlestrasse 15, 3014 Bern", "heritage": "2", "heritage:operator": "babs", "image": "https://upload.wikimedia.org/wikipedia/commons/thumb/7/73/Bern_Kantonale_Militaeranstalten_DSC04172.jpg/800px-Bern_Kantonale_Militaeranstalten_DSC04172.jpg", "name": "Kantonale Milit\u00e4ranstalten", "note": "KGS-Nr: Nummer des Kulturgutes, zu finden in den KGS-Listen des Bundes und der Kantone. BABS: Bundesamt f\u00fcr Bev\u00f6lkerungsschutz", "ref:kgs": "630", "type": "site", "wikidata": "Q19362498", "wikimedia_commons": "Category:Kantonale Milit\u00e4ranstalten (Bern)"}}, "geometry": {"type": "Point", "coordinates": [7.4586937, 46.9571494]}}, {"type": "Feature", "properties": {"type": "relation", "id": 9418153, "tags": {"castle_type": "stately", "contact:addr": "Melchenb\u00fchlweg 137, 137a & 137b, 3006 Bern", "heritage": "2", "heritage:operator": "babs", "historic": "castle", "historic:civilization": "medieval", "image": "https://upload.wikimedia.org/wikipedia/commons/thumb/b/b9/Schloss_Wittigkofen3.jpg/800px-Schloss_Wittigkofen3.jpg", "name": "Schloss Wittigkofen", "note": "KGS-Nr: Nummer des Kulturgutes, zu finden in den KGS-Listen des Bundes + der Kantone. BABS: Bundesamt f\u00fcr Bev\u00f6lkerungsschutz - https://bauinventar.bern.ch/gruppen/schloss-wittigkofen.pdf + https://bauinventar.bern.ch/pdfs/melchenbuehlweg_137_137a_137b.pdf", "ref:kgs": "647", "type": "building", "wikidata": "Q1355887", "wikimedia_commons": "Category:Schloss Wittigkofen", "wikipedia": "de:Schloss Wittigkofen"}}, "geometry": {"type": "Point", "coordinates": [7.4817402, 46.9425688]}}, {"type": "Feature", "properties": {"type": "relation", "id": 9433231, "tags": {"addr:full": "Schlossgasse 6, 3752 Wimmis", "building": "yes", "castle_type": "defensive", "heritage": "2", "heritage:operator": "babs", "historic": "castle", "historic:civilization": "medieval", "image": "https://upload.wikimedia.org/wikipedia/commons/thumb/2/2e/Wimmis_Schloss_Kirche-3.jpg/800px-Wimmis_Schloss_Kirche-3.jpg", "name": "Schloss Wimmis", "note": "KGS-Nr: Nummer des Kulturgutes, zu finden in den KGS-Listen des Bundes und der Kantone. BABS: Bundesamt f\u00fcr Bev\u00f6lkerungsschutz", "ref:kgs": "9925", "type": "multipolygon", "wikidata": "Q1442357", "wikimedia_commons": "Category:Schloss Wimmis", "wikipedia": "de:Schloss Wimmis"}}, "geometry": {"type": "Point", "coordinates": [7.6343939, 46.6724831]}}, {"type": "Feature", "properties": {"type": "relation", "id": 11539586, "tags": {"heritage": "2", "heritage:operator": "IVS - Bundesinventar der historischen Verkehrswege der Schweiz (IVS) (Bundesamt f\u00fcr Strassen)", "heritage:ref": "GR 77.1.3", "heritage:website": "https://data.geo.admin.ch/ch.astra.ivs-nat/PDF/GR00770103.pdf", "highway": "foot", "historic": "way", "name": "Historischer Saumweg Lukmanierpass", "note": "Bundesinventar der historischen Verkehrswege der Schweiz (IVS) (Bundesamt f\u00fcr Strassen)", "note:1": "Abschnitt 3", "protect_class": "22", "type": "route"}}, "geometry": {"type": "Point", "coordinates": [8.8472231, 46.693286]}}, {"type": "Feature", "properties": {"type": "relation", "id": 11581232, "tags": {"from": "Disentis", "heritage": "2", "heritage:operator": "IVS - Bundesinventar der historischen Verkehrswege der Schweiz (IVS) (Bundesamt f\u00fcr Strassen)", "heritage:ref": "GR 77.1.1", "heritage:website": "https://data.geo.admin.ch/ch.astra.ivs-nat/PDF/GR00770101.pdf", "highway": "foot", "historic": "way", "name": "Historischer Saumweg Lukmanierpass", "note": "Abschnitt 1", "protect_class": "22", "to": "Sontga Gada", "type": "route"}}, "geometry": {"type": "Point", "coordinates": [8.8476442, 46.6978233]}}]}