{"version": 0.6, "generator": "Overpass API 0.7.56.8 7d656e78", "osm3s": {"timestamp_osm_base": "2021-03-02T18:28:57Z", "timestamp_areas_base": "2021-03-02T18:08:27Z", "copyright": "The data included in this document is from www.openstreetmap.org. The data is made available under ODbL."}, "elements": [{"type": "node", "id": 693421042, "lat": 43.1175077, "lon": 20.3737602, "tags": {"heritage": "1", "heritage:operator": "whc", "historic": "memorial", "name": "\u041c\u0430\u043d\u0430\u0441\u0442\u0438\u0440 \u0421\u043e\u043f\u043e\u045b\u0430\u043d\u0438", "name:sr": "\u041c\u0430\u043d\u0430\u0441\u0442\u0438\u0440 \u0421\u043e\u043f\u043e\u045b\u0430\u043d\u0438", "name:sr-Latn": "Manastir Sopo\u0107ani", "ref:whc": "96-002", "wikidata": "Q1142337", "wikipedia": "sr:\u041c\u0430\u043d\u0430\u0441\u0442\u0438\u0440 \u0421\u043e\u043f\u043e\u045b\u0430\u043d\u0438"}}, {"type": "node", "id": 4011769811, "lat": 43.1282224, "lon": 20.4155347, "tags": {"heritage": "1", "heritage:operator": "whc", "historic": "archaeological_site", "name": "\u0421\u0442\u0430\u0440\u0438 \u0420\u0430\u0441", "name:bs": "Arsa", "name:sr": "\u0421\u0442\u0430\u0440\u0438 \u0420\u0430\u0441", "name:sr-Latn": "Stari Ras", "ref:whc": "96-001", "wikidata": "Q917814", "wikipedia": "sr:\u0421\u0442\u0430\u0440\u0438 \u0420\u0430\u0441"}}, {"type": "node", "id": 7274316377, "lat": 43.2989188, "lon": 19.6244089, "tags": {"heritage": "1", "heritage:operator": "whc", "historic": "archaeological_site", "name": "\u0413\u0440\u0447\u043a\u043e \u0433\u0440\u043e\u0431\u0459\u0435", "name:sr": "\u0413\u0440\u0447\u043a\u043e \u0433\u0440\u043e\u0431\u0459\u0435", "name:sr-Latn": "Gr\u010dko groblje", "ref:whc": "1504-028", "wikidata": "Q64495121", "wikimedia_commons": "File:Gr\u010dko groblje, Hrta.jpg"}}, {"type": "node", "id": 7274431497, "lat": 43.9451232, "lon": 19.3481939, "tags": {"heritage": "1", "heritage:operator": "whc", "historic": "archaeological_site", "name": "\u041c\u0440\u0430\u043c\u043e\u0440\u0458\u0435", "name:sr": "\u041c\u0440\u0430\u043c\u043e\u0440\u0458\u0435", "name:sr-Latn": "Mramorje", "ref:whc": "1504-027", "wikidata": "Q64495118"}}, {"type": "node", "id": 1644697815, "lat": 43.9576402, "lon": 19.4307907, "tags": {"heritage": "1", "heritage:operator": "whc", "historic": "archaeological_site", "name": "\u041d\u0435\u043a\u0440\u043e\u043f\u043e\u043b\u0430 \u0441\u0442\u0435\u045b\u0430\u043a\u0430 \u041c\u0440\u0430\u043c\u043e\u0440\u0458\u0435", "name:sr": "\u041d\u0435\u043a\u0440\u043e\u043f\u043e\u043b\u0430 \u0441\u0442\u0435\u045b\u0430\u043a\u0430 \u041c\u0440\u0430\u043c\u043e\u0440\u0458\u0435", "name:sr-Latn": "Nekropola ste\u0107aka Mramorje", "ref:whc": "1504-026", "wikidata": "Q295408", "wikipedia": "sr:\u041c\u0440\u0430\u043c\u043e\u0440\u0458\u0435 (\u041f\u0435\u0440\u0443\u045b\u0430\u0446)"}}, {"type": "node", "id": 7562841104, "lat": 44.3923193, "lon": 20.6441105, "tags": {"heritage": "2", "heritage:operator": "rzzsk", "heritage:ref": "SK 128", "historic": "memorial", "inscription": "\u0408\u0430, \u0414\u0435\u0441\u043f\u043e\u0442 \u0421\u0442\u0435\u0444\u0430\u043d, \u0441\u0438\u043d \u0441\u0432\u0435\u0442\u043e\u0433\u0430 \u043a\u043d\u0435\u0437\u0430 \u041b\u0430\u0437\u0430\u0440\u0430 \u0438 \u043f\u043e \u043f\u0440\u0435\u0434\u0441\u0442\u0430\u0432\u0459\u0430\u045a\u0443 \u0442\u043e\u0433\u0430 \u043c\u0438\u043b\u043e\u0448\u045b\u0443 \u0411\u043e\u0436\u0458\u043e\u043c \u0431\u0438\u0445 \u0433\u043e\u0441\u043f\u043e\u0434\u0438\u043d \u0441\u0432\u0438\u043c \u0421\u0440\u0431\u0438\u043c\u0430 \u0438 \u041f\u043e\u0434\u0443\u043d\u0430\u0432\u0459\u0443 \u0438 \u041f\u043e\u0441\u0430\u0432\u0459\u0443 \u0438 \u0434\u0435\u043b\u0443 \u0443\u0433\u0430\u0440\u0441\u043a\u0435 \u0437\u0435\u043c\u0459\u0435 \u0438 \u0431\u043e\u0441\u0430\u043d\u0441\u043a\u0435 \u0430 \u0458\u043e\u0448 \u0438 \u041f\u0440\u0438\u043c\u043e\u0440\u0458\u0443 \u0437\u0435\u0442\u0441\u043a\u043e\u043c. \u0418 \u0443 \u0431\u043e\u0433\u043e\u0434\u0430\u043d\u043e\u0458 \u043c\u0438 \u0432\u043b\u0430\u0441\u0442\u0438 \u043f\u0440\u043e\u0432\u043e\u0434\u0438\u0445 \u0436\u0438\u0432\u043e\u0442\u0430 \u043c\u043e\u0458\u0435\u0433\u0430 \u0432\u0440\u0435\u043c\u0435 \u043a\u043e\u043b\u0438\u043a\u043e...", "material": "stone", "memorial": "stele", "name": "\u0421\u043f\u043e\u043c\u0435\u043d\u0438\u043a \u0434\u0435\u0441\u043f\u043e\u0442\u0443 \u0421\u0442\u0435\u0444\u0430\u043d\u0443 \u041b\u0430\u0437\u0430\u0440\u0435\u0432\u0438\u045b\u0443", "name:en": "Despot Stefan Lazarevi\u0107 Memorial", "name:sr": "\u0421\u043f\u043e\u043c\u0435\u043d\u0438\u043a \u0434\u0435\u0441\u043f\u043e\u0442\u0443 \u0421\u0442\u0435\u0444\u0430\u043d\u0443 \u041b\u0430\u0437\u0430\u0440\u0435\u0432\u0438\u045b\u0443", "name:sr-Latn": "Spomenik despotu Stefanu Lazarevi\u0107u", "wikidata": "Q3323264", "wikipedia": "sr:\u0421\u043f\u043e\u043c\u0435\u043d\u0438\u043a \u0434\u0435\u0441\u043f\u043e\u0442\u0443 \u0421\u0442\u0435\u0444\u0430\u043d\u0443 \u041b\u0430\u0437\u0430\u0440\u0435\u0432\u0438\u045b\u0443"}}, {"type": "node", "id": 6967861244, "lat": 44.5568328, "lon": 22.0264131, "tags": {"heritage": "2", "heritage:operator": "rzzsk", "historic": "archaeological_site", "historic:civilization": "prehistoric", "historic:era": "mesolithic", "name": "\u041b\u0435\u043f\u0435\u043d\u0441\u043a\u0438 \u0412\u0438\u0440", "name:en": "Lepenski Vir", "name:sr": "\u041b\u0435\u043f\u0435\u043d\u0441\u043a\u0438 \u0412\u0438\u0440", "name:sr-Latn": "Lepenski Vir", "ref:sr:rzzsk": "AN 45", "site_type": "settlement", "tourism": "attraction", "website": "http://www.virtuelnimuzejdunava.rs/serbia/cultural-heritage/archaeological-map-of-the-danube/lepenski-vir.lepenski-vir.350.html", "wikidata": "Q906669", "wikipedia": "sr:\u041b\u0435\u043f\u0435\u043d\u0441\u043a\u0438 \u0412\u0438\u0440"}}, {"type": "node", "id": 1824370208, "lat": 45.1470989, "lon": 20.2368419, "tags": {"heritage": "2", "heritage:operator": "rzzsk", "historic": "monument", "name": "\u0411\u0438\u0442\u043a\u0430 \u043a\u043e\u0434 \u0421\u043b\u0430\u043d\u043a\u0430\u043c\u0435\u043d\u0430", "name:de": "Schlacht bei Slankamen", "name:en": "Battle of Slankamen", "name:pl": "Bitwa pod Slankamenem", "name:ru": "\u0411\u0438\u0442\u0432\u0430 \u043f\u0440\u0438 \u0421\u043b\u0430\u043d\u043a\u0430\u043c\u0435\u043d\u0435", "name:sr": "\u0411\u0438\u0442\u043a\u0430 \u043a\u043e\u0434 \u0421\u043b\u0430\u043d\u043a\u0430\u043c\u0435\u043d\u0430", "name:sr-Latn": "Bitka kod Slankamena", "ref:sr:rzzsk": "ZM 27", "wikidata": "Q690481", "wikipedia": "sr:\u0411\u0438\u0442\u043a\u0430 \u043a\u043e\u0434 \u0421\u043b\u0430\u043d\u043a\u0430\u043c\u0435\u043d\u0430"}}, {"type": "way", "id": 223660159, "center": {"lat": 42.2115845, "lon": 20.7359192}, "nodes": [2325325418, 2325325417, 2325325416, 2325325415, 2325325414, 2325325413, 2325325412, 2325325411, 2325325410, 2325325409, 2325325408, 2325325407, 2325325406, 2325325405, 2325325404, 2325325403, 2325325402, 2325325426, 2325325425, 2325325424, 2325325423, 2325325422, 2325325421, 2325325420, 2325325419, 2325325418], "tags": {"addr:city": "Prizren", "addr:postcode": "20000", "amenity": "place_of_worship", "building": "church", "denomination": "orthodox", "description": "Monument of culture of exceptional importance. UNESCO world heritage site since 2006.", "heritage": "1", "heritage:operator": "whc", "heritage:website": "http://whc.unesco.org/en/list/724/", "historic": "yes", "name": "Kisha e Sh\u00ebn Premt\u00ebs", "name:de": "Kirche der Heiligen Jungfrau", "name:en": "Our Lady of Ljevi\u0161", "name:pl": "Cerkiew Bogurodzicy Ljevi\u0161kiej", "name:sq": "Kisha e Sh\u00ebn Premt\u00ebs", "name:sr": "Bogorodica Ljevi\u0161ka", "ref:whc": "724-003bis", "religion": "christian", "whc:inscription_date": "2006", "wikidata": "Q890652", "wikipedia": "en:Our Lady of Ljevi\u0161"}}, {"type": "way", "id": 760904648, "center": {"lat": 42.5464249, "lon": 20.2691648}, "nodes": [4024432219, 4024432218, 4024432217, 4024432216, 4024432215, 4024432214, 4024432213, 4024432212, 4024432211, 4024432210, 4024432209, 4024432208, 4024432207, 4024432206, 4024432205, 4024432204, 4024432203, 4024432202, 4024432201, 4024432200, 4024432199, 4024432198, 4024432197, 4024432196, 4024432195, 4024432194, 4024432193, 4024432192, 4024432191, 4024432190, 4024432189, 4024432088, 4960587146, 4960587171, 4024432087, 4024432086, 4024432085, 4024432084, 4024432083, 4024432082, 4024432081, 4024432080, 4024432079, 4024432078, 4024432077, 4024452751, 4024432076, 4024432075, 4024439213, 4024439214, 4024432074, 4024439211, 4024432073, 4024432072, 4024432071, 4024432070, 4024432069, 4024432068, 4024432067, 4024432066, 4024432065, 4024432064, 4024432063, 4024432062, 4024432061, 4024432219], "tags": {"amenity": "monastery", "area": "yes", "denomination": "serbian_orthodox", "heritage": "1", "heritage:operator": "whc", "name": "Manastir Visoki De\u010dani", "name:bg": "\u041c\u0430\u043d\u0430\u0441\u0442\u0438\u0440\u044a\u0442 \u0412\u0438\u0441\u043e\u043a\u0438 \u0414\u0435\u0447\u0430\u043d\u0438", "name:el": "\u039c\u03bf\u03bd\u03ae \u0392\u03b9\u03c3\u03cc\u03ba\u03b9 \u039d\u03c4\u03ad\u03c4\u03c3\u03b1\u03bd\u03b9", "name:hu": "Visoki De\u010dani kolostor", "name:ro": "M\u0103n\u0103stirea de la Visoki De\u010dani", "name:ru": "\u041c\u043e\u043d\u0430\u0441\u0442\u044b\u0440\u044c \u0412\u044b\u0441\u043e\u043a\u0438\u0435 \u0414\u0435\u0447\u0430\u043d\u044b", "name:sq": "Manastiri i De\u00e7anit", "name:sr": "\u041c\u0430\u043d\u0430\u0441\u0442\u0438\u0440 \u0412\u0438\u0441\u043e\u043a\u0438 \u0414\u0435\u0447\u0430\u043d\u0438", "note": "\u0421\u0440\u043f\u0441\u043a\u043e \u043a\u0443\u043b\u0442\u0443\u0440\u043d\u043e \u043d\u0430\u0441\u043b\u0435\u0452\u0435 Serbian cultural heritage", "ref:whc": "724-001", "religion": "christian", "website": "https://en.m.wikipedia.org/wiki/Visoki_De%C4%8Dani", "wikidata": "Q849517"}}, {"type": "way", "id": 223825034, "center": {"lat": 42.6611625, "lon": 20.2655926}, "nodes": [2326944424, 2326944397, 2326944396, 2326944391, 2326944390, 2326944392, 2326944393, 2326944394, 2326944395, 2326944398, 2326944399, 2326944400, 2326944401, 2326944402, 2326944403, 2326944404, 2326944405, 2326944406, 2326944407, 2326944408, 2326944410, 2326944411, 2326944412, 2326944413, 2326944414, 2326944417, 2326944418, 2326944419, 2326944422, 2326944423, 2326944424], "tags": {"amenity": "place_of_worship", "building": "church", "denomination": "serbian_orthodox", "heritage": "1", "heritage:operator": "whc", "name": "Patriarchate of Pe\u0107", "name:bg": "\u041f\u0435\u0447\u043a\u0430 \u043f\u0430\u0442\u0440\u0438\u0430\u0440\u0448\u0438\u044f", "name:de": "Patriarchenkloster Pe\u0107", "name:en": "Patriarchate of Pe\u0107", "name:it": "Patriarcale di Pe\u0107", "name:ja": "\u30da\u30fc\u30c1\u7dcf\u4e3b\u6559\u4fee\u9053\u9662", "name:ka": "\u10de\u10d4\u10e9\u10d8\u10e1 \u10e1\u10d0\u10de\u10d0\u10e2\u10e0\u10d8\u10d0\u10e0\u10e5\u10dd \u10db\u10dd\u10dc\u10d0\u10e1\u10e2\u10d4\u10e0\u10d8", "name:nl": "Patriarchaatsklooster Pe\u0107", "name:pl": "Patriarchat Pecz", "name:ru": "\u041f\u0435\u0447\u0441\u043a\u0438\u0439 \u043f\u0430\u0442\u0440\u0438\u0430\u0440\u0445\u0430\u0442", "name:sr": "\u041f\u0435\u045b\u043a\u0430 \u043f\u0430\u0442\u0440\u0438\u0458\u0430\u0440\u0448\u0438\u0458\u0430", "name:sr-Latn": "Pe\u0107ka patrijar\u0161ija", "note": "Trash\u00ebgemi Kulturore e Republik\u00ebs s\u00eb Kosov\u00ebs - RKS Kulturnog Nasle\u0111a od Republike Kosova - RKS Cultural Heritage of the Republic of Kosovo - RKS", "ref:whc": "724-002bis", "religion": "christian", "wikidata": "Q969047"}}, {"type": "way", "id": 223819769, "center": {"lat": 43.1613636, "lon": 20.5274335}, "nodes": [2326866414, 2326866416, 2326866445, 2326866471, 2326866483, 2326866487, 2326866484, 2326866479, 2326866473, 2326866466, 2326866439, 2326866427, 2326866421, 2326866418, 2326866411, 2326866406, 2326866397, 2326866414], "tags": {"heritage": "1", "heritage:operator": "whc", "historic": "church", "name": "\u0426\u0440\u043a\u0432\u0430 \u0441\u0432\u0435\u0442\u0438\u0445 \u0430\u043f\u043e\u0441\u0442\u043e\u043b\u0430 \u041f\u0435\u0442\u0440\u0430 \u0438 \u041f\u0430\u0432\u043b\u0430", "name:en": "Church of Saint Apostles Peter and Paul", "name:sr": "\u0426\u0440\u043a\u0432\u0430 \u0441\u0432\u0435\u0442\u0438\u0445 \u0430\u043f\u043e\u0441\u0442\u043e\u043b\u0430 \u041f\u0435\u0442\u0440\u0430 \u0438 \u041f\u0430\u0432\u043b\u0430", "name:sr-Latn": "Crkva svetih apostola Petra i Pavla", "ref:whc": "96-003", "tourism": "attraction", "whc:inscription_date": "1979", "wikidata": "Q1559411", "wikipedia": "sr:\u0426\u0440\u043a\u0432\u0430 \u0421\u0432\u0435\u0442\u0438\u0445 \u0430\u043f\u043e\u0441\u0442\u043e\u043b\u0430 \u041f\u0435\u0442\u0440\u0430 \u0438 \u041f\u0430\u0432\u043b\u0430 \u0443 \u0420\u0430\u0441\u0443"}}, {"type": "way", "id": 223818703, "center": {"lat": 43.1658384, "lon": 20.4976231}, "nodes": [2326856876, 2326856918, 2326856974, 2326856991, 2326857037, 2326857047, 2326857054, 2326857041, 2326857007, 2326856964, 2326856891, 2326856882, 2326856869, 2326856822, 2326856817, 2326856828, 2326856858, 2326856876], "tags": {"amenity": "monastery", "heritage": "1", "heritage:operator": "whc", "historic": "monastery", "int_name": "Djurdjevi stupovi", "name": "\u0402\u0443\u0440\u0452\u0435\u0432\u0438 \u0441\u0442\u0443\u043f\u043e\u0432\u0438", "name:en": "The Tracts of Saint George", "name:sr": "\u0402\u0443\u0440\u0452\u0435\u0432\u0438 \u0441\u0442\u0443\u043f\u043e\u0432\u0438", "name:sr-Latn": "\u0110ur\u0111evi stupovi", "ref:whc": "96-004", "tourism": "attraction", "whc:inscription_date": "1979", "wikidata": "Q592512", "wikipedia": "sr:\u041c\u0430\u043d\u0430\u0441\u0442\u0438\u0440 \u0402\u0443\u0440\u0452\u0435\u0432\u0438 \u0441\u0442\u0443\u043f\u043e\u0432\u0438"}}, {"type": "way", "id": 289379526, "center": {"lat": 42.5984944, "lon": 21.1934759}, "nodes": [2432450622, 2870190231, 2432450673, 2870190270, 2870190275, 2870190276, 2870190278, 2870190218, 2432450622], "tags": {"addr:city": "Gra\u010danica", "amenity": "monastery", "denomination": "serbian_orthodox", "heritage": "1", "heritage:operator": "whc", "name": "Manastir Gra\u010danica", "name:de": "Kloster Gra\u010danica", "name:el": "\u039c\u03bf\u03bd\u03ae \u0393\u03ba\u03c1\u03b1\u03c4\u03c3\u03ac\u03bd\u03b9\u03c4\u03c3\u03b1\u03c2", "name:en": "Gra\u010danica Monastery", "name:sq": "Manastiri i Gra\u00e7anic\u00ebs", "name:sr": "\u041c\u0430\u043d\u0430\u0441\u0442\u0438\u0440 \u0413\u0440\u0430\u0447\u0430\u043d\u0438\u0446\u0430", "note": "Serbian cultural heritage", "ref:whc": "724-004bis", "religion": "christian", "whc:inscription_date": "2004", "wikidata": "Q1137661"}}, {"type": "way", "id": 357906893, "center": {"lat": 43.9313968, "lon": 19.5414805}, "nodes": [4547625879, 3629962582, 3629962584, 3629962585, 3629962586, 3629962587, 3629962588, 3629962580, 3629962581, 4547625887, 4547625886, 4547625885, 4547625884, 4547625883, 4547625882, 4547625881, 4547625878, 4547625877, 4547625880, 4547625879], "tags": {"amenity": "place_of_worship", "building": "church", "denomination": "serbian_orthodox", "heritage": "2", "heritage:operator": "rzzsk", "heritage:ref": "SK 377", "name": "\u041c\u0430\u043d\u0430\u0441\u0442\u0438\u0440 \u0420\u0430\u0447\u0430", "name:de": "Kloster Ra\u010da", "name:en": "Ra\u010da monastery", "name:fr": "Monast\u00e8re de Ra\u010da", "name:ru": "\u041c\u043e\u043d\u0430\u0441\u0442\u044b\u0440\u044c \u0420\u0430\u0447\u0430", "name:sr": "\u041c\u0430\u043d\u0430\u0441\u0442\u0438\u0440 \u0420\u0430\u0447\u0430", "name:sr-Latn": "Manastir Ra\u010da", "religion": "christian", "wikidata": "Q1273574", "wikipedia": "sr:\u041c\u0430\u043d\u0430\u0441\u0442\u0438\u0440 \u0420\u0430\u0447\u0430"}}, {"type": "way", "id": 443773354, "center": {"lat": 44.3939726, "lon": 19.4790518}, "nodes": [4413115914, 4413115915, 4413115916, 4413115917, 4413115918, 4413115919, 4413115914], "tags": {"area": "yes", "heritage": "2", "heritage:operator": "rzzsk", "historic": "memorial_site", "name": "\u0421\u043f\u043e\u043c\u0435\u043d\u0438\u0447\u043a\u0438 \u043a\u043e\u043c\u043f\u043b\u0435\u043a\u0441 \u0411\u0435\u043b\u0430 \u0426\u0440\u043a\u0432\u0430", "name:sr-Latn": "Spomeni\u010dki kompleks Bela Crkva", "ref:sr:rzzsk": "ZM 6", "wikidata": "Q3054903", "wikipedia": "sr:Spomeni\u010dki kompleks Bela Crkva"}}, {"type": "way", "id": 715909620, "center": {"lat": 44.5545286, "lon": 19.528191}, "nodes": [6727777148, 6727777149, 6727777150, 6727777151, 6727777152, 6727777148], "tags": {"addr:city": "\u0412\u0430\u0459\u0435\u0432\u043e", "addr:housenumber": "2", "addr:postcode": "14000", "addr:street": "\u041c\u0438\u043b\u043e\u0432\u0430\u043d\u0430 \u0413\u043b\u0438\u0448\u0438\u045b\u0430", "height": "10", "heritage": "2", "heritage:operator": "rzzsk", "historic": "monument", "inscription": "18. \u0430\u0432\u0433\u0443\u0441\u0442 1914 \u0433;\u0412\u0410\u0428\u0410 \u0414\u0415\u041b\u0410 \u0421\u0423 \u0411\u0415\u0421\u041c\u0420\u0422\u041d\u0410", "name": "\u0421\u043f\u043e\u043c\u0435\u043d-\u043a\u043e\u0441\u0442\u0443\u0440\u043d\u0438\u0446\u0430 \u043d\u0430 \u0426\u0435\u0440\u0443", "name:en": "Memorial Ossuary, Cer", "name:sr": "\u0421\u043f\u043e\u043c\u0435\u043d-\u043a\u043e\u0441\u0442\u0443\u0440\u043d\u0438\u0446\u0430 \u043d\u0430 \u0426\u0435\u0440\u0443", "name:sr-Latn": "Spomen-kosturnica na Ceru", "start_date": "1928-06-28", "tourism": "attraction", "wikidata": "Q3333164", "wikipedia": "sr:\u0421\u043f\u043e\u043c\u0435\u043d-\u043a\u043e\u0441\u0442\u0443\u0440\u043d\u0438\u0446\u0430 \u043d\u0430 \u0426\u0435\u0440\u0443"}}, {"type": "way", "id": 715998080, "center": {"lat": 44.698559, "lon": 20.0368581}, "nodes": [6728464510, 6728464511, 6728464512, 6728464500, 6728464501, 6728464502, 6728464507, 6728464508, 6728464509, 6728464503, 6728464504, 6728464505, 6728464506, 6728464510], "tags": {"amenity": "place_of_worship", "building": "yes", "building:levels": "1", "denomination": "serbian_orthodox", "heritage": "2", "heritage:operator": "rzzsk", "heritage:ref": "SK 1044", "name": "\u0426\u0440\u043a\u0432\u0430 \u0421\u0432\u0435\u0442\u043e\u0433 \u041b\u0443\u043a\u0435", "name:sr": "\u0426\u0440\u043a\u0432\u0430 \u0421\u0432\u0435\u0442\u043e\u0433 \u041b\u0443\u043a\u0435", "name:sr-Latn": "Crkva svetog Luke", "religion": "christian", "start_date": "1455", "wikidata": "Q3582422", "wikipedia": "sr:\u0426\u0440\u043a\u0432\u0430 \u0421\u0432\u0435\u0442\u043e\u0433 \u041b\u0443\u043a\u0435 \u0443 \u041a\u0443\u043f\u0438\u043d\u043e\u0432\u0443"}}, {"type": "way", "id": 206182687, "center": {"lat": 43.4865262, "lon": 20.5316602}, "nodes": [1969004247, 5213734125, 5213734128, 1969004255, 1969004248, 5213734130, 5213734134, 1969004232, 1969004212, 5213734136, 1969004202, 5213734139, 1969004193, 1969004155, 1969004099, 1969003983, 1969003923, 1969003862, 1969003843, 1969003838, 1969003831, 1969003821, 1969003814, 1969003790, 1969003787, 1969003784, 1969003788, 1969003792, 1969003785, 1969003780, 1969003778, 1969003760, 1969003754, 1969003743, 1969003735, 1969003732, 1969003733, 1969003740, 1969003752, 1969003709, 1969003688, 1969003678, 1969003669, 1969003665, 1969003667, 1969003673, 1969003685, 1969003712, 1969003771, 5213732798, 1969003841, 5213732796, 1969003880, 1969003957, 1969003958, 1969003962, 1969003976, 1969004003, 1969004037, 1969004054, 1969004089, 1969004110, 1969004115, 1969004119, 1969004121, 1969004124, 1969004158, 1969004199, 1969004210, 1969004214, 1969004240, 1969004247], "tags": {"addr:city": "\u0421\u0442\u0443\u0434\u0435\u043d\u0438\u0446\u0430", "addr:country": "RS", "addr:postcode": "36343", "amenity": "monastery", "description": "\u0421\u043f\u043e\u043c\u0435\u043d\u0438\u043a \u043e\u0434 \u0438\u0437\u0443\u0437\u0435\u0442\u043d\u043e\u0433 \u0437\u043d\u0430\u0447\u0430\u0458\u0430. \u0421\u043f\u043e\u043c\u0435\u043d\u0438\u043a \u0443\u043f\u0438\u0441\u0430\u043d \u043d\u0430 \u0423\u041d\u0415\u0421\u041a\u041e-\u0432\u0443 \u043b\u0438\u0441\u0442\u0443 \u0441\u0432\u0435\u0442\u0441\u043a\u0435 \u0431\u0430\u0448\u0442\u0438\u043d\u0435 1986.", "description:en": "Monument of culture of exceptional importance. UNESCO world heritage site since 1986.", "email": "konak@manastirstudenica.rs", "fax": "+381 36 5436050", "heritage": "1", "heritage:operator": "whc", "historic": "monastery", "name": "\u041c\u0430\u043d\u0430\u0441\u0442\u0438\u0440 \u0421\u0442\u0443\u0434\u0435\u043d\u0438\u0446\u0430", "name:de": "Kloster Studenica", "name:en": "Studenica Monastery", "name:fr": "Monast\u00e8re de Studenica", "name:ru": "\u041c\u043e\u043d\u0430\u0441\u0442\u044b\u0440\u044c \u0421\u0442\u0443\u0434\u0435\u043d\u0438\u0446\u0430", "name:sr": "\u041c\u0430\u043d\u0430\u0441\u0442\u0438\u0440 \u0421\u0442\u0443\u0434\u0435\u043d\u0438\u0446\u0430", "name:sr-Latn": "Manastir Studenica", "opening_hours": "Mo-Su 09:00-17:00", "phone": "+381 36 5436050", "ref:whc": "389", "service_times": "Mo-Sa 05:30+,07:00+,18:00+; Su 06:30+,08:00+,18:00+; PH 06:30+,08:00+,18:00+; PH Su off", "tourism": "attraction", "url": "http://spomenicikulture.mi.sanu.ac.rs/spomenik.php?id=524", "website": "http://manastirstudenica.org.rs/", "whc:inscription_date": "1986", "wheelchair": "limited", "wikidata": "Q143042", "wikipedia": "sr:\u041c\u0430\u043d\u0430\u0441\u0442\u0438\u0440 \u0421\u0442\u0443\u0434\u0435\u043d\u0438\u0446\u0430"}}, {"type": "way", "id": 174929135, "center": {"lat": 43.6137121, "lon": 20.5523741}, "nodes": [1855699563, 4344204429, 1855699558, 1855699550, 1855699554, 1855699557, 1855699549, 1855699568, 1855699548, 1855699547, 1855699546, 1855699572, 1855699570, 1855699564, 1855699573, 1855699559, 1855699553, 1855699571, 1855699541, 1855699543, 1855699544, 1855699565, 7416628658, 7416628660, 7416628661, 7416628659, 7416628655, 7416628657, 7416628654, 7416628656, 1855699556, 1855699567, 1855699555, 1855699569, 1855699551, 1855699545, 1855699560, 1855699552, 1855699561, 1855699542, 1855699562, 1855699566, 1855699563], "tags": {"building": "yes", "castle_type": "fortress", "communication:amateur_radio:wca": "YU-00010", "heritage": "2", "heritage:operator": "rzzsk", "heritage:ref": "SK 168", "historic": "castle", "historic:civilization": "middle-ages", "name": "\u041c\u0430\u0433\u043b\u0438\u0447", "name:en": "Magli\u010d", "name:pl": "Twierdza Maglic", "name:sr": "\u041c\u0430\u0433\u043b\u0438\u0447", "name:sr-Latn": "Magli\u010d", "tourism": "attraction", "wikidata": "Q959733", "wikipedia": "en:Magli\u010d"}}, {"type": "way", "id": 368149192, "center": {"lat": 43.5840785, "lon": 21.3216234}, "nodes": [5048051350, 6415951367, 5048051354, 5048051349, 7569692070, 5048051348, 5048051347, 5048051346, 5048051345, 5048051338, 5048051337, 5048051336, 5048051335, 3720084649, 4585054655, 5215678065, 4201727360, 7569702362, 5206431332, 7569702363, 7569702364, 7569702366, 7569702365, 7569702367, 4201727355, 7569702373, 7569702372, 4201727353, 7569702371, 7569702370, 7569702369, 7569702368, 6415951376, 7569702374, 7569702375, 7569702383, 7569702384, 7569702377, 7569702378, 7569702376, 7569702379, 7569702380, 7569702381, 7569702382, 7569702385, 7569702386, 7569702387, 7569702388, 7569692030, 7572305947, 7572305954, 4585054650, 5048051351, 5048051350], "tags": {"heritage": "2", "heritage:operator": "rzzsk", "heritage:ref": "SK 157", "leisure": "park", "name": "\u0413\u0440\u0430\u0434 \u0446\u0430\u0440\u0430 \u041b\u0430\u0437\u0430\u0440\u0430 - \u0410\u0440\u0445\u0435\u043e\u043b\u043e\u0448\u043a\u0438 \u043f\u0430\u0440\u043a", "wikidata": "Q2989057", "wikipedia": "sr:\u0413\u0440\u0430\u0434 \u0446\u0430\u0440\u0430 \u041b\u0430\u0437\u0430\u0440\u0430"}}, {"type": "way", "id": 517267565, "center": {"lat": 43.5840651, "lon": 21.3212012}, "nodes": [4585054654, 5048051390, 7569692051, 7569692054, 7569692057, 7569692055, 7569692056, 7569692053, 7569692052, 4642065399, 4642065400, 4585054654], "tags": {"amenity": "place_of_worship", "building": "yes", "denomination": "serbian_orthodox", "heritage": "2", "heritage:operator": "rzzsk", "heritage:ref": "SK 157", "name": "\u0426\u0440\u043a\u0432\u0430 \u0421\u0432\u0435\u0442\u043e\u0433 \u043f\u0440\u0432\u043e\u043c\u0443\u0447\u0435\u043d\u0438\u043a\u0430 \u0421\u0442\u0435\u0444\u0430\u043d\u0430", "religion": "christian", "wikidata": "Q1809471", "wikipedia": "sr:\u0426\u0440\u043a\u0432\u0430 \u0421\u0432\u0435\u0442\u043e\u0433 \u043f\u0440\u0432\u043e\u043c\u0443\u0447\u0435\u043d\u0438\u043a\u0430 \u0421\u0442\u0435\u0444\u0430\u043d\u0430 \u0443 \u041a\u0440\u0443\u0448\u0435\u0432\u0446\u0443"}}, {"type": "way", "id": 715373966, "center": {"lat": 44.6890422, "lon": 20.515868}, "nodes": [6723422278, 6723422279, 6723422280, 6723422281, 6723422278], "tags": {"architect": "\u0418\u0432\u0430\u043d \u041c\u0435\u0448\u0442\u0440\u043e\u0432\u0438\u045b", "artist:wikidata": "Q313828", "artist_name": "\u0418\u0432\u0430\u043d \u041c\u0435\u0448\u0442\u0440\u043e\u0432\u0438\u045b", "building": "yes", "ele": "511", "height": "14.5", "heritage": "2", "heritage:operator": "rzzsk", "historic": "monument", "image": "http://3.bp.blogspot.com/-xo1XZChULnM/VgbpsJWagqI/AAAAAAAABKM/lim5HYm3b2Y/s1600/avala-neznanom-junaku.jpg", "inscription": "\u0410\u041b\u0415\u041a\u0421\u0410\u041d\u0414\u0410\u0420 I \u041a\u0420\u0410\u0409 \u0408\u0423\u0413\u041e\u0421\u041b\u0410\u0412\u0418\u0408\u0415 \u041d\u0415\u0417\u041d\u0410\u041d\u041e\u041c \u0408\u0423\u041d\u0410\u041a\u0423 MCMXXXVIII", "landmark": "monument", "material": "granite", "name": "\u0421\u043f\u043e\u043c\u0435\u043d\u0438\u043a \u041d\u0435\u0437\u043d\u0430\u043d\u043e\u043c \u0458\u0443\u043d\u0430\u043a\u0443", "name:de": "Denkmal des Unbekannten Soldaten", "name:en": "Monument to the Unknown Hero", "name:fr": "Monument au H\u00e9ros inconnu", "name:hr": "Spomenik Neznanom junaku", "name:it": "Monumento al Milite Ignoto", "name:ru": "\u041f\u0430\u043c\u044f\u0442\u043d\u0438\u043a \u043d\u0435\u0438\u0437\u0432\u0435\u0441\u0442\u043d\u043e\u043c\u0443 \u0433\u0435\u0440\u043e\u044e", "name:sr": "\u0421\u043f\u043e\u043c\u0435\u043d\u0438\u043a \u041d\u0435\u0437\u043d\u0430\u043d\u043e\u043c \u0458\u0443\u043d\u0430\u043a\u0443", "name:sr-Latn": "Spomenik Neznanom junaku", "ref:sr:rzzsk": "SK 644", "start_date": "1938-06-28", "tourism": "attraction", "website": "http://beogradskonasledje.rs/kd/zavod/vozdovac/spomenik_neznanom_junaku.html", "wikidata": "Q1187994", "wikipedia": "sr:\u0421\u043f\u043e\u043c\u0435\u043d\u0438\u043a \u041d\u0435\u0437\u043d\u0430\u043d\u043e\u043c \u0458\u0443\u043d\u0430\u043a\u0443"}}, {"type": "way", "id": 295686327, "center": {"lat": 44.8142728, "lon": 20.460033}, "nodes": [2994328362, 2994328348, 4002208526, 2994328346, 2994328349, 2994328347, 2994328355, 2994328357, 2994328362], "tags": {"addr:housenumber": "8", "addr:street": "\u0422\u0435\u0440\u0430\u0437\u0438\u0458\u0435", "building": "yes", "heritage": "2", "heritage:operator": "rzzsk", "heritage:ref": "SK 2229", "name": "\u0417\u0433\u0440\u0430\u0434\u0430 \u0425\u0435\u043c\u043f\u0440\u043e", "name:sr": "\u0417\u0433\u0440\u0430\u0434\u0430 \u0425\u0435\u043c\u043f\u0440\u043e", "name:sr-Latn": "Zgrada Hempro", "wikidata": "Q64049210", "wikipedia": "sr:\u0417\u0433\u0440\u0430\u0434\u0430 \u0425\u0435\u043c\u043f\u0440\u043e"}}, {"type": "way", "id": 37052159, "center": {"lat": 44.8180595, "lon": 20.4521296}, "nodes": [430922335, 430922342, 5478972963, 430922345, 5478972964, 430922363, 5478972968, 430922368, 5478972965, 5478972966, 5478972967, 430922373, 430922378, 6726970642, 430922335], "tags": {"addr:housenumber": "3", "addr:street": "\u041a\u043d\u0435\u0437\u0430 \u0421\u0438\u043c\u0435 \u041c\u0430\u0440\u043a\u043e\u0432\u0438\u045b\u0430", "amenity": "place_of_worship", "building": "cathedral", "building:levels": "3", "denomination": "serbian_orthodox", "heritage": "2", "heritage:operator": "rzzsk", "heritage:ref": "SK 97", "loc_name": "\u0421\u0430\u0431\u043e\u0440\u043d\u0430 \u0446\u0440\u043a\u0432\u0430", "name": "\u0421\u0430\u0431\u043e\u0440\u043d\u0438 \u0445\u0440\u0430\u043c \u0421\u0432\u0435\u0442\u043e\u0433 \u0410\u0440\u0445\u0430\u043d\u0433\u0435\u043b\u0430 \u041c\u0438\u0445\u0430\u0438\u043b\u0430", "name:de": "Kathedrale des Heiligen Erzengel Michael", "name:en": "Cathedral Church of St. Michael the Archangel", "name:sr": "\u0421\u0430\u0431\u043e\u0440\u043d\u0438 \u0445\u0440\u0430\u043c \u0421\u0432\u0435\u0442\u043e\u0433 \u0410\u0440\u0445\u0430\u043d\u0433\u0435\u043b\u0430 \u041c\u0438\u0445\u0430\u0438\u043b\u0430", "name:sr-Latn": "Saborni hram Svetog Arhangela Mihaila", "religion": "christian", "start_date": "1840", "wikidata": "Q1265998", "wikipedia": "sr:\u0421\u0430\u0431\u043e\u0440\u043d\u0430 \u0446\u0440\u043a\u0432\u0430 \u0443 \u0411\u0435\u043e\u0433\u0440\u0430\u0434\u0443"}}, {"type": "way", "id": 38575518, "center": {"lat": 44.8170977, "lon": 20.4522351}, "nodes": [456919988, 6466736185, 456919990, 3976657781, 3976657782, 3976657776, 3976657775, 3976657773, 456920005, 456919988], "tags": {"addr:housenumber": "8", "addr:street": "\u041a\u043d\u0435\u0437\u0430 \u0421\u0438\u043c\u0435 \u041c\u0430\u0440\u043a\u043e\u0432\u0438\u045b\u0430", "building": "yes", "building:levels": "2", "email": "office@mgb.org.rs", "fee": "yes", "heritage": "2", "heritage:operator": "rzzsk", "heritage:ref": "SK 2", "name": "\u041a\u043e\u043d\u0430\u043a \u043a\u043d\u0435\u0433\u0438\u045a\u0435 \u0409\u0443\u0431\u0438\u0446\u0435", "name:en": "Princess Ljubica's Residence", "name:sr": "\u041a\u043e\u043d\u0430\u043a \u043a\u043d\u0435\u0433\u0438\u045a\u0435 \u0409\u0443\u0431\u0438\u0446\u0435", "name:sr-Latn": "Konak kneginje Ljubice", "name:tr": "Prenses Ljubica'n\u0131n Kona\u011f\u0131", "opening_hours": "Mo off; Tu-Th 10:00-17:00; Fr 10:00-18:00; Sa 10:00-17:00; Su 10:00-14:00", "phone": "+381 11 2638264", "start_date": "1830", "tourism": "museum", "website": "http://www.mgb.org.rs/posetite/konak-kneginje-ljubice", "wikidata": "Q2338245", "wikipedia": "sr:\u041a\u043e\u043d\u0430\u043a \u043a\u043d\u0435\u0433\u0438\u045a\u0435 \u0409\u0443\u0431\u0438\u0446\u0435"}}, {"type": "way", "id": 450824126, "center": {"lat": 44.8234864, "lon": 20.4498902}, "nodes": [503869885, 503869884, 503869883, 650121635, 503869882, 503869881, 659767159, 257799924, 626334131, 626334132, 626334133, 257799922, 257799921, 650118008, 626334103, 257799920, 626334106, 626334107, 257799919, 474794858, 489982497, 7562841132, 7562841130, 7562841129, 7562841131, 489982502, 489982505, 503869866, 503869864, 503869863, 503869862, 257799916, 5181802690, 5181802686, 5181802679, 257799915, 659713703, 659713704, 8463221523, 5630587473, 257799914, 626334100, 626334101, 257799913, 257799912, 257799911, 503869896, 503869894, 503869893, 625723514, 503869892, 503869891, 7827328832, 654043523, 503869889, 653239504, 653239436, 503869888, 503869886, 503869885], "tags": {"castle_type": "fortress", "communication:amateur_radio:wca": "YU-00005", "heritage": "2", "heritage:operator": "rzzsk", "historic": "castle", "int_name": "Beogradska tvrdjava", "name": "\u0411\u0435\u043e\u0433\u0440\u0430\u0434\u0441\u043a\u0430 \u0442\u0432\u0440\u0452\u0430\u0432\u0430", "name:de": "Festung von Belgrad", "name:en": "Belgrade Fortress", "name:fr": "Forteresse de Belgrade", "name:sr": "\u0411\u0435\u043e\u0433\u0440\u0430\u0434\u0441\u043a\u0430 \u0442\u0432\u0440\u0452\u0430\u0432\u0430", "name:sr-Latn": "Beogradska tvr\u0111ava", "name:zh": "\u8d1d\u5c14\u683c\u83b1\u5fb7\u5821\u5792", "operator": "\u0408\u041f \u201e\u0411\u0435\u043e\u0433\u0440\u0430\u0434\u0441\u043a\u0430 \u0442\u0432\u0440\u0452\u0430\u0432\u0430\u201c", "ref:sr:rzzsk": "SK 3", "website": "https://www.beogradskatvrdjava.co.rs/", "wikidata": "Q1409017", "wikipedia": "sr:\u0411\u0435\u043e\u0433\u0440\u0430\u0434\u0441\u043a\u0430 \u0442\u0432\u0440\u0452\u0430\u0432\u0430"}}, {"type": "way", "id": 744514274, "center": {"lat": 44.762033, "lon": 20.6230299}, "nodes": [6967989291, 6967989292, 6967989293, 6967989294, 6967989291], "tags": {"heritage": "2", "heritage:operator": "rzzsk", "historic": "archaeological_site", "historic:civilization": "prehistoric", "historic:era": "neolithic", "name": "\u0410\u0440\u0445\u0435\u043e\u043b\u043e\u0448\u043a\u0438 \u043b\u043e\u043a\u0430\u043b\u0438\u0442\u0435\u0442 \u0412\u0438\u043d\u0447\u0430 - \u0411\u0435\u043b\u043e \u0431\u0440\u0434\u043e", "name:en": "Archaeological site Vin\u010da", "name:pl": "Rezerwat archeologiczny Vinca Belo Brdo", "name:sr": "\u0410\u0440\u0445\u0435\u043e\u043b\u043e\u0448\u043a\u0438 \u043b\u043e\u043a\u0430\u043b\u0438\u0442\u0435\u0442 \u0412\u0438\u043d\u0447\u0430 - \u0411\u0435\u043b\u043e \u0431\u0440\u0434\u043e", "name:sr-Latn": "Arheolo\u0161ki lokalitet Vin\u010da - Belo brdo", "ref:sr:rzzsk": "AN 5", "site_type": "settlement", "wikidata": "Q3560333", "wikipedia": "sr:\u0412\u0438\u043d\u0447\u0430 \u2014 \u0411\u0435\u043b\u043e \u0431\u0440\u0434\u043e"}}, {"type": "way", "id": 715909565, "center": {"lat": 44.3101748, "lon": 21.0566674}, "nodes": [6727757830, 6727757831, 6727757832, 6727757833, 6727757834, 6727757835, 6727757836, 6727757837, 6727757838, 6727757839, 6727757840, 6727757841, 6727757830], "tags": {"amenity": "place_of_worship", "building": "yes", "building:levels": "1", "building:material": "wood", "denomination": "serbian_orthodox", "heritage": "2", "heritage:operator": "rzzsk", "image": "https://upload.wikimedia.org/wikipedia/commons/6/6f/%D0%9C%D0%B0%D0%BD%D0%B0%D1%81%D1%82%D0%B8%D1%80_%D0%9F%D0%BE%D0%BA%D0%B0%D1%98%D0%BD%D0%B8%D1%86%D0%B0_2.jpg", "name": "\u0426\u0440\u043a\u0432\u0430 \u201e\u041f\u043e\u043a\u0430\u0458\u043d\u0438\u0446\u0430\u201c", "name:en": "Church \u201ePokajnica\u201c", "name:sr": "\u0426\u0440\u043a\u0432\u0430 \u201e\u041f\u043e\u043a\u0430\u0458\u043d\u0438\u0446\u0430\u201c", "name:sr-Latn": "Crkva \u201ePokajnica\u201c", "religion": "christian", "start_date": "1818"}}, {"type": "way", "id": 178005350, "center": {"lat": 43.3305924, "lon": 21.8887054}, "nodes": [1883991291, 5060995186, 1883991290, 1883991288, 5060995185, 1883991287, 1923617187, 1883991291], "tags": {"heritage": "2", "heritage:operator": "rzzsk", "heritage:ref": "SK 240", "name": "\u041b\u043e\u0433\u043e\u0440 \u0426\u0440\u0432\u0435\u043d\u0438 \u043a\u0440\u0441\u0442", "name:sr": "\u041b\u043e\u0433\u043e\u0440 \u0426\u0440\u0432\u0435\u043d\u0438 \u043a\u0440\u0441\u0442", "name:sr-Latn": "Logor Crveni krst", "tourism": "museum", "wikidata": "Q698250", "wikipedia": "sr:\u041b\u043e\u0433\u043e\u0440 \u0426\u0440\u0432\u0435\u043d\u0438 \u043a\u0440\u0441\u0442 \u0443 \u041d\u0438\u0448\u0443"}}, {"type": "way", "id": 96921763, "center": {"lat": 43.8993432, "lon": 22.1862732}, "nodes": [1123162799, 1123162686, 1123162710, 2325280535, 1123162742, 1123162799], "tags": {"description:en": "Monument of culture of exceptional importance. UNESCO world heritage site since 2007.", "heritage": "1", "heritage:operator": "whc", "historic": "archaeological_site", "historic:civilization": "ancient_roman", "name": "\u0413\u0430\u043c\u0437\u0438\u0433\u0440\u0430\u0434", "name:en": "Felix Romuliana", "name:he": "\u05d0\u05e8\u05de\u05d5\u05df \u05d2\u05dc\u05e8\u05d9\u05d5\u05e1 \u05d1\u05d2\u05de\u05d9\u05d6\u05d2\u05e8\u05d0\u05d3", "name:sr": "\u0413\u0430\u043c\u0437\u0438\u0433\u0440\u0430\u0434", "name:sr-Latn": "Gamzigrad", "ref:whc": "1253", "site_type": "fortification", "tourism": "attraction", "website": "http://www.serbia.com/srpski/posetite-srbiju/kulturne-atrakcije/arheoloska-nalazista/felix-romuliana-dom-poslednjeg-rimskog-boga/", "whc:inscription_date": "2007", "wikidata": "Q904128", "wikipedia": "sr:\u0413\u0430\u043c\u0437\u0438\u0433\u0440\u0430\u0434"}}, {"type": "way", "id": 651077378, "center": {"lat": 45.8241595, "lon": 20.453228}, "nodes": [6106172641, 6106172642, 6106172643, 6106172644, 6106172645, 6106172646, 6106168560, 6106172648, 6106172649, 6106168559, 6106172651, 6106172652, 6106168558, 6584742090, 6106172654, 6106172655, 6106172656, 6106172657, 6106172641], "tags": {"addr:city": "\u041a\u0438\u043a\u0438\u043d\u0434\u0430", "addr:housenumber": "118", "addr:street": "\u041d\u0435\u043c\u0430\u045a\u0438\u043d\u0430", "building": "yes", "heritage": "2", "heritage:operator": "rzzsk", "historic": "monument", "name": "\u0421\u0443\u0432\u0430\u0447\u0430", "name:en": "Suva\u010da", "name:sr": "\u0421\u0443\u0432\u0430\u0447\u0430", "name:sr-Latn": "Suva\u010da", "ref:sr:rzzsk": "SK", "start_date": "1899", "tourism": "attraction"}}, {"type": "relation", "id": 8889430, "center": {"lat": 44.8184289, "lon": 20.45742}, "members": [{"type": "way", "ref": 38572587, "role": "outer"}, {"type": "way", "ref": 640920288, "role": "inner"}], "tags": {"addr:housenumber": "1", "addr:street": "\u0421\u0442\u0443\u0434\u0435\u043d\u0442\u0441\u043a\u0438 \u0442\u0440\u0433", "building": "yes", "heritage": "2", "heritage:operator": "rzzsk", "heritage:ref": "SK 12", "name": "\u041a\u0430\u043f\u0435\u0442\u0430\u043d \u041c\u0438\u0448\u0438\u043d\u043e \u0437\u0434\u0430\u045a\u0435", "name:en": "Captain Mi\u0161a's Mansion", "name:sr": "\u041a\u0430\u043f\u0435\u0442\u0430\u043d \u041c\u0438\u0448\u0438\u043d\u043e \u0437\u0434\u0430\u045a\u0435", "name:sr-Latn": "Kapetan Mi\u0161ino zdanje", "type": "multipolygon", "wikidata": "Q2413641", "wikipedia": "sr:\u041a\u0430\u043f\u0435\u0442\u0430\u043d-\u041c\u0438\u0448\u0438\u043d\u043e \u0437\u0434\u0430\u045a\u0435"}}]}