{"type": "FeatureCollection", "features": [{"type": "Feature", "properties": {"type": "node", "id": 5197045817, "tags": {"ADMINSTATE": "MUNICIPALITY", "Access_SDP": "Yes", "COMMUN_NAM": "Berat", "PREFECTURE": "BERAT", "PRE_ID": "1", "addr:district": "BASHKIA BERAT", "ele": "58", "heritage": "1", "heritage:operator": "whc", "name": "Berat", "name:al": "Berat", "name:be": "\u0411\u0435\u0440\u0430\u0442", "name:be-tarask": "\u0411\u044d\u0440\u0430\u0442", "name:bg": "\u0411\u0435\u0440\u0430\u0442", "name:de": "Berat", "name:el": "\u0392\u03b5\u03c1\u03ac\u03c4\u03b9", "name:en": "Berat", "name:fr": "Berat", "name:ja": "\u30d9\u30e9\u30c8", "name:lt": "Beratis", "name:mk": "\u0411\u0435\u043b\u0433\u0440\u0430\u0434", "name:ru": "\u0411\u0435\u0440\u0430\u0442", "name:sr": "\u0411\u0435\u0440\u0430\u0442", "name:sr-Latn": "Berat", "name:uk": "\u0411\u0435\u0440\u0430\u0442", "name:zh": "\u57f9\u62c9\u7279", "old_name": "Berati", "place": "city", "population": "65000", "postal_code": "5001", "website": "www.bashkiaberat.gov.al", "wikidata": "Q170244", "wikipedia": "en:Berat"}}, "geometry": {"type": "Point", "coordinates": [19.9580758, 40.7018636]}}, {"type": "Feature", "properties": {"type": "node", "id": 274323115, "tags": {"Access_SDP": "Yes", "COMMUN_NAM": "Gjirokast\u00ebr", "COM_ID": "6105", "DIS_ID": "61", "PRE_ID": "6", "district": "BASHKIA GJIROKAST\u00cbR", "ele": "300", "heritage": "1", "heritage:operator": "whc", "is_in": "Albania", "name": "Gjirokast\u00ebr", "name:al": "Gjirokast\u00ebr", "name:de": "Gjirokast\u00ebr", "name:el": "\u0391\u03c1\u03b3\u03c5\u03c1\u03cc\u03ba\u03b1\u03c3\u03c4\u03c1\u03bf", "name:en": "Gjirokastra", "name:fr": "Gjirokastra", "name:he": "\u05d3\u05d9\u05e8\u05d5\u05e7\u05e1\u05d8\u05e8\u05d4", "name:it": "Argirocastro", "name:ja": "\u30b8\u30ed\u30ab\u30b9\u30c8\u30e9", "name:ko": "\uc9c0\ub85c\uce74\uc2a4\ud130\ub974", "name:lt": "Girokasteris", "name:mk": "\u0403\u0438\u0440\u043e\u043a\u0430\u0441\u0442\u0440\u043e", "name:pl": "D\u017airokastra", "name:ro": "Gjirokastra", "name:ru": "\u0413\u0438\u0440\u043e\u043a\u0430\u0441\u0442\u0440\u0430", "name:rup": "Ljurocastru", "name:sr": "\u0402\u0438\u0440\u043e\u043a\u0430\u0441\u0442\u0440\u0430", "name:tr": "Ergiri", "name:zh": "\u5409\u8bfa\u5361\u65af\u7279", "old_name": "Gjirokast\u00ebr", "place": "city", "population": "34450", "postal_code": "6001 \u2013 6003", "prefecture": "Gjirokast\u00ebr", "type": "City_municipality", "wikidata": "Q173690", "wikipedia": "en:Gjirokast\u00ebr"}}, "geometry": {"type": "Point", "coordinates": [20.1393359, 40.0770871]}}, {"type": "Feature", "properties": {"type": "way", "id": 256162012, "tags": {"building": "office", "government": "parliament", "heritage": "2", "name": "Kuvendi i Shqip\u00ebris\u00eb", "name:de": "Versammlung Albaniens", "name:en": "Parliament of Albania", "name:es": "Parlamento de Albania", "name:fr": "Assembl\u00e9e d'Albanie", "name:it": "Assemblea di Albania", "name:pt": "Parlamento da Alb\u00e2nia", "office": "government", "wikidata": "Q1135960", "wikipedia": "en:Parliament of Albania"}}, "geometry": {"type": "Point", "coordinates": [19.8230393, 41.3259864]}}, {"type": "Feature", "properties": {"type": "relation", "id": 9316413, "tags": {"fee": "yes", "heritage": "1", "heritage:operator": "whc", "historic": "archaeological_site", "name": "Butrint", "name:en": "Buthrotum", "name:it": "Butrintas", "name:sq": "Butrint", "name:zh": "\u5e03\u7279\u6797\u7279", "opening_hours": "Mo-Su 08:00-17:00", "tourism": "attraction", "type": "multipolygon", "website": "http://butrint.al/", "wikidata": "Q188694", "wikipedia": "en:Butrint"}}, "geometry": {"type": "Point", "coordinates": [20.0206274, 39.7458441]}}]}