{"version": 0.6, "generator": "Overpass API 0.7.56.7 b85c4387", "osm3s": {"timestamp_osm_base": "2021-03-02T15:18:01Z", "timestamp_areas_base": "2021-03-02T14:31:12Z", "copyright": "The data included in this document is from www.openstreetmap.org. The data is made available under ODbL."}, "elements": [{"type": "node", "id": 331769806, "lat": 37.0753213, "lon": 22.3692477, "tags": {"heritage": "1", "heritage:operator": "whc", "historic": "archaeological_site", "name": "\u0392\u03c5\u03b6\u03b1\u03bd\u03c4\u03b9\u03bd\u03ae \u039a\u03ac\u03c3\u03c4\u03c1\u03bf\u03c0\u03bf\u03bb\u03b9\u03c4\u03b5\u03af\u03b1 \u039c\u03c5\u03c3\u03c4\u03c1\u03ac", "name:de": "Mystras", "name:en": "Byzantin Mystras Castle", "name:it": "Castello bizantino di Mistra", "tourism": "attraction", "wikidata": "Q19053", "wikipedia": "en:Mystras"}}, {"type": "node", "id": 1842659765, "lat": 37.3091187, "lon": 26.5464039, "tags": {"addr:postcode": "85500", "alt_name": "Chora", "heritage": "1", "heritage:operator": "whc", "historic": "heritage", "name": "\u03a0\u03ac\u03c4\u03bc\u03bf\u03c2", "name:de": "Patmos", "name:el": "\u03a0\u03ac\u03c4\u03bc\u03bf\u03c2", "name:en": "Patmos", "name:ru": "\u041f\u0430\u0442\u043c\u043e\u0441", "place": "village", "population": "541", "source": "geodata.gov.gr"}}, {"type": "node", "id": 272760071, "lat": 37.3144714, "lon": 26.5449861, "tags": {"heritage": "1", "heritage:operator": "whc", "name": "Joannis Cave", "name:de": "H\u00f6hle der Apokalypse", "name:el": "\u0391\u03c0\u03bf\u03ba\u03b1\u03bb\u03c5\u03c8\u03b7 \u0399\u03c9\u03b1\u03bd\u03bd\u03b7", "opening_hours": "08:00-13:30; Su,Tu,Th 16:00-18:00", "tourism": "attraction"}}, {"type": "node", "id": 2286658095, "lat": 36.4428311, "lon": 28.2265569, "tags": {"heritage": "1", "heritage:operator": "whc", "int_name": "Medieval city of Rhodes", "name": "\u039c\u03b5\u03c3\u03b1\u03b9\u03c9\u03bd\u03b9\u03ba\u03ae \u03c0\u03cc\u03bb\u03b7 \u03c4\u03b7\u03c2 \u03a1\u03cc\u03b4\u03bf\u03c5", "name:de": "Rhodos \u2013 mittelalterliche Stadt", "name:el": "\u039c\u03b5\u03c3\u03b1\u03b9\u03c9\u03bd\u03b9\u03ba\u03ae \u03c0\u03cc\u03bb\u03b7 \u03c4\u03b7\u03c2 \u03a1\u03cc\u03b4\u03bf\u03c5", "name:en": "Medieval city of Rhodes", "name:fi": "Rodoksen vanhakaupunki", "name:ro": "Ora\u0219ul Medieval din Rodos", "place": "suburb", "wikidata": "Q876685", "wikipedia": "el:\u039c\u03b5\u03c3\u03b1\u03b9\u03c9\u03bd\u03b9\u03ba\u03ae \u03c0\u03cc\u03bb\u03b7 \u03c4\u03b7\u03c2 \u03a1\u03cc\u03b4\u03bf\u03c5"}}, {"type": "node", "id": 275563675, "lat": 37.6909513, "lon": 26.9423945, "tags": {"addr:postcode": "83103", "ele": "43", "heritage": "1", "heritage:operator": "whc", "int_name": "Pithagorio", "name": "\u03a0\u03c5\u03b8\u03b1\u03b3\u03cc\u03c1\u03b5\u03b9\u03bf", "name:de": "Pythagoreion", "name:el": "\u03a0\u03c5\u03b8\u03b1\u03b3\u03cc\u03c1\u03b5\u03b9\u03bf", "name:en": "Pythagorio", "name:fr": "Pythagorio", "name:ru": "\u041f\u0438\u0442\u0430\u0433\u043e\u0440\u0438\u043e\u043d", "place": "village", "population": "1327", "wikidata": "Q1857915", "wikipedia": "el:\u03a0\u03c5\u03b8\u03b1\u03b3\u03cc\u03c1\u03b5\u03b9\u03bf"}}, {"type": "way", "id": 39984003, "center": {"lat": 37.6381975, "lon": 21.6312914}, "nodes": [1363501632, 7119134325, 7119134326, 7119134327, 7119134328, 1363501614, 1363501608, 1363501602, 1363501601, 1363501598, 1363501597, 1363501596, 1363501604, 282792581, 1363501611, 282792747, 1363501625, 2980969171, 3701030302, 3701030304, 3701030301, 3701030303, 279088786, 279088787, 480348334, 279088788, 1385067272, 480348327, 1363501616, 281898926, 480348325, 1363501613, 281896857, 7119134439, 480348321, 281896914, 1385243415, 281896855, 7119134335, 1363501632], "tags": {"fee": "yes", "heritage": "1", "heritage:operator": "whc", "historic": "archaeological_site", "name": "\u039f\u03bb\u03c5\u03bc\u03c0\u03af\u03b1", "name:de": "Olympia", "name:el": "\u039f\u03bb\u03c5\u03bc\u03c0\u03af\u03b1", "name:en": "Olympia", "name:es": "Olimpia", "name:et": "Ol\u00fcmpia", "name:fr": "Olympie", "name:nl": "Olympia", "name:ru": "\u041e\u043b\u0438\u043c\u043f\u0438\u044f", "name:sl": "Olimpija", "name:sv": "Olympia", "opening_hours": "Mo-Su 08:00-20:00", "wikidata": "Q38888", "wikipedia": "el:\u039f\u03bb\u03c5\u03bc\u03c0\u03af\u03b1"}}, {"type": "way", "id": 219435834, "center": {"lat": 37.4296348, "lon": 21.9002305}, "nodes": [2285955828, 2285955829, 2285955830, 2285955831, 2285955828], "tags": {"addr:street": "\u03a0\u03b5\u03c1\u03b9\u03b2\u03cc\u03bb\u03b9\u03b1 - \u039d\u03b1\u03cc\u03c2 \u0391\u03c0\u03cc\u03bb\u03bb\u03c9\u03bd\u03b1", "building": "ruins", "heritage": "1", "heritage:operator": "whc", "int_name": "Temple of Apollo Epicurius at Bassae", "name": "\u039d\u03b1\u03cc\u03c2 \u03c4\u03bf\u03c5 \u0395\u03c0\u03b9\u03ba\u03bf\u03cd\u03c1\u03b9\u03bf\u03c5 \u0391\u03c0\u03cc\u03bb\u03bb\u03c9\u03bd\u03b1", "name:el": "\u039d\u03b1\u03cc\u03c2 \u03c4\u03bf\u03c5 \u0395\u03c0\u03b9\u03ba\u03bf\u03cd\u03c1\u03b9\u03bf\u03c5 \u0391\u03c0\u03cc\u03bb\u03bb\u03c9\u03bd\u03b1", "name:en": "Temple of Apollo Epicurius", "name:it": "Tempio di Apollo Epicurio", "name:ru": "\u0425\u0440\u0430\u043c \u0410\u043f\u043e\u043b\u043b\u043e\u043d\u0430 \u042d\u043f\u0438\u043a\u0443\u0440\u0435\u0439\u0441\u043a\u043e\u0433\u043e", "ref:whc": "392", "ruins": "temple", "source": "Bing", "website": "http://www.lhepka.gr/epikourios.htm", "whc:criteria": "(i),(ii),(iii)", "whc:inscription_date": "1986", "wikidata": "Q38278862", "wikipedia": "el:\u039d\u03b1\u03cc\u03c2 \u0395\u03c0\u03b9\u03ba\u03bf\u03cd\u03c1\u03b9\u03bf\u03c5 \u0391\u03c0\u03cc\u03bb\u03bb\u03c9\u03bd\u03b1"}}, {"type": "way", "id": 281222021, "center": {"lat": 37.5992217, "lon": 22.8000855}, "nodes": [2852003157, 2852003155, 8132660086, 8132660087, 8172467926, 2852029697, 8172467927, 2852029698, 2852003156, 2852029699, 2852003164, 2852003170, 2852003168, 2852003171, 2852003173, 2852003172, 2852003169, 2852003167, 2852003165, 2852003163, 2852003161, 8172467856, 8172467855, 2852003159, 2852003158, 2852003157], "tags": {"heritage": "1", "heritage:operator": "whc", "historic": "archaeological_site", "name": "\u03a4\u03af\u03c1\u03c5\u03bd\u03b8\u03b1", "name:de": "Tiryntha (Tiryns)", "name:el": "\u03a4\u03af\u03c1\u03c5\u03bd\u03b8\u03b1", "name:en": "Tiryntha (Tiryns)", "name:fr": "Tiryntha (Tiryns)", "ref:whc": "941", "type": "multipolygon", "whc:criteria": "i, ii, iii, iv, vi", "whc:inscription_date": "1992", "wikidata": "Q217379", "wikipedia": "el:\u03a4\u03af\u03c1\u03c5\u03bd\u03b8\u03b1"}}, {"type": "way", "id": 30109566, "center": {"lat": 37.7292388, "lon": 22.7565495}, "nodes": [1600259787, 1600259731, 1600259714, 1600259707, 1600259698, 1600259691, 1600259687, 1600259680, 1600259667, 1600259642, 1600259632, 1600259639, 1600259643, 1600259661, 1600260861, 1600261518, 1600261791, 331774455, 1221909391, 1221910204, 1600262065, 331774456, 1600262078, 331774458, 331774459, 1600261972, 1600261955, 331774460, 1600261879, 331774462, 1600261012, 1600260630, 1600260528, 331774463, 1600260539, 1600260302, 331774464, 331774465, 331774466, 1600259897, 1600259869, 1600259832, 1600259787], "tags": {"addr:place": "\u039c\u03c5\u03ba\u03ae\u03bd\u03b5\u03c2", "heritage": "1", "heritage:operator": "whc", "historic": "archaeological_site", "historic:civilization": "Mycenean", "name": "\u039c\u03c5\u03ba\u03ae\u03bd\u03b5\u03c2", "name:cs": "Myk\u00e9ny", "name:de": "Mykene", "name:el": "\u039c\u03c5\u03ba\u03ae\u03bd\u03b5\u03c2", "name:en": "Mycenae", "name:fr": "Mykene", "name:nl": "Mykene", "site_type": "settlement", "tourism": "attraction", "wikidata": "Q132564", "wikipedia": "en:Mycenae"}}, {"type": "way", "id": 30110346, "center": {"lat": 37.5981188, "lon": 23.0759727}, "nodes": [331789910, 1629614561, 331789911, 331789913, 1629614515, 331789914, 1629614521, 1629614478, 1629614467, 331789917, 1629614425, 1629614433, 5072178353, 1629614473, 1629614536, 331789921, 1629614611, 1629614640, 3815964776, 1629614699, 331789922, 331789923, 331789925, 331789926, 1221172614, 1221172530, 1221172409, 1629615318, 1221172374, 3068645548, 1629615331, 3068645553, 1629615338, 1221172503, 1221172646, 3815964777, 331789927, 3815964778, 3815964779, 3815964780, 1629615261, 1629615031, 1629615054, 331789929, 1629614742, 331789930, 1629614661, 331789931, 331789934, 331789939, 331789910], "tags": {"heritage": "1", "heritage:operator": "whc", "historic": "archaeological_site", "historic:civilization": "ancient_greek", "name": "\u0395\u03c0\u03af\u03b4\u03b1\u03c5\u03c1\u03bf\u03c2", "name:cs": "Epidaurus", "name:de": "Antike Stadt Epidauros (Asklepeion)", "name:el": "\u0395\u03c0\u03af\u03b4\u03b1\u03c5\u03c1\u03bf\u03c2", "name:nl": "Epidauros", "operator": "\u0395\u03c6\u03bf\u03c1\u03b5\u03af\u03b1 \u0391\u03c1\u03c7\u03b1\u03b9\u03bf\u03c4\u03ae\u03c4\u03c9\u03bd \u0391\u03c1\u03b3\u03bf\u03bb\u03af\u03b4\u03b1\u03c2", "site_type": "city", "tourism": "attraction", "wikidata": "Q233576", "wikipedia": "el:\u0395\u03c0\u03af\u03b4\u03b1\u03c5\u03c1\u03bf\u03c2"}}, {"type": "way", "id": 379737941, "center": {"lat": 39.7239302, "lon": 21.6248114}, "nodes": [3830668085, 3830668078, 3830668079, 3830668080, 3830668087, 3830668081, 3830668082, 3830668083, 3830668084, 3830668086, 3830668085], "tags": {"addr:city": "\u039a\u03b1\u03bb\u03b1\u03bc\u03c0\u03ac\u03ba\u03b1", "addr:country": "GR", "amenity": "place_of_worship", "building": "yes", "denomination": "greek_orthodox", "description": "http://users.sch.gr/elianos/meteora_agiou_nikolaou_eng.htm", "description:ro": "http://www.crestinortodox.ro/biserica-lume/manastirea-sfantul-nicolae-anapafsas-67715.html", "heritage": "1", "heritage:operator": "whc", "historic": "monastery", "int_name": "Aghios Nicholaos Anapafsas", "name": "\u039c\u03bf\u03bd\u03ae \u0391\u03b3\u03af\u03bf\u03c5 \u039d\u03b9\u03ba\u03bf\u03bb\u03ac\u03bf\u03c5 \u0391\u03bd\u03b1\u03c0\u03b1\u03c5\u03c3\u03ac", "name:ro": "M\u0103n\u0103stirea Ortodox\u0103 \u201eSf\u00e2ntul Nicolae Anapafsas\u201d Meteora", "opening_hours": "09:00-15:30; Fr off; Nov-Mar Sa-Th 09:00-14:00", "opening_hours:source": "https://www.visitmeteora.travel/en/monasteries-visiting-hours", "phone": "+302432022375", "religion": "christian", "start_date": "1527", "website": "https://www.meteora-greece.com/the-holy-monastery-of-st-nicholas-anapausas/"}}, {"type": "way", "id": 534903882, "center": {"lat": 39.72648, "lon": 21.6265478}, "nodes": [5681437822, 5186386946, 5186386947, 5186386948, 5186386949, 5186386950, 5186386951, 7006492037, 5186386952, 5186386953, 5186386954, 5186386955, 5885321380, 5186386957, 5186386958, 5186386959, 5885321381, 5186386960, 5186386961, 5186386962, 5186386963, 4333482099, 1326842954, 5186386964, 5186386965, 5186386966, 5186386967, 5186386968, 5186386969, 5186386970, 5186386971, 5681437822], "tags": {"addr:city": "\u039a\u03b1\u03bb\u03b1\u03bc\u03c0\u03ac\u03ba\u03b1", "addr:country": "GR", "alt_name": "Metamorphosis", "amenity": "place_of_worship", "building": "yes", "denomination": "greek_orthodox", "description": "https://el.wikipedia.org/wiki/\u039c\u03b5\u03b3\u03ac\u03bb\u03bf_\u039c\u03b5\u03c4\u03ad\u03c9\u03c1\u03bf", "description:ro": "http://www.crestinortodox.ro/biserica-lume/marele-meteor-manastirea-schimbarea-fata-67712.html", "heritage": "1", "heritage:operator": "whc", "historic": "monastery", "int_name": "Megalou Meteoron", "name": "\u039c\u03bf\u03bd\u03ae \u039c\u03b5\u03b3\u03ac\u03bb\u03bf\u03c5 \u039c\u03b5\u03c4\u03b5\u03ce\u03c1\u03bf\u03c5", "name:el": "\u039c\u03bf\u03bd\u03ae \u039c\u03b5\u03b3\u03ac\u03bb\u03bf\u03c5 \u039c\u03b5\u03c4\u03b5\u03ce\u03c1\u03bf\u03c5", "name:en": "Holy Monastery of Great Meteoron;1", "name:ro": "M\u0103n\u0103stirea Ortodox\u0103 a \u201eMarelui Meteor\u201d Meteora", "opening_hours": "09:00-17:00; Tu off; Nov-Mar We-Mo 09:00-15:00; Nov-Mar We off", "religion": "christian", "tourism": "attraction", "website": "https://www.meteora-greece.com/the-holy-monastery-of-great-meteoron/"}}, {"type": "way", "id": 379736573, "center": {"lat": 39.7093699, "lon": 21.63883}, "nodes": [886402312, 3830653315, 1326842942, 3830653318, 3830653335, 3830653270, 3830653266, 3830653276, 3830653278, 3830653282, 3830653269, 3830653285, 3830653351, 3830653319, 3830653348, 1326842700, 3830643345, 3830653287, 3830653280, 3830653292, 3830653354, 1326842897, 3830653301, 3830653326, 3830653336, 3830653340, 3830653257, 3830643350, 3830653339, 886402312], "tags": {"addr:city": "\u039a\u03b1\u03bb\u03b1\u03bc\u03c0\u03ac\u03ba\u03b1", "addr:country": "GR", "amenity": "monastery", "building": "yes", "denomination": "greek_orthodox", "description": "http://users.sch.gr/elianos/meteora_agios_stefanos_eng.htm", "description:ro": "http://www.crestinortodox.ro/biserica-lume/manastirea-sfantul-stefan-meteora-67719.html", "heritage": "1", "heritage:operator": "whc", "historic": "monastery", "int_name": "Aghios Stephanos", "name": "\u0399\u03b5\u03c1\u03ac \u039c\u03bf\u03bd\u03ae \u0391\u03b3\u03af\u03bf\u03c5 \u03a3\u03c4\u03b5\u03c6\u03ac\u03bd\u03bf\u03c5", "name:el": "\u0399\u03b5\u03c1\u03ac \u039c\u03bf\u03bd\u03ae \u0391\u03b3\u03af\u03bf\u03c5 \u03a3\u03c4\u03b5\u03c6\u03ac\u03bd\u03bf\u03c5", "name:en": "St Stephen's Holy Monastery", "name:fr": "Monast\u00e8re Saint-\u00c9tienne", "name:ro": "M\u0103n\u0103stirea Ortodox\u0103 \u201eSf\u00e2ntul \u0218tefan\u201d Meteora", "name:ru": "\u041c\u043e\u043d\u0430\u0441\u0442\u044b\u0440\u044c \u0421\u0432\u044f\u0442\u043e\u0433\u043e \u0421\u0442\u0435\u0444\u0430\u043d\u0430", "opening_hours": "Tu-Su 09:00-13:30,15:30-17:30; Nov-Mar Tu-Su 09:30-13:00,15:00-17:00", "start_date": "1545", "website": "https://www.meteora-greece.com/the-holy-monastery-of-st-stephen/"}}, {"type": "way", "id": 379736577, "center": {"lat": 39.7132057, "lon": 21.6358092}, "nodes": [3830643344, 3830653331, 3830653349, 3830653312, 3830653288, 3830643343, 7069816277, 7069816276, 3830653350, 3830643346, 3830653273, 3830653334, 3830643335, 3830653356, 7069827690, 7069827689, 3830643347, 3830653274, 3830643344], "tags": {"addr:city": "Kalampaka", "addr:country": "GR", "alt_name": "Holy Trinity Monastery", "alt_name:it": "Monastero della Santa Trinit\u00e0", "amenity": "place_of_worship", "building": "yes", "denomination": "greek_orthodox", "description": "http://users.sch.gr/elianos/meteora_agias_triadas_eng.htm", "description:ro": "http://www.crestinortodox.ro/biserica-lume/meteora-manastirea-sfanta-treime-67713.html", "heritage": "1", "heritage:operator": "whc", "historic": "monastery", "int_name": "Aghia Triada", "name": "\u039c\u03bf\u03bd\u03ae \u0391\u03b3\u03af\u03b1\u03c2 \u03a4\u03c1\u03b9\u03ac\u03b4\u03bf\u03c2", "name:de": "Kloster Agia Triada", "name:en": "The Holy Trinity Monastery", "name:it": "Monastero Aghia Triada", "name:ro": "M\u0103n\u0103stirea Ortodox\u0103 \u201eSf\u00e2nta Treime\u201d Meteora", "name:ru": "\u041c\u043e\u043d\u0430\u0441\u0442\u044b\u0440\u044c \u0421\u0432\u044f\u0442\u043e\u0439 \u0422\u0440\u043e\u0438\u0446\u044b", "opening_hours": "10:00-16:00; Th off", "religion": "christian", "start_date": "1475", "tourism": "attraction", "website": "https://www.meteora-greece.com/the-monastery-of-holy-trinity/", "wikidata": "Q2179863", "wikipedia": "en:Monastery of the Holy Trinity, Meteora"}}, {"type": "way", "id": 379736574, "center": {"lat": 39.7215804, "lon": 21.6319715}, "nodes": [286886998, 3830653295, 3830653296, 3830643349, 3830653332, 3830653302, 3830653304, 3830643333, 3830653333, 2442503423, 3830653357, 3830653294, 3830653289, 3830653284, 3830643337, 3830653303, 3830643355, 3830643341, 3830653307, 3830653352, 286886998], "tags": {"addr:city": "\u039a\u03b1\u03bb\u03b1\u03bc\u03c0\u03ac\u03ba\u03b1", "addr:country": "GR", "amenity": "monastery", "building": "yes", "denomination": "greek_orthodox", "description:ro": "http://www.crestinortodox.ro/biserica-lume/manastirea-rousanou-67717.html", "heritage": "1", "heritage:operator": "whc", "historic": "monastery", "int_name": "Rousanou", "name": "\u0399\u03b5\u03c1\u03ac \u039c\u03bf\u03bd\u03ae \u03a1\u03bf\u03c5\u03c3\u03ac\u03bd\u03bf\u03c5", "name:el": "\u0399\u03b5\u03c1\u03ac \u039c\u03bf\u03bd\u03ae \u03a1\u03bf\u03c5\u03c3\u03ac\u03bd\u03bf\u03c5", "name:en": "3;The Holy Monastery of Roussanou", "name:fr": "Monast\u00e8re Roussanou", "name:ro": "M\u0103n\u0103stirea Ortodox\u0103 \u201eRusanu\u201d Meteora", "opening_hours": "09:00-17:00; We off; Nov-Mar Th-Tu 09:00-14:00", "religion": "christian", "start_date": "1527", "tourism": "attraction", "website": "https://www.roussanou.gr", "wikidata": "Q2337128"}}, {"type": "way", "id": 634421149, "center": {"lat": 39.724863, "lon": 21.6298364}, "nodes": [886379306, 7006491994, 7006491993, 7006491992, 7006491990, 7006491991, 5987180963, 5987180962, 5987180961, 5987180960, 5987180959, 5987180958, 7006491995, 5987180957, 5987180956, 1326842801, 5987180955, 5987180954, 886379306], "tags": {"addr:city": "\u039a\u03b1\u03bb\u03b1\u03bc\u03c0\u03ac\u03ba\u03b1", "addr:country": "GR", "amenity": "place_of_worship", "building": "yes", "denomination": "greek_orthodox", "description": "http://users.sch.gr/elianos/meteora_barlaam_eng.htm", "description:ro": "http://www.crestinortodox.ro/biserica-lume/manastirea-varlaam-meteora-67720.html", "heritage": "1", "heritage:operator": "whc", "historic": "monastery", "int_name": "The Holy Monastery of Varlaam", "name": "\u0399\u03b5\u03c1\u03ac \u039c\u03bf\u03bd\u03ae \u0392\u03b1\u03c1\u03bb\u03b1\u03ac\u03bc", "name:el": "\u0399\u03b5\u03c1\u03ac \u039c\u03bf\u03bd\u03ae \u0392\u03b1\u03c1\u03bb\u03b1\u03ac\u03bc", "name:en": "The Holy Monastery of Varlaam", "name:fr": "Monast\u00e8re Saint-Varlaam", "name:ro": "M\u0103n\u0103stirea Ortodox\u0103 \u201eVarlaam\u201d Meteora", "opening_hours": "09:00-16:00; Fr off; Nov-Mar Sa-Th 09:00-15:00; Nov-Mar Th off", "religion": "christian", "start_date": "1544", "website": "https://www.meteora-greece.com/the-holy-monastery-of-varlaam/"}}, {"type": "way", "id": 145690044, "center": {"lat": 38.4811464, "lon": 22.5028901}, "nodes": [1590600429, 1590600251, 1590599879, 1590599618, 1590599592, 1590599836, 1590600006, 1590599921, 1590598844, 1590598853, 1590598825, 1590598750, 1590598695, 1590598634, 1590598545, 1590598493, 1590598436, 1590598435, 1590598433, 1590598420, 1590598415, 1590598407, 1590598391, 1590598389, 1590598411, 1590598428, 1590598434, 1590598472, 1590598488, 1590598509, 1590598527, 1590598583, 1590598632, 1590598649, 1590598688, 1590598698, 1590598736, 1590598747, 1590598755, 1590598781, 1590598803, 1590598838, 1590598841, 1590598875, 1590598905, 1590598934, 1590599050, 1590599350, 1590599458, 1590599581, 1590599701, 1590599888, 1590600031, 1590600106, 1590600301, 1590600390, 1590600483, 1590600556, 1590600564, 1590600611, 1590600443, 1590600304, 1590600084, 1590599984, 1590599876, 1590599713, 1590599332, 1590598976, 1590598901, 1590598872, 1590598851, 1590598833, 1590598796, 1590598757, 1590598744, 1590598691, 1590598642, 1590598558, 1590598524, 1590598512, 1590598486, 1590598490, 1590598521, 1590598589, 1590598650, 1590598696, 1590598752, 1590598802, 1590598847, 1590599545, 1590600530, 1590600792, 1590600894, 1590600944, 1590600949, 1590600891, 1590600841, 1590600719, 1590600797, 1590600900, 1590600947, 1590600953, 1590600940, 1590600924, 1590600487, 1590600429], "tags": {"alt_name:cs": "Archeologick\u00e1 lokalita v Delf\u00e1ch", "alt_name:en": "Archaeological Site of Delphi", "fee": "yes", "heritage": "1", "heritage:operator": "whc", "historic": "archaeological_site", "int_name": "Delphi", "name": "\u0394\u03b5\u03bb\u03c6\u03bf\u03af", "name:cs": "Delfy", "name:el": "\u0394\u03b5\u03bb\u03c6\u03bf\u03af", "name:es": "Sitio arqueol\u00f3gico de Delfos", "name:nl": "Delphi", "ref:whc": "393", "site_type": "city", "tourism": "attraction", "whc:criteria": "(i),(ii),(iii),(iv),(vi)", "whc:inscription_date": "1987", "wikidata": "Q75459", "wikipedia": "el:\u0394\u03b5\u03bb\u03c6\u03bf\u03af"}}, {"type": "way", "id": 219565765, "center": {"lat": 38.3951534, "lon": 22.7464071}, "nodes": [2287115602, 2287115601, 2287115599, 2287115598, 2287115594, 2287115429, 2287115384, 2287115382, 2287115381, 2287115375, 2287115372, 2287115371, 2287115342, 2287115336, 2287115323, 2287115360, 2287115348, 2287115354, 2287115366, 2287115373, 2287115374, 2287115376, 2287115377, 2287115378, 2287115379, 2287115380, 2287115383, 1303604613, 2287115389, 2287115423, 2287115509, 2287115587, 2287115592, 2287115591, 2287115595, 2287115596, 2287115597, 2287115600, 2287115603, 2287115604, 2287115605, 2287115602], "tags": {"amenity": "monastery", "heritage": "1", "heritage:operator": "whc", "historic": "heritage", "name": "\u039c\u03bf\u03bd\u03ae \u039f\u03c3\u03af\u03bf\u03c5 \u039b\u03bf\u03c5\u03ba\u03ac", "name:de": "Kloster Hosios Lukas", "tourism": "attraction", "wikipedia": "el:\u039c\u03bf\u03bd\u03ae \u039f\u03c3\u03af\u03bf\u03c5 \u039b\u03bf\u03c5\u03ba\u03ac"}}, {"type": "way", "id": 208889169, "center": {"lat": 38.0129771, "lon": 23.6359256}, "nodes": [557245768, 2191461811, 2191461810, 2191461805, 2191461803, 2191461798, 2191461796, 2191461802, 2191461800, 2191461809, 2191461807, 2191461812, 2191461813, 2191461814, 2191461815, 2191461818, 2191461820, 2191461816, 2191461817, 557245791, 557245768], "tags": {"amenity": "place_of_worship", "building": "yes", "denomination": "greek_orthodox", "heritage": "1", "heritage:operator": "whc", "historic": "monastery", "int_name": "Daphni Monastery", "name": "\u039c\u03bf\u03bd\u03ae \u0394\u03b1\u03c6\u03bd\u03af\u03bf\u03c5", "name:cs": "Kl\u00e1\u0161ter Dafnion", "name:de": "Kloster Daphni", "religion": "christian", "wikidata": "Q500444", "wikipedia": "el:\u039c\u03bf\u03bd\u03ae \u0394\u03b1\u03c6\u03bd\u03af\u03bf\u03c5"}}, {"type": "way", "id": 219519550, "center": {"lat": 37.309019, "lon": 26.5476053}, "nodes": [2286683990, 2286683994, 2286683992, 2286683997, 2286683995, 2286684000, 2286683999, 2286684003, 2286684002, 2286684008, 2286684007, 2286684005, 2286684001, 2286684006, 2286684004, 2286683998, 2286683996, 2286683993, 2286683989, 2286683987, 2286683984, 2286683983, 2286683981, 2286683979, 2286683978, 2286683972, 2286683957, 2286683934, 2286683926, 2286683925, 2286683927, 2286683928, 2286683929, 2286683930, 2286683940, 2286683960, 2286683946, 2286683951, 2286683961, 2286683966, 2286683980, 2286683982, 2286683985, 2286683986, 2286683988, 2286683991, 2286683990], "tags": {"building": "yes", "heritage": "1", "heritage:operator": "whc", "historic": "monastery", "name": "\u039c\u03bf\u03bd\u03ae \u0391\u03b3. \u0399\u03c9\u03ac\u03bd\u03bd\u03bf\u03c5 \u0398\u03b5\u03bf\u03bb\u03cc\u03b3\u03bf\u03c5", "name:de": "Kloster des Heiligen Johannes", "ref:whc": "942", "wikidata": "Q1982506", "wikipedia": "en:Monastery of Saint John the Theologian"}}, {"type": "way", "id": 219566784, "center": {"lat": 38.3742113, "lon": 26.0549859}, "nodes": [2287126670, 2287126661, 2287126639, 2287126617, 2287126613, 2287126605, 2287126628, 2287126651, 2287126634, 2287126622, 2287126600, 2287126594, 2287126611, 2287126645, 2287126657, 2287126666, 2287126670], "tags": {"amenity": "monastery", "heritage": "1", "heritage:operator": "whc", "historic": "heritage", "name": "\u039d\u03ad\u03b1 \u039c\u03bf\u03bd\u03ae \u03a7\u03af\u03bf\u03c5", "name:de": "Kloster Nea Moni", "name:en": "Nea Moni of Chios", "tourism": "attraction", "wikipedia": "el:\u039d\u03ad\u03b1 \u039c\u03bf\u03bd\u03ae \u03a7\u03af\u03bf\u03c5"}}, {"type": "way", "id": 135978038, "center": {"lat": 40.6427756, "lon": 22.937493}, "nodes": [1492349306, 1492349297, 1492349302, 1492349301, 1492349303, 1492349305, 1492349307, 1492349308, 1492349309, 1492349310, 1492349306], "tags": {"amenity": "place_of_worship", "building": "church", "denomination": "greek_orthodox", "heritage": "1", "heritage:operator": "whc", "historic": "heritage", "historic:civilization": "byzantine", "name": "\u039d\u03b1\u03cc\u03c2 \u0394\u03ce\u03b4\u03b5\u03ba\u03b1 \u0391\u03c0\u03bf\u03c3\u03c4\u03cc\u03bb\u03c9\u03bd", "name:de": "Kirche der Heiligen Apostel", "name:el": "\u039d\u03b1\u03cc\u03c2 \u0394\u03ce\u03b4\u03b5\u03ba\u03b1 \u0391\u03c0\u03bf\u03c3\u03c4\u03cc\u03bb\u03c9\u03bd", "name:fr": "Naos Dodeka Apostolon", "religion": "christian", "wikipedia": "el:\u039d\u03b1\u03cc\u03c2 \u0391\u03b3\u03af\u03c9\u03bd \u0391\u03c0\u03bf\u03c3\u03c4\u03cc\u03bb\u03c9\u03bd \u0398\u03b5\u03c3\u03c3\u03b1\u03bb\u03bf\u03bd\u03af\u03ba\u03b7\u03c2"}}, {"type": "way", "id": 27715355, "center": {"lat": 40.6328359, "lon": 22.9469839}, "nodes": [304343052, 304343055, 1447396193, 1447396192, 5471151003, 5471150999, 5471151000, 5471151001, 1447396190, 5471151002, 304343059, 304343061, 304343065, 304343069, 304343052], "tags": {"amenity": "place_of_worship", "building": "church", "denomination": "greek_orthodox", "heritage": "1", "heritage:operator": "whc", "historic": "church", "historic:civilization": "byzantine", "int_name": "Agia Sofia", "name": "\u0391\u03b3\u03af\u03b1 \u03a3\u03bf\u03c6\u03af\u03b1", "name:de": "Hagia Sophia", "name:en": "Agia Sofia", "name:fr": "\u00c9glise Sainte-Sophie", "name:mk": "\u0421\u0432. \u0421\u043e\u0444\u0438\u0458\u0430", "name:ro": "Sf. Sofia", "name:ru": "\u0421\u0432\u044f\u0442\u0430\u044f \u0421\u043e\u0444\u0438\u044f", "religion": "christian", "wheelchair": "no", "wikidata": "Q1568660", "wikipedia": "el:\u0391\u03b3\u03af\u03b1 \u03a3\u03bf\u03c6\u03af\u03b1 (\u0398\u03b5\u03c3\u03c3\u03b1\u03bb\u03bf\u03bd\u03af\u03ba\u03b7)"}}, {"type": "way", "id": 32624145, "center": {"lat": 40.6349799, "lon": 22.9479523}, "nodes": [1529263258, 1529263271, 366896184, 1740248991, 366896182, 366896197, 1529263281, 1529263276, 1529263267, 1529263259, 1529263260, 1529263852, 366896199, 1529263258], "tags": {"addr:street": "\u0391\u03b3\u03af\u03b1\u03c2 \u03a3\u03bf\u03c6\u03af\u03b1\u03c2", "amenity": "place_of_worship", "building": "church", "denomination": "orthodox", "heritage": "1", "heritage:operator": "whc", "historic": "heritage", "historic:period": "byzantine", "name": "\u0391\u03c7\u03b5\u03b9\u03c1\u03bf\u03c0\u03bf\u03af\u03b7\u03c4\u03bf\u03c2", "name:de": "Panagia Acheiropoietos", "name:en": "Acheropeetos", "religion": "christian", "wikidata": "Q1584774", "wikipedia": "el:\u0391\u03c7\u03b5\u03b9\u03c1\u03bf\u03c0\u03bf\u03af\u03b7\u03c4\u03bf\u03c2 (\u0398\u03b5\u03c3\u03c3\u03b1\u03bb\u03bf\u03bd\u03af\u03ba\u03b7)"}}, {"type": "way", "id": 59559434, "center": {"lat": 40.6332841, "lon": 22.9528849}, "nodes": [738807354, 1277130171, 738807351, 1277130242, 1740176645, 1740176674, 1740176679, 1740176663, 738807347, 1277130194, 738807360, 1277130268, 738807359, 1277130160, 738807356, 1277130215, 738807352, 1740176655, 1740176653, 1740176672, 1277130294, 738807349, 1277130195, 738807354], "tags": {"building": "yes", "fee": "yes", "heritage": "1", "heritage:operator": "whc", "historic": "church", "int_name": "Rotonda", "name": "\u03a1\u03bf\u03c4\u03cc\u03bd\u03c4\u03b1", "name:de": "Rotunda", "name:en": "Rotonda", "name:es": "Rotonda", "name:fr": "\u00c9glise de la Rotonde (Saint-Georges)", "name:ru": "\u041f\u0430\u0440\u043a \u0420\u043e\u0442\u043e\u043d\u0434\u0430", "name:tr": "Yorgo Rotundas\u0131", "note:opening_hours": "Corrected opening hours on 21st Sep 2019", "opening_hours": "Mo,We-Fr 08:00-19:45; Sa-Su 09:00-16:45", "tourism": "museum", "wikidata": "Q1584841", "wikipedia": "el:\u03a1\u03bf\u03c4\u03cc\u03bd\u03c4\u03b1"}}, {"type": "way", "id": 138126063, "center": {"lat": 40.6331142, "lon": 22.9512261}, "nodes": [1514189447, 1514189444, 1514189443, 1514189442, 1514189441, 6016743064, 6016743065, 1514189445, 1514189450, 1514189451, 1514189449, 1514189452, 1514189447], "tags": {"amenity": "place_of_worship", "building": "church", "heritage": "1", "heritage:operator": "whc", "historic": "heritage", "historic:civilization": "byzantine", "name": "\u0386\u03b3\u03b9\u03bf\u03c2 \u03a0\u03b1\u03bd\u03c4\u03b5\u03bb\u03b5\u03ae\u03bc\u03c9\u03bd", "name:de": "Kirche des Heiligen Pandeleimon", "name:en": "St. Panteleimon", "religion": "christian", "wikidata": "Q1504607", "wikipedia": "el:\u039d\u03b1\u03cc\u03c2 \u03c4\u03bf\u03c5 \u0391\u03b3\u03af\u03bf\u03c5 \u03a0\u03b1\u03bd\u03c4\u03b5\u03bb\u03b5\u03ae\u03bc\u03bf\u03bd\u03bf\u03c2 \u0398\u03b5\u03c3\u03c3\u03b1\u03bb\u03bf\u03bd\u03af\u03ba\u03b7\u03c2"}}, {"type": "way", "id": 162077399, "center": {"lat": 40.6321042, "lon": 22.950876}, "nodes": [1740216573, 1740216564, 1740216567, 1740216565, 1740216573], "tags": {"addr:city": "\u0398\u03b5\u03c3\u03c3\u03b1\u03bb\u03bf\u03bd\u03b9\u03ba\u03b7", "addr:street": "\u0395\u03b3\u03bd\u03b1\u03c4\u03af\u03b1", "amenity": "place_of_worship", "building": "chapel", "denomination": "greek_orthodox", "heritage": "1", "heritage:operator": "whc", "historic": "yes", "historic:civilization": "byzantine", "name": "\u039c\u03b5\u03c4\u03b1\u03bc\u03cc\u03c1\u03c6\u03c9\u03c3\u03b7", "name:de": "Kapelle der Verkl\u00e4rung des Erl\u00f6sers", "name:en": "Transfiguration", "religion": "christian", "wikidata": "Q1728464", "wikipedia": "de:Kapelle der Verkl\u00e4rung des Erl\u00f6sers (Thessaloniki)"}}, {"type": "way", "id": 50445383, "center": {"lat": 40.6368169, "lon": 22.9436454}, "nodes": [641520314, 641520306, 641520309, 641520312, 641520314], "tags": {"addr:city": "\u0398\u03b5\u03c3\u03c3\u03b1\u03bb\u03bf\u03bd\u03b9\u03ba\u03b7", "addr:street": "\u03a7\u03b1\u03bb\u03ba\u03ad\u03c9\u03bd", "amenity": "place_of_worship", "building": "church", "denomination": "greek_orthodox", "heritage": "1", "heritage:operator": "whc", "historic": "yes", "historic:period": "byzantine", "name": "\u03a0\u03b1\u03bd\u03b1\u03b3\u03af\u03b1 \u03a7\u03b1\u03bb\u03ba\u03ad\u03c9\u03bd", "name:de": "Panagia Chalkeon", "name:en": "Panagia Chalkeon", "religion": "christian", "start_date": "1028", "wikidata": "Q1650229", "wikipedia": "el:\u03a0\u03b1\u03bd\u03b1\u03b3\u03af\u03b1 \u03c4\u03c9\u03bd \u03a7\u03b1\u03bb\u03ba\u03ad\u03c9\u03bd"}}, {"type": "way", "id": 27406327, "center": {"lat": 40.6387552, "lon": 22.9478602}, "nodes": [300848529, 1458618122, 1458618120, 300848530, 300848541, 300848542, 300848543, 300848545, 300848546, 300848549, 300848529], "tags": {"amenity": "place_of_worship", "building": "church", "denomination": "greek_orthodox", "heritage": "1", "heritage:operator": "whc", "historic": "heritage", "historic:civilization": "byzantine", "int_name": "Agios Dimitrios", "name": "\u0386\u03b3\u03b9\u03bf\u03c2 \u0394\u03b7\u03bc\u03ae\u03c4\u03c1\u03b9\u03bf\u03c2", "name:cs": "Bazilika sv. Demeteria", "name:de": "Hagios Demetrios", "name:el": "\u0386\u03b3\u03b9\u03bf\u03c2 \u0394\u03b7\u03bc\u03ae\u03c4\u03c1\u03b9\u03bf\u03c2", "name:en": "Church of Agios Demetrios", "name:fr": "\u00c9glise Saint-Dimitri", "name:ru": "\u0431\u0430\u0437\u0438\u043b\u0438\u043a\u0430 \u0421\u0432. \u0414\u043c\u0438\u0442\u0440\u0438\u044f", "religion": "christian", "wikidata": "Q730019", "wikipedia": "el:\u0399\u03b5\u03c1\u03cc\u03c2 \u039d\u03b1\u03cc\u03c2 \u0391\u03b3\u03af\u03bf\u03c5 \u0394\u03b7\u03bc\u03b7\u03c4\u03c1\u03af\u03bf\u03c5 \u0398\u03b5\u03c3\u03c3\u03b1\u03bb\u03bf\u03bd\u03af\u03ba\u03b7\u03c2"}}, {"type": "way", "id": 135421336, "center": {"lat": 40.6409625, "lon": 22.9485483}, "nodes": [1487342330, 1487342322, 1487342308, 6218349360, 1487342303, 1487342298, 1487342300, 1487342291, 6218349361, 1487342292, 6218349364, 1487342302, 1487342306, 6218349363, 1487342314, 1487342316, 6218349362, 1487342319, 1487342317, 6218349365, 1487342320, 1487342325, 1487342327, 1487342329, 1487342330], "tags": {"amenity": "place_of_worship", "building": "yes", "denomination": "greek_orthodox", "heritage": "1", "heritage:operator": "whc", "name": "\u03a0\u03c1\u03bf\u03c6\u03ae\u03c4\u03b7\u03c2 \u0397\u03bb\u03af\u03b1\u03c2", "name:de": "Kirche des Propheten Elias", "name:en": "Profiti Ilia", "religion": "christian", "wikipedia": "el:\u039d\u03b1\u03cc\u03c2 \u03a0\u03c1\u03bf\u03c6\u03ae\u03c4\u03b7 \u0397\u03bb\u03af\u03b1 \u0398\u03b5\u03c3\u03c3\u03b1\u03bb\u03bf\u03bd\u03af\u03ba\u03b7\u03c2"}}, {"type": "way", "id": 158751906, "center": {"lat": 40.6431773, "lon": 22.9443049}, "nodes": [1708960600, 1708960628, 1708960616, 1708960614, 5461716409, 1708960601, 5461716410, 1708960599, 1708960603, 1708960600], "tags": {"amenity": "place_of_worship", "building": "yes", "denomination": "greek_orthodox", "heritage": "1", "heritage:operator": "whc", "historic": "heritage", "name": "\u0391\u03b3\u03af\u03b1 \u0391\u03b9\u03ba\u03b1\u03c4\u03b5\u03c1\u03af\u03bd\u03b7", "name:de": "Kirche der Agia Ekaterini", "name:en": "Agia Ekaterini", "religion": "christian", "wikidata": "Q1742784", "wikipedia": "de:Kirche der Agia Ekaterini (Thessaloniki)"}}, {"type": "way", "id": 161672219, "center": {"lat": 40.6418397, "lon": 22.9544772}, "nodes": [1736384935, 1736384929, 1736384932, 1736384927, 5481177702, 5481177700, 5481177701, 5481177703, 1736384935], "tags": {"amenity": "place_of_worship", "building": "church", "denomination": "greek_orthodox", "heritage": "1", "heritage:operator": "whc", "historic": "monastery", "historic:civilization": "byzantine", "name": "\u039c\u03bf\u03bd\u03ae \u0392\u03bb\u03b1\u03c4\u03ac\u03b4\u03c9\u03bd", "name:de": "Vlatades-Kloster", "religion": "christian", "wikipedia": "de:Vlatades-Kloster"}}, {"type": "way", "id": 161682834, "center": {"lat": 40.6417515, "lon": 22.952234}, "nodes": [1723432458, 1736464381, 1736464382, 1736464383, 1736464387, 1736464379, 1736464386, 1736456560, 1723432458], "tags": {"addr:city": "\u0398\u03b5\u03c3\u03c3\u03b1\u03bb\u03bf\u03bd\u03af\u03ba\u03b7", "addr:postcode": "54634", "alt_name": "\u038c\u03c3\u03b9\u03bf\u03c2 \u0394\u03b1\u03b2\u03af\u03b4", "alt_name:en": "Osios David", "amenity": "place_of_worship", "building": "church", "denomination": "greek_orthodox", "heritage": "1", "heritage:operator": "whc", "historic": "yes", "historic:civilization": "byzantine", "name": "\u039c\u03bf\u03bd\u03ae \u039b\u03b1\u03c4\u03cc\u03bc\u03bf\u03c5", "name:de": "Latomos-Kloster", "name:en": "Moni Latomou", "religion": "christian", "start_date": "~0500", "wikipedia": "el:\u039c\u03bf\u03bd\u03ae \u039b\u03b1\u03c4\u03cc\u03bc\u03bf\u03c5"}}, {"type": "way", "id": 161736682, "center": {"lat": 40.6376635, "lon": 22.9561751}, "nodes": [1736973879, 1736973957, 1736973934, 1736973892, 1736973879], "tags": {"amenity": "place_of_worship", "building": "church", "denomination": "greek_orthodox", "heritage": "1", "heritage:operator": "whc", "historic": "heritage", "name": "\u0386\u03b3\u03b9\u03bf\u03c2 \u039d\u03b9\u03ba\u03cc\u03bb\u03b1\u03bf\u03c2 \u039f\u03c1\u03c6\u03b1\u03bd\u03cc\u03c2", "name:de": "Hagios Nikolaos Orfanos", "name:en": "St. Nicolas Orphanos", "religion": "christian", "wikidata": "Q1504317", "wikipedia": "el:\u039d\u03b1\u03cc\u03c2 \u03c4\u03bf\u03c5 \u0391\u03b3\u03af\u03bf\u03c5 \u039d\u03b9\u03ba\u03bf\u03bb\u03ac\u03bf\u03c5 \u03c4\u03bf\u03c5 \u039f\u03c1\u03c6\u03b1\u03bd\u03bf\u03cd"}}, {"type": "way", "id": 37451039, "center": {"lat": 37.6719823, "lon": 26.8863173}, "nodes": [438086890, 1070848308, 2432082753, 438086937, 2432096078, 2432096027, 2432096045, 438086894, 2432096108, 2432096031, 2432096127, 438086896, 438086898, 1070848296, 1070848316, 1070848315, 438086900, 438086902, 1070848309, 438086905, 4420699286, 438086907, 1070848304, 1070848299, 438086910, 4420699275, 4420699250, 4420699896, 4420699891, 2432082688, 2432082711, 2432082703, 438086912, 2432082765, 438086915, 2432082719, 438086917, 1070848311, 438086919, 2432082769, 1070848301, 438086890], "tags": {"barrier": "fence", "description": "Entrance: 3\u20ac; Open Tue-Sun; 8:30-15:00", "heritage": "1", "heritage:operator": "whc", "historic": "archaeological_site", "name": "\u0397\u03c1\u03b1\u03af\u03bf", "name:de": "Heraion von Samos", "name:el": "\u0397\u03c1\u03b1\u03af\u03bf", "name:en": "Heraion", "wikidata": "Q841207", "wikipedia": "el:\u0397\u03c1\u03b1\u03af\u03bf \u03a3\u03ac\u03bc\u03bf\u03c5"}}, {"type": "relation", "id": 4423249, "center": {"lat": 37.971715, "lon": 23.7264588}, "members": [{"type": "way", "ref": 910010307, "role": "outer"}, {"type": "way", "ref": 910010308, "role": "outer"}, {"type": "way", "ref": 910010310, "role": "outer"}, {"type": "way", "ref": 910010309, "role": "outer"}, {"type": "way", "ref": 910010263, "role": "outer"}, {"type": "way", "ref": 910010311, "role": "outer"}, {"type": "way", "ref": 910010312, "role": "outer"}, {"type": "way", "ref": 910010313, "role": "outer"}, {"type": "way", "ref": 910010350, "role": "outer"}, {"type": "way", "ref": 910010353, "role": "outer"}, {"type": "way", "ref": 910010356, "role": "outer"}, {"type": "way", "ref": 910010300, "role": "outer"}, {"type": "way", "ref": 910010381, "role": "outer"}, {"type": "way", "ref": 910010252, "role": "outer"}, {"type": "way", "ref": 910010407, "role": "outer"}, {"type": "way", "ref": 910010352, "role": "outer"}, {"type": "way", "ref": 910010348, "role": "outer"}, {"type": "way", "ref": 910010269, "role": "outer"}, {"type": "way", "ref": 910010267, "role": "outer"}, {"type": "way", "ref": 910010265, "role": "outer"}, {"type": "way", "ref": 910010262, "role": "outer"}, {"type": "way", "ref": 910010260, "role": "outer"}, {"type": "way", "ref": 910010258, "role": "outer"}, {"type": "way", "ref": 910010256, "role": "outer"}, {"type": "way", "ref": 910010254, "role": "outer"}, {"type": "way", "ref": 910010411, "role": "outer"}, {"type": "way", "ref": 910010299, "role": "outer"}, {"type": "way", "ref": 910010408, "role": "outer"}, {"type": "way", "ref": 910010354, "role": "outer"}, {"type": "way", "ref": 910010378, "role": "outer"}], "tags": {"castle_type": "fortress", "dog": "no", "ele": "156", "heritage": "1", "heritage:operator": "whc", "historic": "castle", "historic:civilization": "ancient_greek", "name": "\u0391\u03ba\u03c1\u03cc\u03c0\u03bf\u03bb\u03b7", "name:bg": "\u0410\u043a\u0440\u043e\u043f\u043e\u043b", "name:ckb": "\u0626\u0627\u06a9\u0631\u06c6\u067e\u06c6\u0644\u06cc\u0633\u06cc \u0626\u06d5\u062a\u06cc\u0646\u0627", "name:de": "Akropolis", "name:el": "\u0391\u03ba\u03c1\u03cc\u03c0\u03bf\u03bb\u03b7", "name:en": "Acropolis", "name:es": "Acr\u00f3polis", "name:fr": "Acropole", "name:hr": "Atenska akropola", "name:jp": "\u885b\u57ce", "name:ko": "\uc544\ud06c\ub85c\ud3f4\ub9ac\uc2a4", "name:zh": "\u96c5\u5178\u536b\u57ce", "ref:whc": "N", "source:ele": "wikipedia", "tourism": "attraction", "type": "multipolygon", "whc:criteria": "i,ii,iii,iv,vi", "whc:inscription_date": "1987", "wikidata": "Q131013", "wikipedia": "el:\u0391\u03ba\u03c1\u03cc\u03c0\u03bf\u03bb\u03b7 \u0391\u03b8\u03b7\u03bd\u03ce\u03bd"}}, {"type": "relation", "id": 531131, "center": {"lat": 37.3908075, "lon": 25.2705756}, "members": [{"type": "way", "ref": 410880917, "role": "outer"}, {"type": "way", "ref": 10219595, "role": "outer"}, {"type": "way", "ref": 410880916, "role": "outer"}, {"type": "way", "ref": 308550826, "role": "outer"}], "tags": {"heritage": "1", "heritage:operator": "whc", "name": "\u0394\u03ae\u03bb\u03bf\u03c2", "name:de": "Delos", "name:el": "\u0394\u03ae\u03bb\u03bf\u03c2", "name:en": "Delos", "name:fr": "D\u00e9los", "name:nl": "Delos", "name:ru": "\u0414\u0438\u043b\u043e\u0441", "place": "island", "ref:whc": "530", "type": "multipolygon", "whc:criteria": "(ii)(iii)(iv)(vi)", "whc:inscription_date": "1990", "wikidata": "Q173148", "wikipedia": "el:\u0394\u03ae\u03bb\u03bf\u03c2"}}, {"type": "relation", "id": 5229419, "center": {"lat": 40.4822924, "lon": 22.3240794}, "members": [{"type": "way", "ref": 219518356, "role": "outer"}, {"type": "way", "ref": 350569992, "role": "outer"}], "tags": {"description": "The royal capital of Macedon", "heritage": "1", "heritage:operator": "whc", "historic": "archaeological_site", "historic:civilization": "ancient_greek", "historic:period": "classical_greece", "int_name": "Archaeological Site of Aigai", "name": "\u0391\u03c1\u03c7\u03b1\u03b9\u03bf\u03bb\u03bf\u03b3\u03b9\u03ba\u03cc\u03c2 \u03c7\u03ce\u03c1\u03bf\u03c2 \u0391\u03b9\u03b3\u03ce\u03bd", "name:el": "\u0391\u03c1\u03c7\u03b1\u03b9\u03bf\u03bb\u03bf\u03b3\u03b9\u03ba\u03cc\u03c2 \u03c7\u03ce\u03c1\u03bf\u03c2 \u0391\u03b9\u03b3\u03ce\u03bd", "name:en": "Archaeological Site of Aigai", "name:fr": "Site arch\u00e9ologique d\u2019\u00c6ges (Aigai)", "ref:whc": "780", "tourism": "attraction", "type": "multipolygon", "whc:criteria": "(i),(iii)", "whc:inscription_date": "1996", "wikidata": "Q213916", "wikipedia": "el:\u0392\u03b5\u03c1\u03b3\u03af\u03bd\u03b1"}}, {"type": "relation", "id": 2903111, "center": {"lat": 40.6355705, "lon": 22.9478414}, "members": [{"type": "node", "ref": 6898985455, "role": ""}, {"type": "node", "ref": 7875560778, "role": ""}, {"type": "node", "ref": 8147295446, "role": ""}, {"type": "node", "ref": 3861176031, "role": ""}, {"type": "node", "ref": 8150758703, "role": ""}, {"type": "node", "ref": 8150855452, "role": ""}, {"type": "node", "ref": 8150855455, "role": ""}, {"type": "node", "ref": 8150855502, "role": ""}, {"type": "way", "ref": 383256005, "role": ""}, {"type": "way", "ref": 875085704, "role": ""}, {"type": "way", "ref": 874231166, "role": ""}, {"type": "way", "ref": 874231170, "role": ""}, {"type": "way", "ref": 874231171, "role": ""}, {"type": "way", "ref": 874231172, "role": ""}, {"type": "way", "ref": 875300854, "role": ""}, {"type": "way", "ref": 875534131, "role": ""}, {"type": "way", "ref": 883123722, "role": ""}, {"type": "way", "ref": 14800610, "role": ""}, {"type": "way", "ref": 19804199, "role": ""}, {"type": "way", "ref": 161736679, "role": ""}, {"type": "way", "ref": 161738294, "role": ""}, {"type": "way", "ref": 875545821, "role": ""}, {"type": "way", "ref": 382910953, "role": ""}, {"type": "way", "ref": 14800792, "role": ""}, {"type": "way", "ref": 875698964, "role": ""}, {"type": "way", "ref": 383253084, "role": ""}, {"type": "way", "ref": 162099024, "role": ""}, {"type": "way", "ref": 875083581, "role": ""}, {"type": "way", "ref": 875083580, "role": ""}, {"type": "way", "ref": 875083583, "role": ""}, {"type": "way", "ref": 382605581, "role": ""}, {"type": "way", "ref": 382742708, "role": ""}, {"type": "way", "ref": 382605576, "role": ""}, {"type": "way", "ref": 382742711, "role": ""}, {"type": "way", "ref": 382742707, "role": ""}, {"type": "way", "ref": 382742712, "role": ""}, {"type": "way", "ref": 382742717, "role": ""}, {"type": "way", "ref": 162095181, "role": ""}, {"type": "way", "ref": 382605579, "role": ""}, {"type": "way", "ref": 382742720, "role": ""}, {"type": "way", "ref": 382605582, "role": ""}, {"type": "way", "ref": 382742725, "role": ""}, {"type": "way", "ref": 382742726, "role": ""}, {"type": "way", "ref": 382742713, "role": ""}, {"type": "way", "ref": 382742704, "role": ""}, {"type": "way", "ref": 874218628, "role": ""}, {"type": "way", "ref": 382910966, "role": ""}, {"type": "way", "ref": 873415943, "role": ""}, {"type": "way", "ref": 736879975, "role": ""}, {"type": "way", "ref": 383256003, "role": ""}, {"type": "way", "ref": 383256004, "role": ""}, {"type": "way", "ref": 873407272, "role": ""}, {"type": "way", "ref": 383253082, "role": ""}, {"type": "way", "ref": 383253083, "role": ""}, {"type": "way", "ref": 383253090, "role": ""}, {"type": "way", "ref": 875706727, "role": ""}, {"type": "way", "ref": 875702090, "role": ""}, {"type": "way", "ref": 875702089, "role": ""}, {"type": "way", "ref": 383253138, "role": ""}, {"type": "way", "ref": 413850288, "role": ""}, {"type": "way", "ref": 383253078, "role": ""}, {"type": "way", "ref": 14800987, "role": ""}, {"type": "way", "ref": 383253087, "role": ""}, {"type": "way", "ref": 413850284, "role": ""}, {"type": "way", "ref": 383253093, "role": ""}, {"type": "way", "ref": 145891768, "role": ""}, {"type": "way", "ref": 383253081, "role": ""}, {"type": "way", "ref": 383253097, "role": ""}, {"type": "way", "ref": 383253086, "role": ""}, {"type": "way", "ref": 383253092, "role": ""}, {"type": "way", "ref": 383253088, "role": ""}, {"type": "way", "ref": 383253139, "role": ""}, {"type": "way", "ref": 383253115, "role": ""}, {"type": "way", "ref": 873415942, "role": ""}, {"type": "way", "ref": 874013599, "role": ""}, {"type": "way", "ref": 874014792, "role": ""}, {"type": "way", "ref": 874014793, "role": ""}, {"type": "way", "ref": 874014794, "role": ""}, {"type": "way", "ref": 874018466, "role": ""}, {"type": "way", "ref": 874018465, "role": ""}, {"type": "way", "ref": 874018467, "role": ""}, {"type": "way", "ref": 874018468, "role": ""}, {"type": "way", "ref": 874018469, "role": ""}, {"type": "way", "ref": 874018470, "role": ""}, {"type": "way", "ref": 874024247, "role": ""}, {"type": "way", "ref": 874024248, "role": ""}, {"type": "way", "ref": 874218626, "role": ""}, {"type": "way", "ref": 874214294, "role": ""}, {"type": "way", "ref": 875296231, "role": ""}, {"type": "way", "ref": 874214293, "role": ""}, {"type": "way", "ref": 874214292, "role": ""}, {"type": "way", "ref": 874218627, "role": ""}, {"type": "way", "ref": 874220563, "role": ""}, {"type": "way", "ref": 874231163, "role": ""}, {"type": "way", "ref": 874231164, "role": ""}, {"type": "way", "ref": 874231165, "role": ""}, {"type": "way", "ref": 874231168, "role": ""}, {"type": "way", "ref": 874231169, "role": ""}, {"type": "way", "ref": 875083579, "role": ""}, {"type": "way", "ref": 875083582, "role": ""}, {"type": "way", "ref": 875085705, "role": ""}, {"type": "way", "ref": 875300853, "role": ""}, {"type": "way", "ref": 875300855, "role": ""}, {"type": "way", "ref": 875300856, "role": ""}, {"type": "way", "ref": 875300857, "role": ""}, {"type": "way", "ref": 875300858, "role": ""}, {"type": "way", "ref": 875300859, "role": ""}, {"type": "way", "ref": 875300860, "role": ""}, {"type": "way", "ref": 875300861, "role": ""}, {"type": "way", "ref": 875534130, "role": ""}, {"type": "way", "ref": 739583295, "role": ""}, {"type": "way", "ref": 875534134, "role": ""}, {"type": "way", "ref": 875534133, "role": ""}, {"type": "way", "ref": 875536902, "role": ""}, {"type": "way", "ref": 875536903, "role": ""}, {"type": "way", "ref": 875536904, "role": ""}, {"type": "way", "ref": 875536905, "role": ""}, {"type": "way", "ref": 875536906, "role": ""}, {"type": "way", "ref": 875536907, "role": ""}, {"type": "way", "ref": 875545819, "role": ""}, {"type": "way", "ref": 875545820, "role": ""}, {"type": "way", "ref": 875545824, "role": ""}, {"type": "way", "ref": 875545825, "role": ""}, {"type": "way", "ref": 880914138, "role": ""}, {"type": "way", "ref": 875545826, "role": ""}, {"type": "way", "ref": 875545827, "role": ""}, {"type": "way", "ref": 875545828, "role": ""}, {"type": "way", "ref": 875545829, "role": ""}, {"type": "way", "ref": 875545830, "role": ""}, {"type": "way", "ref": 875545831, "role": ""}, {"type": "way", "ref": 875545832, "role": ""}, {"type": "way", "ref": 875549847, "role": ""}, {"type": "way", "ref": 875549848, "role": ""}, {"type": "way", "ref": 875549849, "role": ""}, {"type": "way", "ref": 875549850, "role": ""}, {"type": "way", "ref": 875549851, "role": ""}, {"type": "way", "ref": 875549852, "role": ""}, {"type": "way", "ref": 730026417, "role": ""}, {"type": "way", "ref": 875698959, "role": ""}, {"type": "way", "ref": 875698960, "role": ""}, {"type": "way", "ref": 875698962, "role": ""}, {"type": "way", "ref": 875698963, "role": ""}, {"type": "way", "ref": 875698965, "role": ""}, {"type": "way", "ref": 875702091, "role": ""}, {"type": "way", "ref": 875702093, "role": ""}, {"type": "way", "ref": 875702094, "role": ""}, {"type": "way", "ref": 875706720, "role": ""}, {"type": "way", "ref": 875706721, "role": ""}, {"type": "way", "ref": 383335493, "role": ""}, {"type": "way", "ref": 383335483, "role": ""}, {"type": "way", "ref": 383335481, "role": ""}, {"type": "way", "ref": 383335488, "role": ""}, {"type": "way", "ref": 383335476, "role": ""}, {"type": "way", "ref": 383335477, "role": ""}, {"type": "way", "ref": 383335508, "role": ""}, {"type": "way", "ref": 875706722, "role": ""}, {"type": "way", "ref": 383335510, "role": ""}, {"type": "way", "ref": 383335499, "role": ""}, {"type": "way", "ref": 875706723, "role": ""}, {"type": "way", "ref": 875706731, "role": ""}, {"type": "way", "ref": 876053887, "role": ""}, {"type": "way", "ref": 383335512, "role": ""}, {"type": "way", "ref": 881569706, "role": ""}, {"type": "way", "ref": 883123725, "role": ""}, {"type": "way", "ref": 883123726, "role": ""}, {"type": "way", "ref": 885030853, "role": ""}, {"type": "way", "ref": 887460394, "role": ""}, {"type": "relation", "ref": 5702428, "role": ""}, {"type": "relation", "ref": 5702426, "role": ""}, {"type": "relation", "ref": 5702424, "role": ""}, {"type": "relation", "ref": 5702423, "role": ""}, {"type": "node", "ref": 8266118019, "role": ""}], "tags": {"heritage": "1", "heritage:operator": "whc", "historic": "archaeological_site", "historic:civilization": "byzantine", "name": "\u0392\u03c5\u03b6\u03b1\u03bd\u03c4\u03b9\u03bd\u03ac \u03a4\u03b5\u03af\u03c7\u03b7 \u0398\u03b5\u03c3\u03c3\u03b1\u03bb\u03bf\u03bd\u03af\u03ba\u03b7\u03c2", "name:de": "Stadtmauern von Thessaloniki", "name:el": "\u0392\u03c5\u03b6\u03b1\u03bd\u03c4\u03b9\u03bd\u03ac \u03a4\u03b5\u03af\u03c7\u03b7 \u0398\u03b5\u03c3\u03c3\u03b1\u03bb\u03bf\u03bd\u03af\u03ba\u03b7\u03c2", "name:en": "Byzantine City Walls of Thessaloniki", "type": "site", "wikidata": "Q7963249", "wikipedia": "el:\u0392\u03c5\u03b6\u03b1\u03bd\u03c4\u03b9\u03bd\u03ac \u03c4\u03b5\u03af\u03c7\u03b7 \u03c4\u03b7\u03c2 \u0398\u03b5\u03c3\u03c3\u03b1\u03bb\u03bf\u03bd\u03af\u03ba\u03b7\u03c2"}}, {"type": "relation", "id": 2135921, "center": {"lat": 40.2670372, "lon": 24.2068231}, "members": [{"type": "way", "ref": 159552205, "role": "outer"}, {"type": "way", "ref": 159552191, "role": "outer"}, {"type": "way", "ref": 137405644, "role": "outer"}, {"type": "way", "ref": 27408168, "role": "outer"}, {"type": "way", "ref": 15533160, "role": "outer"}, {"type": "way", "ref": 389080835, "role": "outer"}, {"type": "node", "ref": 303638925, "role": "admin_centre"}], "tags": {"ISO3166-2": "GR-69", "admin_level": "3", "alt_name:mk": "\u0410\u0432\u0442\u043e\u043d\u043e\u043c\u043d\u0430 \u041c\u043e\u043d\u0430\u0448\u043a\u0430 \u0420\u0435\u043f\u0443\u0431\u043b\u0438\u043a\u0430 \u0421\u0432\u0435\u0442\u0430 \u0413\u043e\u0440\u0430", "alt_name:zh": "\u963f\u7d22\u65af\u5c71\u81ea\u6cbb\u4fee\u9053\u9662\u5dde", "alt_name_1:zh": "\u963f\u7d22\u65af\u5c71", "boundary": "administrative", "heritage": "1", "heritage:operator": "whc", "name": "\u0391\u03c5\u03c4\u03cc\u03bd\u03bf\u03bc\u03b7 \u039c\u03bf\u03bd\u03b1\u03c3\u03c4\u03b9\u03ba\u03ae \u03a0\u03bf\u03bb\u03b9\u03c4\u03b5\u03af\u03b1 \u0391\u03b3\u03af\u03bf\u03c5 \u038c\u03c1\u03bf\u03c5\u03c2", "name:ar": "\u062c\u0628\u0644 \u0622\u062b\u0648\u0633", "name:de": "Autonome M\u00f6nchsrepublik Heiliger Berg", "name:el": "\u0391\u03c5\u03c4\u03cc\u03bd\u03bf\u03bc\u03b7 \u039c\u03bf\u03bd\u03b1\u03c3\u03c4\u03b9\u03ba\u03ae \u03a0\u03bf\u03bb\u03b9\u03c4\u03b5\u03af\u03b1 \u0391\u03b3\u03af\u03bf\u03c5 \u038c\u03c1\u03bf\u03c5\u03c2", "name:en": "Autonomous Monastic State of the Holy Mountain", "name:es": "Estado Mon\u00e1stico Aut\u00f3nomo del Monte Athos", "name:fa": "\u06a9\u0648\u0647 \u0622\u062a\u0648\u0633", "name:fr": "R\u00e9publique monastique du mont Athos", "name:mk": "\u0410\u0432\u0442\u043e\u043d\u043e\u043c\u043d\u0430 \u041c\u043e\u043d\u0430\u0448\u043a\u0430 \u0414\u0440\u0436\u0430\u0432\u0430 \u0421\u0432\u0435\u0442\u0430 \u0413\u043e\u0440\u0430", "name:nl": "Autonome Monastieke Staat van de Heilige Berg", "name:ru": "\u0410\u0432\u0442\u043e\u043d\u043e\u043c\u043d\u043e\u0435 \u043c\u043e\u043d\u0430\u0448\u0435\u0441\u043a\u043e\u0435 \u0433\u043e\u0441\u0443\u0434\u0430\u0440\u0441\u0442\u0432\u043e \u0421\u0432\u044f\u0442\u043e\u0439 \u0413\u043e\u0440\u044b", "name:sr": "\u0410\u0443\u0442\u043e\u043d\u043e\u043c\u043d\u0430 \u043c\u043e\u043d\u0430\u0448\u043a\u0430 \u0440\u0435\u043f\u0443\u0431\u043b\u0438\u043a\u0430 \u0421\u0432\u0435\u0442\u0430 \u0413\u043e\u0440\u0430", "name:sr-Latn": "Autonomna mona\u0161ka republika Sveta Gora", "name:ur": "\u06a9\u0648\u06c1 \u0622\u062a\u06be\u0648\u0633", "name:zh": "\u963f\u7d22\u65af\u5c71\u795e\u6743\u5171\u548c\u56fd", "ref:whc": "454", "type": "boundary", "whc:inscription_date": "1988", "wikidata": "Q130321", "wikipedia": "el:\u0386\u03b3\u03b9\u03bf \u038c\u03c1\u03bf\u03c2", "wikipedia:en": "Mount Athos"}}]}