{"type": "FeatureCollection", "features": [{"type": "Feature", "properties": {"type": "node", "id": 3120851598, "tags": {"disused": "yes", "man_made": "mineshaft", "name": "Ardoisalle", "tourism": "museum"}}, "geometry": {"type": "Point", "coordinates": [4.9666, 49.8361]}}, {"type": "Feature", "properties": {"type": "node", "id": 3120851599, "tags": {"disused": "yes", "man_made": "mineshaft", "name": "Bertrix Mine", "tourism": "museum"}}, "geometry": {"type": "Point", "coordinates": [5.2722, 49.8125]}}, {"type": "Feature", "properties": {"type": "node", "id": 7291738604, "tags": {"contact:facebook": "https://www.facebook.com/Mus\u00e9e-du-t\u00e9l\u00e9phone-\u00e0-Petitvoir-396148180560658/", "name": "Le mus\u00e9e du t\u00e9l\u00e9phone", "phone": "+32 61 27 74 23", "tourism": "museum"}}, "geometry": {"type": "Point", "coordinates": [5.3763434, 49.8417331]}}, {"type": "Feature", "properties": {"type": "node", "id": 8069355345, "tags": {"name": "Mus\u00e9e de la Vie paysanne et \u00c9cole d'autrefois", "tourism": "museum", "wikipedia": "fr:Montquintin"}}, "geometry": {"type": "Point", "coordinates": [5.4732997, 49.5447866]}}, {"type": "Feature", "properties": {"type": "node", "id": 8248620644, "tags": {"name": "Mus\u00e9e Gaumais", "phone": "+32 63 57 03 15", "tourism": "museum", "website": "http://www.musees-gaumais.be"}}, "geometry": {"type": "Point", "coordinates": [5.5353007, 49.5677586]}}, {"type": "Feature", "properties": {"type": "node", "id": 8047318805, "tags": {"name": "Mus\u00e9es de Latour", "phone": "+32 63 57 01 15", "tourism": "museum", "website": "http://www.musees-latour.be"}}, "geometry": {"type": "Point", "coordinates": [5.5697171, 49.55754]}}, {"type": "Feature", "properties": {"type": "node", "id": 7243122648, "tags": {"name": "Mus\u00e9e Minier & M\u00e9tallurgique Musson-Halanzy", "tourism": "museum", "website": "https://4mh.be"}}, "geometry": {"type": "Point", "coordinates": [5.7105385, 49.5537323]}}, {"type": "Feature", "properties": {"type": "node", "id": 6145995207, "tags": {"addr:city": "Athus", "addr:housenumber": "11", "addr:postcode": "6791", "addr:street": "Rue du Terminal", "email": "contact@athus-acier.be", "name": "Athus et l'Acier", "tourism": "museum", "website": "http://athus-acier.be"}}, "geometry": {"type": "Point", "coordinates": [5.8277815, 49.5574123]}}, {"type": "Feature", "properties": {"type": "node", "id": 6146007086, "tags": {"addr:city": "Athus", "addr:housenumber": "8", "addr:postcode": "6791", "addr:street": "Rue Fernand Andr\u00e9", "name": "L'Univers des Pompiers", "tourism": "museum", "website": "https://www.universdespompiers.be/"}}, "geometry": {"type": "Point", "coordinates": [5.8281211, 49.5576593]}}, {"type": "Feature", "properties": {"type": "node", "id": 7291757376, "tags": {"name": "Collection Thiry", "phone": "+32 473 99 94 70", "tourism": "museum", "website": "https://www.collection-thiry.be"}}, "geometry": {"type": "Point", "coordinates": [5.6439845, 49.7279488]}}, {"type": "Feature", "properties": {"type": "node", "id": 5354224417, "tags": {"name": "Mus\u00e9e de la Haute-S\u00fbre", "opening_hours": "\"only after registration\"", "tourism": "museum", "website": "http://www.portail.wallonie.museum/fr/museum.php?id=156"}}, "geometry": {"type": "Point", "coordinates": [5.7368819, 49.8302564]}}, {"type": "Feature", "properties": {"type": "node", "id": 7291894028, "tags": {"contact:facebook": "https://www.facebook.com/LaMemoireCivile19401945", "name": "Mus\u00e9e de la M\u00e9moire Civile", "phone": "+32 475 40 14 22", "tourism": "museum"}}, "geometry": {"type": "Point", "coordinates": [5.7096109, 49.9220301]}}, {"type": "Feature", "properties": {"type": "node", "id": 3190447985, "tags": {"fixme": "Position correctly when images are updated", "name": "Plugstreet, centre d'interpr\u00e9tation", "name:en": "Plugstreet, interpretation centre", "name:fr": "Plugstreet, centre d'interpr\u00e9tation", "name:nl": "Plugstreet, interpretatiecentrum", "tourism": "museum", "website": "http://www.plugstreet1418.be/"}}, "geometry": {"type": "Point", "coordinates": [2.8806079, 50.7359129]}}, {"type": "Feature", "properties": {"type": "node", "id": 3514463553, "tags": {"addr:city": "Comines", "addr:postcode": "7780", "addr:street": "Rue des Arts", "name": "Mus\u00e9e de la Rubanerie", "tourism": "museum"}}, "geometry": {"type": "Point", "coordinates": [3.0022093, 50.7664279]}}, {"type": "Feature", "properties": {"type": "node", "id": 5748869821, "tags": {"addr:city": "Warcoing", "addr:postcode": "7740", "addr:street": "Rue Royale", "name": "Mus\u00e9e Jules Jooris", "operator": "Commune de Pecq", "tourism": "museum"}}, "geometry": {"type": "Point", "coordinates": [3.3422451, 50.7037398]}}, {"type": "Feature", "properties": {"type": "node", "id": 1035484889, "tags": {"name": "Talbot House", "tourism": "museum", "website": "https://www.talbothouse.be/"}}, "geometry": {"type": "Point", "coordinates": [2.7232592, 50.8559727]}}, {"type": "Feature", "properties": {"type": "node", "id": 5999079188, "tags": {"addr:postcode": "B-8970", "addr:street": "Gasthuisstraat", "name": "Hopmuseum Poperinge", "tourism": "museum", "website": "http://www.hopmuseum.be"}}, "geometry": {"type": "Point", "coordinates": [2.7219298, 50.8552846]}}, {"type": "Feature", "properties": {"type": "node", "id": 702733179, "tags": {"name": "Claustrum", "tourism": "museum"}}, "geometry": {"type": "Point", "coordinates": [2.7216803, 50.8950528]}}, {"type": "Feature", "properties": {"type": "node", "id": 1986915119, "tags": {"name": "Onderwijsmuseum", "tourism": "museum"}}, "geometry": {"type": "Point", "coordinates": [2.8811188, 50.8502913]}}, {"type": "Feature", "properties": {"type": "node", "id": 255958573, "tags": {"name": "In Flanders Fields", "note": "real opening hours, see their site. If someone knows how to tag this, please do.", "opening_hours": "Dec 28-Jan 3 Tu-Su 10:00-17:00; Jan 4-18 off; Jan 19-Mar 30 Tu-Su 10:00-17:00", "tourism": "museum", "website": "http://www.inflandersfields.be", "wikidata": "Q2708415", "wikipedia": "nl:In Flanders Fields Museum"}}, "geometry": {"type": "Point", "coordinates": [2.8854006, 50.8510351]}}, {"type": "Feature", "properties": {"type": "node", "id": 1986875259, "tags": {"addr:housenumber": "38", "addr:street": "Rijselstraat", "entrance": "main", "name": "Museum Godhuis Belle", "phone": "+32 57 23 92 20", "tourism": "museum"}}, "geometry": {"type": "Point", "coordinates": [2.886275, 50.8497594]}}, {"type": "Feature", "properties": {"type": "node", "id": 1793519053, "tags": {"name": "F.C. De Kampioenen-museum", "tourism": "museum"}}, "geometry": {"type": "Point", "coordinates": [2.5993911, 51.0812998]}}, {"type": "Feature", "properties": {"type": "node", "id": 2682261660, "tags": {"addr:city": "Koksijde", "addr:housenumber": "42", "addr:postcode": "8670", "addr:street": "Paul Delvauxlaan", "name": "Delvaux museum", "tourism": "museum", "wikipedia": "nl:Paul Delvaux Museum"}}, "geometry": {"type": "Point", "coordinates": [2.6103271, 51.1057541]}}, {"type": "Feature", "properties": {"type": "node", "id": 6979771445, "tags": {"addr:housenumber": "10", "addr:street": "Ten Bogaerdelaan", "name": "Ten Bogaerde", "tourism": "museum"}}, "geometry": {"type": "Point", "coordinates": [2.6335434, 51.0921906]}}, {"type": "Feature", "properties": {"type": "node", "id": 6969399724, "tags": {"addr:housenumber": "2", "addr:street": "Veurnestraat", "name": "Museos", "tourism": "museum"}}, "geometry": {"type": "Point", "coordinates": [2.6506903, 51.1034844]}}, {"type": "Feature", "properties": {"type": "node", "id": 6986629221, "tags": {"addr:housenumber": "237", "addr:street": "Koninklijke Baan", "name": "'t Krekelhof", "tourism": "museum"}}, "geometry": {"type": "Point", "coordinates": [2.6223074, 51.1117406]}}, {"type": "Feature", "properties": {"type": "node", "id": 1448625227, "tags": {"name": "Ten Duinen", "tourism": "museum"}}, "geometry": {"type": "Point", "coordinates": [2.6287342, 51.1096357]}}, {"type": "Feature", "properties": {"type": "node", "id": 530191402, "tags": {"name": "Les Z\u00e9phyrs", "tourism": "museum"}}, "geometry": {"type": "Point", "coordinates": [2.775564, 51.1693662]}}, {"type": "Feature", "properties": {"type": "node", "id": 3613024654, "tags": {"charge": "2 EUR", "email": "godelievemuseum@hotmail.com", "fee": "yes", "name": "Godelievemuseum", "opening_hours": "Apr 01-Sep 30 Mo,Sa-Su 14:00-18:00; Apr 01-Sep 30 Tu-Fr 10:00-12:00,14:00-18:00", "phone": "+32 479 79 08 89", "start_date": "1987", "tourism": "museum"}}, "geometry": {"type": "Point", "coordinates": [2.9269234, 51.1498987]}}, {"type": "Feature", "properties": {"type": "node", "id": 1174119433, "tags": {"name": "Tabaksmuseum", "tourism": "museum", "website": "http://www.nationaaltabaksmuseum.be/", "wikidata": "Q4532880"}}, "geometry": {"type": "Point", "coordinates": [3.034057, 50.7755175]}}, {"type": "Feature", "properties": {"type": "node", "id": 2680779359, "tags": {"name": "Hooghe Crater Museum", "note": "WW1 museum", "tourism": "museum", "website": "http://www.hoogecrater.com/en/"}}, "geometry": {"type": "Point", "coordinates": [2.9435716, 50.8465456]}}, {"type": "Feature", "properties": {"type": "node", "id": 4693648391, "tags": {"name": "Openlucht  museum  WO 1", "name:nl": "Openlucht  museum  WO 1", "tourism": "museum"}}, "geometry": {"type": "Point", "coordinates": [2.9454146, 50.8464568]}}, {"type": "Feature", "properties": {"type": "node", "id": 5859225643, "tags": {"name": "underground war hospital", "tourism": "museum"}}, "geometry": {"type": "Point", "coordinates": [2.9885603, 50.8722381]}}, {"type": "Feature", "properties": {"type": "node", "id": 3168152521, "tags": {"image": "File:Menen - Schippershof 1.jpg", "name": "Stadsmuseum 't Schippershof", "tourism": "museum", "wikidata": "Q2611559"}}, "geometry": {"type": "Point", "coordinates": [3.1230881, 50.7926667]}}, {"type": "Feature", "properties": {"type": "node", "id": 8284467471, "tags": {"description": "In november 2016 opende het Pater Lievensmemoriaal in de Sint-Martinuskerk in Moorslede. Het beeldt op eigentijdse manier het leven en werk uit van Pater Lievens. Dit memoriaal is dagelijks te bezoeken tijdens de openingsuren van de kerk.", "fee": "no", "museum": "person", "name": "Pater Lievensmuseum", "tourism": "museum", "wheelchair": "yes", "wikidata": "Q78119977", "wikipedia": "nl:Pater Lievensmuseum"}}, "geometry": {"type": "Point", "coordinates": [3.0618446, 50.8917174]}}, {"type": "Feature", "properties": {"type": "node", "id": 3700729494, "tags": {"name": "MUZE'UM L", "tourism": "museum", "website": "http://www.muzeuml.be/"}}, "geometry": {"type": "Point", "coordinates": [3.12913, 50.9201682]}}, {"type": "Feature", "properties": {"type": "node", "id": 8098296188, "tags": {"alt_name": "Carrosserie Desot D.", "name": "Koetsenmuseum", "tourism": "museum"}}, "geometry": {"type": "Point", "coordinates": [3.061367, 50.9662121]}}, {"type": "Feature", "properties": {"type": "node", "id": 6111374298, "tags": {"addr:housenumber": "20", "addr:street": "Henri Horriestraat", "alt_name": "Figaro", "name": "Kappersmuseum", "tourism": "museum"}}, "geometry": {"type": "Point", "coordinates": [3.1254806, 50.9469476]}}, {"type": "Feature", "properties": {"type": "node", "id": 1264515775, "tags": {"description": "opening_hours tested with http://openingh.openstreetmap.de/evaluation_tool/#", "name": "Texture Kortrijk", "old_name": "Nationaal Vlasmuseum", "opening_hours": "May-Sep Tu-Su 10:00-18:00; Mo off \"Closed\"; Jan-Apr,Sep-Dec Tu-Su 10:00-17:00; Mo off \"Closed\"; PH off", "tourism": "museum", "website": "https://www.texturekortrijk.be/"}}, "geometry": {"type": "Point", "coordinates": [3.2560514, 50.8305771]}}, {"type": "Feature", "properties": {"type": "node", "id": 1263445627, "tags": {"alt_name": "Groeningemuseum Kortrijk", "name": "Kortrijk 1302", "tourism": "museum", "website": "https://www.kortrijk1302.be/", "wikidata": "Q2045153", "wikipedia": "nl:Kortrijk 1302"}}, "geometry": {"type": "Point", "coordinates": [3.2699803, 50.8296692]}}, {"type": "Feature", "properties": {"type": "node", "id": 7063914648, "tags": {"addr:city": "Harelbeke", "addr:housenumber": "55", "addr:postcode": "8530", "addr:street": "Marktstraat", "name": "Stedelijk Museum Peter Benoit", "tourism": "museum", "wikidata": "Q27990972"}}, "geometry": {"type": "Point", "coordinates": [3.309853, 50.8559288]}}, {"type": "Feature", "properties": {"type": "node", "id": 1363635190, "tags": {"addr:housenumber": "24", "addr:postcode": "8830", "addr:street": "Marktplaats", "name": "Oorlogsmuseum", "tourism": "museum"}}, "geometry": {"type": "Point", "coordinates": [3.0810021, 50.9787472]}}, {"type": "Feature", "properties": {"type": "node", "id": 5420548425, "tags": {"historic": "railway_car", "name": "Spoorauto Kamieltje", "tourism": "museum", "url": "https://inventaris.onroerenderfgoed.be/erfgoedobjecten/208728"}}, "geometry": {"type": "Point", "coordinates": [2.9723421, 51.091544]}}, {"type": "Feature", "properties": {"type": "node", "id": 4061233528, "tags": {"addr:city": "Koekelare", "addr:housenumber": "2", "addr:postcode": "8680", "addr:street": "Clevenstraat", "description": "Het Lange Max Museum is voor de Eerste Wereldoorlog-toerist een niet te missen plaats aan de Duitse zijde van het westelijk front. Een boerenerf vormt er het centraal punt van de cultuur-toeristische locatie. Vanaf het boerenerf brengt een lange dreef je", "email": "info@langemaxmuseum.be", "name": "Lange Max Museum", "opening_hours": "14:00 - 18:00", "operator": "Lange Max vzw", "payment:cash": "yes", "phone": "+32 475 58 50 51", "tourism": "museum", "website": "https://www.langemaxmuseum.be", "wheelchair": "yes", "wikidata": "Q18169501", "wikipedia": "en:Lange Max Museum"}}, "geometry": {"type": "Point", "coordinates": [2.9816708, 51.117572]}}, {"type": "Feature", "properties": {"type": "node", "id": 6467938398, "tags": {"amenity": "planetarium", "email": "info@cozmix.be", "name": "Cozmix", "operator": "Volkssterrenwacht Beisbroek", "phone": "+32 50 39 05 66", "tourism": "museum", "website": "http://www.cozmix.be/", "wheelchair": "yes"}}, "geometry": {"type": "Point", "coordinates": [3.1529366, 51.1768079]}}, {"type": "Feature", "properties": {"type": "node", "id": 6467938399, "tags": {"email": "natuur@brugge.be", "fee": "no", "name": "Natuurcentrum", "opening_hours": "Mo-Th 14:00-17:00; Su 14:00-18:00", "operator": "Stad Brugge", "phone": "+32 50 39 09 75", "tourism": "museum"}}, "geometry": {"type": "Point", "coordinates": [3.1530957, 51.176803]}}, {"type": "Feature", "properties": {"type": "node", "id": 5854495022, "tags": {"name": "Museumschip Tordino", "tourism": "museum", "website": "http://www.museumschip.be/", "wikidata": "Q56245118"}}, "geometry": {"type": "Point", "coordinates": [3.2953392, 51.1435751]}}, {"type": "Feature", "properties": {"type": "node", "id": 5283902987, "tags": {"addr:city": "Oostende", "addr:housenumber": "636", "addr:postcode": "8400", "addr:street": "Nieuwpoortsesteenweg", "name": "Atlantikwall (WW1 & WW2)", "opening_hours:url": "https://www.raversyde.be/", "operator": "West Flanders Province", "tourism": "museum"}}, "geometry": {"type": "Point", "coordinates": [2.8472134, 51.2006561]}}, {"type": "Feature", "properties": {"type": "node", "id": 1268533874, "tags": {"name": "Mu.ZEE PMMK MSK", "tourism": "museum"}}, "geometry": {"type": "Point", "coordinates": [2.9145726, 51.2256082]}}, {"type": "Feature", "properties": {"type": "node", "id": 1268524325, "tags": {"addr:city": "Oostende", "addr:housenumber": "27", "addr:postcode": "8400", "addr:street": "Vlaanderenstraat", "name": "Ensorhuis", "source:url": "https://www.visitoostende.be/nl/james-ensorhuis", "tourism": "museum", "wikidata": "Q1679876", "wikipedia": "nl:Ensorhuis"}}, "geometry": {"type": "Point", "coordinates": [2.9160237, 51.2332975]}}, {"type": "Feature", "properties": {"type": "node", "id": 1268535939, "tags": {"name": "De Plate", "tourism": "museum"}}, "geometry": {"type": "Point", "coordinates": [2.918156, 51.2333495]}}, {"type": "Feature", "properties": {"type": "node", "id": 3751964393, "tags": {"name": "Oldtimer Motorcycle museum", "tourism": "museum"}}, "geometry": {"type": "Point", "coordinates": [2.9840875, 51.1915107]}}, {"type": "Feature", "properties": {"type": "node", "id": 6517531519, "tags": {"addr:city": "Brugge", "name": "Halve Maan", "tourism": "museum"}}, "geometry": {"type": "Point", "coordinates": [3.2239341, 51.2021578]}}, {"type": "Feature", "properties": {"type": "node", "id": 6818121433, "tags": {"name": "Musea Sculpta 3D Museum", "tourism": "museum"}}, "geometry": {"type": "Point", "coordinates": [3.2229413, 51.2058215]}}, {"type": "Feature", "properties": {"type": "node", "id": 5303678018, "tags": {"name": "Diamantmuseum", "tourism": "museum", "wikidata": "Q2015143"}}, "geometry": {"type": "Point", "coordinates": [3.2259303, 51.2027519]}}, {"type": "Feature", "properties": {"type": "node", "id": 1398777206, "tags": {"name": "Lumina", "tourism": "museum"}}, "geometry": {"type": "Point", "coordinates": [3.2264075, 51.2108356]}}, {"type": "Feature", "properties": {"type": "node", "id": 1651558422, "tags": {"alt_name:mk": "\u0411\u0440\u0438\u0436", "capital": "6", "heritage": "1", "heritage:operator": "whc", "heritage:ref": "996", "heritage:since": "2000", "heritage:website": "http://whc.unesco.org/en/list/996/", "image": "http://commons.wikimedia.org/wiki/File:Bruegge_huidenvettersplein.jpg", "name": "Brugge", "name:ar": "\u0628\u0631\u0648\u062c", "name:be": "\u0411\u0440\u0443\u0433\u044d", "name:ca": "Bruges", "name:cs": "Bruggy", "name:de": "Br\u00fcgge", "name:el": "\u0392\u03c1\u03cd\u03b3\u03b7", "name:en": "Bruges", "name:eo": "Bru\u011do", "name:es": "Brujas", "name:fr": "Bruges", "name:it": "Bruges", "name:ko": "\ube0c\ub93c\ud5c8", "name:la": "Brugae", "name:lb": "Bruges", "name:lt": "Briug\u0117", "name:lv": "Brige", "name:mk": "\u0411\u0440\u0443\u0445\u0435", "name:nl": "Brugge", "name:pcd": "Brudje", "name:pl": "Brugia", "name:pt": "Bruges", "name:ru": "\u0411\u0440\u044e\u0433\u0433\u0435", "name:sk": "Bruggy", "name:sr": "\u0411\u0440\u0438\u0436", "name:sv": "Brygge", "name:tr": "Br\u00fcj", "name:vls": "Brugge", "name:wa": "Brudje", "name:zh": "\u5e03\u9b6f\u65e5", "name:zh-Hans": "\u5e03\u9c81\u65e5", "place": "city", "population": "117639", "population:date": "2012", "ref:INS": "31005", "wikidata": "Q12994", "wikipedia": "nl:Brugge"}}, "geometry": {"type": "Point", "coordinates": [3.226772, 51.2085526]}}, {"type": "Feature", "properties": {"type": "node", "id": 1976192745, "tags": {"addr:housenumber": "2", "addr:street": "Wijnzakstraat", "name": "Choco-Story", "opening_hours": "Mo-Su 10:00-17:00", "phone": "+32 50 61 22 37", "tourism": "museum", "website": "http://www.choco-story.be/", "wikidata": "Q2747092"}}, "geometry": {"type": "Point", "coordinates": [3.2262766, 51.210814]}}, {"type": "Feature", "properties": {"type": "node", "id": 3033526245, "tags": {"addr:housenumber": "3", "addr:street": "Breidelstraat", "description": "degustatie inbegrepen", "description:en": "tasting included", "email": "info@mybeerexperience.com", "internet_access": "wlan", "name": "Brugs Biermuseum", "name:de": "Br\u00fcgger Biermuseum", "name:en": "Bruges Beer Museum", "name:fr": "Mus\u00e9e brugeois de la bi\u00e8re", "name:nl": "Brugs Biermuseum", "phone": "+32 50 69 92 29", "tourism": "museum", "website": "https://mybeerexperience.com", "wheelchair": "no", "wikidata": "Q18549518"}}, "geometry": {"type": "Point", "coordinates": [3.2254533, 51.2085805]}}, {"type": "Feature", "properties": {"type": "node", "id": 3634680109, "tags": {"addr:housenumber": "29D", "addr:street": "Wollestraat", "name": "Torture Museum Oude Steen", "tourism": "museum", "website": "http://torturemuseum.be/", "wikidata": "Q56294596"}}, "geometry": {"type": "Point", "coordinates": [3.2262802, 51.2076391]}}, {"type": "Feature", "properties": {"type": "node", "id": 5894997986, "tags": {"addr:city": "Brugge", "name": "Lucifernum", "tourism": "museum"}}, "geometry": {"type": "Point", "coordinates": [3.2282929, 51.2098814]}}, {"type": "Feature", "properties": {"type": "node", "id": 907868913, "tags": {"addr:city": "Brugge", "addr:country": "BE", "addr:housenumber": "3A", "addr:postcode": "8000", "addr:street": "Peperstraat", "email": "info@adornes.org", "int_name": "Lace Museum", "name": "Adornesdomein", "opening_hours": "Mo-Sa 10:00-17:30; PH Off", "phone": "+32 50 33 88 83", "tourism": "museum", "website": "http://www.adornes.org/", "wheelchair": "limited"}}, "geometry": {"type": "Point", "coordinates": [3.2338997, 51.2123276]}}, {"type": "Feature", "properties": {"type": "node", "id": 1341445889, "tags": {"name": "Uilenspiegelmuseum", "tourism": "museum", "wikidata": "Q23670942"}}, "geometry": {"type": "Point", "coordinates": [3.2819435, 51.2513188]}}, {"type": "Feature", "properties": {"type": "node", "id": 2379730126, "tags": {"tourism": "museum"}}, "geometry": {"type": "Point", "coordinates": [3.2821497, 51.2503085]}}, {"type": "Feature", "properties": {"type": "node", "id": 5181581337, "tags": {"name": "Heiligenmuseum", "name:en": "Museum of Saints", "name:nl": "Heiligenmuseum", "tourism": "museum"}}, "geometry": {"type": "Point", "coordinates": [3.1998974, 51.2941379]}}, {"type": "Feature", "properties": {"type": "node", "id": 3598967800, "tags": {"addr:city": "Knokke Heist", "addr:housenumber": "140", "addr:postcode": "8301", "addr:street": "Pannenstraat", "name": "Sincfala", "opening_hours": "Mo-Su 10:00-12:00,14:00-17:30; Dec 25-26 off; Jan 1-2 off", "tourism": "museum", "website": "https://www.sincfala.be/", "wikidata": "Q2306758"}}, "geometry": {"type": "Point", "coordinates": [3.2453068, 51.3375246]}}, {"type": "Feature", "properties": {"type": "node", "id": 2351469884, "tags": {"name": "Maison Verhaeren", "tourism": "museum"}}, "geometry": {"type": "Point", "coordinates": [3.70527, 50.3459685]}}, {"type": "Feature", "properties": {"type": "node", "id": 685536955, "tags": {"name": "Espace Nature", "tourism": "museum"}}, "geometry": {"type": "Point", "coordinates": [4.1823801, 50.1660226]}}, {"type": "Feature", "properties": {"type": "node", "id": 7486446000, "tags": {"name": "Mus\u00e9e Communal G. Mulpas", "tourism": "museum"}}, "geometry": {"type": "Point", "coordinates": [3.7531486, 50.4028551]}}, {"type": "Feature", "properties": {"type": "node", "id": 801418431, "tags": {"name": "Le petit mus\u00e9e du pain", "tourism": "museum"}}, "geometry": {"type": "Point", "coordinates": [3.7647762, 50.5349152]}}, {"type": "Feature", "properties": {"type": "node", "id": 2218016122, "tags": {"name": "Mus\u00e9e de la Ville", "tourism": "museum"}}, "geometry": {"type": "Point", "coordinates": [3.4489426, 50.5656435]}}, {"type": "Feature", "properties": {"type": "node", "id": 7747234773, "tags": {"addr:city": "Pipaix", "addr:housenumber": "15", "addr:postcode": "7904", "addr:street": "Ghyssegnies", "museum": "local", "name": "Dubuisson Beerstorium", "opening_hours": "Mo-Su 10:00-18:00", "tourism": "museum", "website": "https://beerstorium.dubuisson.com/"}}, "geometry": {"type": "Point", "coordinates": [3.5585193, 50.5777796]}}, {"type": "Feature", "properties": {"type": "node", "id": 747086259, "tags": {"addr:city": "Huissignies", "addr:housenumber": "28", "addr:postcode": "7950", "addr:street": "Rue Augustin Melsens", "name": "Mus\u00e9e de la vie rurale", "tourism": "museum", "website": "https://www.musee-huissignies.com/"}}, "geometry": {"type": "Point", "coordinates": [3.7501968, 50.5628538]}}, {"type": "Feature", "properties": {"type": "node", "id": 1188062050, "tags": {"name": "La Maison du Sucre", "tourism": "museum", "wikidata": "Q666813", "wikipedia": "fr:Frasnes-lez-Anvaing"}}, "geometry": {"type": "Point", "coordinates": [3.6140848, 50.6635146]}}, {"type": "Feature", "properties": {"type": "node", "id": 3478789455, "tags": {"name": "Ecomus\u00e9e", "tourism": "museum", "wikidata": "Q3578596", "wikipedia": "fr:\u00c9comus\u00e9e de Lahamaide"}}, "geometry": {"type": "Point", "coordinates": [3.7220406, 50.695082]}}, {"type": "Feature", "properties": {"type": "node", "id": 2117024674, "tags": {"addr:city": "Colfontaine", "addr:housenumber": "221", "addr:postcode": "7340", "addr:street": "Rue Wilson", "description": "Point d'accueil lors de notre Weekend Wallonie Bienvenue Samedi 15 octobre et dimanche 16 octobre 2016 10 h \u00e0 18 h", "name": "Maison Van Gogh", "opening_hours": "Sa-Su 10:00-16:00", "phone": "+32 65 88 74 88", "tourism": "museum"}}, "geometry": {"type": "Point", "coordinates": [3.8327572, 50.4070984]}}, {"type": "Feature", "properties": {"type": "node", "id": 874423902, "tags": {"addr:city": "Hornu", "addr:housenumber": "82", "addr:postcode": "7301", "addr:street": "Rue Sainte-Louise", "name": "MAC's", "opening_hours": "Tu-Su 10:00-18:00; Jan 1 off; Dec 25 off", "tourism": "museum"}}, "geometry": {"type": "Point", "coordinates": [3.8375975, 50.4348091]}}, {"type": "Feature", "properties": {"type": "node", "id": 4387298991, "tags": {"addr:city": "Hornu", "addr:housenumber": "82", "addr:postcode": "7301", "addr:street": "Rue Sainte-Louise", "name": "Centre d'innovation et de design", "opening_hours": "Tu-Su 10:00-18:00; Jan 1 off; Dec 25 off", "tourism": "museum"}}, "geometry": {"type": "Point", "coordinates": [3.8374308, 50.4352072]}}, {"type": "Feature", "properties": {"type": "node", "id": 1805225735, "tags": {"name": "La Malogne", "tourism": "museum"}}, "geometry": {"type": "Point", "coordinates": [3.9202449, 50.4264111]}}, {"type": "Feature", "properties": {"type": "node", "id": 6221958620, "tags": {"name": "Mus\u00e9e Saint-R\u00e9my", "tourism": "museum", "wikidata": "Q3329339", "wikipedia": "fr:Mus\u00e9e Saint-R\u00e9my"}}, "geometry": {"type": "Point", "coordinates": [3.9236454, 50.4362895]}}, {"type": "Feature", "properties": {"type": "node", "id": 2102526127, "tags": {"heritage": "1", "heritage:operator": "whc", "heritage:ref": "1006", "heritage:since": "2000", "heritage:website": "http://whc.unesco.org/en/list/1006", "historic": "archaeological_site", "historic:civilization": "prehistoric", "image": "http://commons.wikimedia.org/wiki/File:Mini%C3%A8res_n%C3%A9olithiques_de_silex_-_Spiennes_%281%29.jpg", "name": "Mini\u00e8res n\u00e9olithiques de Petit-Spiennes", "ref:whc": "1006", "website": "http://www.silexs.mons.be/", "whc:criteria": "(i)(iii)(iv)", "whc:inscription_date": "2000", "wikidata": "Q677879", "wikipedia": "en:Neolithic flint mines of Spiennes"}}, "geometry": {"type": "Point", "coordinates": [3.9818827, 50.4198497]}}, {"type": "Feature", "properties": {"type": "node", "id": 2642498876, "tags": {"name": "Ancien H\u00f4pital Militaire", "tourism": "museum"}}, "geometry": {"type": "Point", "coordinates": [3.9444559, 50.4509267]}}, {"type": "Feature", "properties": {"type": "node", "id": 1369338756, "tags": {"name": "Mus\u00e9e de la route", "tourism": "museum"}}, "geometry": {"type": "Point", "coordinates": [3.9469457, 50.4476962]}}, {"type": "Feature", "properties": {"type": "node", "id": 2292618659, "tags": {"name": "Mus\u00e9e Fran\u00e7ois Duesberg", "tourism": "museum", "wikidata": "Q2188694"}}, "geometry": {"type": "Point", "coordinates": [3.9451452, 50.4537353]}}, {"type": "Feature", "properties": {"type": "node", "id": 3064717546, "tags": {"addr:housenumber": "3", "addr:street": "Rue Claude de Bettignies", "name": "Artoth\u00e8que", "opening_hours": "Th-Su 10:00-16:00; Mo-We off", "tourism": "museum"}}, "geometry": {"type": "Point", "coordinates": [3.945259, 50.4542791]}}, {"type": "Feature", "properties": {"type": "node", "id": 1255972576, "tags": {"name": "Mus\u00e9e du Chanoine Puissant", "tourism": "museum"}}, "geometry": {"type": "Point", "coordinates": [3.9469184, 50.4552429]}}, {"type": "Feature", "properties": {"type": "node", "id": 1261448112, "tags": {"addr:housenumber": "7", "addr:street": "Rue des Gaillers", "name": "Mus\u00e9e d'histoire naturelle", "tourism": "museum", "wikidata": "Q3329685", "wikipedia": "fr:Mus\u00e9e d'histoire naturelle de Mons"}}, "geometry": {"type": "Point", "coordinates": [3.948079, 50.4569466]}}, {"type": "Feature", "properties": {"type": "node", "id": 3064591477, "tags": {"addr:housenumber": "22", "addr:street": "Rue Notre-Dame D\u00e9bonnaire", "name": "Mus\u00e9e du chanoine Puissant", "tourism": "museum", "wikidata": "Q3329107", "wikipedia": "fr:Mus\u00e9e Chanoine Puissant"}}, "geometry": {"type": "Point", "coordinates": [3.9474588, 50.4544406]}}, {"type": "Feature", "properties": {"type": "node", "id": 987079002, "tags": {"addr:housenumber": "8", "addr:street": "Rue Neuve", "email": "polemuseal@ville.mons.be", "name": "BAM (Beaux-Arts Mons)", "phone": "+32 65 40 53 30", "tourism": "museum", "website": "http://www.bam.mons.be/"}}, "geometry": {"type": "Point", "coordinates": [3.9523165, 50.4557663]}}, {"type": "Feature", "properties": {"type": "node", "id": 1148183234, "tags": {"addr:housenumber": "76", "addr:street": "Rue de Nimy", "ehl:inscription_date": "2015", "heritage": "1", "heritage:operator": "ehl", "name": "Mundaneum", "note": "European Heritage Label since 2015", "opening_hours": "Tu-Fr 13:00-17:00; Sa-Su 13:00-18:00", "source:heritage": "ec.europa.eu - 2020", "tourism": "museum", "website": "http://www.mundaneum.be", "wheelchair": "yes", "wikidata": "Q451", "wikipedia": "fr:Mundaneum"}}, "geometry": {"type": "Point", "coordinates": [3.9555819, 50.4576156]}}, {"type": "Feature", "properties": {"type": "node", "id": 1794051445, "tags": {"name": "Salle Saint-Georges", "tourism": "museum"}}, "geometry": {"type": "Point", "coordinates": [3.95199, 50.4547422]}}, {"type": "Feature", "properties": {"type": "node", "id": 2767499003, "tags": {"name": "Mus\u00e9e du Vieux Nimy", "tourism": "museum"}}, "geometry": {"type": "Point", "coordinates": [3.9585553, 50.4746852]}}, {"type": "Feature", "properties": {"type": "node", "id": 2196229255, "tags": {"name": "Mus\u00e9e du Masque", "tourism": "museum"}}, "geometry": {"type": "Point", "coordinates": [4.1659539, 50.409411]}}, {"type": "Feature", "properties": {"type": "node", "id": 1162258626, "tags": {"name": "Jardin G\u00e9ologique & la Maison de la Biodiversit\u00e9", "tourism": "museum"}}, "geometry": {"type": "Point", "coordinates": [3.9863417, 50.4821764]}}, {"type": "Feature", "properties": {"type": "node", "id": 373128516, "tags": {"heritage": "1", "heritage:operator": "whc", "heritage:ref": "856", "heritage:since": "1998", "heritage:website": "http://whc.unesco.org/en/list/856", "historic": "heritage", "image": "http://commons.wikimedia.org/wiki/File:Houding9.jpg", "name": "Canal du Centre - Ascenseur n\u00b0 4", "ref:whc": "856", "tourism": "attraction", "whc:criteria": "(iii)(iv)", "whc:inscription_date": "1998", "wikidata": "Q64682742", "wikipedia": "en:Lifts on the old Canal du Centre"}}, "geometry": {"type": "Point", "coordinates": [4.0944761, 50.4713397]}}, {"type": "Feature", "properties": {"type": "node", "id": 373127831, "tags": {"heritage": "1", "heritage:operator": "whc", "heritage:ref": "856", "heritage:since": "1998", "heritage:website": "http://whc.unesco.org/en/list/856", "historic": "heritage", "image": "http://commons.wikimedia.org/wiki/File:Houding1.jpg", "name": "Canal du Centre - Ascenseur n\u00b0 3", "ref:whc": "856", "tourism": "attraction", "whc:criteria": "(iii)(iv)", "whc:inscription_date": "1998", "wikidata": "Q64682740", "wikipedia": "en:Lifts on the old Canal du Centre"}}, "geometry": {"type": "Point", "coordinates": [4.1373939, 50.4813227]}}, {"type": "Feature", "properties": {"type": "node", "id": 1384137800, "tags": {"alt_name": "Charbonnage et cit\u00e9 ouvri\u00e8re du Bois-du-Luc", "fixme": "resurvey the site to mark the mineshaft", "heritage": "1", "heritage:operator": "whc", "historic": "industrial", "industrial": "factory", "name": "\u00c9comus\u00e9e du Bois-du-Luc", "ref:whc": "1344-002", "site": "yes", "tourism": "museum", "whc:criteria": "(ii)(iv)", "whc:inscription_date": "2012"}}, "geometry": {"type": "Point", "coordinates": [4.1497494, 50.4702075]}}, {"type": "Feature", "properties": {"type": "node", "id": 4359221503, "tags": {"name": "Centre de la Gravure et de l'Image Imprim\u00e9e", "tourism": "museum"}}, "geometry": {"type": "Point", "coordinates": [4.1851429, 50.4742252]}}, {"type": "Feature", "properties": {"type": "node", "id": 373128398, "tags": {"heritage": "1", "heritage:operator": "whc", "heritage:ref": "856", "heritage:since": "1998", "heritage:website": "http://whc.unesco.org/en/list/856", "historic": "heritage", "image": "http://commons.wikimedia.org/wiki/File:Houdeng-Aimeries_-_Ascenseur_no_2_-_1.jpg", "name": "Canal du Centre - Ascenseur n\u00b0 2", "ref:whc": "856", "tourism": "attraction", "whc:criteria": "(iii)(iv)", "whc:inscription_date": "1998", "wikidata": "Q64682738", "wikipedia": "en:Lifts on the old Canal du Centre"}}, "geometry": {"type": "Point", "coordinates": [4.1424252, 50.482625]}}, {"type": "Feature", "properties": {"type": "node", "id": 4949292172, "tags": {"name": "\u00c9tains \"fil\u00e9s\" et autres fer'art'ages", "tourism": "museum", "website": "http://www.metalicart.be/infos.html"}}, "geometry": {"type": "Point", "coordinates": [4.1530325, 50.4860789]}}, {"type": "Feature", "properties": {"type": "node", "id": 459814193, "tags": {"name": "La Cantine des Italiens", "tourism": "museum"}}, "geometry": {"type": "Point", "coordinates": [4.172388, 50.4845929]}}, {"type": "Feature", "properties": {"type": "node", "id": 372902114, "tags": {"heritage": "1", "heritage:operator": "whc", "heritage:ref": "856", "heritage:since": "1998", "heritage:website": "http://whc.unesco.org/en/list/856", "historic": "heritage", "image": "http://commons.wikimedia.org/wiki/File:Canal_du_Centre_-_Lift_1_Houdeng-Goegnies_5671.jpg", "name": "Canal du Centre - Ascenseur n\u00b0 1", "ref:whc": "856", "tourism": "attraction", "whc:criteria": "(iii)(iv)", "whc:inscription_date": "1998", "wikidata": "Q64682720", "wikipedia": "en:Lifts on the old Canal du Centre"}}, "geometry": {"type": "Point", "coordinates": [4.175837, 50.4874864]}}, {"type": "Feature", "properties": {"type": "node", "id": 8100856567, "tags": {"museum": "archaeological", "name": "Mus\u00e9e de la pierre", "tourism": "museum"}}, "geometry": {"type": "Point", "coordinates": [3.7949994, 50.6148411]}}, {"type": "Feature", "properties": {"type": "node", "id": 7495103835, "tags": {"name": "Mus\u00e9e national des Jeux de Paume", "tourism": "museum"}}, "geometry": {"type": "Point", "coordinates": [3.7770771, 50.630482]}}, {"type": "Feature", "properties": {"type": "node", "id": 2435299139, "tags": {"addr:city": "Silly", "addr:housename": "Chapelle de Saint Marcoult", "addr:postcode": "7830", "addr:street": "Rue Saint Marcoult", "name": "Maquistory", "operator": "Syndicat d'Initiative de Silly", "tourism": "museum"}}, "geometry": {"type": "Point", "coordinates": [3.9629579, 50.6486539]}}, {"type": "Feature", "properties": {"type": "node", "id": 2150541734, "tags": {"tourism": "museum"}}, "geometry": {"type": "Point", "coordinates": [4.1354887, 50.6097958]}}, {"type": "Feature", "properties": {"type": "node", "id": 5633483488, "tags": {"name": "Chimay Experience", "tourism": "museum", "website": "https://chimay.com/en/chimay-experience/"}}, "geometry": {"type": "Point", "coordinates": [4.3421598, 49.9886319]}}, {"type": "Feature", "properties": {"type": "node", "id": 7577218185, "tags": {"name": "Musee du petit format", "name:nl": "Museum van klein formaat", "tourism": "museum"}}, "geometry": {"type": "Point", "coordinates": [4.5478248, 50.0747801]}}, {"type": "Feature", "properties": {"type": "node", "id": 690805022, "tags": {"name": "Centre Permanent d'Etude de la Nature (CPEN)", "tourism": "museum"}}, "geometry": {"type": "Point", "coordinates": [4.2276903, 50.1790374]}}, {"type": "Feature", "properties": {"type": "node", "id": 685403551, "tags": {"name": "Mus\u00e9e National du Marbre de Rance", "tourism": "museum"}}, "geometry": {"type": "Point", "coordinates": [4.2697942, 50.1429375]}}, {"type": "Feature", "properties": {"type": "node", "id": 5301463274, "tags": {"tourism": "museum"}}, "geometry": {"type": "Point", "coordinates": [4.2342129, 50.2352451]}}, {"type": "Feature", "properties": {"type": "node", "id": 1399681845, "tags": {"name": "Mus\u00e9e du Tram Vicinal", "tourism": "museum"}}, "geometry": {"type": "Point", "coordinates": [4.2798309, 50.340476]}}, {"type": "Feature", "properties": {"type": "node", "id": 1696090690, "tags": {"addr:city": "Treignes", "addr:housenumber": "36", "addr:postcode": "5670", "addr:street": "Rue Eug\u00e8ne Defraire", "name": "Espace Arthur Masson", "tourism": "museum", "website": "https://www.espacemasson.be/"}}, "geometry": {"type": "Point", "coordinates": [4.6663497, 50.0929246]}}, {"type": "Feature", "properties": {"type": "node", "id": 890989815, "tags": {"name": "Chemin de Fer des 3 Vall\u00e9es", "tourism": "museum", "website": "http://cfv3v.in-site-out.com/"}}, "geometry": {"type": "Point", "coordinates": [4.6818288, 50.0902535]}}, {"type": "Feature", "properties": {"type": "node", "id": 1696090693, "tags": {"name": "Mus\u00e9e du Malgr\u00e9-Tout", "tourism": "museum"}}, "geometry": {"type": "Point", "coordinates": [4.6806217, 50.0913225]}}, {"type": "Feature", "properties": {"type": "node", "id": 2033197851, "tags": {"name": "Maison Leffe", "tourism": "museum"}}, "geometry": {"type": "Point", "coordinates": [4.9110149, 50.2570717]}}, {"type": "Feature", "properties": {"type": "node", "id": 5698799653, "tags": {"alt_name": "Adolphe Sax Museum", "name": "La Maison de Monsieur Sax", "tourism": "museum"}}, "geometry": {"type": "Point", "coordinates": [4.911114, 50.2617691]}}, {"type": "Feature", "properties": {"type": "node", "id": 5725289670, "tags": {"name": "Maison de la Pataphonie", "tourism": "museum"}}, "geometry": {"type": "Point", "coordinates": [4.9137665, 50.260213]}}, {"type": "Feature", "properties": {"type": "node", "id": 2850062186, "tags": {"addr:city": "Bouvignes-sur-Meuse", "addr:country": "BE", "addr:housenumber": "16", "addr:postcode": "5500", "addr:street": "Place du Baillage", "alt_name": "Maison espagnole", "email": "info@mpmm.be", "fax": "+32 82 22 34 17", "name": "Maison du patrimoine m\u00e9di\u00e9val mosan", "phone": "+32 82 22 36 16", "tourism": "museum", "website": "http://mpmm.be", "wikidata": "Q2404512", "wikipedia": "fr:Maison espagnole de Bouvignes-sur-Meuse"}}, "geometry": {"type": "Point", "coordinates": [4.8980497, 50.2726103]}}, {"type": "Feature", "properties": {"type": "node", "id": 5057676221, "tags": {"addr:housenumber": "12", "addr:postcode": "6540", "addr:street": "Rue de la Fontaine P\u00e9pin", "name": "Mus\u00e9e du miel", "name:fr": "Mus\u00e9e du miel", "phone": "+32 71 52 07 65", "tourism": "museum", "website": "http://museedumiel.be"}}, "geometry": {"type": "Point", "coordinates": [4.2847688, 50.3643046]}}, {"type": "Feature", "properties": {"type": "node", "id": 2247165585, "tags": {"addr:housenumber": "51", "addr:street": "Place de Carni\u00e8res", "name": "Mus\u00e9e Alexandre-Louis Martin", "tourism": "museum"}}, "geometry": {"type": "Point", "coordinates": [4.2541964, 50.4433602]}}, {"type": "Feature", "properties": {"type": "node", "id": 479222729, "tags": {"name": "Mus\u00e9e de Mariemont", "tourism": "museum"}}, "geometry": {"type": "Point", "coordinates": [4.2326838, 50.4677677]}}, {"type": "Feature", "properties": {"type": "node", "id": 5056743788, "tags": {"name": "Mus\u00e9e de l'orf\u00e8vrerie de la Communaut\u00e9 fran\u00e7aise de Belgique", "tourism": "museum", "wikidata": "Q17189906"}}, "geometry": {"type": "Point", "coordinates": [4.2701304, 50.5252517]}}, {"type": "Feature", "properties": {"type": "node", "id": 505009326, "tags": {"alt_name": "Charbonnage et cit\u00e9 du Bois-du-Cazier", "ehl:inscription_date": "2017", "heritage": "1", "heritage:operator": "whc;ehl", "historic": "industrial", "industrial": "factory", "museum": "industrial;history", "name": "Le Bois du Cazier", "ref:whc": "1344-003", "site": "yes", "tourism": "museum", "website": "https://www.leboisducazier.be/", "whc:criteria": "(ii)(iv)", "whc:inscription_date": "2012", "wikidata": "Q891068"}}, "geometry": {"type": "Point", "coordinates": [4.4436711, 50.3812758]}}, {"type": "Feature", "properties": {"type": "node", "id": 3846539320, "tags": {"name": "Mus\u00e9e des chasseurs \u00e0 pieds", "tourism": "museum", "wikidata": "Q3330126"}}, "geometry": {"type": "Point", "coordinates": [4.4511576, 50.4111272]}}, {"type": "Feature", "properties": {"type": "node", "id": 742740549, "tags": {"name": "BPS22", "tourism": "museum", "website": "https://www.bps22.be", "wikidata": "Q2876625"}}, "geometry": {"type": "Point", "coordinates": [4.4456877, 50.416523]}}, {"type": "Feature", "properties": {"type": "node", "id": 2420936658, "tags": {"name": "La Touraille (Mus\u00e9e des outils anciens)", "tourism": "museum"}}, "geometry": {"type": "Point", "coordinates": [4.5311122, 50.5447001]}}, {"type": "Feature", "properties": {"type": "node", "id": 7414777391, "tags": {"name": "Musee Communal", "tourism": "museum"}}, "geometry": {"type": "Point", "coordinates": [4.3244188, 50.5994249]}}, {"type": "Feature", "properties": {"type": "node", "id": 4501351890, "tags": {"name": "Bosmuseum", "name:fr": "Bosmuseum", "tourism": "museum", "website": "https://www.hallerbos.be/bezoekersinfo/bosmuseum/"}}, "geometry": {"type": "Point", "coordinates": [4.2672527, 50.6993549]}}, {"type": "Feature", "properties": {"type": "node", "id": 392791298, "tags": {"name": "Fondation Folon", "tourism": "museum", "website": "https://fondationfolon.be/", "wikidata": "Q2148163", "wikipedia": "fr:Fondation Folon"}}, "geometry": {"type": "Point", "coordinates": [4.4580959, 50.7322519]}}, {"type": "Feature", "properties": {"type": "node", "id": 2216377005, "tags": {"name": "Terrain interactif ludique pour tous", "operator": "Odyssea asbl", "short_name": "TILT", "tourism": "museum"}}, "geometry": {"type": "Point", "coordinates": [4.533769, 50.7072059]}}, {"type": "Feature", "properties": {"type": "node", "id": 5258607722, "tags": {"internet_access": "wlan", "name": "La Cinacienne", "tourism": "museum"}}, "geometry": {"type": "Point", "coordinates": [4.6107788, 50.6666385]}}, {"type": "Feature", "properties": {"type": "node", "id": 2216377004, "tags": {"addr:city": "Rixensart", "addr:housenumber": "32", "addr:postcode": "1332", "addr:street": "Rue August Lannoye", "alt_name": "La Perche", "name": "Mus\u00e9e du Tir \u00e0 l'Arc", "operator": "private", "tourism": "museum"}}, "geometry": {"type": "Point", "coordinates": [4.5132829, 50.7229691]}}, {"type": "Feature", "properties": {"type": "node", "id": 1962381590, "tags": {"addr:city": "W\u00e9pion", "addr:housenumber": "1037", "addr:postcode": "5100", "addr:street": "Chauss\u00e9e de Dinant", "name": "Mus\u00e9e de la fraise - Strawberry museum", "phone": "+32 81 46 20 07", "tourism": "museum", "website": "http://www.museedelafraise.eu/"}}, "geometry": {"type": "Point", "coordinates": [4.8790394, 50.4167436]}}, {"type": "Feature", "properties": {"type": "node", "id": 5893659811, "tags": {"name": "Mus\u00e9e de la Citadelle", "tourism": "museum"}}, "geometry": {"type": "Point", "coordinates": [4.8608875, 50.4590343]}}, {"type": "Feature", "properties": {"type": "node", "id": 924198459, "tags": {"name": "Mus\u00e9e Provincial des Arts Anciens du Namurois", "opening_hours": "Tu-Su 10:00-18:00", "tourism": "museum", "website": "https://www.museedesartsanciens.be"}}, "geometry": {"type": "Point", "coordinates": [4.8653552, 50.46561]}}, {"type": "Feature", "properties": {"type": "node", "id": 8146749765, "tags": {"description": "la discipline sportive du canot de plaisance au 19e si\u00e8cle dans la r\u00e9gion namuroise", "name": "Espace mus\u00e9al Nauticmen", "tourism": "museum"}}, "geometry": {"type": "Point", "coordinates": [4.9084344, 50.4653987]}}, {"type": "Feature", "properties": {"type": "node", "id": 2513223763, "tags": {"name": "Mus\u00e9e Fran\u00e7ais", "tourism": "museum", "wikidata": "Q17635472", "wikipedia": "fr:Mus\u00e9e de la Premi\u00e8re Arm\u00e9e fran\u00e7aise de Cortil-Noirmont"}}, "geometry": {"type": "Point", "coordinates": [4.6384164, 50.5855193]}}, {"type": "Feature", "properties": {"type": "node", "id": 2288029916, "tags": {"name": "Mus\u00e9e du souvenir 40-45", "tourism": "museum"}}, "geometry": {"type": "Point", "coordinates": [4.7766743, 50.6539472]}}, {"type": "Feature", "properties": {"type": "node", "id": 6043889414, "tags": {"museum": "military", "name": "First Wing Historical Center", "opening_hours": "Su[1,3] 13:30-18:00", "phone": "+32 2 442 52 93", "tourism": "museum", "website": "http://musee.1wing.free.fr"}}, "geometry": {"type": "Point", "coordinates": [4.7800446, 50.7555542]}}, {"type": "Feature", "properties": {"type": "node", "id": 1976961088, "tags": {"name": "Mus\u00e9e du Corps de Cavalerie Fran\u00e7ais 1940", "tourism": "museum"}}, "geometry": {"type": "Point", "coordinates": [4.9840953, 50.6742415]}}, {"type": "Feature", "properties": {"type": "node", "id": 1169756382, "tags": {"addr:city": "Sint-Martens-Latem", "addr:housename": "Museum Gevaert-Minne", "addr:housenumber": "45", "addr:postcode": "9830", "addr:street": "Kapitteldreef", "name": "Museum Gevaert-Minne", "tourism": "museum", "wikidata": "Q13866173"}}, "geometry": {"type": "Point", "coordinates": [3.6192002, 51.0081895]}}, {"type": "Feature", "properties": {"type": "node", "id": 2441406822, "tags": {"name": "Museum voor de geschiedenis van de Wetenschappen", "tourism": "museum", "wikidata": "Q3515432"}}, "geometry": {"type": "Point", "coordinates": [3.7132317, 51.0236721]}}, {"type": "Feature", "properties": {"type": "node", "id": 717698375, "tags": {"name": "De school van toen", "opening_hours": "Mo-Fr 09:00-12:00,14:00-16:00; We 09:00-12:00", "tourism": "museum", "wikidata": "Q2248967", "wikipedia": "nl:De School van Toen"}}, "geometry": {"type": "Point", "coordinates": [3.7172867, 51.0554405]}}, {"type": "Feature", "properties": {"type": "node", "id": 2626417859, "tags": {"OnroerendErfgoed:criteria": "M", "addr:housenumber": "82", "addr:street": "Veldstraat", "heritage": "4", "heritage:operator": "OnroerendErfgoed", "heritage:website": "https://inventaris.onroerenderfgoed.be/dibe/relict/26001", "name": "Arnold Vander Haeghen", "ref:OnroerendErfgoed": "26001", "tourism": "museum", "wikidata": "Q2032787"}}, "geometry": {"type": "Point", "coordinates": [3.7212465, 51.0515497]}}, {"type": "Feature", "properties": {"type": "node", "id": 204761338, "tags": {"addr:housenumber": "43", "addr:postcode": "9000", "addr:street": "Jozef Guislainstraat", "name": "Museum Dr. Guislain", "tourism": "museum", "website": "http://www.museumdrguislain.be", "wikidata": "Q2934898", "wikimedia_commons": "Category:Museum_Dr_Guislain"}}, "geometry": {"type": "Point", "coordinates": [3.7033213, 51.0668514]}}, {"type": "Feature", "properties": {"type": "node", "id": 717698372, "tags": {"name": "Design Museum Gent", "opening_hours": "Mo,Tu,Th,Fr 09:30-17:30; Sa,Su,PH 10:00-18:00", "toilets:wheelchair": "yes", "tourism": "museum", "wheelchair": "limited", "wikidata": "Q1809071", "wikipedia": "nl:Design museum Gent"}}, "geometry": {"type": "Point", "coordinates": [3.7201406, 51.0558384]}}, {"type": "Feature", "properties": {"type": "node", "id": 2627642121, "tags": {"OnroerendErfgoed:criteria": "M", "addr:street": "Vrouwebroersstraat", "description": "Pand of Klooster en Kerk van de Geschoeide Karmelieten", "heritage": "4", "heritage:operator": "OnroerendErfgoed", "heritage:website": "https://inventaris.onroerenderfgoed.be/dibe/relict/26093", "historic": "monastery", "image": "File:Klooster_Geschoeide_Karmelieten.jpg", "name": "Caermersklooster", "ref:OnroerendErfgoed": "26093", "tourism": "museum", "wikidata": "Q1858032"}}, "geometry": {"type": "Point", "coordinates": [3.7223293, 51.0585842]}}, {"type": "Feature", "properties": {"type": "node", "id": 7637345774, "tags": {"addr:housenumber": "35", "addr:street": "Karel Lodewijk Ledeganckstraat", "name": "Gents Universiteitsmuseum", "name:en": "Ghent University Museum", "name:fr": "Mus\u00e9e de l\u2019Universit\u00e9 de Gand", "operator": "Universtiteit Gent", "short_name": "GUM", "subject": "sience", "tourism": "museum", "website": "https://www.gum.gent", "wikidata": "Q100263681"}}, "geometry": {"type": "Point", "coordinates": [3.7232481, 51.0359404]}}, {"type": "Feature", "properties": {"type": "node", "id": 2365493578, "tags": {"name": "Museum voor Stenen Voorwerpen", "tourism": "museum", "wheelchair": "no", "wikidata": "Q2195107"}}, "geometry": {"type": "Point", "coordinates": [3.7365072, 51.0540032]}}, {"type": "Feature", "properties": {"type": "node", "id": 717698374, "tags": {"OnroerendErfgoed:criteria": "M", "addr:housenumber": "65;67", "addr:street": "Kraanlei", "heritage": "4", "heritage:operator": "OnroerendErfgoed", "heritage:website": "https://inventaris.onroerenderfgoed.be/dibe/relict/25244", "name": "Huis van Alijn", "old_name": "Museum voor Volkskunde", "ref:OnroerendErfgoed": "25244", "tourism": "museum", "website": "http://www.huisvanalijn.be/", "wikidata": "Q2358158"}}, "geometry": {"type": "Point", "coordinates": [3.723354, 51.0575246]}}, {"type": "Feature", "properties": {"type": "node", "id": 717699544, "tags": {"name": "Tuin van Kina", "tourism": "museum"}}, "geometry": {"type": "Point", "coordinates": [3.7249848, 51.0644762]}}, {"type": "Feature", "properties": {"type": "node", "id": 2978182188, "tags": {"name": "Gekkefietsenmuseum", "tourism": "museum"}}, "geometry": {"type": "Point", "coordinates": [3.5722961, 51.0928946]}}, {"type": "Feature", "properties": {"type": "node", "id": 2414598284, "tags": {"name": "Bardelare museum", "tourism": "museum", "wikipedia": "nl:Bardelaeremuseum"}}, "geometry": {"type": "Point", "coordinates": [3.6368271, 51.1843065]}}, {"type": "Feature", "properties": {"type": "node", "id": 2289940348, "tags": {"OnroerendErfgoed:criteria": "M", "disused": "yes", "heritage": "4", "heritage:operator": "OnroerendErfgoed", "heritage:website": "https://inventaris.onroerenderfgoed.be/dibe/relict/33783", "image": "http://commons.wikimedia.org/wiki/File:Doornzelemolen.jpg", "man_made": "windmill", "name": "Doornzelemolen", "ref:OnroerendErfgoed": "33783", "tourism": "museum", "wikidata": "Q2887964", "wikipedia": "nl:Doornzelemolen", "windmill:vanes": "no"}}, "geometry": {"type": "Point", "coordinates": [3.7580013, 51.1400585]}}, {"type": "Feature", "properties": {"type": "node", "id": 5673242329, "tags": {"name": "Egmontkamer", "tourism": "museum", "wikidata": "Q53252786", "wikipedia": "nl:Egmontkamer"}}, "geometry": {"type": "Point", "coordinates": [3.8106478, 50.8698068]}}, {"type": "Feature", "properties": {"type": "node", "id": 5673253873, "tags": {"fee": "no", "name": "Stoomketelmuseum", "tourism": "museum", "wheelchair": "yes", "wikidata": "Q46723926", "wikipedia": "nl:Stoomketelmuseum"}}, "geometry": {"type": "Point", "coordinates": [3.81099, 50.8668967]}}, {"type": "Feature", "properties": {"type": "node", "id": 5760748361, "tags": {"name": "Manneken-Pismuseum", "operator": "Stad Geraardsbergen", "tourism": "museum"}}, "geometry": {"type": "Point", "coordinates": [3.8831114, 50.7719397]}}, {"type": "Feature", "properties": {"type": "node", "id": 1280221404, "tags": {"name": "Provinciaal Archeocentrum Velzeke (AVE)", "tourism": "museum", "wikidata": "Q2014815", "wikipedia": "nl:Provinciaal Archeocentrum Velzeke (AVE)"}}, "geometry": {"type": "Point", "coordinates": [3.7793853, 50.8840208]}}, {"type": "Feature", "properties": {"type": "node", "id": 8170768017, "tags": {"name": "Mini Museum Mussenzele", "tourism": "museum"}}, "geometry": {"type": "Point", "coordinates": [4.0108037, 50.8941288]}}, {"type": "Feature", "properties": {"type": "node", "id": 1317118548, "tags": {"name": "WOII-verzetsmuseum De Patrijs '44", "tourism": "museum"}}, "geometry": {"type": "Point", "coordinates": [4.0048852, 50.9022001]}}, {"type": "Feature", "properties": {"type": "node", "id": 7462323012, "tags": {"name": "Brandweermuseum Aalst", "opening_hours": "Mar-Oct Su[2], Su[4]", "tourism": "museum", "website": "https://brandweermuseum.be/"}}, "geometry": {"type": "Point", "coordinates": [4.042722, 50.9124095]}}, {"type": "Feature", "properties": {"type": "node", "id": 8479362488, "tags": {"museum": "history", "name": "Landbouwmuseum 'De Vedderboom'", "tourism": "museum"}}, "geometry": {"type": "Point", "coordinates": [4.1719738, 50.9377447]}}, {"type": "Feature", "properties": {"type": "node", "id": 1423786161, "tags": {"name": "Heemkundig museum", "tourism": "museum"}}, "geometry": {"type": "Point", "coordinates": [3.8855956, 51.0065113]}}, {"type": "Feature", "properties": {"type": "node", "id": 3154092673, "tags": {"name": "Riekend Rustpunt", "tourism": "museum", "wikidata": "Q2032657"}}, "geometry": {"type": "Point", "coordinates": [3.981355, 51.0186413]}}, {"type": "Feature", "properties": {"type": "node", "id": 3152393099, "tags": {"name": "Eendenkooi", "opening_hours": "Apr-Jun,Sep Mo-Fr 10:00-18:00; Apr-Jun,Sep Sa,Su,PH 10:00-19:00; Jul-Aug 10:00-19:00; Oct-Mar Mo-Fr 10:00-16:00; Oct-Mar Sa,Su,PH 10:00-17:00; Dec 24-Jan 2 off", "start_date": "2009-06-28", "tourism": "museum", "website": "https://www.berlare.be/eendenkooi.html"}}, "geometry": {"type": "Point", "coordinates": [3.9769499, 51.0395704]}}, {"type": "Feature", "properties": {"type": "node", "id": 1624993284, "tags": {"name": "Museum Donkmeer", "tourism": "museum"}}, "geometry": {"type": "Point", "coordinates": [3.9805875, 51.0431858]}}, {"type": "Feature", "properties": {"type": "node", "id": 767864952, "tags": {"tourism": "museum"}}, "geometry": {"type": "Point", "coordinates": [3.8660096, 51.1491654]}}, {"type": "Feature", "properties": {"type": "node", "id": 4938180882, "tags": {"name": "Vleeshuismuseum", "tourism": "museum"}}, "geometry": {"type": "Point", "coordinates": [4.0978956, 51.0313887]}}, {"type": "Feature", "properties": {"type": "node", "id": 5794035018, "tags": {"name": "Molenmuseum", "tourism": "museum"}}, "geometry": {"type": "Point", "coordinates": [4.194119, 51.0469218]}}, {"type": "Feature", "properties": {"type": "node", "id": 287159580, "tags": {"addr:city": "Mariekerke", "addr:housenumber": "34", "addr:postcode": "2880", "addr:street": "Omgangstraat", "name": "Scheepvaartmuseum", "tourism": "museum"}}, "geometry": {"type": "Point", "coordinates": [4.1907096, 51.0615032]}}, {"type": "Feature", "properties": {"type": "node", "id": 1110150375, "tags": {"name": "Blauwendael", "tourism": "museum"}}, "geometry": {"type": "Point", "coordinates": [4.0817622, 51.1083814]}}, {"type": "Feature", "properties": {"type": "node", "id": 300236454, "tags": {"name": "Edgard Tinelmuseum", "tourism": "museum"}}, "geometry": {"type": "Point", "coordinates": [4.0413125, 51.1589257]}}, {"type": "Feature", "properties": {"type": "node", "id": 1747398674, "tags": {"addr:city": "Weert", "addr:housenumber": "18", "addr:postcode": "2880", "addr:street": "Scheldestraat", "email": "de.zilverreiger@telenet.be;lucdewachter@skynet.be", "internet_access": "wlan", "name": "'De Zilverreiger' Streek-Vlechtmuseum", "opening_hours": "Mar 01-Nov 01 Mo,Fr off \"NIET voor groepen call\"; Mar 01-Nov 01 Tu,Su,PH 10:00-18:00; Mar 01-Nov 01 We,Th,Sa 10:00-13:00 \"reservation\"|| Mar 01-Nov 01 We,Th,Sa 13:00-18:00", "operator": "V.Z.W.", "payment:cash": "yes", "phone": "+32 3 889 06 03", "tourism": "museum", "website": "http://www.zilverreiger.be", "wheelchair": "yes"}}, "geometry": {"type": "Point", "coordinates": [4.1911991, 51.1028733]}}, {"type": "Feature", "properties": {"type": "node", "id": 4637461187, "tags": {"addr:city": "Sint-Niklaas", "addr:housenumber": "49D", "addr:street": "Zamanstraat", "email": "stedelijkemusea@sint-niklaas.be", "name": "Mercatormuseum", "opening_hours": "Tu-Fr 13:30-17:00;Sa 13:00-17:00;Su 11:00-17:00", "phone": "+32 3 778 34 50", "tourism": "museum", "website": "https://musea.sint-niklaas.be/mercator"}}, "geometry": {"type": "Point", "coordinates": [4.1453186, 51.1669625]}}, {"type": "Feature", "properties": {"type": "node", "id": 4637461167, "tags": {"name": "De Salons", "tourism": "museum"}}, "geometry": {"type": "Point", "coordinates": [4.1423773, 51.1681343]}}, {"type": "Feature", "properties": {"type": "node", "id": 4974099892, "tags": {"addr:city": "Sint-Laureins", "addr:housenumber": "24", "addr:postcode": "9980", "addr:street": "Leemweg", "name": "Plattelandscentrum", "opening_hours": "Th-Fr 13:30-16:30", "operator": "Plattelandscentrum Meetjesland vzw", "tourism": "museum"}}, "geometry": {"type": "Point", "coordinates": [3.5250097, 51.2402313]}}, {"type": "Feature", "properties": {"type": "node", "id": 390088400, "tags": {"name": "Oorlogsmuseum", "tourism": "museum"}}, "geometry": {"type": "Point", "coordinates": [3.7177427, 51.2576242]}}, {"type": "Feature", "properties": {"type": "node", "id": 614583175, "tags": {"name": "Bezoekerscentrum", "tourism": "museum"}}, "geometry": {"type": "Point", "coordinates": [3.7182818, 51.2578717]}}, {"type": "Feature", "properties": {"type": "node", "id": 3862356567, "tags": {"addr:city": "Anderlecht", "addr:housenumber": "808", "addr:postcode": "1070", "addr:street": "Route de Lennik - Lenniksebaan", "name": "Mus\u00e9e de la M\u00e9decine - Geneeskundemuseum", "name:fr": "Mus\u00e9e de la M\u00e9decine", "name:nl": "Geneeskundemuseum", "opening_hours": "Mo-Fr,Sa[1],Su[1] 13:00-16:00", "operator": "Campus Erasme", "phone": "+32 2 555 34 31", "tourism": "museum", "website": "https://www.museemedecine.be/"}}, "geometry": {"type": "Point", "coordinates": [4.2678206, 50.8139588]}}, {"type": "Feature", "properties": {"type": "node", "id": 7347531606, "tags": {"name": "FeliXart", "tourism": "museum", "website": "https://felixart.org/"}}, "geometry": {"type": "Point", "coordinates": [4.3148222, 50.7892938]}}, {"type": "Feature", "properties": {"type": "node", "id": 3862683505, "tags": {"addr:city": "Ixelles - Elsene", "addr:housenumber": "50", "addr:postcode": "1050", "addr:street": "Avenue de la For\u00eat - Woudlaan", "name": "Mus\u00e9e International de la Marionnette - Internationaal Marionettenmuseum", "name:fr": "Mus\u00e9e International de la Marionnette - Peruchet", "name:nl": "Internationaal Marionettenmuseum - Peruchet", "tourism": "museum", "website": "http://www.theatreperuchet.be/musee/"}}, "geometry": {"type": "Point", "coordinates": [4.3925676, 50.8019202]}}, {"type": "Feature", "properties": {"type": "node", "id": 6173875085, "tags": {"addr:housenumber": "50 CP 160/15", "addr:postcode": "1000", "addr:street": "Avenue Franklin Roosevelt - Franklin Rooseveltlaan", "name": "Mus\u00e9um de Zoologie et d\u2019anthropologie de l\u2019ULB", "phone": "+32 2 650 36 78", "tourism": "museum", "website": "https://ulb.be/"}}, "geometry": {"type": "Point", "coordinates": [4.3830505, 50.8116171]}}, {"type": "Feature", "properties": {"type": "node", "id": 7602639003, "tags": {"addr:city": "Bruxelles - Brussel", "addr:housenumber": "67", "addr:postcode": "1050", "addr:street": "Avenue Franklin Roosevelt - Franklin Rooseveltlaan", "name": "Boghossian foundation", "tourism": "museum"}}, "geometry": {"type": "Point", "coordinates": [4.3844685, 50.8073844]}}, {"type": "Feature", "properties": {"type": "node", "id": 2465448020, "tags": {"addr:city": "Bruxelles - Brussel", "addr:housenumber": "24", "addr:postcode": "1000", "addr:street": "Avenue Paul H\u00e9ger - Paul H\u00e9gerlaan", "name": "Salle Allende - Art contemporain", "name:fr": "Salle Allende - Art contemporain", "opening_hours": "Mo,Tu 12:00-14:00; We-Fr 12:00-18:00; Sa 14:00-18:00", "ref:UrbIS": "8594986", "tourism": "museum", "website": "http://www.ulb.ac.be/sites/artcontemporain/artcontemporain/presentation.html", "wikidata": "Q574606", "wikipedia": "fr:Universit\u00e9 libre de Bruxelles#Mus.C3.A9es de l.E2.80.99universit.C3.A9 libre de Bruxelles"}}, "geometry": {"type": "Point", "coordinates": [4.382309, 50.8134188]}}, {"type": "Feature", "properties": {"type": "node", "id": 344714308, "tags": {"addr:city": "Bruxelles - Brussel", "addr:housenumber": "150", "addr:postcode": "1000", "addr:street": "Boulevard du Midi - Zuidlaan", "name": "Mus\u00e9e de la Porte de Hal - Hallepoort Museum", "name:fr": "Mus\u00e9e de la Porte de Hal", "name:nl": "Hallepoort Museum", "opening_hours": "Mo-Fr 09:30-17:00; Sa,Su 10:00-17:00; PH off", "tourism": "museum", "website": "http://www.kmkg-mrah.be/", "wheelchair": "yes", "wikidata": "Q2988142", "wikipedia": "en:Halle Gate"}}, "geometry": {"type": "Point", "coordinates": [4.3448614, 50.8328884]}}, {"type": "Feature", "properties": {"type": "node", "id": 789296064, "tags": {"addr:city": "Anderlecht", "addr:housenumber": "56", "addr:postcode": "1070", "addr:street": "Rue Gheude - Gheudestraat", "name": "Mus\u00e9e Bruxellois de la Gueuze - Brussels Museum van de Geuze", "name:fr": "Mus\u00e9e Bruxellois de la Gueuze", "name:nl": "Brussels Museum van de Geuze", "opening_hours": "Mo-Sa 10:00-17:00", "opening_hours:covid19": "off", "start_date": "1978", "tourism": "museum", "website": "https://www.cantillon.be/", "wikidata": "Q2345368", "wikipedia": "fr:Mus\u00e9e bruxellois de la gueuze"}}, "geometry": {"type": "Point", "coordinates": [4.3358046, 50.8415492]}}, {"type": "Feature", "properties": {"type": "node", "id": 2659563272, "tags": {"addr:city": "Bruxelles - Brussel", "addr:housenumber": "298A", "addr:postcode": "1000", "addr:street": "Rue Haute - Hoogstraat", "name": "Mus\u00e9e du CPAS de Bruxelles - Museum van het OCMW van Brussel", "name:fr": "Mus\u00e9e du CPAS de Bruxelles", "name:nl": "Museum van het OCMW van Brussel", "operator": "CPAS de Bruxelles", "ref:UrbIS": "7875233", "tourism": "museum", "website": "http://cpas-ocmwmuseum.be", "wikidata": "Q23893733"}}, "geometry": {"type": "Point", "coordinates": [4.3472468, 50.8353424]}}, {"type": "Feature", "properties": {"type": "node", "id": 3860490128, "tags": {"addr:city": "Bruxelles - Brussel", "addr:housenumber": "65", "addr:postcode": "1000", "addr:street": "Rue des Tanneurs - Huidevettersstraat", "name": "Archives de la Ville de Bruxelles - Archief van de Stad Brussel", "name:fr": "Archives de la Ville de Bruxelles", "name:nl": "Archief van de Stad Brussel", "opening_hours": "Mo-Fr 08:00-16:00", "phone": "+32 2 279 53 20", "tourism": "museum", "website": "http://www.bruxelles.be/artdet.cfm/4469"}}, "geometry": {"type": "Point", "coordinates": [4.3461022, 50.8394983]}}, {"type": "Feature", "properties": {"type": "node", "id": 3860512418, "tags": {"addr:city": "Bruxelles - Brussel", "addr:housenumber": "312-314", "addr:postcode": "1000", "addr:street": "Rue Haute - Hoogstraat", "name": "Art & marges mus\u00e9e - Art & marges museum", "name:fr": "Art & marges mus\u00e9e", "name:nl": "Art & marges museum", "opening_hours": "Tu-Su 11:00-18:00", "tourism": "museum", "website": "http://www.artetmarges.be", "wikidata": "Q23893732"}}, "geometry": {"type": "Point", "coordinates": [4.3464344, 50.8347731]}}, {"type": "Feature", "properties": {"type": "node", "id": 3862380057, "tags": {"addr:city": "Bruxelles - Brussel", "addr:postcode": "1000", "addr:street": "Porte d'Anderlecht", "name": "Mus\u00e9e des \u00c9gouts - Rioolmuseum", "name:de": "Kanalisationsmuseum", "name:en": "Sewermuseum", "name:fr": "Mus\u00e9e des \u00c9gouts", "name:nl": "Rioolmuseum", "phone": "+32 2 513 09 64", "source": "http://canal.brussels/nl/content/rioolmuseum", "tourism": "museum", "website": "http://www.sewermuseum.brussels/nl", "wikidata": "Q23893729"}}, "geometry": {"type": "Point", "coordinates": [4.338832, 50.8446181]}}, {"type": "Feature", "properties": {"type": "node", "id": 4895319021, "tags": {"addr:housenumber": "19", "addr:street": "Rue du Ch\u00eane - Eikstraat", "name": "GardeRobe MannekenPis", "name:es": "Museo de trajes del MannekenPis", "name:fr": "Mus\u00e9e de la Garde Robe du Mannekenpis", "name:nl": "GardeRobe MannekenPis", "opening_hours": "Tu-Su 10:00-17:00; Jan 01 off; May 01 off; Nov 01,Nov 11 off; Dec 25 off", "tourism": "museum", "website": "https://www.mannekenpis.brussels/"}}, "geometry": {"type": "Point", "coordinates": [4.3510443, 50.8441426]}}, {"type": "Feature", "properties": {"type": "node", "id": 6405986270, "tags": {"building": "yes", "contact:email": "info@choco-story-brussels.be", "contact:fax": "+32 23 25 87 48", "contact:phone": "+32 25 14 20 48", "contact:website": "http://choco-story-brussels.be", "name": "Choco story Brussels", "name:en": "Museum of cocoa and chocolate", "name:fr": "Mus\u00e9e du cacao et du chocolat", "name:nl": "Museum van cacao en chocolade", "opening_hours": "Mo-Su,PH 10:00-16:30", "tourism": "museum", "wikidata": "Q11775274", "wikipedia": "en:Museum of cacao and chocolate"}}, "geometry": {"type": "Point", "coordinates": [4.3501805, 50.8452708]}}, {"type": "Feature", "properties": {"type": "node", "id": 2430169328, "tags": {"addr:city": "Anderlecht", "addr:housenumber": "548", "addr:postcode": "1070", "addr:street": "Chauss\u00e9e de Ninove - Ninoofsesteenweg", "fee": "no", "name": "Mus\u00e9e de Chine des Missionnaires de Scheut - Chinamuseum", "name:fr": "Mus\u00e9e de Chine des Missionnaires de Scheut", "name:nl": "Chinamuseum", "source": "Urbis", "tourism": "museum"}}, "geometry": {"type": "Point", "coordinates": [4.305691, 50.8471508]}}, {"type": "Feature", "properties": {"type": "node", "id": 3860871365, "tags": {"addr:city": "Ganshoren", "addr:housenumber": "1", "addr:postcode": "1083", "addr:street": "Parvis de la Basilique - Basiliekvoorplein", "contact:website": "http://www.basilicakoekelberg.be/documents/museum/album-zwartzusters.xml?lang=fr", "indoor": "yes", "name": "Mus\u00e9e des S\u0153urs Noires - Museum van de Zwartzusters", "name:fr": "Mus\u00e9e des S\u0153urs Noires", "name:nl": "Museum van de Zwartzusters", "note": "Location is approximate", "opening_hours": "We 14:00-16:00", "tourism": "museum"}}, "geometry": {"type": "Point", "coordinates": [4.3172727, 50.8669794]}}, {"type": "Feature", "properties": {"type": "node", "id": 3866875764, "tags": {"addr:city": "Ganshoren", "addr:housenumber": "1", "addr:postcode": "1083", "addr:street": "Parvis de la Basilique - Basiliekvoorplein", "name": "Mus\u00e9e d'Art Religieux Moderne - Museum van Moderne Religieuze kunst", "name:fr": "Mus\u00e9e d'Art Religieux Moderne", "name:nl": "Museum van Moderne Religieuze kunst", "opening_hours": "We 14:00-16:00", "tourism": "museum", "website": "http://www.basilicakoekelberg.be/documents/museum/album-mmrk.xml?lang=fr"}}, "geometry": {"type": "Point", "coordinates": [4.3169641, 50.8669571]}}, {"type": "Feature", "properties": {"type": "node", "id": 3862344193, "tags": {"addr:city": "Molenbeek-Saint-Jean - Sint-Jans-Molenbeek", "addr:housenumber": "27", "addr:postcode": "1080", "addr:street": "Rue Ransfort - Ransfortstraat", "name": "Mus\u00e9e bruxellois des Industries et du Travail - Brussels Museum voor Arbeid en Industrie", "name:fr": "Mus\u00e9e bruxellois des Industries et du Travail", "name:nl": "Brussels Museum voor Arbeid en Industrie", "opening_hours": "Tu-Fr 10:00-17:00; Sa,Su 14:00-17:00", "operator": "La Fonderie", "tourism": "museum", "website": "http://www.lafonderie.be", "wikidata": "Q20706201"}}, "geometry": {"type": "Point", "coordinates": [4.3358418, 50.8524212]}}, {"type": "Feature", "properties": {"type": "node", "id": 4202993302, "tags": {"addr:city": "Molenbeek-Saint-Jean - Sint-Jans-Molenbeek", "addr:housenumber": "41", "addr:postcode": "1080", "addr:street": "Quai du Hainaut - Henegouwenkaai", "name": "MIMA", "name:fr": "MIMA", "name:nl": "MIMA", "opening_hours": "We-Su 10:00-18:00", "tourism": "museum", "website": "http://www.mimamuseum.eu/", "wikidata": "Q28151371", "wikipedia": "nl:Millennium Iconoclast Museum of Art"}}, "geometry": {"type": "Point", "coordinates": [4.3381949, 50.8510377]}}, {"type": "Feature", "properties": {"type": "node", "id": 5055592837, "tags": {"addr:city": "Molenbeek-Saint-Jean - Sint-Jans-Molenbeek", "addr:housenumber": "2A", "addr:postcode": "1080", "addr:street": "Rue Mommaerts - Mommaertsstraat", "name": "MoMuse", "tourism": "museum", "website": "http://www.momuse.be/", "wikidata": "Q29957439"}}, "geometry": {"type": "Point", "coordinates": [4.337991, 50.8577289]}}, {"type": "Feature", "properties": {"type": "node", "id": 2521208364, "tags": {"addr:city": "Bruxelles - Brussel", "addr:city:fr": "Bruxelles", "addr:city:nl": "Brussel", "addr:country": "BE", "addr:housenumber": "44", "addr:postcode": "1000", "addr:street": "Place Sainte-Catherine - Sint-Katelijneplein", "addr:street:fr": "Place Sainte-Catherine", "addr:street:nl": "Sint-Katelijneplein", "amenity": "arts_centre", "name": "Centrale for contemporary art", "name:fr": "Centrale for contemporary art", "name:nl": "Centrale for contemporary art", "ref:UrbIS": "8317847", "tourism": "museum", "website": "http://www.centrale-art.be"}}, "geometry": {"type": "Point", "coordinates": [4.3482897, 50.8502192]}}, {"type": "Feature", "properties": {"type": "node", "id": 3824795440, "tags": {"addr:city": "Bruxelles - Brussel", "addr:postcode": "1000", "addr:street": "Rue de la Bourse - Beursstraat", "level": "-1", "name": "Bruxella 1238", "tourism": "museum", "wikidata": "Q1937507", "wikipedia": "fr:Bruxella 1238"}}, "geometry": {"type": "Point", "coordinates": [4.3504159, 50.8482856]}}, {"type": "Feature", "properties": {"type": "node", "id": 4478407891, "tags": {"addr:city": "Molenbeek-Saint-Jean - Sint-Jans-Molenbeek", "addr:housenumber": "30", "addr:postcode": "1080", "addr:street": "Quai des Charbonnages - Koolmijnenkaai", "name": "iMAL Center for Digital Cultures & Technology", "name:de": "iMAL Center for Digital Cultures & Technology", "name:en": "iMAL Center for Digital Cultures & Technology", "name:fr": "iMAL Center for Digital Cultures & Technology", "tourism": "museum", "website": "https://imal.org/"}}, "geometry": {"type": "Point", "coordinates": [4.341964, 50.8548031]}}, {"type": "Feature", "properties": {"type": "node", "id": 4878595597, "tags": {"addr:city": "Molenbeek-Saint-Jean - Sint-Jans-Molenbeek", "addr:housenumber": "30", "addr:postcode": "1080", "addr:street": "Quai des Charbonnages - Koolmijnenkaai", "contact:website": "http://imal.org/fr/fablab", "name": "FabLab.iMAL", "opening_hours": "Mo 18:30-21:00; Sa 11:00-18:00", "operator": "iMAL", "tourism": "museum"}}, "geometry": {"type": "Point", "coordinates": [4.3415548, 50.8549564]}}, {"type": "Feature", "properties": {"type": "node", "id": 6775542791, "tags": {"name": "MigratieMuseumMigration", "operator": "Foyer VZW", "tourism": "museum", "website": "https://www.migratiemuseummigration.be"}}, "geometry": {"type": "Point", "coordinates": [4.3435773, 50.8577092]}}, {"type": "Feature", "properties": {"type": "node", "id": 2506176872, "tags": {"addr:city": "Bruxelles - Brussel", "addr:city:fr": "Bruxelles", "addr:city:nl": "Brussel", "addr:country": "BE", "addr:housenumber": "28", "addr:postcode": "1000", "addr:street": "Quai aux Pierres de Taille - Arduinkaai", "addr:street:fr": "Quai aux Pierres de Taille", "addr:street:nl": "Arduinkaai", "name": "Archives et mus\u00e9e de la vie flamande \u00e0 Bruxelles - Archief en Museum voor het Vlaams Leven te Brussel", "name:fr": "Archives et mus\u00e9e de la vie flamande \u00e0 Bruxelles", "name:nl": "Archief en Museum voor het Vlaams Leven te Brussel", "opening_hours": "Mo-Fr 10:00-17:00", "ref:UrbIS": "8316481", "start_date": "1977", "tourism": "museum", "website": "https://www.amvb.be/", "wikidata": "Q2860524", "wikipedia": "fr:Archives et mus\u00e9e de la vie flamande \u00e0 Bruxelles"}}, "geometry": {"type": "Point", "coordinates": [4.3490068, 50.8552412]}}, {"type": "Feature", "properties": {"type": "node", "id": 3862335765, "tags": {"addr:city": "Bruxelles - Brussel", "addr:housenumber": "73-75", "addr:postcode": "1000", "addr:street": "Rue de Laeken - Lakensestraat", "name": "Mus\u00e9e Belge de la Franc-Ma\u00e7onnerie - Belgisch Museum van de Vrijmetselarij", "name:fr": "Mus\u00e9e Belge de la Franc-Ma\u00e7onnerie", "name:nl": "Belgisch Museum van de Vrijmetselarij", "opening_hours": "Tu-Sa 13:00-17:00", "tourism": "museum", "website": "http://mbfm.be/", "wikidata": "Q16665619"}}, "geometry": {"type": "Point", "coordinates": [4.3515532, 50.853012]}}, {"type": "Feature", "properties": {"type": "node", "id": 2481629936, "tags": {"addr:city": "Koekelberg", "addr:housenumber": "20", "addr:postcode": "1081", "addr:street": "Rue De Neck - De Neckstraat", "name": "Belgian Chocolate Village", "name:fr": "Belgian Chocolate Village", "name:nl": "Belgian Chocolate Village", "opening_hours": "Tu-Fr 09:00-18:00; Sa-Su,SH 10:00-18:00", "phone": "+32 2 420 70 76", "ref:UrbIS": "6042196", "tourism": "museum", "website": "http://www.belgianchocolatevillage.be/", "wikidata": "Q13437154", "wikipedia": "nl:Belgian Chocolate Village"}}, "geometry": {"type": "Point", "coordinates": [4.3299144, 50.8647753]}}, {"type": "Feature", "properties": {"type": "node", "id": 3860505533, "tags": {"addr:city": "Ixelles - Elsene", "addr:housenumber": "55", "addr:postcode": "1050", "addr:street": "Rue de l'Ermitage - Kluisstraat", "name": "Archives et Mus\u00e9e d'Architecture Moderne - Archieven en Museum van Moderne Architectuur", "name:fr": "Archives et Mus\u00e9e d'Architecture Moderne", "name:nl": "Archieven en Museum van Moderne Architectuur", "opening_hours": "Tu 12:00-16:00", "tourism": "museum", "website": "http://aam.be"}}, "geometry": {"type": "Point", "coordinates": [4.3663356, 50.8289602]}}, {"type": "Feature", "properties": {"type": "node", "id": 798966525, "tags": {"addr:city": "Bruxelles - Brussel", "addr:country": "BE", "addr:housenumber": "21", "addr:postcode": "1000", "addr:street": "Rue des Minimes - Minimenstraat", "email": "info@mjb-jmb.org", "fax": "+32 2 513 48 59", "name": "Mus\u00e9e Juif de Belgique - Joods Museum von Belgie", "name:de": "J\u00fcdisches Museum von Belgien", "name:en": "Jewish Museum of Belgium", "name:es": "Museo Jud\u00edo de B\u00e9lgica", "name:fr": "Mus\u00e9e Juif de Belgique", "name:he": "\u05d4\u05de\u05d5\u05d6\u05d9\u05d0\u05d5\u05df \u05d4\u05d9\u05d4\u05d5\u05d3\u05d9 \u05e9\u05dc \u05d1\u05dc\u05d2\u05d9\u05d4", "name:nl": "Joods Museum von Belgie", "opening_hours": "Tu-Su 10:00-17:00", "phone": "+32 2 512 19 63", "tourism": "museum", "website": "http://www.mjb-jmb.org/", "wikidata": "Q1165167", "wikipedia": "en:Jewish Museum of Belgium"}}, "geometry": {"type": "Point", "coordinates": [4.3534418, 50.8407502]}}, {"type": "Feature", "properties": {"type": "node", "id": 2514192408, "tags": {"addr:city": "Bruxelles - Brussel", "addr:housenumber": "2", "addr:postcode": "1000", "addr:street": "Boulevard de l'Empereur - Keizerslaan", "name": "Librarium", "name:fr": "Librarium", "name:nl": "Librarium", "opening_hours": "Mo-Sa 09:00-17:00", "operator": "KBR", "phone": "+32 2 519 53 11", "ref:UrbIS": "8188065", "tourism": "museum", "website": "http://www.kbr.be/librarium"}}, "geometry": {"type": "Point", "coordinates": [4.3554624, 50.8437206]}}, {"type": "Feature", "properties": {"type": "node", "id": 2514192428, "tags": {"addr:city": "Bruxelles - Brussel", "addr:housenumber": "4", "addr:postcode": "1000", "addr:street": "Boulevard de l'Empereur - Keizerslaan", "name": "Archives et Mus\u00e9e de la Litt\u00e9rature - Archief en Museum van de Franstalige Literatuur", "name:fr": "Archives et Mus\u00e9e de la Litt\u00e9rature", "name:nl": "Archief en Museum van de Franstalige Literatuur", "opening_hours": "Mo-Fr 09:00-17:00", "ref:UrbIS": "8188065", "tourism": "museum", "website": "http://www.aml-cfwb.be/", "wikidata": "Q2860519"}}, "geometry": {"type": "Point", "coordinates": [4.3553438, 50.8436579]}}, {"type": "Feature", "properties": {"type": "node", "id": 3859757967, "tags": {"addr:city": "Bruxelles - Brussel", "addr:city:fr": "Bruxelles", "addr:city:nl": "Brussel", "addr:country": "BE", "addr:housenumber": "116", "addr:postcode": "1000", "addr:street": "Rue du March\u00e9 aux Herbes - Grasmarkt", "addr:street:fr": "Rue du March\u00e9 aux Herbes", "addr:street:nl": "Grasmarkt", "contact:email": "info@moof-museum.be", "contact:phone": "+32 2 2077992", "name": "MOOF-Museum of Original Figurines", "name:fr": "MOOF-Mus\u00e9e de la BD en 3D", "name:nl": "MOOF-strip- en 3D museum", "opening_hours": "Tu-Su 10:00-18:00", "tourism": "museum", "website": "http://moofmuseum.be", "wikidata": "Q3328436"}}, "geometry": {"type": "Point", "coordinates": [4.3559401, 50.8459849]}}, {"type": "Feature", "properties": {"type": "node", "id": 3859789658, "tags": {"addr:city": "Bruxelles - Brussel", "addr:housenumber": "3", "addr:postcode": "1000", "addr:street": "Rue de la R\u00e9gence - Regentschapsstraat", "contact:phone": "+32 2 508 32 11", "contact:website": "https://www.fine-arts-museum.be/en/museums/musee-modern-museum", "name": "Mus\u00e9e Modern Museum", "opening_hours": "Tu-Fr 10:00-17:00; Sa,Su 11:00-18:00", "operator": "Royal Museums of Fine Arts of Belgium", "tourism": "museum", "wheelchair": "yes", "wikidata": "Q3330786"}}, "geometry": {"type": "Point", "coordinates": [4.3580215, 50.8415651]}}, {"type": "Feature", "properties": {"type": "node", "id": 3859789659, "tags": {"addr:city": "Bruxelles - Brussel", "addr:housenumber": "3", "addr:postcode": "1000", "addr:street": "Rue de la R\u00e9gence - Regentschapsstraat", "contact:phone": "+32 2 508 32 11", "contact:website": "https://www.fine-arts-museum.be/en/museums/musee-oldmasters-museum", "name": "Mus\u00e9e Oldmasters - Oldmasters Museum", "name:fr": "Mus\u00e9e Oldmasters", "name:nl": "Oldmasters Museum", "opening_hours": "Tu-Fr 10:00-17:00; Sa,Su 11:00-18:00", "operator": "Royal Museums of Fine Arts of Belgium", "tourism": "museum", "wheelchair": "yes", "wikidata": "Q3330782"}}, "geometry": {"type": "Point", "coordinates": [4.3580905, 50.8416061]}}, {"type": "Feature", "properties": {"type": "node", "id": 3862253611, "tags": {"addr:city": "Bruxelles - Brussel", "addr:postcode": "1000", "addr:street": "Boulevard de l'Empereur - Keizerslaan", "name": "Imprimarium", "name:fr": "Mus\u00e9e de l'Imprimerie", "name:nl": "Museum van de Boekdrukkunst", "tourism": "museum", "wikidata": "Q23893731"}}, "geometry": {"type": "Point", "coordinates": [4.3552703, 50.8436245]}}, {"type": "Feature", "properties": {"type": "node", "id": 6222623824, "tags": {"contact:email": "info@m-e-m.be", "contact:phone": "+32 2 514 03 53", "fee": "yes", "name": "Mus\u00e9e de l'\u00e9rotisme et de la mythologie - Museum van erotiek en mythologi\u00eb", "name:en": "Museum of Erotics and Mythology", "name:fr": "Mus\u00e9e de l'\u00e9rotisme et de la mythologie", "name:nl": "Museum van erotiek en mythologi\u00eb", "opening_hours": "Mo,Th,Fr 14:00-20:00; Sa,Su 11:00-17:30", "tourism": "museum", "website": "http://www.m-e-m.be/", "wikidata": "Q16665628", "wikipedia": "fr:Mus\u00e9e de l'\u00e9rotisme et de la mythologie (Bruxelles)"}}, "geometry": {"type": "Point", "coordinates": [4.3555607, 50.8412811]}}, {"type": "Feature", "properties": {"type": "node", "id": 8391808859, "tags": {"addr:city": "Bruxelles - Brussel", "addr:housenumber": "28", "addr:postcode": "1000", "addr:street": "Mont des Arts - Kunstberg", "contact:website:fr": "https://www.kbr.be/fr/museum/", "contact:website:nl": "https://www.kbr.be/nl/museum/", "description:fr": "Accessible via l\u2019entr\u00e9e principale de KBR, Mont des Arts 28, 1000 Bruxelles.", "level": "1;2", "museum": "history", "name": "KBR museum", "tourism": "museum"}}, "geometry": {"type": "Point", "coordinates": [4.3563902, 50.8435262]}}, {"type": "Feature", "properties": {"type": "node", "id": 2514192427, "tags": {"addr:city": "Bruxelles - Brussel", "addr:housenumber": "3", "addr:postcode": "1000", "addr:street": "Rue de la R\u00e9gence - Regentschapsstraat", "contact:phone": "+32 2 508 32 11", "contact:website": "https://www.fine-arts-museum.be/", "level": "0", "museum": "art", "name": "Mus\u00e9es royaux des Beaux-Arts de Belgique - Koninklijke Musea voor Schone Kunsten van Belgi\u00eb", "name:en": "Royal Museums of Fine Arts of Belgium", "name:fr": "Mus\u00e9es royaux des Beaux-Arts de Belgique", "name:nl": "Koninklijke Musea voor Schone Kunsten van Belgi\u00eb", "name:pcd": "Mus\u00e9es ro\u00e9yals des bieaus-arts d' Bergike", "opening_hours": "Tu-Su 10:00-17:00", "ref:UrbIS": "8187775", "tourism": "museum", "wheelchair": "yes", "wikidata": "Q377500", "wikipedia": "en:Royal Museums of Fine Arts of Belgium"}}, "geometry": {"type": "Point", "coordinates": [4.3582377, 50.8416804]}}, {"type": "Feature", "properties": {"type": "node", "id": 2514258901, "tags": {"alt_name": "Mus\u00e9e Bellevue - Bellevue Museum", "alt_name:fr": "Mus\u00e9e Bellevue", "alt_name:nl": "Bellevue Museum", "contact:website": "https://belvue.be/", "name": "Mus\u00e9e BELvue - BELvue Museum", "name:es": "Museo BELvue", "name:fr": "Mus\u00e9e BELvue", "name:nl": "BELvue Museum", "old_name": "H\u00f4tel Bellevue", "opening_hours": "Mo off; Tu-Fr 09:00-17:00; Sa-Su 10:00-18:00; Jul-Aug Tu-Fr 10:00-18:00; Jan 1 off; Dec 24 09:00-16:00; Dec 25 off; Dec 31 09:00-16:00", "tourism": "museum", "wheelchair": "limited", "wikidata": "Q728437", "wikipedia": "en:BELvue Museum"}}, "geometry": {"type": "Point", "coordinates": [4.3604626, 50.8427356]}}, {"type": "Feature", "properties": {"type": "node", "id": 3859789657, "tags": {"addr:city": "Bruxelles - Brussel", "addr:housenumber": "3", "addr:postcode": "1000", "addr:street": "Rue de la R\u00e9gence - Regentschapsstraat", "contact:phone": "+32 2 508 32 11", "contact:website": "https://www.fine-arts-museum.be/en/museums/musee-fin-de-siecle-museum", "name": "Mus\u00e9e Fin de si\u00e8cle - Fin de si\u00e8cle Museum", "name:fr": "Mus\u00e9e Fin de si\u00e8cle", "name:nl": "Fin de si\u00e8cle Museum", "opening_hours": "Tu-Fr 10:00-17:00; Sa,Su 11:00-18:00", "operator": "Royal Museums of Fine Arts of Belgium", "tourism": "museum", "wheelchair": "yes", "wikidata": "Q17354571"}}, "geometry": {"type": "Point", "coordinates": [4.3581693, 50.8416397]}}, {"type": "Feature", "properties": {"type": "node", "id": 3860518453, "tags": {"addr:city": "Bruxelles - Brussel", "addr:housenumber": "9", "addr:postcode": "1000", "addr:street": "Rue Baron Horta - Baron Hortastraat", "amenity": "cinema", "contact:phone": "+32 2 551 19 00", "contact:website": "http://cinematek.be/", "name": "Cinematek", "tourism": "museum", "wikidata": "Q2419294", "wikipedia": "fr:Cin\u00e9math\u00e8que royale de Belgique"}}, "geometry": {"type": "Point", "coordinates": [4.3601397, 50.8440909]}}, {"type": "Feature", "properties": {"type": "node", "id": 3860604720, "tags": {"contact:email": "info@coudenberg.brussels", "contact:phone": "+32 2 500 45 54", "contact:website": "https://www.coudenberg.com", "description:fr": "Ancien Palais de Bruxelles", "description:nl": "Voormalig Paleis van Brussel", "name": "Coudenberg", "tourism": "museum", "wheelchair": "limited", "wikidata": "Q1131821", "wikipedia": "fr:Palais du Coudenberg"}}, "geometry": {"type": "Point", "coordinates": [4.3605291, 50.8427184]}}, {"type": "Feature", "properties": {"type": "node", "id": 4769848921, "tags": {"name": "ING Gallery", "name:fr": "ING Gallery", "tourism": "museum"}}, "geometry": {"type": "Point", "coordinates": [4.3597299, 50.8418747]}}, {"type": "Feature", "properties": {"type": "node", "id": 2441937655, "tags": {"addr:city": "Ixelles - Elsene", "addr:housenumber": "150", "addr:postcode": "1050", "addr:street": "Chauss\u00e9e de Wavre - Waverse Steenweg", "name": "Mus\u00e9e Camille Lemonnier - Camille Lemonnier Museum", "name:fr": "Mus\u00e9e Camille Lemonnier", "name:nl": "Camille Lemonnier Museum", "tourism": "museum", "wikidata": "Q67203750"}}, "geometry": {"type": "Point", "coordinates": [4.3687749, 50.8360865]}}, {"type": "Feature", "properties": {"type": "node", "id": 3824736478, "tags": {"addr:city": "Bruxelles - Brussel", "addr:housenumber": "29", "addr:postcode": "1000", "addr:street": "Rue Vautier - Vautierstraat", "name": "Mus\u00e9um des sciences naturelles de Belgique - Museum voor Natuurwetenschappen van Belgi\u00eb", "name:de": "Naturwissenschaftliches Museum Belgien", "name:fr": "Mus\u00e9um des sciences naturelles de Belgique", "name:nl": "Museum voor Natuurwetenschappen van Belgi\u00eb", "opening_hours": "Mo-Su 10:00-18:00", "tourism": "museum", "website": "https://www.naturalsciences.be", "wheelchair": "yes", "wikidata": "Q16665660", "wikipedia": "fr:Mus\u00e9um des sciences naturelles de Belgique"}}, "geometry": {"type": "Point", "coordinates": [4.3765602, 50.8365465]}}, {"type": "Feature", "properties": {"type": "node", "id": 1755861324, "tags": {"addr:city": "Ixelles - Elsene", "addr:housenumber": "60", "addr:postcode": "1047", "addr:street": "Rue Wiertz - Wiertzstraat", "contact:website": "http://www.europarl.europa.eu/visiting/en/visits/parlamentarium.html", "description": "European Parliament visitors' centre", "fee": "no", "name": "Parlamentarium", "opening_hours": "Mo 13:00-18:00; Tu-Fr 09:00-18:00; Sa,Su 10:00-18:00", "source": "www.europarl.europa.eu/parlamentarium", "tourism": "museum", "wheelchair": "yes", "wikidata": "Q8062880", "wikipedia": "en:Parlamentarium"}}, "geometry": {"type": "Point", "coordinates": [4.3743279, 50.8400895]}}, {"type": "Feature", "properties": {"type": "node", "id": 2351112587, "tags": {"addr:city": "Etterbeek", "addr:housenumber": "33", "addr:postcode": "1040", "addr:street": "Avenue de la Force A\u00e9rienne - Luchtmachtlaan", "name": "Mus\u00e9e de la Police Int\u00e9gr\u00e9e - Museum van de Ge\u00efntegreerde Politie", "name:fr": "Mus\u00e9e de la Police Int\u00e9gr\u00e9e", "name:nl": "Museum van de Ge\u00efntegreerde Politie", "opening_hours:signed": "no", "tourism": "museum", "website": "https://www.police.be/fed/fr/a-propos/historique"}}, "geometry": {"type": "Point", "coordinates": [4.3911075, 50.8266506]}}, {"type": "Feature", "properties": {"type": "node", "id": 251316200, "tags": {"addr:city": "Bruxelles - Brussel", "addr:housenumber": "11", "addr:postcode": "1000", "addr:street": "Parc du Cinquantenaire - Jubelpark", "description": "Brussel", "name": "Autoworld", "name:en": "Autoworld  Museum", "name:es": "Museo Autoworld", "name:fr": "Autoworld", "name:nl": "Autoworld", "opening_hours": "Apr 01-Sep 30 10:00-18:00; Oct 01-Mar 31 10:00-18:00; Sa-Su 10:00-18:00", "tourism": "museum", "website": "http://www.autoworld.be/", "wheelchair": "yes", "wikidata": "Q2277238", "wikipedia": "fr:Autoworld"}}, "geometry": {"type": "Point", "coordinates": [4.3935541, 50.8394571]}}, {"type": "Feature", "properties": {"type": "node", "id": 251316201, "tags": {"addr:city": "Bruxelles - Brussel", "addr:housenumber": "10", "addr:postcode": "1000", "addr:street": "Parc du Cinquantenaire - Jubelpark", "name": "Mus\u00e9e Art & Histoire - Museum Kunst & Geschiedenis", "name:en": "Art & History Museum", "name:fr": "Mus\u00e9e Art & Histoire", "name:nl": "Museum Kunst & Geschiedenis", "opening_hours": "Tu-Fr 09:30-17:00; Sa,Su 10:00-17:00", "tourism": "museum", "website": "https://www.artandhistory.museum/", "wheelchair": "yes", "wikidata": "Q5121082", "wikipedia": "en:Art & History Museum"}}, "geometry": {"type": "Point", "coordinates": [4.3920677, 50.8393689]}}, {"type": "Feature", "properties": {"type": "node", "id": 6264550437, "tags": {"name": "Royal Museum of the Armed Forces and Military - History Documentation Centre", "name:fr": "Centre de documentation du Mus\u00e9e royal de l'Arm\u00e9e et d\u2019Histoire militaire", "name:nl": "Documentatie Centrum van het Koninklijk Museum van het Leger", "opening_hours": "We-Fr 09:00-12:30,13:30-17:00", "tourism": "museum", "website": "https://www.klm-mra.be/D7t/"}}, "geometry": {"type": "Point", "coordinates": [4.3917766, 50.841713]}}, {"type": "Feature", "properties": {"type": "node", "id": 3506769937, "tags": {"addr:housenumber": "57", "addr:street": "Rue Montagne aux Herbes Potag\u00e8res - Warmoesberg", "contact:email": "museum@nbb.be", "contact:phone": "+32 2 221 22 06;+32 2 221 36 21", "contact:website": "https://www.nbbmuseum.be", "fee": "no", "name": "Mus\u00e9e de la Banque nationale de Belgique - Museum van de Nationale Bank van Belgi\u00eb", "name:de": "Museum der Belgischen Nationalbank", "name:en": "Museum of the National Bank of Belgium", "name:fr": "Mus\u00e9e de la Banque nationale de Belgique", "name:nl": "Museum van de Nationale Bank van Belgi\u00eb", "opening_hours": "Mo-Fr 09:00-17:00", "ref:UrbIS": "8205747", "tourism": "museum", "wikidata": "Q19974092"}}, "geometry": {"type": "Point", "coordinates": [4.3572781, 50.8498477]}}, {"type": "Feature", "properties": {"type": "node", "id": 3860862304, "tags": {"addr:city": "Bruxelles - Brussel", "addr:housenumber": "10", "addr:postcode": "1000", "addr:street": "Grand-Place - Grote Markt", "name": "Mus\u00e9e des Brasseurs belges - Museum van de Belgische Brouwers", "name:fr": "Mus\u00e9e des Brasseurs belges", "name:nl": "Museum van de Belgische Brouwers", "opening_hours": "Mo-Su 10:00-17:00", "tourism": "museum", "wikidata": "Q29534172"}}, "geometry": {"type": "Point", "coordinates": [4.3525329, 50.8462506]}}, {"type": "Feature", "properties": {"type": "node", "id": 4609557916, "tags": {"addr:city": "Bruxelles - Brussel", "addr:city:fr": "Bruxelles", "addr:city:nl": "Brussel", "addr:country": "BE", "addr:housenumber": "66", "addr:postcode": "1000", "addr:street": "Rue du March\u00e9 aux Herbes - Grasmarkt", "addr:street:fr": "Rue du March\u00e9 aux Herbes", "addr:street:nl": "Grasmarkt", "contact:phone": "+32 2 2170464", "description": "lace", "name": "La Maison de la Marionnette - Het Marionettenhuis", "name:en": "The Puppets\u2019 House", "name:fr": "La Maison de la Marionnette", "name:nl": "Het Marionettenhuis", "opening_hours": "Th-Sa 14:00-18:00", "tourism": "museum"}}, "geometry": {"type": "Point", "coordinates": [4.3533644, 50.8472942]}}, {"type": "Feature", "properties": {"type": "node", "id": 3862188901, "tags": {"addr:city": "Bruxelles - Brussel", "addr:country": "BE", "addr:housenumber": "33-35", "addr:postcode": "1000", "addr:street": "Rue des Sables - Zandstraat", "name": "Mus\u00e9e Marc Sleen Museum", "name:fr": "Mus\u00e9e Marc Sleen", "name:nl": "Marc Sleenmuseum", "opening_hours": "Tu-Su 11:00-13:00,14:00-18:00", "tourism": "museum", "website": "http://www.marc-sleen.be", "wheelchair": "no", "wikidata": "Q1846894"}}, "geometry": {"type": "Point", "coordinates": [4.3600102, 50.8508488]}}, {"type": "Feature", "properties": {"type": "node", "id": 2583649779, "tags": {"addr:city": "Saint-Josse-ten-Noode - Sint-Joost-ten-Node", "addr:housenumber": "16", "addr:postcode": "1210", "addr:street": "Avenue des Arts - Kunstlaan", "name": "Mus\u00e9e Charlier - Charliermuseum", "name:fr": "Mus\u00e9e Charlier", "name:nl": "Charliermuseum", "tourism": "museum", "website": "http://www.charliermuseum.be", "wikidata": "Q256200", "wikipedia": "fr:Mus\u00e9e Charlier"}}, "geometry": {"type": "Point", "coordinates": [4.3699278, 50.8475561]}}, {"type": "Feature", "properties": {"type": "node", "id": 7234433734, "tags": {"contact:website": "https://www.museeschaerbeekoisdelabiere.be/", "name": "Mus\u00e9e schaerbeekois de la bi\u00e8re - Schaarbeeks Biermuseum", "name:fr": "Mus\u00e9e schaerbeekois de la bi\u00e8re", "name:nl": "Schaarbeeks Biermuseum", "opening_hours": "We,Sa 14:00-18:00", "tourism": "museum", "wikidata": "Q3330801", "wikipedia": "en:Mus\u00e9e schaerbeekois de la bi\u00e8re"}}, "geometry": {"type": "Point", "coordinates": [4.374941, 50.8627414]}}, {"type": "Feature", "properties": {"type": "node", "id": 7403280780, "tags": {"addr:city": "Schaerbeek - Schaarbeek", "addr:housenumber": "266", "addr:postcode": "1030", "addr:street": "Chauss\u00e9e de Haecht - Haachtsesteenweg", "architect": "Victor Horta", "name": "Maison Autrique - Autrique-huis", "name:en": "Autrique House", "name:fr": "Maison Autrique", "name:nl": "Autrique-huis", "opening_hours": "We-Su 12:00-18:00", "tourism": "museum", "website": "http://www.autrique.be", "wheelchair": "no", "wikipedia": "fr:Maison Autrique"}}, "geometry": {"type": "Point", "coordinates": [4.3730846, 50.8632792]}}, {"type": "Feature", "properties": {"type": "node", "id": 7058462897, "tags": {"addr:city": "Jette", "addr:housenumber": "14", "addr:postcode": "1090", "addr:street": "Rue Jean Tiebackx - Jan Tiebackxstraat", "name": "Gemeentelijk Museum Graafschap Jette", "opening_hours": "Mo-We 14:00-16:30", "operator": "Commune de Jette - Gemeente Jette", "tourism": "museum"}}, "geometry": {"type": "Point", "coordinates": [4.3177603, 50.8865201]}}, {"type": "Feature", "properties": {"type": "node", "id": 345741875, "tags": {"addr:city": "Jette", "addr:housenumber": "135", "addr:postcode": "1090", "addr:street": "Rue Esseghem - Esseghemstraat", "name": "Ren\u00e9 Magritte - Ren\u00e9 Magritte", "name:fr": "Ren\u00e9 Magritte", "name:nl": "Ren\u00e9 Magritte", "opening_hours": "We-Su 10:00-18:00", "tourism": "museum", "website": "http://www.magrittemuseum.be/", "wikidata": "Q1718294", "wikipedia": "fr:Mus\u00e9e Ren\u00e9 Magritte"}}, "geometry": {"type": "Point", "coordinates": [4.3357532, 50.8766854]}}, {"type": "Feature", "properties": {"type": "node", "id": 7058462896, "tags": {"addr:city": "Jette", "addr:housenumber": "137", "addr:postcode": "1090", "addr:street": "Rue Esseghem - Esseghemstraat", "name": "Abstracte Kunst", "name:fr": "d'Art Abstrait", "opening_hours": "We-Su 10:00-18:00", "tourism": "museum"}}, "geometry": {"type": "Point", "coordinates": [4.3357391, 50.8766296]}}, {"type": "Feature", "properties": {"type": "node", "id": 3888696168, "tags": {"addr:city": "Bruxelles - Brussel", "addr:housenumber": "1", "addr:postcode": "1020", "addr:street": "Belgi\u00ebplein - Place de Belgique", "description": "https://photos.app.goo.gl/45L9K2A3dhG1cyKeA", "facebook": "https://www.facebook.com/DesignMuseumBrussels/?rf=1660171334257284", "image": "https://images.mapillary.com/Jkt7xrArUUxDXfhyztr3vF/thumb-2048.jpg", "mapillary": "https://www.mapillary.com/map/im/Jkt7xrArUUxDXfhyztr3vF", "name": "Atomium Art & Design Museum - ADAM", "name:fr": "Atomium Art & Design Museum - ADAM", "name:nl": "Atomium Art & Design Museum - ADAM", "opening_hours": "Mo-Su 11:00-19:00", "phone": "+32 2 669 49 29", "start_date": "2015", "tourism": "museum", "url": "https://www.youtube.com/channel/UCqsxdWV2jtOlaaR-p1ulISw", "website": "https://designmuseum.brussels/", "wikidata": "Q28149770", "wikipedia": "en:Art & Design Atomium Museum"}}, "geometry": {"type": "Point", "coordinates": [4.3413109, 50.8976599]}}, {"type": "Feature", "properties": {"type": "node", "id": 3137924611, "tags": {"addr:city": "Evere", "addr:housenumber": "21", "addr:postcode": "1140", "addr:street": "Rue du Moulin \u00e0 Vent - Windmolenstraat", "name": "Mus\u00e9e bruxellois du Moulin et de l'Alimentation - Brussels Museum van de Molen en de Voeding", "name:fr": "Mus\u00e9e bruxellois du Moulin et de l'Alimentation", "name:nl": "Brussels Museum van de Molen en de Voeding", "tourism": "museum", "website": "http://www.moulindevere.be/j/", "wikidata": "Q3329505", "wikipedia": "fr:Mus\u00e9e bruxellois du Moulin et de l'Alimentation"}}, "geometry": {"type": "Point", "coordinates": [4.3950097, 50.8732495]}}, {"type": "Feature", "properties": {"type": "node", "id": 3859757968, "tags": {"addr:city": "Bruxelles - Brussel", "addr:housenumber": "200", "addr:postcode": "1120", "addr:street": "Rue Bruyn - Bruynstraat", "fee": "no", "name": "Mus\u00e9e Belge de la Radiologie - Belgisch Museum voor Radiologie", "name:en": "Belgian Museum of Radiology", "name:fr": "Mus\u00e9e Belge de la Radiologie", "name:nl": "Belgisch Museum voor Radiologie", "opening_hours": "Mo-Fr 09:00-15:00", "tourism": "museum", "website": "http://www.radiology-museum.be/", "wikidata": "Q23893730", "wikipedia": "nl:Belgisch Museum voor Radiologie"}}, "geometry": {"type": "Point", "coordinates": [4.3908847, 50.9071661]}}, {"type": "Feature", "properties": {"type": "node", "id": 1770433522, "tags": {"addr:city": "Meise", "addr:housenumber": "38", "addr:postcode": "1860", "addr:street": "Nieuwelaan", "name": "Plantentuin Meise", "name:fr": "Jardin botanique Meise", "opening_hours": "Mo-Su 09:30-16:30", "phone": "+32 2 260 09 70", "tourism": "museum", "website": "https://www.plantentuinmeise.be/"}}, "geometry": {"type": "Point", "coordinates": [4.3270673, 50.9287928]}}, {"type": "Feature", "properties": {"type": "node", "id": 353174952, "tags": {"name": "Museum voor de Oudere Technieken", "tourism": "museum", "website": "https://www.mot.be"}}, "geometry": {"type": "Point", "coordinates": [4.371207, 50.9275848]}}, {"type": "Feature", "properties": {"type": "node", "id": 2971465452, "tags": {"name": "Smidse", "tourism": "museum"}}, "geometry": {"type": "Point", "coordinates": [4.3720518, 50.9278657]}}, {"type": "Feature", "properties": {"type": "node", "id": 1016000170, "tags": {"addr:housenumber": "22", "addr:street": "Abdijstraat", "name": "Sterrenwacht Mira", "observatory:type": "astronomical", "tourism": "museum", "website": "http://www.mira.be/"}}, "geometry": {"type": "Point", "coordinates": [4.3689056, 50.9345975]}}, {"type": "Feature", "properties": {"type": "node", "id": 353176352, "tags": {"name": "Museum voor de Oudere Technieken (Liermolen)", "tourism": "museum", "website": "https://www.mot.be"}}, "geometry": {"type": "Point", "coordinates": [4.3727067, 50.9366777]}}, {"type": "Feature", "properties": {"type": "node", "id": 353176348, "tags": {"name": "Museum voor de Oudere Technieken (Tommenmolen)", "tourism": "museum", "website": "https://www.mot.be"}}, "geometry": {"type": "Point", "coordinates": [4.3795, 50.9374031]}}, {"type": "Feature", "properties": {"type": "node", "id": 2184273615, "tags": {"name": "Bosmuseum Jan van Ruusbroec", "opening_hours": "We-Su 13:00-17:00", "tourism": "museum", "wheelchair": "yes"}}, "geometry": {"type": "Point", "coordinates": [4.4415076, 50.768594]}}, {"type": "Feature", "properties": {"type": "node", "id": 3860521062, "tags": {"addr:city": "Woluwe-Saint-Pierre - Sint-Pieters-Woluwe", "addr:housenumber": "23", "addr:postcode": "1150", "addr:street": "Rue du Bemel - Bemelstraat", "name": "Bibliotheca Wittockiana", "name:fr": "Bibliotheca Wittockiana", "name:nl": "Bibliotheca Wittockiana", "opening_hours": "Tu-Su 10:00-17:00", "tourism": "museum", "website": "http://wittockiana.org/", "wikidata": "Q2901267", "wikipedia": "fr:Bibliotheca Wittockiana"}}, "geometry": {"type": "Point", "coordinates": [4.4202963, 50.8321839]}}, {"type": "Feature", "properties": {"type": "node", "id": 3860582546, "tags": {"addr:city": "Woluwe-Saint-Lambert - Sint-Lambrechts-Woluwe", "addr:housenumber": "73", "addr:postcode": "1200", "addr:street": "Avenue Emmanuel Mounier - Emmanuel Mounierlaan", "name": "Collection pharmaceutique Albert Couvreur - Farmaceutische Collectie Albert Couvreur", "name:fr": "Collection pharmaceutique Albert Couvreur", "name:nl": "Farmaceutische Collectie Albert Couvreur", "opening_hours": "Mo-Fr 07:30-19:30", "tourism": "museum"}}, "geometry": {"type": "Point", "coordinates": [4.4555202, 50.8513389]}}, {"type": "Feature", "properties": {"type": "node", "id": 6032042016, "tags": {"name": "Dru!f, huis van de tafeldruif", "tourism": "museum", "website": "http://www.overijse.be/nl/225/content/78/dru-f-huis-van-de-tafeldruif.html"}}, "geometry": {"type": "Point", "coordinates": [4.5374024, 50.7724379]}}, {"type": "Feature", "properties": {"type": "node", "id": 7391442392, "tags": {"addr:city": "Overijse", "addr:housenumber": "2", "addr:postcode": "3090", "addr:street": "Waversesteenweg", "addr:unit": "2", "description": "Local history circle", "level": "2", "museum": "history", "name": "De Beierij van IJse", "note": "Not reachable by elevator.", "opening_hours": "First saturday of the month, 9h-12h", "operator": "Heemkundige Kring De Beierij van IJse vzw", "operator:type": "private_non_profit", "tourism": "museum", "website": "https://www.beierij.be/"}}, "geometry": {"type": "Point", "coordinates": [4.5373814, 50.7724936]}}, {"type": "Feature", "properties": {"type": "node", "id": 1333988328, "tags": {"name": "Witloofmuseum", "tourism": "museum"}}, "geometry": {"type": "Point", "coordinates": [4.5944758, 50.9539379]}}, {"type": "Feature", "properties": {"type": "node", "id": 6101775493, "tags": {"alt_name": "Telefoniemuseum Steenhuffel", "name": "Leofoon", "tourism": "museum", "website": "https://www.leofoon.be/"}}, "geometry": {"type": "Point", "coordinates": [4.2497469, 51.0003517]}}, {"type": "Feature", "properties": {"type": "node", "id": 2521832150, "tags": {"OnroerendErfgoed:criteria": "M", "addr:housenumber": "22", "addr:street": "Kaai", "description": "Emile Verhaerenmuseum", "heritage": "4", "heritage:operator": "OnroerendErfgoed", "heritage:website": "https://inventaris.onroerenderfgoed.be/dibe/relict/2140", "name": "Emile Verhaerenmuseum", "name:etymology:wikidata": "Q193680", "ref:OnroerendErfgoed": "2140", "tourism": "museum"}}, "geometry": {"type": "Point", "coordinates": [4.2012463, 51.056133]}}, {"type": "Feature", "properties": {"type": "node", "id": 2576145025, "tags": {"name": "Emile Verhaerenmuseum", "name:etymology:wikidata": "Q193680", "tourism": "museum"}}, "geometry": {"type": "Point", "coordinates": [4.2033178, 51.0565397]}}, {"type": "Feature", "properties": {"type": "node", "id": 1332640840, "tags": {"tourism": "museum"}}, "geometry": {"type": "Point", "coordinates": [4.3663872, 51.0812238]}}, {"type": "Feature", "properties": {"type": "node", "id": 303975603, "tags": {"email": "edmond.lambrechts@telenet.be", "name": "Museum Rupelklei", "opening_hours": "May-Sep: Sa,Su 14:00-17:00", "tourism": "museum", "website": "http://www.museum-rupelklei.be/"}}, "geometry": {"type": "Point", "coordinates": [4.3939859, 51.0781933]}}, {"type": "Feature", "properties": {"type": "node", "id": 8236771716, "tags": {"name": "Bezoekerscentrum Kasteel Marnix de Sint Aldegonde", "tourism": "museum"}}, "geometry": {"type": "Point", "coordinates": [4.2152464, 51.101807]}}, {"type": "Feature", "properties": {"type": "node", "id": 3560597111, "tags": {"name": "Museeum van Heemkundige Kring", "tourism": "museum"}}, "geometry": {"type": "Point", "coordinates": [4.2981655, 51.1478194]}}, {"type": "Feature", "properties": {"type": "node", "id": 247268491, "tags": {"addr:city": "Boom", "addr:housenumber": "196", "addr:street": "Noeveren", "name": "Steenbakkerijmuseum 't Geleeg - site Steenbakkerij Frateur", "old_name": "Steenbakkerij Frateur", "tourism": "museum", "website": "http://www.geleeg.be/"}}, "geometry": {"type": "Point", "coordinates": [4.3473716, 51.0945095]}}, {"type": "Feature", "properties": {"type": "node", "id": 3063800283, "tags": {"addr:housenumber": "4", "addr:street": "Bernardusabdij 4", "name": "Omtrent Den Hover", "opening_hours": "Su[1] 14:00-18:00", "operator": "Heemkring Heymissen", "tourism": "museum", "website": "http://heemkundigekringheymissen.tk/museum/"}}, "geometry": {"type": "Point", "coordinates": [4.3306257, 51.131905]}}, {"type": "Feature", "properties": {"type": "node", "id": 2339126224, "tags": {"addr:housenumber": "67", "addr:street": "Noeveren", "building": "house", "name": "Ecomuseum en Archief van de Boomse Baksteen", "short_name": "EMABB", "source": "AGIV", "tourism": "museum", "website": "http://www.steenbakkerijmuseum.be/"}}, "geometry": {"type": "Point", "coordinates": [4.3519018, 51.0930471]}}, {"type": "Feature", "properties": {"type": "node", "id": 1925173779, "tags": {"name": "Nautisch Bezoekerscentrum Rupelstreek", "tourism": "museum"}}, "geometry": {"type": "Point", "coordinates": [4.3762904, 51.0831372]}}, {"type": "Feature", "properties": {"type": "node", "id": 3849825759, "tags": {"addr:housenumber": "22", "addr:street": "Lange Gaanweg", "name": "Museum De Schuur vzw", "opening_hours": "Sa,Su,PH 11:00+; Dec 25, Jan 1 off", "tourism": "museum", "website": "http://www.museumdeschuur.be/"}}, "geometry": {"type": "Point", "coordinates": [4.3040678, 51.1468721]}}, {"type": "Feature", "properties": {"type": "node", "id": 2376124832, "tags": {"alt_name": "Bunker Museum Antwerpen", "email": "antwerpsbunkermuseum@proximus.be", "name": "Oorlogsmuseum", "opening_hours:url": "http://www.bunkervliegtuigarcheo.com/openingsdata/", "tourism": "museum", "website": "http://www.bunkervliegtuigarcheo.com/", "wikidata": "Q15080293", "wikipedia:nl": "Atlantikwall & Luchtoorlog Bunker Museum Antwerpen"}}, "geometry": {"type": "Point", "coordinates": [4.4015098, 51.1834165]}}, {"type": "Feature", "properties": {"type": "node", "id": 455904641, "tags": {"name": "Horlogeriemuseum", "tourism": "museum", "wikidata": "Q23900559"}}, "geometry": {"type": "Point", "coordinates": [4.4792748, 51.0256306]}}, {"type": "Feature", "properties": {"type": "node", "id": 387732139, "tags": {"name": "Joods Museum van Deportatie en Verzet", "tourism": "museum", "wikidata": "Q2123638", "wikipedia": "nl:Kazerne Dossin - Memoriaal, museum en documentatiecentrum over Holocaust en Mensenrechten"}}, "geometry": {"type": "Point", "coordinates": [4.4782017, 51.034127]}}, {"type": "Feature", "properties": {"type": "node", "id": 473442087, "tags": {"addr:housenumber": "65", "addr:street": "Frederik de Merodestraat", "name": "Hof Van Busleyden", "tourism": "museum", "wikidata": "Q55712714"}}, "geometry": {"type": "Point", "coordinates": [4.4823499, 51.0311806]}}, {"type": "Feature", "properties": {"type": "node", "id": 455900282, "tags": {"addr:housenumber": "21", "addr:street": "Nekkerspoelstraat", "email": "info@speelgoedmuseum.be", "fee": "yes", "name": "Speelgoedmuseum - Museo del Juguete", "name:fr": "mus\u00e9e du jouet", "opening_hours": "Tu-Su 10:00-17:00", "phone": "+32 15 55 70 75", "tourism": "museum", "website": "http://www.speelgoedmuseum.be", "wikidata": "Q3480360", "wikipedia": "nl:Speelgoedmuseum Mechelen"}}, "geometry": {"type": "Point", "coordinates": [4.4913048, 51.0306372]}}, {"type": "Feature", "properties": {"type": "node", "id": 4163360522, "tags": {"name": "'t Smiske", "tourism": "museum"}}, "geometry": {"type": "Point", "coordinates": [4.5903709, 51.0009319]}}, {"type": "Feature", "properties": {"type": "node", "id": 8383566276, "tags": {"mobile": "+32 477 28 61 40", "name": "IFA-museum voor Oost-Duitse wagens", "tourism": "museum"}}, "geometry": {"type": "Point", "coordinates": [4.5587702, 51.0651062]}}, {"type": "Feature", "properties": {"type": "node", "id": 1799245446, "tags": {"name": "Museum Het Gasthuis", "tourism": "museum"}}, "geometry": {"type": "Point", "coordinates": [4.4967535, 51.0951516]}}, {"type": "Feature", "properties": {"type": "node", "id": 4012533853, "tags": {"name": "Lint Heemmuseum \"Den Aker\"", "short_name": "Den Aker", "tourism": "museum"}}, "geometry": {"type": "Point", "coordinates": [4.4926098, 51.1276123]}}, {"type": "Feature", "properties": {"type": "node", "id": 94177190, "tags": {"description": "Photos  http://openpoimap.org/?map=various&zoom=17&lat=51.18056&lon=4.41229&layers=B00FFFFFFFFFFFFFTFFFFFF", "name": "Middelheim", "opening_hours": "Jan-Mar, Oct-Dec: Tu-Su,PH 10:00-17:00; Apr,May,Sep: Tu-Su,PH 10:00-19:00; Jun-Jul: Tu-Su,PH 10:00-21:00; Aug: Tu-Su,PH 10:00-20:00; Mo off; Jan 1 off; May 1 off; Nov 1 off; Dec 25 off; easter +39 days off", "phone": "+32 3 288 33 60", "tourism": "museum", "url": "https://youtu.be/FeRso6f_3lI", "website": "https://www.middelheimmuseum.be/", "wikidata": "Q2098074", "wikipedia": "nl:Openluchtmuseum voor beeldhouwkunst Middelheim"}}, "geometry": {"type": "Point", "coordinates": [4.4134923, 51.1805407]}}, {"type": "Feature", "properties": {"type": "node", "id": 5325822803, "tags": {"addr:city": "Berchem", "addr:housenumber": "6", "addr:postcode": "2600", "addr:street": "Rooiplein", "description": "Heemkundig museum voor het district Berchem van de Stad Antwerpen.  Open: Elke 2de en 4de zondag van de maand of na afspraak. Info 03 292 51 15 Locatie: Domein Park West | Linkergebouw - Zolderverdieping Niet toegankelijk voor rolstoelgebruikers", "email": "info@zoldermuseum.be", "level": "1", "museum": "history", "name": "Zoldermuseum \"Schali\u00ebnhoeve\"", "opening_hours:url": "https://www.zoldermuseum.be", "operator": "Heemkring Berchem vzw", "operator:type": "private_non_profit", "phone": "+32 3 292 51 15", "tourism": "museum", "website": "https://www.zoldermuseum.be", "wheelchair": "no"}}, "geometry": {"type": "Point", "coordinates": [4.4362557, 51.1853877]}}, {"type": "Feature", "properties": {"type": "node", "id": 3672594530, "tags": {"tourism": "museum"}}, "geometry": {"type": "Point", "coordinates": [4.4588255, 51.1747097]}}, {"type": "Feature", "properties": {"type": "node", "id": 5018250622, "tags": {"addr:city": "Heverlee", "addr:housenumber": "7", "addr:postcode": "3001", "addr:street": "Abdij van Park", "email": "info@parcum.be", "name": "Parcum", "name:nl": "Parcum", "opening_hours": "Tu-Su 10:00-17:00", "phone": "+32 (0)16 40 01 51", "tourism": "museum", "website": "https://www.parcum.be/"}}, "geometry": {"type": "Point", "coordinates": [4.7170752, 50.8647377]}}, {"type": "Feature", "properties": {"type": "node", "id": 3118947822, "tags": {"addr:city": "Leuven", "addr:postcode": "3000", "addr:street": "Halfmaartstraat", "name": "Scouts- en Gidsenmuseum", "ref:vatin": "BE0417544418", "tourism": "museum", "website": "http://www.scoutsmuseum.be"}}, "geometry": {"type": "Point", "coordinates": [4.6996044, 50.8834678]}}, {"type": "Feature", "properties": {"type": "node", "id": 8118505863, "tags": {"addr:housenumber": "45", "addr:street": "Halensebaan", "email": "info@hbfv.be", "name": "Het Huis van het Belgisch-Franse Verzet", "tourism": "museum", "website": "http://www.hbfv.be/"}}, "geometry": {"type": "Point", "coordinates": [4.8886585, 50.9096985]}}, {"type": "Feature", "properties": {"type": "node", "id": 8158959140, "tags": {"name": "Historisch draaiorgelmuseum", "tourism": "museum"}}, "geometry": {"type": "Point", "coordinates": [4.7820903, 50.9852268]}}, {"type": "Feature", "properties": {"type": "node", "id": 7857530206, "tags": {"addr:city": "Grobbendonk", "addr:housenumber": "1", "addr:postcode": "2288", "addr:street": "Dorp", "museum": "sport", "name": "Kempens Wielermuseum", "opening_hours": "\"by appointment\"", "phone": "+32 475 29 74 14", "tourism": "museum"}}, "geometry": {"type": "Point", "coordinates": [4.7417004, 51.1722296]}}, {"type": "Feature", "properties": {"type": "node", "id": 6649016381, "tags": {"name": "Draaiorgelmuseum", "tourism": "museum", "wikidata": "Q28057663"}}, "geometry": {"type": "Point", "coordinates": [4.8587246, 51.1148033]}}, {"type": "Feature", "properties": {"type": "node", "id": 6098804390, "tags": {"name": "Olens Radiomuseum", "opening_hours": "Th-Su 14:00-18:00; Fr off", "phone": "+32 495 45 36 33", "tourism": "museum", "website": "https://olens-radiomuseum.business.site/"}}, "geometry": {"type": "Point", "coordinates": [4.8886786, 51.1633195]}}, {"type": "Feature", "properties": {"type": "node", "id": 1611178794, "tags": {"addr:city": "Geel", "addr:country": "BE", "addr:housenumber": "1", "addr:postcode": "2440", "addr:street": "Gasthuisstraat", "email": "gasthuismuseum@geel.be", "fee": "yes", "name": "Gasthuismuseum", "opening_hours": "\"Op afspraak\"", "phone": "+3214566840", "tourism": "museum", "website": "https://www.gasthuismuseumgeel.be/", "wheelchair": "yes", "wikidata": "Q2107539", "wikipedia": "nl:Gasthuismuseum"}}, "geometry": {"type": "Point", "coordinates": [4.9993376, 51.1622274]}}, {"type": "Feature", "properties": {"type": "node", "id": 6109174786, "tags": {"name": "Mercator Huis", "tourism": "museum"}}, "geometry": {"type": "Point", "coordinates": [4.2493148, 51.2319393]}}, {"type": "Feature", "properties": {"type": "node", "id": 1629898273, "tags": {"addr:city": "Antwerpen", "addr:housenumber": "47", "addr:postcode": "2000", "addr:street": "Waalsekaai", "email": "info@fomu.be", "name": "Fotomuseum Antwerpen", "opening_hours": "Tu-Su 10:00-18:00; Jan 1 off; Jan 2 off; Dec 25 off; Dec 26 off; Dec 24 10:00-14:00; Dec 31 10:00-14:00; easter + 1 days 10:00-18:00; Jul 21 10:00-18:00; Nov 2 10:00-18:00", "phone": "+32 3 242 93 00", "short_name": "Fomu", "tourism": "museum", "url": "http://www.fotomuseum.be", "wikidata": "Q2635059", "wikipedia": "nl:FotoMuseum (Antwerpen)"}}, "geometry": {"type": "Point", "coordinates": [4.3876251, 51.2090334]}}, {"type": "Feature", "properties": {"type": "node", "id": 6743458050, "tags": {"name": "Bormshuis", "tourism": "museum", "website": "https://bormshuis.wordpress.com"}}, "geometry": {"type": "Point", "coordinates": [4.3960558, 51.2113517]}}, {"type": "Feature", "properties": {"type": "node", "id": 6550838364, "tags": {"alt_name": "Maritiem Openluchtmuseum Boeienweide", "fee": "no", "museum": "open_air", "name": "Boeienweide", "opening_hours": "24/7", "tourism": "museum"}}, "geometry": {"type": "Point", "coordinates": [4.3895991, 51.2218019]}}, {"type": "Feature", "properties": {"type": "node", "id": 1782364853, "tags": {"addr:city": "Antwerpen", "addr:housenumber": "28", "addr:postcode": "2000", "addr:street": "Nationalestraat", "alt_name": "ModeMuseum", "name": "MoMu", "name:ko": "\ud328\uc158 \ubc15\ubb3c\uad00", "opening_hours": "Tu-Su 10:00-18:00; Dec 25 off; Dec 26 off; Jan 1 off; Jan 2 off; Dec 24, Dec 31 10:00-14:00; Th[1] 10:00-21:00", "tourism": "museum", "website": "https://www.momu.be/", "wheelchair": "yes", "wikidata": "Q2799943"}}, "geometry": {"type": "Point", "coordinates": [4.3995977, 51.2172961]}}, {"type": "Feature", "properties": {"type": "node", "id": 6250404256, "tags": {"name": "Poorterswoning", "tourism": "museum", "website": "http://www.poorterswoning.be"}}, "geometry": {"type": "Point", "coordinates": [4.3995934, 51.2196348]}}, {"type": "Feature", "properties": {"type": "node", "id": 5076293608, "tags": {"addr:housenumber": "9", "addr:postcode": "2000", "addr:street": "Ernest Van Dijckkaai", "email": "van.mieghem.museum@skynet.be", "name": "Eugeen Van Mieghem Museum", "opening_hours": "Su,Mo 14:00-17:00; Jul-Aug off; PH off; \"groups by appointment\"", "phone": "+32 3 211 03 30", "tourism": "museum", "website": "http://www.vanmieghemmuseum.com", "wikidata": "Q32845567"}}, "geometry": {"type": "Point", "coordinates": [4.3975528, 51.2214923]}}, {"type": "Feature", "properties": {"type": "node", "id": 5076293609, "tags": {"addr:housenumber": "7", "addr:postcode": "2000", "addr:street": "Ernest Van Dijckkaai", "email": "info@museum-dereede.be", "name": "Museum De Reede", "opening_hours": "Mo-Tu,Th-Su 11:00-17:00; We off", "phone": "+32 3 434 03 04", "tourism": "museum", "website": "https://museum-dereede.com/", "wikidata": "Q24471974"}}, "geometry": {"type": "Point", "coordinates": [4.3976883, 51.2217588]}}, {"type": "Feature", "properties": {"type": "node", "id": 5584340700, "tags": {"addr:housenumber": "17-19", "addr:postcode": "2000", "addr:street": "Suikerrui", "alt_name": "DIVA Antwerp Home of Diamonds; DIVA Diamantmuseum", "email": "info@diva.antwerp.be", "name": "DIVA", "opening_hours": "Mo,Tu,Th-Su 10:00-18:00; We off", "phone": "+32 3 360 52 52", "tourism": "museum", "website": "http://www.divaantwerp.be/"}}, "geometry": {"type": "Point", "coordinates": [4.3982766, 51.2211147]}}, {"type": "Feature", "properties": {"type": "node", "id": 1323066422, "tags": {"OnroerendErfgoed:criteria": "M", "addr:city": "Antwerpen", "addr:country": "BE", "addr:housenumber": "14", "addr:postcode": "2000", "addr:street": "Rijnkaai", "heritage": "4", "heritage:operator": "OnroerendErfgoed", "heritage:website": "https://inventaris.onroerenderfgoed.be/dibe/relict/200498", "name": "Rederijgebouwen Red Star Line", "note": "Museum open in 2013", "ref:OnroerendErfgoed": "200498", "source": "www.redstarline.be", "start_date": "2013-09-13", "tourism": "museum"}}, "geometry": {"type": "Point", "coordinates": [4.4035543, 51.2335168]}}, {"type": "Feature", "properties": {"type": "node", "id": 3223810669, "tags": {"addr:city": "Antwerpen", "addr:country": "BE", "addr:housenumber": "3", "addr:postcode": "2000", "addr:street": "Montevideostraat", "email": "redstarline@stad.antwerpen.be", "name": "Red Star Line Museum", "opening_hours": "Tu-Su 10:00-17:00; Mo off", "phone": "+32 3 298 27 70", "toilets:wheelchair": "yes", "tourism": "museum", "website": "https://www.redstarline.be/", "wheelchair": "yes", "wikidata": "Q23090950"}}, "geometry": {"type": "Point", "coordinates": [4.4035019, 51.2333447]}}, {"type": "Feature", "properties": {"type": "node", "id": 2559989293, "tags": {"addr:housenumber": "190", "addr:street": "Zoutestraat", "name": "Forgotten Times", "opening_hours": "Mo 10:00-17:00; Tu-Fr 10:00-18:00; Sa 10:00-17:00; Su 12:00-16:00", "tourism": "museum", "website": "http://www.americanlegend.be"}}, "geometry": {"type": "Point", "coordinates": [4.3073196, 51.357654]}}, {"type": "Feature", "properties": {"type": "node", "id": 4875945323, "tags": {"addr:housenumber": "21", "addr:street": "Eikelstraat", "name": "Extra City Kunsthal", "opening_hours": "We-Su 13:00-18:00", "tourism": "museum", "wikidata": "Q3294996"}}, "geometry": {"type": "Point", "coordinates": [4.4224077, 51.1997088]}}, {"type": "Feature", "properties": {"type": "node", "id": 5579181368, "tags": {"addr:housenumber": "1/3", "addr:postcode": "2100", "addr:street": "Luchthavenlei", "description": "Museum van historische vliegtuigen", "email": "stampe@skynet.be", "name": "Museum Stampe & Vertongen", "opening_hours": "Sa-Su 14:00-17:00, Mo-Fr \"on appointment\"", "tourism": "museum", "website": "http://www.stampe.be/"}}, "geometry": {"type": "Point", "coordinates": [4.4520405, 51.189612]}}, {"type": "Feature", "properties": {"type": "node", "id": 5226910595, "tags": {"addr:housenumber": "33", "addr:postcode": "2000", "addr:street": "Lange Gasthuisstraat", "alt_name": "Maagdenhuismuseum", "email": "maagdenhuismuseum@ocmw.antwerpen.be", "name": "Maagdenhuis", "name:ru": "\u043c\u0443\u0437\u0435\u0439", "opening_hours": "Mo,We-Fr 10:00-17:00; Sa,Su 13:00-17:00; Tu,PH off", "operator": "OCMW Antwerpen", "phone": "+32 3 338 26 20", "tourism": "museum", "website": "https://www.maagdenhuismuseum.be/", "wikidata": "Q2491109"}}, "geometry": {"type": "Point", "coordinates": [4.4053853, 51.2144277]}}, {"type": "Feature", "properties": {"type": "node", "id": 2413530067, "tags": {"OnroerendErfgoed:criteria": "M", "addr:city": "Antwerpen", "addr:housenumber": "22", "addr:postcode": "2000", "addr:street": "Minderbroedersstraat", "description": "Notarishuis, nu Letterenhuis", "fixme": "resurvey: approx. position given by wikipedia", "heritage": "4", "heritage:operator": "OnroerendErfgoed", "heritage:website": "https://inventaris.onroerenderfgoed.be/dibe/relict/5565", "name": "Het Letterenhuis", "opening_hours": "Tu,We,Th,Sa 10:00-17:00; easter +39 days off", "ref:OnroerendErfgoed": "5565", "tourism": "museum", "website": "https://www.letterenhuis.be/", "wikidata": "Q3813695", "wikipedia": "nl:Letterenhuis"}}, "geometry": {"type": "Point", "coordinates": [4.4047276, 51.2228089]}}, {"type": "Feature", "properties": {"type": "node", "id": 2413530148, "tags": {"OnroerendErfgoed:criteria": "M", "addr:city": "Antwerpen", "addr:housenumber": "10;12", "addr:street": "Keizerstraat", "description": "Tu-Su 10:00-17:00; Jan 1, Jan 2 off; Dec 25 off; Dec 26 off; easter+39 days off; easter+1 days 10:00-17:00; easter + 50 days 10:00-17:00", "heritage": "4", "heritage:operator": "OnroerendErfgoed", "heritage:website": "https://inventaris.onroerenderfgoed.be/dibe/relict/5134", "name": "Rockoxhuis", "opening_hours": "closed", "ref:OnroerendErfgoed": "5134", "tourism": "museum", "website": "http://www.rockoxhuis.be/", "wikidata": "Q2662909", "wikipedia:nl": "Rockoxhuis"}}, "geometry": {"type": "Point", "coordinates": [4.4060796, 51.2217275]}}, {"type": "Feature", "properties": {"type": "node", "id": 4813655725, "tags": {"name": "ComicsStation", "tourism": "museum"}}, "geometry": {"type": "Point", "coordinates": [4.4217782, 51.21348]}}, {"type": "Feature", "properties": {"type": "node", "id": 6208675680, "tags": {"addr:city": "Antwerpen", "addr:housenumber": "7", "addr:postcode": "2018", "addr:street": "Koningin Astridplein", "contact:facebook": "https://www.facebook.com/chocolatenationBE/", "email": "info@tbce.be", "fee": "yes", "name": "Chocolate Nation", "opening_hours": "Mo-Su 10:30-21:00", "phone": "+32 3 207 08 08", "tourism": "museum", "website": "https://www.chocolatenation.be/"}}, "geometry": {"type": "Point", "coordinates": [4.420874, 51.2192003]}}, {"type": "Feature", "properties": {"type": "node", "id": 1151040406, "tags": {"addr:housenumber": "19", "addr:postcode": "2000", "addr:street": "Hanzestedenplaats", "email": "havenpaviljoen@haven.antwerpen.be", "fee": "no", "name": "Havenpaviljoen", "opening_hours": "Tu-Su 09:30-17:30; Mo off", "operator": "Port of Antwerp", "tourism": "museum", "website": "http://www.portofantwerp.com/mashavenpaviljoen"}}, "geometry": {"type": "Point", "coordinates": [4.4053446, 51.2286127]}}, {"type": "Feature", "properties": {"type": "node", "id": 1904737799, "tags": {"addr:housenumber": "23", "addr:postcode": "2000", "addr:street": "Hanzestedenplaats", "alt_name": "Diamantpaviljoen", "fee": "no", "name": "Paviljoen Antwerpen Morgen", "old_name": "Diamantpaviljoen", "opening_hours": "Tu-Fr 10:00-17:00; Nov-Mar Sa-Su 10:00-17:00; Apr-Oct Sa-Su 10:00-18:00; Mo off", "operator": "Stad Antwerpen", "tourism": "museum", "url": "https://www.antwerpenmorgen.be/"}}, "geometry": {"type": "Point", "coordinates": [4.4053543, 51.2283948]}}, {"type": "Feature", "properties": {"type": "node", "id": 1904737802, "tags": {"addr:housenumber": "15", "addr:postcode": "2000", "addr:street": "Hanzestedenplaats", "name": "Umicore Zilverpaviljoen", "operator": "Umicore", "tourism": "museum"}}, "geometry": {"type": "Point", "coordinates": [4.4053273, 51.2288362]}}, {"type": "Feature", "properties": {"type": "node", "id": 5027285582, "tags": {"name": "Rijn- en Binnenvaartmuseum", "opening_hours": "Apr 15 - Oct 15 We 13:00-18:00", "phone": "+32 3 232 86 70", "tourism": "museum", "website": "http://www.rijnenbinnenvaartmuseum.be/"}}, "geometry": {"type": "Point", "coordinates": [4.4040393, 51.2281925]}}, {"type": "Feature", "properties": {"type": "node", "id": 5846507725, "tags": {"name": "Natuurhistorisch Museum Boekenberg", "opening_hours": "May 15-Oct 14 Su 14:00-18:00", "tourism": "museum", "wheelchair": "no"}}, "geometry": {"type": "Point", "coordinates": [4.4641583, 51.1995508]}}, {"type": "Feature", "properties": {"type": "node", "id": 500365148, "tags": {"name": "Turninum", "tourism": "museum", "wikidata": "Q23197996"}}, "geometry": {"type": "Point", "coordinates": [4.4581421, 51.2201234]}}, {"type": "Feature", "properties": {"type": "node", "id": 1995904724, "tags": {"addr:city": "'s-Gravenwezel", "addr:housenumber": "41-45", "addr:postcode": "2970", "addr:street": "Kerkstraat", "name": "Heemkring De Drie Rozen", "operator": "Heemkring De Drie Rozen vzw", "source": "local knowledge", "tourism": "museum", "website": "https://www.dedrierozen.be/"}}, "geometry": {"type": "Point", "coordinates": [4.5552887, 51.2634524]}}, {"type": "Feature", "properties": {"type": "node", "id": 289135037, "tags": {"addr:housenumber": "131", "addr:postcode": "2920", "addr:street": "Putsesteenweg", "email": "bijenteeltmuseum@kalmthout.be", "name": "Bijenteeltmuseum", "opening_hours": "Sa,Su,PH 13:00-17:00; SH Tu-Su 13:00-17:00", "phone": "+32 3 666 61 01", "tourism": "museum", "website": "http://www.bijenteeltmuseum.be"}}, "geometry": {"type": "Point", "coordinates": [4.4495141, 51.375931]}}, {"type": "Feature", "properties": {"type": "node", "id": 289200955, "tags": {"name": "Karrenmuseum", "tourism": "museum"}}, "geometry": {"type": "Point", "coordinates": [4.4404282, 51.4584237]}}, {"type": "Feature", "properties": {"type": "node", "id": 1462189318, "tags": {"name": "Heemmuseum", "tourism": "museum"}}, "geometry": {"type": "Point", "coordinates": [4.7115846, 51.2669446]}}, {"type": "Feature", "properties": {"type": "node", "id": 2072812864, "tags": {"name": "Aster berkhofmuseum", "tourism": "museum"}}, "geometry": {"type": "Point", "coordinates": [4.7822514, 51.3293283]}}, {"type": "Feature", "properties": {"type": "node", "id": 2072807447, "tags": {"name": "Heemkundig museum", "tourism": "museum"}}, "geometry": {"type": "Point", "coordinates": [4.7583882, 51.3504897]}}, {"type": "Feature", "properties": {"type": "node", "id": 2237771858, "tags": {"description": "museum \"Kolonie prison\"", "fee": "yes", "name": "gevangenis museum", "source": "http://www.gevangenismuseum.be/", "tourism": "museum"}}, "geometry": {"type": "Point", "coordinates": [4.8256364, 51.3554598]}}, {"type": "Feature", "properties": {"type": "node", "id": 6967244511, "tags": {"fee": "no", "name": "Bezoekerscentrum Kolonie 5-7", "tourism": "museum"}}, "geometry": {"type": "Point", "coordinates": [4.8243098, 51.3573382]}}, {"type": "Feature", "properties": {"type": "node", "id": 2653573836, "tags": {"name": "Kunstlocatie W\u00fcrth", "tourism": "museum"}}, "geometry": {"type": "Point", "coordinates": [4.9368121, 51.2994983]}}, {"type": "Feature", "properties": {"type": "node", "id": 8195024344, "tags": {"addr:city": "Turnhout", "addr:housenumber": "11", "addr:postcode": "2300", "addr:street": "Graatakker", "name": "Natuurpunt Museum", "tourism": "museum", "website": "https://www.natuurpunt.be/bezoekerscentrum/natuurhuis-en-museum-turnhout"}}, "geometry": {"type": "Point", "coordinates": [4.9503301, 51.3183878]}}, {"type": "Feature", "properties": {"type": "node", "id": 6447215163, "tags": {"name": "Vergane Glorie", "opening_hours": "\"by appointment\"", "tourism": "museum"}}, "geometry": {"type": "Point", "coordinates": [4.9308584, 51.4348259]}}, {"type": "Feature", "properties": {"type": "node", "id": 2335421592, "tags": {"name": "Kaarsenmuseum", "opening_hours": "Apr-Sep: Tu-Su 12:00-16:00", "tourism": "museum"}}, "geometry": {"type": "Point", "coordinates": [4.9311219, 51.4421934]}}, {"type": "Feature", "properties": {"type": "node", "id": 7547335286, "tags": {"addr:city": "Baarle-Hertog", "addr:housenumber": "4", "addr:postcode": "2387", "addr:street": "Kerkstraat", "internet_access": "wlan", "name": "Heemkundekring Amalia van Solms", "opening_hours": "We 19:30-21:00; Su 10:30-12:30", "tourism": "museum", "website": "http://amaliavansolms.org"}}, "geometry": {"type": "Point", "coordinates": [4.9300885, 51.4421136]}}, {"type": "Feature", "properties": {"type": "node", "id": 6696719174, "tags": {"name": "Mudia", "tourism": "museum", "website": "http://www.mudia.be/"}}, "geometry": {"type": "Point", "coordinates": [5.159774, 50.0070551]}}, {"type": "Feature", "properties": {"type": "node", "id": 1472061508, "tags": {"name": "Mus\u00e9e de la cloche", "tourism": "museum"}}, "geometry": {"type": "Point", "coordinates": [5.2196957, 50.0818188]}}, {"type": "Feature", "properties": {"type": "node", "id": 1393055453, "tags": {"addr:city": "Han-sur-Lesse", "addr:housenumber": "14", "addr:postcode": "5580", "addr:street": "Rue des Grottes", "description": "Au travers de 50 sc\u00e8nes de vie, revivez le quotidien de l\u2019\u00e9poque 1900.", "name": "Han 1900", "opening_hours:url": "http://www.grotte-de-han.be/fr/calendrier/individuels", "operator": "Domaine des Grottes de Han", "phone": "+32 84 37 72 13", "tourism": "museum", "website": "http://www.han1900.be/fr/index.html"}}, "geometry": {"type": "Point", "coordinates": [5.1886941, 50.1247278]}}, {"type": "Feature", "properties": {"type": "node", "id": 6688396421, "tags": {"name": "PrehistoHan", "tourism": "museum", "website": "http://www.grotte-de-han.be/fr/prehistohan"}}, "geometry": {"type": "Point", "coordinates": [5.1914472, 50.1243357]}}, {"type": "Feature", "properties": {"type": "node", "id": 1635581413, "tags": {"name": "Mus\u00e9e de la Vie Rurale en Wallonie", "tourism": "museum"}}, "geometry": {"type": "Point", "coordinates": [5.3370989, 50.0900136]}}, {"type": "Feature", "properties": {"type": "node", "id": 4745042162, "tags": {"addr:city": "Marche-en-Famenne", "addr:housenumber": "17", "addr:postcode": "6900", "addr:street": "Rue du Commerce", "name": "Mus\u00e9e de la Famenne", "opening_hours": "Tu-Sa 10:00-12:00; Tu-Fr 13:00-17:00; Sa 14:00-18:00; Su 14:00-17:00", "tourism": "museum", "website": "http://musee.marche.be/"}}, "geometry": {"type": "Point", "coordinates": [5.3435381, 50.2268455]}}, {"type": "Feature", "properties": {"type": "node", "id": 3406753944, "tags": {"name": "Mus\u00e9e 101st Airborn", "tourism": "museum"}}, "geometry": {"type": "Point", "coordinates": [5.7121172, 49.999245]}}, {"type": "Feature", "properties": {"type": "node", "id": 3406752585, "tags": {"name": "QG Brigadier G\u00e9n\u00e9ral Anthony McAuliffe", "name:en": "HQ of General Anthony Clement \"Nuts\" McAuliffe", "name:fr": "QG Brigadier G\u00e9n\u00e9ral Anthony McAuliffe", "tourism": "museum"}}, "geometry": {"type": "Point", "coordinates": [5.719571, 50.0081233]}}, {"type": "Feature", "properties": {"type": "node", "id": 5807003454, "tags": {"name": "Exposition de chars", "name:en": "Tank Exhibition", "name:fr": "Exposition de chars", "tourism": "museum"}}, "geometry": {"type": "Point", "coordinates": [5.7198598, 50.0111127]}}, {"type": "Feature", "properties": {"type": "node", "id": 4632131224, "tags": {"addr:city": "La Roche-en-Ardenne", "addr:housenumber": "5", "addr:street": "Rue Ch\u00e2mont", "name": "Mus\u00e9e de la Bataille des Ardennes", "tourism": "museum", "website": "http://www.batarden.be/"}}, "geometry": {"type": "Point", "coordinates": [5.5759208, 50.1833508]}}, {"type": "Feature", "properties": {"type": "node", "id": 4535458720, "tags": {"addr:street": "Voie Habotte", "name": "Mus\u00e9e 40 - 45", "tourism": "museum"}}, "geometry": {"type": "Point", "coordinates": [5.6603106, 50.2901092]}}, {"type": "Feature", "properties": {"type": "node", "id": 1716403286, "tags": {"addr:city": "Samr\u00e9e", "addr:housenumber": "35", "addr:postcode": "6982", "addr:street": "B\u00e9rismenil", "name": "Museum History 44", "tourism": "museum", "website": "https://history44.webs.com/"}}, "geometry": {"type": "Point", "coordinates": [5.6657302, 50.1780512]}}, {"type": "Feature", "properties": {"type": "node", "id": 1276869565, "tags": {"addr:city": "Andenne", "addr:housenumber": "29", "addr:postcode": "5300", "addr:street": "Rue Charles Lapierre", "contact:email": "musee@ceramandenne.be", "contact:phone": "+32 85 844181", "internet_access": "wlan", "name": "Mus\u00e9e de la c\u00e9ramique", "tourism": "museum", "website": "https://www.ceramandenne.be/", "wikidata": "Q3330010", "wikipedia": "fr:Mus\u00e9e de la c\u00e9ramique d'Andenne"}}, "geometry": {"type": "Point", "coordinates": [5.0994722, 50.4865076]}}, {"type": "Feature", "properties": {"type": "node", "id": 2977922648, "tags": {"addr:city": "Ben-Ahin", "addr:housenumber": "65", "addr:postcode": "4500", "addr:street": "Avenue de Beaufort", "name": "Ecomus\u00e9e de Ben-Ahin", "operator": "Commune de Huy", "phone": "+32 85 21 13 78", "tourism": "museum", "website": "http://www.ecomusee-ben-ahin.net/"}}, "geometry": {"type": "Point", "coordinates": [5.193884, 50.5190444]}}, {"type": "Feature", "properties": {"type": "node", "id": 2981867685, "tags": {"name": "Le mus\u00e9e du fort de Huy", "operator": "Commune de Huy", "tourism": "museum"}}, "geometry": {"type": "Point", "coordinates": [5.2371374, 50.5170051]}}, {"type": "Feature", "properties": {"type": "node", "id": 2701075192, "tags": {"name": "Mus\u00e9e Communal de Huy", "tourism": "museum"}}, "geometry": {"type": "Point", "coordinates": [5.2434569, 50.5187474]}}, {"type": "Feature", "properties": {"type": "node", "id": 4004822189, "tags": {"name": "Mus\u00e9e de la Via Tihangeoisse", "tourism": "museum"}}, "geometry": {"type": "Point", "coordinates": [5.2585508, 50.5270596]}}, {"type": "Feature", "properties": {"type": "node", "id": 3356873104, "tags": {"addr:city": "Hermalle-sous-Huy", "addr:housenumber": "132a", "addr:postcode": "4480", "addr:street": "Chauss\u00e9e Freddy Terwagne", "name": "Mus\u00e9e de la Gourmandise", "operator": "ASBL La Raw\u00e8te", "phone": "+32 85 31 42 86", "tourism": "museum", "website": "http://www.musee-gourmandise.be", "wikidata": "Q2688040", "wikipedia": "fr:Biblioth\u00e8que et mus\u00e9e de la Gourmandise"}}, "geometry": {"type": "Point", "coordinates": [5.3613948, 50.5571706]}}, {"type": "Feature", "properties": {"type": "node", "id": 3356904917, "tags": {"addr:city": "Hermalle-sous-Huy", "addr:housenumber": "132a", "addr:postcode": "4480", "addr:street": "Chauss\u00e9e Freddy Terwagne", "name": "Mus\u00e9es Postes Restantes", "operator": "ASBL La Raw\u00e8te", "phone": "+32 85 31 42 86", "tourism": "museum", "website": "http://www.postes-restantes.be", "wikidata": "Q3329322", "wikipedia": "fr:Mus\u00e9e Postes restantes"}}, "geometry": {"type": "Point", "coordinates": [5.3615402, 50.5573681]}}, {"type": "Feature", "properties": {"type": "node", "id": 3006025464, "tags": {"name": "Maison de la flore", "tourism": "museum"}}, "geometry": {"type": "Point", "coordinates": [5.1548197, 50.6630136]}}, {"type": "Feature", "properties": {"type": "node", "id": 266967711, "tags": {"created_by": "Potlatch 0.9a", "name": "Pr\u00e9histosite de Ramioul", "tourism": "museum"}}, "geometry": {"type": "Point", "coordinates": [5.4268272, 50.5786075]}}, {"type": "Feature", "properties": {"type": "node", "id": 4411643376, "tags": {"addr:city": "Vieuxville", "addr:housenumber": "1", "addr:postcode": "4190", "addr:street": "Rue de La Bouverie", "name": "Mus\u00e9e du Ch\u00e2teau Fort de Logne", "tourism": "museum"}}, "geometry": {"type": "Point", "coordinates": [5.5496132, 50.3944915]}}, {"type": "Feature", "properties": {"type": "node", "id": 4716260393, "tags": {"name": "Mus\u00e9e du Jouet asbl", "tourism": "museum"}}, "geometry": {"type": "Point", "coordinates": [5.6080409, 50.4006913]}}, {"type": "Feature", "properties": {"type": "node", "id": 6151221898, "tags": {"addr:city": "Anthisnes", "addr:country": "BE", "addr:housenumber": "19", "addr:postcode": "4160", "addr:street": "Avenue de l'Abbaye", "name": "Mus\u00e9e de la Bi\u00e8re et du Peket", "tourism": "museum", "website": "https://www.avouerie.be/"}}, "geometry": {"type": "Point", "coordinates": [5.5233366, 50.4797422]}}, {"type": "Feature", "properties": {"type": "node", "id": 1315320272, "tags": {"name": "Mus\u00e9e de la Meunerie et de la Boulangerie", "tourism": "museum"}}, "geometry": {"type": "Point", "coordinates": [5.6662962, 50.441693]}}, {"type": "Feature", "properties": {"type": "node", "id": 6791342525, "tags": {"name": "Mus\u00e9e de la lessive", "tourism": "museum"}}, "geometry": {"type": "Point", "coordinates": [5.8578344, 50.493492]}}, {"type": "Feature", "properties": {"type": "node", "id": 1554851552, "tags": {"name": "Mus\u00e9e de l'Abeille", "tourism": "museum"}}, "geometry": {"type": "Point", "coordinates": [5.5861737, 50.568115]}}, {"type": "Feature", "properties": {"type": "node", "id": 4088565091, "tags": {"name": "MadMus\u00e9e", "tourism": "museum"}}, "geometry": {"type": "Point", "coordinates": [5.5655253, 50.6307883]}}, {"type": "Feature", "properties": {"type": "node", "id": 5102700283, "tags": {"name": "Mus\u00e9e Gretry", "tourism": "museum", "wikidata": "Q3329180"}}, "geometry": {"type": "Point", "coordinates": [5.5836365, 50.6410571]}}, {"type": "Feature", "properties": {"type": "node", "id": 5394134148, "tags": {"addr:city": "Li\u00e8ge", "addr:housenumber": "22", "addr:postcode": "4020", "addr:street": "Quai \u00c9douard Van Beneden", "name": "Maison de la science", "opening_hours": "Mo-Fr 09:00-12:30,13:30-17:00; Sa,Su 14:00-18:00; PH 14:00-18:00; Jul-Aug 13:30-18:00", "opening_hours:url": "http://maisondelascience.uliege.be/en-pratique/horaires/", "tourism": "museum", "website": "http://www.maisondelascience.ulg.ac.be/"}}, "geometry": {"type": "Point", "coordinates": [5.5787869, 50.6387581]}}, {"type": "Feature", "properties": {"type": "node", "id": 461151921, "tags": {"fee": "yes", "layer": "-1", "name": "Arch\u00e9oforum", "tourism": "museum", "wheelchair": "limited", "wikipedia": "fr:Arch\u00e9oforum", "wikipedia:nl": "Arch\u00e9oforum"}}, "geometry": {"type": "Point", "coordinates": [5.5732626, 50.6452983]}}, {"type": "Feature", "properties": {"type": "node", "id": 3261602866, "tags": {"addr:city": "Li\u00e8ge", "addr:housenumber": "2", "addr:postcode": "4000", "addr:street": "Rue M\u00e8re Dieu", "name": "Mus\u00e9e Li\u00e9geois du Luminaire", "note": "Sehr sehenswerte Museum zu Geschichte des Lichtes von Philippe Deitz  http://www.freizeitguide-euregio.de/kunst-kultur-geschichte/historische-museen-ausstellungen/46234.mulum-musee-de-lumiere.html", "operator": "Philippe Deitz", "tourism": "museum", "website": "http://lesmuseesdeliege.be/mulum/"}}, "geometry": {"type": "Point", "coordinates": [5.5769673, 50.6471529]}}, {"type": "Feature", "properties": {"type": "node", "id": 2114145103, "tags": {"name": "Mus\u00e9e des Beaux-Arts de Li\u00e8ge (BAL)", "tourism": "museum"}}, "geometry": {"type": "Point", "coordinates": [5.5802012, 50.646006]}}, {"type": "Feature", "properties": {"type": "node", "id": 5030612115, "tags": {"check_date:opening_hours": "2020-12-05", "name": "Mus\u00e9e d'Ansembourg", "opening_hours": "Th-Su 10:00-18:00", "tourism": "museum", "wheelchair": "no", "wikidata": "Q2478313", "wikipedia": "fr:Mus\u00e9e d'Ansembourg"}}, "geometry": {"type": "Point", "coordinates": [5.5821399, 50.6470244]}}, {"type": "Feature", "properties": {"type": "node", "id": 7834634504, "tags": {"name": "Mus\u00e9e Sarol\u00e9a", "tourism": "museum"}}, "geometry": {"type": "Point", "coordinates": [5.6224894, 50.6590522]}}, {"type": "Feature", "properties": {"type": "node", "id": 2915121971, "tags": {"name": "Mus\u00e9e de la Fraise et de la Vie d' Antan", "tourism": "museum", "website": "https://fraisevottem.wixsite.com/musee"}}, "geometry": {"type": "Point", "coordinates": [5.5848077, 50.6729615]}}, {"type": "Feature", "properties": {"type": "node", "id": 974966754, "tags": {"name": "Mus\u00e9e de Fl\u00e9ron", "tourism": "museum"}}, "geometry": {"type": "Point", "coordinates": [5.6797217, 50.6109969]}}, {"type": "Feature", "properties": {"type": "node", "id": 6791455375, "tags": {"name": "Mus\u00e9e de la vie populaire", "tourism": "museum"}}, "geometry": {"type": "Point", "coordinates": [5.7486434, 50.6110303]}}, {"type": "Feature", "properties": {"type": "node", "id": 1006149800, "tags": {"heritage": "1", "heritage:operator": "whc", "historic": "industrial", "name": "Charbonnage de Blegny-Mine", "ref:whc": "1344-004", "tourism": "museum", "whc:criteria": "(ii)(iv)", "whc:inscription_date": "2012"}}, "geometry": {"type": "Point", "coordinates": [5.7226648, 50.686335]}}, {"type": "Feature", "properties": {"type": "node", "id": 2952898756, "tags": {"addr:city": "Berneau", "addr:housenumber": "29", "addr:postcode": "4607", "addr:street": "Rue de Ma\u00ebstricht", "name": "World War II Memory Museum", "note": "I don't know the exact location but it must be very near the indicated point.", "phone": "+32 479 82 98 12", "tourism": "museum", "website": "http://www.wwii-memory-museum.com"}}, "geometry": {"type": "Point", "coordinates": [5.7310075, 50.7453064]}}, {"type": "Feature", "properties": {"type": "node", "id": 3188129279, "tags": {"addr:city": "Gouvy", "addr:housenumber": "3", "addr:postcode": "6670", "addr:street": "Rue du Centre", "comment": "samedi de 9 \u00e0 18 heures durant toute l\u2019ann\u00e9e, ainsi que les lundi, mardi, jeudi et vendredi de 14 \u00e0 18 heures durant les vacances scolaires", "name": "Victor's Museum", "operator": "Mus\u00e9e priv\u00e9", "tourism": "museum", "website": "http://gouvy.eu/tourisme-si/collection-de-radios-anciennes/"}}, "geometry": {"type": "Point", "coordinates": [5.9405864, 50.1852228]}}, {"type": "Feature", "properties": {"type": "node", "id": 2665165693, "tags": {"addr:housenumber": "31", "addr:street": "Zum Schieferstollen", "building": "yes", "disused": "yes", "man_made": "adit", "name": "Schieferstollen Recht", "opening_hours": "Tu-Su 10:00-17:00", "operator": "Schieferstollen Recht", "resource": "slate", "tourism": "museum", "website": "http://www.schieferstollen-recht.be"}}, "geometry": {"type": "Point", "coordinates": [6.057123, 50.3223401]}}, {"type": "Feature", "properties": {"type": "node", "id": 3614290866, "tags": {"name": "Z.V.S. Museum", "tourism": "museum"}}, "geometry": {"type": "Point", "coordinates": [6.1303196, 50.279952]}}, {"type": "Feature", "properties": {"type": "node", "id": 1931222333, "tags": {"name": "Mus\u00e9e de la principaut\u00e9 de Stavelot-Malmedy", "name:nl": "Museum van het prinsdom Stavelot-Malmedy", "tourism": "museum"}}, "geometry": {"type": "Point", "coordinates": [5.931577, 50.3934565]}}, {"type": "Feature", "properties": {"type": "node", "id": 1931226811, "tags": {"name": "Mus\u00e9e du Circuit de Spa-Francorchamps", "tourism": "museum"}}, "geometry": {"type": "Point", "coordinates": [5.9321847, 50.3936781]}}, {"type": "Feature", "properties": {"type": "node", "id": 1931226817, "tags": {"name": "Mus\u00e9e Guillaume Apollinaire", "tourism": "museum"}}, "geometry": {"type": "Point", "coordinates": [5.9322571, 50.3937072]}}, {"type": "Feature", "properties": {"type": "node", "id": 2018449851, "tags": {"addr:city": "Malmedy", "addr:housenumber": "10", "addr:street": "Place du Ch\u00e2telet", "name": "Malmundarium", "operator": "commune", "tourism": "museum", "website": "http://www.malmundarium.be/"}}, "geometry": {"type": "Point", "coordinates": [6.0274894, 50.4270855]}}, {"type": "Feature", "properties": {"type": "node", "id": 2959096259, "tags": {"addr:housenumber": "1", "addr:street": "Route de Ch\u00f4des", "name": "Maison Vinette", "tourism": "museum"}}, "geometry": {"type": "Point", "coordinates": [6.0351776, 50.4252124]}}, {"type": "Feature", "properties": {"type": "node", "id": 1932384560, "tags": {"addr:housenumber": "10", "addr:street": "Route de Luxembourg", "name": "Baugnez 44 Historical Center", "tourism": "museum", "website": "http://www.baugnez44.be/"}}, "geometry": {"type": "Point", "coordinates": [6.0662866, 50.4019966]}}, {"type": "Feature", "properties": {"type": "node", "id": 2031586109, "tags": {"name": "Archivoth\u00e8que de la Haute Ardenne Centre de documentation", "tourism": "museum"}}, "geometry": {"type": "Point", "coordinates": [6.1137356, 50.4767247]}}, {"type": "Feature", "properties": {"type": "node", "id": 1100566560, "tags": {"addr:housenumber": "3", "addr:postcode": "4700", "addr:street": "Loten", "name": "Ikob -Internationales Kunstzentrum Ostbelgien", "tourism": "museum"}}, "geometry": {"type": "Point", "coordinates": [6.0301564, 50.6258969]}}, {"type": "Feature", "properties": {"type": "node", "id": 534928048, "tags": {"name": "Remember 39-45", "tourism": "museum"}}, "geometry": {"type": "Point", "coordinates": [5.8840043, 50.6688706]}}, {"type": "Feature", "properties": {"type": "node", "id": 271394429, "tags": {"name": "Musee de Moresnet", "tourism": "museum"}}, "geometry": {"type": "Point", "coordinates": [5.9888327, 50.7213483]}}, {"type": "Feature", "properties": {"type": "node", "id": 3179862961, "tags": {"addr:city": "Eupen", "addr:housenumber": "2 - 3", "addr:postcode": "4700", "addr:street": "Ternell", "fee": "yes", "name": "Venn- und Waldmuseum", "opening_hours": "Mo-Fr 10:00-12:00, 13:00-17:00, Sa-Su, PH 10:00-17:00", "payment:coins": "yes", "payment:notes": "yes", "tourism": "museum", "wheelchair": "limited"}}, "geometry": {"type": "Point", "coordinates": [6.1296773, 50.5858808]}}, {"type": "Feature", "properties": {"type": "node", "id": 1268706780, "tags": {"name": "T\u00f6pfereimuseum Raeren", "tourism": "museum"}}, "geometry": {"type": "Point", "coordinates": [6.1206606, 50.6787456]}}, {"type": "Feature", "properties": {"type": "node", "id": 1200202359, "tags": {"name": "M\u00f6(h)renmuseum", "tourism": "museum"}}, "geometry": {"type": "Point", "coordinates": [6.1057144, 50.6918624]}}, {"type": "Feature", "properties": {"type": "node", "id": 2225744367, "tags": {"addr:city": "B\u00fcllingen", "addr:country": "BE", "addr:housenumber": "1", "addr:postcode": "4760", "addr:street": "Hergersberg", "description": "Puppenausstellung", "email": "info@ardenner-center.net", "fax": "+32 80 44 85 59", "name": "ArsFIGURA", "opening_hours": "PH,Tu-Su 10:00-18:00;Mo off", "phone": "+32 80 54 87 29", "phone:DE": "+49 6557 920630", "tourism": "museum", "website": "http://arsfigura.arskrippana.net/", "wikidata": "Q2655080", "wikipedia": "de:ArsFIGURA"}}, "geometry": {"type": "Point", "coordinates": [6.3836715, 50.3524978]}}, {"type": "Feature", "properties": {"type": "node", "id": 2225744372, "tags": {"addr:city": "B\u00fcllingen", "addr:country": "BE", "addr:housenumber": "4", "addr:postcode": "4760", "addr:street": "Hergersberg", "description": "Krippenausstellung", "email": "info@ardenner-center.net", "fax": "+32 80 44 85 59", "name": "ArsKRIPPANA", "opening_hours": "PH,Tu-Su 10:00-18:00;Mo off", "phone": "+32 80 54 87 29", "phone:DE": "+49 6557 920630", "tourism": "museum", "website": "https://www.arskrippana.net/", "wikidata": "Q705092", "wikipedia": "de:Arskrippana"}}, "geometry": {"type": "Point", "coordinates": [6.3839341, 50.3523661]}}, {"type": "Feature", "properties": {"type": "node", "id": 7818109173, "tags": {"name": "Fruitbelevingscentrum", "tourism": "museum"}}, "geometry": {"type": "Point", "coordinates": [5.3444852, 50.8105212]}}, {"type": "Feature", "properties": {"type": "node", "id": 2292916522, "tags": {"name": "Fruitstreekmuseum", "tourism": "museum", "website": "https://www.vzw-fruitstreekmuseum.be"}}, "geometry": {"type": "Point", "coordinates": [5.3580994, 50.8146592]}}, {"type": "Feature", "properties": {"type": "node", "id": 669912114, "tags": {"fee": "yes", "name": "Beiaardmuseum", "name:en": "Municipal Carillon Museum", "opening_hours": "Su Jul-Aug 10:00-17:00", "tourism": "museum"}}, "geometry": {"type": "Point", "coordinates": [5.3384828, 50.9298112]}}, {"type": "Feature", "properties": {"type": "node", "id": 676088249, "tags": {"addr:housenumber": "2", "addr:street": "Guido Gezellestraat", "fee": "no", "name": "Het Stadsmus", "opening_hours": "Tu-Su 13:00-17:00", "tourism": "museum", "website": "http://www.hetstadsmus.be/", "wikidata": "Q1862121"}}, "geometry": {"type": "Point", "coordinates": [5.3420095, 50.9299166]}}, {"type": "Feature", "properties": {"type": "node", "id": 669157110, "tags": {"name": "Nationaal Jenevermuseum", "tourism": "museum", "wheelchair": "yes", "wikidata": "Q2613770"}}, "geometry": {"type": "Point", "coordinates": [5.3403933, 50.9328158]}}, {"type": "Feature", "properties": {"type": "node", "id": 2069249271, "tags": {"name": "Heilig Paterke", "tourism": "museum", "website": "https://www.hasselt.be/nl/203/content/1532/museum-heilig-paterke.html"}}, "geometry": {"type": "Point", "coordinates": [5.3362532, 50.9322564]}}, {"type": "Feature", "properties": {"type": "node", "id": 719549546, "tags": {"tourism": "museum"}}, "geometry": {"type": "Point", "coordinates": [5.4072639, 50.9601601]}}, {"type": "Feature", "properties": {"type": "node", "id": 5286172042, "tags": {"addr:city": "Diest", "addr:housenumber": "24", "addr:postcode": "3290", "addr:street": "Sint-Jan Berchmansstraat", "name": "Geboortehuis St-Jan Berchmans", "tourism": "museum", "website": "https://www.toerismediest.be/detail-018/geboortehuis-st-jan-berchmans/"}}, "geometry": {"type": "Point", "coordinates": [5.0515913, 50.9837206]}}, {"type": "Feature", "properties": {"type": "node", "id": 5171119558, "tags": {"addr:city": "Diest", "addr:housenumber": "1", "addr:postcode": "3290", "addr:street": "Grote Markt", "name": "Stadsmuseum De Hofstadt", "tourism": "museum", "website": "https://www.toerismediest.be/detail-009/stadsmuseum-de-hofstadt/"}}, "geometry": {"type": "Point", "coordinates": [5.0503153, 50.9847006]}}, {"type": "Feature", "properties": {"type": "node", "id": 5284418967, "tags": {"name": "Museum voor Religieuze Kunst", "phone": "+32 13 35 32 74", "tourism": "museum", "website": "https://www.toerismediest.be/detail-012/museum-voor-religieuze-kunst/"}}, "geometry": {"type": "Point", "coordinates": [5.0505944, 50.9847184]}}, {"type": "Feature", "properties": {"type": "node", "id": 5198440501, "tags": {"description": "Loois Museum voor Actuele Kunst", "name": "LOMAK", "tourism": "museum", "website": "http://lomak-expo.be/", "wikidata": "Q47488197", "wikipedia": "nl:LOMAK"}}, "geometry": {"type": "Point", "coordinates": [5.0882031, 51.0677]}}, {"type": "Feature", "properties": {"type": "node", "id": 4560188519, "tags": {"addr:city": "Heusden-Zolder", "addr:housenumber": "5", "addr:postcode": "3550", "addr:street": "Schachtplein", "email": "toerisme@heusden-zolder.be", "name": "ZLDR Luchtfabriek", "phone": "+32 11 80 80 88", "tourism": "museum", "website": "http://toerisme.heusden-zolder.be/"}}, "geometry": {"type": "Point", "coordinates": [5.3281638, 51.039871]}}, {"type": "Feature", "properties": {"type": "node", "id": 7537444724, "tags": {"name": "Sint-Paulus museum", "operator": "Scouts Leopoldsburg", "tourism": "museum"}}, "geometry": {"type": "Point", "coordinates": [5.2646371, 51.1155885]}}, {"type": "Feature", "properties": {"type": "node", "id": 3825351116, "tags": {"addr:city": "Vroenhoven (Riemst)", "addr:housenumber": "212", "addr:postcode": "3770", "addr:street": "Maastrichtersteenweg", "air_conditioning": "no", "fee": "yes", "name": "Brug van Vroenhoven", "opening_hours": "We-Su 10:00-17:00", "payment:cash": "yes", "payment:debit_cards": "yes", "tourism": "museum", "website": "http://www.debrugvanvroenhoven.be/", "wheelchair": "yes", "wikidata": "Q56396382"}}, "geometry": {"type": "Point", "coordinates": [5.6419091, 50.8305623]}}, {"type": "Feature", "properties": {"type": "node", "id": 5584611381, "tags": {"name": "Carnavalmuseum Mechelen-aan-de-Maas", "tourism": "museum"}}, "geometry": {"type": "Point", "coordinates": [5.6996866, 50.9612561]}}, {"type": "Feature", "properties": {"type": "node", "id": 2143264756, "tags": {"name": "Mijndepot", "tourism": "museum"}}, "geometry": {"type": "Point", "coordinates": [5.5357706, 50.9946735]}}, {"type": "Feature", "properties": {"type": "node", "id": 2594488736, "tags": {"name": "Goalmine", "tourism": "museum"}}, "geometry": {"type": "Point", "coordinates": [5.5324855, 51.004389]}}, {"type": "Feature", "properties": {"type": "node", "id": 5190646403, "tags": {"name": "Het Brueghelmuseum", "tourism": "museum"}}, "geometry": {"type": "Point", "coordinates": [5.4544625, 51.1324446]}}, {"type": "Feature", "properties": {"type": "node", "id": 5443170741, "tags": {"name": "Stadsmuseum", "tourism": "museum"}}, "geometry": {"type": "Point", "coordinates": [5.5973451, 51.1411315]}}, {"type": "Feature", "properties": {"type": "node", "id": 2383958387, "tags": {"name": "Vlechtwerkmuseum", "tourism": "museum"}}, "geometry": {"type": "Point", "coordinates": [5.7498488, 51.022977]}}, {"type": "Feature", "properties": {"type": "node", "id": 6237931311, "tags": {"tourism": "museum"}}, "geometry": {"type": "Point", "coordinates": [5.7913046, 51.0953746]}}, {"type": "Feature", "properties": {"type": "node", "id": 1465357136, "tags": {"name": "Jacob Smits Museum", "tourism": "museum"}}, "geometry": {"type": "Point", "coordinates": [5.13364, 51.2113423]}}, {"type": "Feature", "properties": {"type": "node", "id": 470872451, "tags": {"addr:city": "Arendonk", "addr:postcode": "2370", "addr:street": "Molenwiel", "name": "Arendonks Heem- en Sigarenmakersmuseum", "toilets:wheelchair": "yes", "tourism": "museum", "website": "HTTP://www.heemkringarendonk.be", "wheelchair": "yes"}}, "geometry": {"type": "Point", "coordinates": [5.0894686, 51.3255998]}}, {"type": "Feature", "properties": {"type": "node", "id": 4328354008, "tags": {"addr:housenumber": "49", "addr:street": "Vond", "email": "info@vondhoeve.com", "name": "Vondhoeve", "phone": "+32 14 65 23 44", "tourism": "museum", "website": "http://www.vondhoeve.com/"}}, "geometry": {"type": "Point", "coordinates": [5.0405435, 51.4410591]}}, {"type": "Feature", "properties": {"type": "node", "id": 4310296219, "tags": {"name": "Heemkundigmuseum Het Kaske", "tourism": "museum"}}, "geometry": {"type": "Point", "coordinates": [5.0428299, 51.4469429]}}]}