{"version": 0.6, "generator": "Overpass API 0.7.56.7 b85c4387", "osm3s": {"timestamp_osm_base": "2021-02-26T13:58:03Z", "timestamp_areas_base": "2021-02-26T13:32:27Z", "copyright": "The data included in this document is from www.openstreetmap.org. The data is made available under ODbL."}, "elements": [{"type": "node", "id": 372902114, "lat": 50.4874864, "lon": 4.175837, "tags": {"heritage": "1", "heritage:operator": "whc", "heritage:ref": "856", "heritage:since": "1998", "heritage:website": "http://whc.unesco.org/en/list/856", "historic": "heritage", "image": "http://commons.wikimedia.org/wiki/File:Canal_du_Centre_-_Lift_1_Houdeng-Goegnies_5671.jpg", "name": "Canal du Centre - Ascenseur n\u00b0 1", "ref:whc": "856", "tourism": "attraction", "whc:criteria": "(iii)(iv)", "whc:inscription_date": "1998", "wikidata": "Q64682720", "wikipedia": "en:Lifts on the old Canal du Centre"}}, {"type": "node", "id": 373127831, "lat": 50.4813227, "lon": 4.1373939, "tags": {"heritage": "1", "heritage:operator": "whc", "heritage:ref": "856", "heritage:since": "1998", "heritage:website": "http://whc.unesco.org/en/list/856", "historic": "heritage", "image": "http://commons.wikimedia.org/wiki/File:Houding1.jpg", "name": "Canal du Centre - Ascenseur n\u00b0 3", "ref:whc": "856", "tourism": "attraction", "whc:criteria": "(iii)(iv)", "whc:inscription_date": "1998", "wikidata": "Q64682740", "wikipedia": "en:Lifts on the old Canal du Centre"}}, {"type": "node", "id": 373128398, "lat": 50.482625, "lon": 4.1424252, "tags": {"heritage": "1", "heritage:operator": "whc", "heritage:ref": "856", "heritage:since": "1998", "heritage:website": "http://whc.unesco.org/en/list/856", "historic": "heritage", "image": "http://commons.wikimedia.org/wiki/File:Houdeng-Aimeries_-_Ascenseur_no_2_-_1.jpg", "name": "Canal du Centre - Ascenseur n\u00b0 2", "ref:whc": "856", "tourism": "attraction", "whc:criteria": "(iii)(iv)", "whc:inscription_date": "1998", "wikidata": "Q64682738", "wikipedia": "en:Lifts on the old Canal du Centre"}}, {"type": "node", "id": 373128516, "lat": 50.4713397, "lon": 4.0944761, "tags": {"heritage": "1", "heritage:operator": "whc", "heritage:ref": "856", "heritage:since": "1998", "heritage:website": "http://whc.unesco.org/en/list/856", "historic": "heritage", "image": "http://commons.wikimedia.org/wiki/File:Houding9.jpg", "name": "Canal du Centre - Ascenseur n\u00b0 4", "ref:whc": "856", "tourism": "attraction", "whc:criteria": "(iii)(iv)", "whc:inscription_date": "1998", "wikidata": "Q64682742", "wikipedia": "en:Lifts on the old Canal du Centre"}}, {"type": "node", "id": 505009326, "lat": 50.3812758, "lon": 4.4436711, "tags": {"alt_name": "Charbonnage et cit\u00e9 du Bois-du-Cazier", "ehl:inscription_date": "2017", "heritage": "1", "heritage:operator": "whc;ehl", "historic": "industrial", "industrial": "factory", "museum": "industrial;history", "name": "Le Bois du Cazier", "ref:whc": "1344-003", "site": "yes", "tourism": "museum", "website": "https://www.leboisducazier.be/", "whc:criteria": "(ii)(iv)", "whc:inscription_date": "2012", "wikidata": "Q891068"}}, {"type": "node", "id": 1006149800, "lat": 50.686335, "lon": 5.7226648, "tags": {"heritage": "1", "heritage:operator": "whc", "historic": "industrial", "name": "Charbonnage de Blegny-Mine", "ref:whc": "1344-004", "tourism": "museum", "whc:criteria": "(ii)(iv)", "whc:inscription_date": "2012"}}, {"type": "node", "id": 1148183234, "lat": 50.4576156, "lon": 3.9555819, "tags": {"addr:housenumber": "76", "addr:street": "Rue de Nimy", "ehl:inscription_date": "2015", "heritage": "1", "heritage:operator": "ehl", "name": "Mundaneum", "note": "European Heritage Label since 2015", "opening_hours": "Tu-Fr 13:00-17:00; Sa-Su 13:00-18:00", "source:heritage": "ec.europa.eu - 2020", "tourism": "museum", "website": "http://www.mundaneum.be", "wheelchair": "yes", "wikidata": "Q451", "wikipedia": "fr:Mundaneum"}}, {"type": "node", "id": 1384137800, "lat": 50.4702075, "lon": 4.1497494, "tags": {"alt_name": "Charbonnage et cit\u00e9 ouvri\u00e8re du Bois-du-Luc", "fixme": "resurvey the site to mark the mineshaft", "heritage": "1", "heritage:operator": "whc", "historic": "industrial", "industrial": "factory", "name": "\u00c9comus\u00e9e du Bois-du-Luc", "ref:whc": "1344-002", "site": "yes", "tourism": "museum", "whc:criteria": "(ii)(iv)", "whc:inscription_date": "2012"}}, {"type": "node", "id": 1651558422, "lat": 51.2085526, "lon": 3.226772, "tags": {"alt_name:mk": "\u0411\u0440\u0438\u0436", "capital": "6", "heritage": "1", "heritage:operator": "whc", "heritage:ref": "996", "heritage:since": "2000", "heritage:website": "http://whc.unesco.org/en/list/996/", "image": "http://commons.wikimedia.org/wiki/File:Bruegge_huidenvettersplein.jpg", "name": "Brugge", "name:ar": "\u0628\u0631\u0648\u062c", "name:be": "\u0411\u0440\u0443\u0433\u044d", "name:ca": "Bruges", "name:cs": "Bruggy", "name:de": "Br\u00fcgge", "name:el": "\u0392\u03c1\u03cd\u03b3\u03b7", "name:en": "Bruges", "name:eo": "Bru\u011do", "name:es": "Brujas", "name:fr": "Bruges", "name:it": "Bruges", "name:ko": "\ube0c\ub93c\ud5c8", "name:la": "Brugae", "name:lb": "Bruges", "name:lt": "Briug\u0117", "name:lv": "Brige", "name:mk": "\u0411\u0440\u0443\u0445\u0435", "name:nl": "Brugge", "name:pcd": "Brudje", "name:pl": "Brugia", "name:pt": "Bruges", "name:ru": "\u0411\u0440\u044e\u0433\u0433\u0435", "name:sk": "Bruggy", "name:sr": "\u0411\u0440\u0438\u0436", "name:sv": "Brygge", "name:tr": "Br\u00fcj", "name:vls": "Brugge", "name:wa": "Brudje", "name:zh": "\u5e03\u9b6f\u65e5", "name:zh-Hans": "\u5e03\u9c81\u65e5", "place": "city", "population": "117639", "population:date": "2012", "ref:INS": "31005", "wikidata": "Q12994", "wikipedia": "nl:Brugge"}}, {"type": "node", "id": 2102526127, "lat": 50.4198497, "lon": 3.9818827, "tags": {"heritage": "1", "heritage:operator": "whc", "heritage:ref": "1006", "heritage:since": "2000", "heritage:website": "http://whc.unesco.org/en/list/1006", "historic": "archaeological_site", "historic:civilization": "prehistoric", "image": "http://commons.wikimedia.org/wiki/File:Mini%C3%A8res_n%C3%A9olithiques_de_silex_-_Spiennes_%281%29.jpg", "name": "Mini\u00e8res n\u00e9olithiques de Petit-Spiennes", "ref:whc": "1006", "website": "http://www.silexs.mons.be/", "whc:criteria": "(i)(iii)(iv)", "whc:inscription_date": "2000", "wikidata": "Q677879", "wikipedia": "en:Neolithic flint mines of Spiennes"}}, {"type": "way", "id": 3517898, "center": {"lat": 50.8467253, "lon": 4.3525505}, "nodes": [744840036, 744839838, 3118695026, 3118695474, 3118695511, 3118695703, 1017799869, 3118695866, 3118695833, 1017799871, 3118695643, 3118695520, 3118695487, 4666307542, 2333280970, 1017799919, 1017799901, 4666307535, 2333280676, 2333280609, 2333280560, 2333280504, 2333280467, 2333280414, 2333280363, 2333280307, 2333280288, 1017799880, 9780239, 1017799850, 6262113738, 6262113739, 8150090671, 6262113740, 6262113741, 6262113742, 2089721406, 744840775, 744841944, 6262113715, 2333279948, 6262113714, 2333280004, 2333280038, 1017799896, 4666307560, 2333280135, 2333280164, 2333280355, 6769960697, 2333280357, 6769960732, 2333280360, 5000208924, 6769960704, 6769960703, 6769960737, 2333280390, 6769960713, 2333280412, 6769960725, 2333280434, 2333280685, 2333280716, 124010527, 1017799856, 744840036], "tags": {"area": "yes", "bicycle": "yes", "heritage": "1", "heritage:operator": "whc", "heritage:ref": "857", "heritage:website": "https://whc.unesco.org/en/list/857", "highway": "pedestrian", "lit": "yes", "name": "Grand-Place - Grote Markt", "name:ar": "\u0627\u0644\u0645\u064a\u062f\u0627\u0646 \u0627\u0644\u0643\u0628\u064a\u0631", "name:de": "Gro\u00dfer Markt", "name:en": "Grand Place", "name:fr": "Grand-Place", "name:it": "Grand Place", "name:ja": "\u30b0\u30e9\u30f3\u30d7\u30e9\u30b9", "name:language": "fr - nl", "name:li": "Groate Mert", "name:nl": "Grote Markt", "name:pcd": "Grand-Plache", "name:vls": "Gr\u00f4te Markt", "name:zh": "\u5e03\u9c81\u585e\u5c14\u5927\u5e7f\u573a", "place": "square", "ref:whc": "857", "safety:mask:covid19": "yes", "surface": "sett", "toilets:wheelchair": "no", "tourism": "attraction", "whc:criteria": "(ii)(iv)", "whc:inscription_date": "1998", "wheelchair": "yes", "wheelchair:description": "The entries to the place are OK, the cobblestone covering not so much. The buildings and some of the beer terrasses are not accessible.", "wikidata": "Q215429", "wikipedia": "en:Grand Place"}}, {"type": "way", "id": 22966134, "center": {"lat": 51.2213081, "lon": 4.3991558}, "nodes": [247452009, 247452010, 4878032276, 4878032275, 6264361140, 8378970240, 8378970239, 8378970245, 8378970244, 6264361134, 8378970238, 8378970241, 6264361142, 4878032274, 4878032277, 223840540, 247452012, 247452009], "tags": {"OnroerendErfgoed:criteria": "M", "addr:city": "Antwerpen", "addr:country": "BE", "addr:housenumber": "1", "addr:postcode": "2000", "addr:street": "Grote Markt", "amenity": "townhall", "building": "government", "description": "Stadhuis", "height": "16", "heritage": "1", "heritage:operator": "whc", "heritage:ref": "943", "heritage:since": "2005", "heritage:website": "http://whc.unesco.org/en/list/943", "image": "File:0_Antwerp_town_hall_(1).JPG", "name": "Stadhuis Antwerpen", "name:et": "Antwerpeni raekoda", "name:ko": "\uc548\ud2b8\ubca0\ub974\ud39c \uc2dc\uccad", "note": "height up to eaves", "operator": "Stad Antwerpen", "ref:OnroerendErfgoed": "4032", "ref:whc": "943-003", "whc:criteria": "C (ii)(iv)", "whc:inscription_date": "1999", "wheelchair": "limited", "wikidata": "Q2005868", "wikipedia": "nl:Stadhuis van Antwerpen"}}, {"type": "way", "id": 26495164, "center": {"lat": 51.2202853, "lon": 4.4013292}, "nodes": [2586504983, 2586504993, 4878032258, 4878032257, 2586504994, 2586504995, 4878162628, 4878162627, 2586505002, 4878162626, 2586505003, 4878162625, 4886011474, 6237531215, 4886011476, 4886011478, 2586505023, 6233153249, 1887550267, 4878162636, 4878162637, 2586505055, 2586505051, 4878162638, 4878162639, 4878162640, 4878162641, 4878162642, 4878162643, 4878162644, 4878162645, 4878162646, 4878162647, 4878162648, 4878162649, 2586505061, 2586505062, 2586505063, 4878162652, 4878162653, 4878162654, 4878162655, 4878162656, 4878162657, 4878162658, 4878162659, 4878162660, 4878162661, 4878162662, 2586505066, 4878162663, 4878162664, 4878162665, 4878162666, 4878162667, 4878162668, 4878162669, 4878162670, 4878162671, 2586505046, 4878162672, 4878162673, 4878162674, 4878162675, 4878162676, 4878162677, 4878162678, 4878162679, 2586505056, 4878162680, 4878162681, 4878162682, 4878162683, 2586505029, 2586505031, 2586505036, 2586505037, 2586505032, 2586505033, 2586505042, 2586505044, 2586505034, 7274049008, 2586505039, 2586505052, 2586505054, 2586505043, 2586505048, 2586505057, 2586505059, 4878072934, 2586505050, 4878072935, 2586505040, 2586505049, 2586505045, 2586505038, 4878072936, 4878072937, 8376077885, 2586505027, 8376077884, 2586505020, 2586505016, 2586505013, 2586505010, 4878072938, 4878072939, 2586505005, 2586505007, 2586505001, 2586504997, 8376077883, 8376077881, 4878072944, 2586504989, 2586504988, 4878072945, 4878072946, 4878072947, 4878072948, 4878072949, 2586504986, 4878072950, 4878072951, 4878072952, 2586504973, 2586504974, 2586504968, 2586504965, 8376077879, 8376077877, 2586504956, 2586504957, 2586504955, 4878072956, 2586504954, 2586504951, 4878072957, 2586504939, 2586504938, 2586504936, 8376077878, 2586504935, 4878072958, 2586504927, 2586504925, 2586504922, 2586504926, 4878072959, 2586504919, 2586504911, 2586504909, 2586504918, 7274186166, 7274186165, 6237531207, 7274186167, 4878072960, 2586504882, 4886011333, 4878072961, 2586504881, 4886011334, 4878072962, 2586504861, 4878072963, 2586504859, 2586504860, 4878072964, 4878072965, 4878072966, 4878072967, 4878072968, 4878072969, 4878072970, 4878072971, 4878072972, 4878072973, 4878072974, 2586504858, 2586504857, 2586504856, 2586504877, 4886011367, 2586504871, 2586504880, 2586504879, 2586504886, 6080436985, 6080437040, 6080437039, 6080437038, 6080437037, 6080437036, 6080437035, 6080437034, 6080437033, 6080437032, 6080437031, 6080437030, 6080437029, 6080437028, 6080437027, 6080437026, 6080437025, 6080437024, 6080437023, 6080437022, 6080437021, 6080437020, 6080437019, 6080437018, 6080437017, 6080437016, 6080437015, 6080437014, 6080437013, 6080437012, 6080437011, 6080437010, 6080437009, 6080437008, 6080437007, 6080437006, 6080437005, 6080437004, 6080437003, 6080437002, 6080437001, 6080437000, 6080436999, 6080436998, 6080436997, 6080436996, 6080436995, 6080436994, 4886011465, 2586504963, 2586504966, 2586504970, 6080436993, 2586504972, 2586504969, 6080436992, 2586504975, 6080436991, 6080436990, 6080436989, 6080436988, 6080436987, 6080436986, 6080430584, 6080430583, 6237531209, 2586504983], "tags": {"OnroerendErfgoed:criteria": "M", "addr:city": "Antwerpen", "addr:housenumber": "21", "addr:postcode": "2000", "addr:street": "Groenplaats", "building": "cathedral", "building:colour": "lightgrey", "building:material": "stone", "denomination": "roman_catholic", "description": "Onze-Lieve-Vrouwekathedraal", "heritage": "1", "heritage:operator": "whc", "heritage:ref": "943", "heritage:website": "http://whc.unesco.org/en/list/943", "image": "http://commons.wikimedia.org/wiki/File:P1010905GroenplaatsAntwerpen.JPG", "name": "Onze-Lieve-Vrouwekathedraal", "name:de": "Liebfrauenkathedrale", "name:en": "Cathedral of Our Lady", "name:ko": "\uc131\ubaa8 \ub9c8\ub9ac\uc544 \uc131\ub2f9", "name:nl": "Onze-Lieve-Vrouwekathedraal", "ref:OnroerendErfgoed": "4092", "ref:whc": "943-002", "start_date": "1352", "type": "building", "whc:criteria": "C (ii)(iv)", "whc:inscription_date": "1999", "wheelchair": "limited", "wikidata": "Q5901", "wikipedia": "nl:Onze-Lieve-Vrouwekathedraal (Antwerpen)"}}, {"type": "way", "id": 28809723, "center": {"lat": 51.0288728, "lon": 4.4789602}, "nodes": [316744960, 3299248425, 3299248427, 3299248435, 3299248428, 316744963, 2874557384, 3299248422, 3299248426, 2874557385, 2874557378, 3299248434, 3299248418, 3299248417, 3299248411, 3299248412, 3299248406, 3299248407, 3299248413, 3299248416, 3299248410, 3299248414, 2874557382, 4959208240, 4959208235, 4959208328, 4959208322, 4959208323, 4959208325, 2874557376, 4959208326, 4959208327, 4959208324, 2874557377, 4959207293, 4959207292, 2874557374, 4959207290, 4959207291, 4959206119, 4959207294, 2874557375, 4959206120, 4959208321, 4959208237, 4959208236, 2874557379, 4959208238, 4959208239, 2874557381, 2874557383, 4959208243, 4959208241, 247285631, 4959208242, 4959208244, 4959207295, 4959207296, 4959207297, 4959207298, 3299248444, 2874557387, 3299248447, 3299248446, 4959207299, 4959207300, 4959207302, 4959207301, 3299248448, 3299248451, 2874557390, 4959207303, 3299248452, 3299248453, 4959207304, 3299248455, 3299248458, 3299248456, 4959208329, 4959208330, 4959208331, 4959208332, 2874557392, 3299248562, 4959208333, 3299248565, 2874557393, 3299248567, 4959208334, 3299248568, 3299248572, 3299248571, 4959208335, 4959208336, 4959208337, 4959208338, 3299248580, 3299248578, 3299248581, 2874557396, 3299248585, 3299248587, 4959208247, 2874557401, 3299248588, 3299248589, 4959208249, 4959208248, 4959208250, 4959208251, 3299248593, 2874557405, 4959208252, 3299248591, 3299248595, 3299248596, 4959208253, 3299248594, 4959207312, 3299248600, 4959208261, 4959208342, 4959208263, 4959207315, 3299248610, 3299248602, 4959208344, 4959208347, 3299248609, 3299248611, 4959208259, 3299248607, 4959207316, 4959208421, 4959208422, 4959207318, 4959207317, 4959208351, 2874557416, 4959208268, 4959208271, 4959208352, 4959208356, 4959208354, 4959208353, 2874557411, 4959208357, 4959208358, 2874557415, 2874557414, 2874557418, 2874557417, 2874557413, 2874557412, 2874557410, 2874557409, 4959208265, 4959208270, 3299248615, 4959208267, 4959208266, 4959208269, 3299248614, 4959208355, 4959207319, 4959208264, 2874557406, 4959208258, 4959208348, 4959208255, 4959208339, 3299248599, 4959208345, 4959208340, 4959207309, 3299248597, 2874557404, 4959207314, 4959208341, 4959207310, 4959207308, 4959208346, 4959208262, 3299248606, 3299248603, 3299248608, 4959208424, 3299248613, 4959208350, 3299248612, 4959208349, 2874557408, 4959208423, 4959207320, 3299248601, 4959208343, 3299248605, 4959208260, 4959207313, 4959207307, 4959207306, 4959207311, 4959208257, 2874557407, 2874557402, 3299248598, 4959208256, 3299248604, 2874557400, 4959208254, 4959207305, 2874557399, 3299248592, 3299248584, 4959208245, 4959208246, 3299248583, 3299248579, 3299248577, 3299248582, 2874557397, 3299248575, 3299248570, 2874557395, 3299248440, 3299248441, 3299248429, 316744960], "tags": {"OnroerendErfgoed:criteria": "M", "addr:city": "Mechelen", "addr:street": "Sint-Romboutskerkhof", "building": "cathedral", "denomination": "roman_catholic", "height": "28", "heritage": "1", "heritage:operator": "whc", "heritage:ref": "943", "heritage:website": "http://whc.unesco.org/en/list/943", "historic": "building", "image": "http://commons.wikimedia.org/wiki/File:Graote_Markt_en_Sint-Rombouts.jpg", "name": "Sint Romboutskathedraal", "name:de": "Kathedrale St. Rumold", "name:en": "St. Rumbold's Cathedral", "ref:OnroerendErfgoed": "74569", "ref:whc": "943-015", "start_date": "1312-04-28", "whc:criteria": "(ii)(iv)", "whc:inscription_date": "1999", "wikidata": "Q1086358", "wikipedia": "nl:Sint-Romboutskathedraal"}}, {"type": "way", "id": 31232934, "center": {"lat": 51.0279569, "lon": 4.4815818}, "nodes": [347271920, 8374875466, 8374875453, 2155390199, 8374875452, 347271921, 8374875463, 8374875462, 8374875461, 8374875460, 347271922, 8374875459, 8374875458, 8374875457, 8374875456, 8374875454, 8374875455, 347271924, 8374875469, 3300187142, 8374875468, 8374875467, 347271920], "tags": {"OnroerendErfgoed:criteria": "M", "addr:city": "Mechelen", "addr:housenumber": "20", "addr:street": "Grote Markt", "amenity": "townhall", "building": "yes", "heritage": "1", "heritage:operator": "whc", "heritage:ref": "943", "heritage:website": "http://whc.unesco.org/en/list/943", "historic": "townhall", "image": "http://www.flickr.com/photos/erfgoed/3135652497/", "name": "Stadhuis Mechelen", "old_name": "Lakenhal", "ref:OnroerendErfgoed": "3717", "ref:whc": "943-015", "townhall:type": "city", "whc:criteria": "(ii)(iv)", "whc:inscription_date": "2005", "wikidata": "Q2202410", "wikimedia_commons": "File:Mechelen_City_Hall_01.JPG", "wikipedia": "nl:Stadhuis van Mechelen"}}, {"type": "way", "id": 37427236, "center": {"lat": 50.8795469, "lon": 4.7011939}, "nodes": [7054802751, 61296783, 1148249157, 1148249152, 1148249189, 1148249154, 1148249160, 1148249179, 1148249122, 1148249106, 1148249194, 1148249192, 1148249182, 437506420, 437506422, 5152493818, 437506423, 437506424, 437506425, 1205723024, 1205723016, 1205723006, 437506426, 1205722993, 1205723001, 1205722952, 1205722984, 1205722986, 1205722960, 437506427, 1205722957, 1205722983, 612919225, 1205722975, 1205722964, 1205723022, 1205723034, 2720512333, 1205723043, 1205722973, 1205722954, 1205723028, 5152494725, 1205723003, 61296800, 437506397, 1205722978, 1205722999, 1205723029, 5152494721, 5152494723, 5152494724, 5152494722, 8280623692, 437506398, 437506399, 1573474925, 1573474920, 437506400, 1573474908, 61296795, 61296794, 61296792, 1148249125, 1148249149, 7054802750, 7054802759, 7054802754, 7054802753, 7054802755, 7054802756, 7054802752, 7054802757, 7054802758, 7054802751], "tags": {"OnroerendErfgoed:criteria": "BE", "addr:city": "Leuven", "addr:housenumber": "5", "addr:postcode": "3000", "addr:street": "Grote Markt", "amenity": "place_of_worship", "architect": "Sulpitius van Vorst;Jan II Keldermans;Matthijs de Layens", "architect:wikidata": "Q2336178;Q1825652;Q719192", "building": "church", "building:levels": "2", "building:material": "stone", "denomination": "roman_catholic", "heritage": "1", "heritage:operator": "whc", "heritage:ref": "943", "heritage:website": "http://whc.unesco.org/en/list/943", "image": "File:20091017_leuven_stpierre01.JPG", "name": "Sint-Pieterskerk", "ref:OnroerendErfgoed": "42127", "ref:whc": "943-012", "religion": "christian", "whc:criteria": "(ii)(iv)", "whc:inscription_date": "1999", "wikidata": "Q17722", "wikipedia": "nl:Sint-Pieterskerk (Leuven)"}}, {"type": "way", "id": 37573125, "center": {"lat": 51.1768193, "lon": 4.8362166}, "nodes": [420728209, 4729008140, 420728210, 420728211, 420728212, 4729008137, 4729008138, 4729008139, 420728209], "tags": {"OnroerendErfgoed:criteria": "M", "addr:city": "Herentals", "addr:housenumber": "50", "addr:street": "Grote Markt", "building": "yes", "description": "Lakenhal en Belfort", "heritage": "1", "heritage:operator": "whc", "heritage:ref": "943", "heritage:website": "http://whc.unesco.org/en/list/943", "historic": "building", "image": "http://commons.wikimedia.org/wiki/File:Herentals_Lakenhal_en_Belfort.jpg;File:Herentals_Lakenhal_en_Belfort.jpg", "name": "Lakenhal", "ref:OnroerendErfgoed": "47054", "ref:whc": "943-009", "whc:criteria": "(ii)(iv)", "whc:inscription_date": "2005", "wikidata": "Q3311039", "wikipedia": "nl:Belfort van Herentals"}}, {"type": "way", "id": 37611196, "center": {"lat": 50.4541084, "lon": 3.9499772}, "nodes": [1499221867, 5598402977, 1499221844, 4843210309, 4241115628, 4241115627, 4241115626, 5598402982, 4241115625, 4241115624, 4241115629, 1499221867], "tags": {"architect": "Louis Ledoux", "building": "public", "height": "87 m", "heritage": "1", "heritage:operator": "whc", "heritage:website": "http://whc.unesco.org/fr/list/943", "historic": "building", "image": "File:Mons beffroi JPG01B.jpg", "man_made": "tower", "name": "Beffroi", "opening_hours": "Tu-Su 10:00-18:00", "phone": "+32 65 40 53 80", "ref:whc": "943-029", "roof:height": "7m", "roof:shape": "onion", "start_date": "1669", "tourism": "viewpoint", "tower:type": "bell_tower", "website": "http://www.beffroi.mons.be", "whc:criteria": "(ii),(iv)", "whc:inscription_date": "1999", "wikidata": "Q1850707", "wikipedia": "fr:Beffroi de Mons"}}, {"type": "way", "id": 50508999, "center": {"lat": 50.8155361, "lon": 5.1860379}, "nodes": [642518043, 642518048, 642518055, 642518058, 8380810818, 8380810819, 8380810820, 8380810821, 642518062, 642518066, 642518070, 8380810822, 8380810823, 8380810824, 8380810825, 8380810826, 8380810827, 8380810828, 8380810829, 8380810830, 8380810831, 8380810832, 8380810833, 8380810834, 642518074, 8380810835, 8380810836, 8380810837, 8380810838, 642518043], "tags": {"addr:city": "Sint-Truiden", "addr:housenumber": "68", "amenity": "townhall", "building": "public", "heritage": "1", "heritage:operator": "whc", "heritage:ref": "943", "heritage:website": "http://whc.unesco.org/en/list/943", "historic": "townhall", "name": "Stadhuis Sint-Truiden", "ref:whc": "943-021", "toilets:wheelchair": "yes", "townhall:type": "city", "whc:criteria": "(ii)(iv)", "whc:inscription_date": "1999", "wheelchair": "yes"}}, {"type": "way", "id": 55213422, "center": {"lat": 50.6057456, "lon": 3.3880218}, "nodes": [694073711, 694073712, 8371914637, 8371914638, 8371914639, 8371914653, 8371914652, 694073713, 8371914651, 8371914650, 8371914649, 8371914648, 8371914647, 8371914646, 694073715, 8371914645, 8371914644, 8371914643, 8371914642, 8371914641, 8371914640, 694073711], "tags": {"building": "yes", "height": "72", "heritage": "1", "heritage:operator": "whc", "heritage:ref": "943", "heritage:website": "http://whc.unesco.org/en/list/943", "historic": "tower", "man_made": "tower", "name": "Beffroi de Tournai", "ref:whc": "943-032", "start_date": "C12", "tourism": "attraction", "tower:type": "bell_tower", "whc:criteria": "(ii)(iv)", "whc:inscription_date": "2005", "wikidata": "Q2742228", "wikipedia": "fr:Beffroi de Tournai"}}, {"type": "way", "id": 88816045, "center": {"lat": 51.0003802, "lon": 3.3270628}, "nodes": [7405523139, 7405523141, 1030661271, 7405523137, 1030661276, 1030661319, 1030661315, 7104511694, 7104511693, 7104511692, 7104511695, 7104511691, 7405523139], "tags": {"building": "yes", "heritage": "1", "heritage:operator": "whc", "heritage:ref": "943", "heritage:website": "http://whc.unesco.org/en/list/943", "historic": "belfry", "man_made": "tower", "name": "Hallentoren", "ref:OnroerendErfgoed": "943-021", "ref:whc": "943-021", "source:geometry:date": "2014-10-02", "source:geometry:ref": "Gbg/4846874", "start_date": "1275", "tower:type": "bell_tower", "whc:criteria": "(ii)(iv)", "whc:inscription_date": "1999", "wikidata": "Q2340680", "wikipedia": "nl:Belfort van Tielt"}}, {"type": "way", "id": 89579337, "center": {"lat": 51.1310005, "lon": 4.5699361}, "nodes": [1038341739, 1038340558, 8374716252, 1038341968, 1038341643, 1038341261, 1038340784, 1038341739], "tags": {"OnroerendErfgoed:criteria": "M", "addr:city": "Lier", "addr:housenumber": "58", "addr:street": "Grote Markt", "building": "public", "heritage": "1", "heritage:operator": "whc", "heritage:ref": "943", "heritage:website": "http://whc.unesco.org/en/list/943", "historic": "building", "image": "http://commons.wikimedia.org/wiki/File:Lier_Stadhuis.jpg", "name": "Stadhuis Lier", "old_name": "Belfort", "ref:OnroerendErfgoed": "10361", "ref:whc": "943-013", "start_date": "1369", "whc:criteria": "(ii)(iv)", "whc:inscription_date": "2005", "wikidata": "Q2908783", "wikipedia": "nl:Stadhuis van Lier"}}, {"type": "way", "id": 98241744, "center": {"lat": 51.1280302, "lon": 4.5678457}, "nodes": [1536496469, 587733547, 587733548, 587733549, 587733561, 1136526593, 1136526646, 1536443605, 1136526688, 1136526579, 1536496617, 1136526676, 1536496588, 1536496469], "tags": {"heritage": "1", "heritage:operator": "whc", "heritage:ref": "855", "heritage:website": "https://whc.unesco.org/en/list/855", "landuse": "residential", "name": "Begijnhof", "name:de": "Beginenhof", "ref:whc": "855-002", "url": "https://id.erfgoed.net/erfgoedobjecten/120749", "whc:criteria": "(ii)(iii)(iv)", "whc:inscription_date": "1998", "wikidata": "Q281856", "wikipedia": "nl:Begijnhof Lier"}}, {"type": "way", "id": 105804724, "center": {"lat": 50.8059925, "lon": 4.9394506}, "nodes": [1771618165, 4476176662, 1771618161, 4476176635, 1218244391, 4476176658, 4476176657, 1771618163, 4476176655, 4476176654, 4476176653, 4476176656, 4476176652, 4476176650, 4476176647, 4476176651, 4476176646, 4476176644, 4476176643, 4476176642, 4476176641, 4476176640, 4476176636, 4476176637, 4476176638, 3667466319, 3667466320, 1218244396, 3667467640, 4476176645, 4476176648, 4476176660, 4476176659, 4476176661, 4476176663, 4476176665, 4476176664, 4476176666, 4476176667, 4476176669, 3667467641, 4476176671, 4476176672, 4476176673, 4476176677, 4476176679, 4476176675, 3667466321, 3667466322, 4476176789, 4476176688, 4476176687, 4476176790, 4476176791, 4476176792, 4476176793, 4476176678, 4476176680, 4476176681, 3667467551, 3667467642, 4476176683, 4476176685, 4476176686, 4476176674, 4476176676, 4476176684, 1771618176, 4476176795, 4476176794, 4476176797, 4476176798, 4476176799, 4476176800, 1771618183, 4476176803, 4476176801, 4476176802, 4476176804, 4476176806, 3667466323, 4476176808, 4476176807, 4476176809, 4476176810, 4476176811, 3667466324, 4476176814, 4476176812, 4476176815, 4476176816, 4476176817, 4476176813, 3667467165, 1771618178, 4476176805, 4476176796, 1771618181, 4476176682, 1771618172, 1771618174, 1771618170, 1218244395, 4476176670, 4476176668, 1771618167, 1771618165], "tags": {"OnroerendErfgoed:criteria": "M", "addr:street": "Veemarkt", "amenity": "place_of_worship", "building": "church", "denomination": "roman_catholic", "heritage": "1", "heritage:operator": "whc", "heritage:ref": "943", "heritage:website": "http://whc.unesco.org/en/list/943", "image": "https://commons.wikimedia.org/wiki/File:Tienen_Sint-Germanuskerk_2.jpg", "name": "Sint Germanuskerk", "ref:OnroerendErfgoed": "42838", "ref:whc": "943-023", "religion": "christian", "source:geometry:date": "2015-10-20", "source:geometry:ref": "Gbg/5368710", "whc:criteria": "(ii)(iv)", "whc:inscription_date": "1999", "wikidata": "Q2948721", "wikipedia": "nl:Sint-Germanuskerk (Tienen)", "wikipedia:nl": "Sint-Germanuskerk (Tienen)"}}, {"type": "way", "id": 110901960, "center": {"lat": 50.8242043, "lon": 4.3553424}, "nodes": [2480223218, 2480223242, 2480223237, 2480223225, 2480223224, 2480223209, 1264888910, 1264888996, 2480223218], "tags": {"addr:city": "Saint-Gilles - Sint-Gillis", "addr:housenumber": "23", "addr:postcode": "1060", "addr:street": "Rue Am\u00e9ricaine - Amerikastraat", "architect": "Victor Horta", "architect:wikidata": "Q49744", "building": "yes", "building:architecture": "art_nouveau", "heritage": "1", "heritage:operator": "whc", "heritage:ref": "1005", "heritage:website": "https://whc.unesco.org/en/list/1005", "historic": "building", "ref:UrbIS": "7685061", "ref:whc": "1005", "whc:criteria": "(i) (ii) (iv)", "whc:inscription_date": "2000"}}, {"type": "way", "id": 110901970, "center": {"lat": 50.8241816, "lon": 4.3554156}, "nodes": [2480223209, 2480223224, 2480223225, 2480223237, 2480223234, 2480223207, 1264888687, 1264888705, 2480223209], "tags": {"addr:city": "Saint-Gilles - Sint-Gillis", "addr:housenumber": "25", "addr:postcode": "1060", "addr:street": "Rue Am\u00e9ricaine - Amerikastraat", "architect": "Victor Horta", "architect:wikidata": "Q49744", "building": "yes", "building:architecture": "art_nouveau", "building:levels": "4", "heritage": "1", "heritage:operator": "whc", "heritage:ref": "1005", "heritage:website": "https://whc.unesco.org/en/list/1005", "historic": "house", "ref:UrbIS": "7686537", "ref:whc": "1005", "tourism": "museum", "whc:criteria": "(i) (ii) (iv)", "whc:inscription_date": "2000"}}, {"type": "way", "id": 114133990, "center": {"lat": 50.8275651, "lon": 3.2656095}, "nodes": [1293318573, 5458254184, 6306379656, 6306379655, 5458254185, 1293318562, 6306379654, 6306379651, 6306379652, 6306379653, 1293318573], "tags": {"building": "yes", "heritage": "1", "heritage:operator": "whc", "heritage:ref": "943", "heritage:since": "1999", "heritage:website": "http://whc.unesco.org/en/list/943", "image": "http://en.wikipedia.org/wiki/File:Beffroi_de_Courtrai.JPG", "man_made": "tower", "name": "Belfort", "ref:whc": "943-011", "tower:type": "bell_tower", "whc:criteria": "(ii)(iv)", "whc:inscription_date": "2005", "wikidata": "Q1971197", "wikipedia": "nl:Belfort van Kortrijk"}}, {"type": "way", "id": 114235254, "center": {"lat": 50.9806068, "lon": 2.7494594}, "nodes": [1294380774, 1294381196, 1294380854, 1294381134, 1294380930, 1294381222, 8378229756, 8378229757, 8378229758, 8378229755, 8378229759, 8378229760, 8378229761, 8378229762, 8378229754, 8378229753, 8378229752, 8378229751, 8378229750, 8378229749, 8378229748, 8378229747, 3869368917, 8378229746, 3869368918, 1294380869, 8378229745, 8378229744, 1294380774], "tags": {"addr:housenumber": "1", "addr:street": "Markt", "building": "yes", "heritage": "1", "heritage:operator": "whc", "heritage:ref": "943", "heritage:website": "http://whc.unesco.org/en/list/943", "historic": "building", "ref:whc": "943-014", "whc:criteria": "(ii)(iv)", "whc:inscription_date": "1999", "wikidata": "Q775457", "wikipedia": "nl:Stadhuis van Lo"}}, {"type": "way", "id": 114415568, "center": {"lat": 50.9386337, "lon": 4.0385441}, "nodes": [1296124696, 6216527313, 6216527314, 6216527312, 6216527338, 6216527340, 6216527339, 6216527336, 6216527337, 6216527341, 6216527335, 1296124690, 6216527327, 6216527328, 6216527334, 6216527330, 6216527333, 6216527331, 6216527332, 6216527329, 1296124701, 6216527324, 6216527323, 6216527321, 6216527326, 6216527322, 6216527325, 6216527320, 6216527319, 6216527318, 6216527317, 6216527316, 6216527315, 6216527396, 6216527302, 6216527301, 6216527300, 6216527299, 6216527298, 1296124703, 6216527303, 6216527304, 6216527305, 1629902868, 6216527306, 6216527307, 6216527308, 6216527310, 6216527309, 6216527395, 1296124696], "tags": {"building": "yes", "heritage": "1", "heritage:operator": "whc", "heritage:ref": "943", "heritage:website": "http://whc.unesco.org/en/list/943", "historic": "building", "museum": "history", "name": "Belfort", "ref:whc": "943-001", "tourism": "museum", "whc:criteria": "(ii)(iv)", "whc:inscription_date": "1999", "wikidata": "Q2000094", "wikipedia": "nl:Belfort van Aalst"}}, {"type": "way", "id": 118044057, "center": {"lat": 51.0310341, "lon": 4.0988399}, "nodes": [1328532747, 1328532729, 8379123643, 8379123644, 8379123646, 8379123645, 1328532743, 8379123635, 8379123636, 8379123637, 8379123638, 8379123640, 8379123639, 1328532751, 8379123641, 8379123642, 5267885958, 1328532747], "tags": {"addr:city": "Dendermonde", "addr:housenumber": "1", "addr:street": "Grote Markt", "amenity": "townhall", "building": "yes", "heritage": "1", "heritage:operator": "whc", "heritage:ref": "943", "heritage:website": "http://whc.unesco.org/en/list/943", "historic": "townhall", "name": "Stadhuis Dendermonde", "ref:whc": "943-005", "townhall:type": "city", "whc:criteria": "(ii)(iv)", "whc:inscription_date": "1999", "wikidata": "Q13437151", "wikipedia": "nl:Belfort van Dendermonde"}}, {"type": "way", "id": 129800879, "center": {"lat": 50.9446002, "lon": 3.1246506}, "nodes": [5539822386, 3136491955, 1431343803, 1431343800, 3136491934, 1431343795, 1431343804, 1462119051, 1431343812, 3168809656, 5539698698, 5539822386], "tags": {"addr:city": "Roeselare", "addr:housenumber": "2", "addr:street": "Botermarkt", "amenity": "townhall", "building": "historic", "heritage": "1", "heritage:operator": "whc", "heritage:ref": "943", "heritage:website": "http://whc.unesco.org/en/list/943", "historic": "belfry", "name": "Stadhuis Roeselare", "ref:whc": "943-020", "townhall:type": "city", "whc:criteria": "(ii)(iv)", "whc:inscription_date": "1999", "wikipedia": "nl:Stadhuis van Roeselare"}}, {"type": "way", "id": 137541196, "center": {"lat": 50.8263676, "lon": 4.3654713}, "nodes": [3266866028, 3266866043, 1508628028, 1508628051, 3266866039, 3266866041, 3266866042, 1508628053, 3266866040, 3266866038, 3266866037, 3266866036, 3266866035, 1508628047, 1508628049, 1508628033, 3266866026, 3266866019, 3266866028], "tags": {"addr:city": "Ixelles - Elsene", "addr:housenumber": "224", "addr:postcode": "1050", "addr:street": "Avenue Louise - Louizalaan", "alt_name:es": "Casa_Solvay", "building": "yes", "heritage": "1", "heritage:operator": "whc", "heritage:ref": "1005", "heritage:website": "https://whc.unesco.org/en/list/1005", "historic": "house", "name": "H\u00f4tel Solvay", "ref:UrbIS": "7683151", "ref:whc": "1005", "tourism": "museum", "website": "https://hotelsolvay.be/", "whc:criteria": "(i) (ii) (iv)", "whc:inscription_date": "2000", "wikidata": "Q2671145", "wikipedia": "fr:H\u00f4tel Solvay"}}, {"type": "way", "id": 138946181, "center": {"lat": 50.8277733, "lon": 4.3619931}, "nodes": [2466710898, 2466710901, 2466710881, 2466710878, 1523200732, 2466710875, 2466710872, 2466710865, 2466710866, 2466710871, 2466710868, 2466710898], "tags": {"addr:city": "Bruxelles - Brussel", "addr:housenumber": "6", "addr:postcode": "1000", "addr:street": "Rue Paul \u00c9mile Janson - Paul \u00c9mile Jansonstraat", "architect": "Victor Horta", "building": "yes", "heritage": "1", "heritage:operator": "whc", "heritage:ref": "1005", "heritage:website": "https://whc.unesco.org/en/list/1005", "historic": "house", "name": "H\u00f4tel Tassel", "ref:UrbIS": "7685407", "ref:whc": "1005", "whc:criteria": "(i) (ii) (iv)", "whc:inscription_date": "2000", "wikidata": "Q1881679", "wikipedia": "fr:H\u00f4tel Tassel"}}, {"type": "way", "id": 151059734, "center": {"lat": 51.0336559, "lon": 2.864479}, "nodes": [1638971963, 6844853733, 6844853721, 6844853722, 6844853723, 6844853724, 6844853727, 6844853726, 6844853725, 6844853720, 6844853737, 6844853735, 6844853736, 6844853739, 7398083764, 7398083766, 7398083767, 7398083768, 7398083769, 7398083770, 1638971964, 7398083771, 7398083774, 7398083773, 7398083772, 7398083775, 7398083776, 1638971962, 1638971960, 7398083758, 7398083759, 7398083760, 7398083761, 7398083762, 7398083763, 1638971963], "tags": {"addr:city": "Diksmuide", "addr:housenumber": "6", "addr:postcode": "8600", "addr:street": "Grote Markt", "amenity": "townhall", "building": "historic", "heritage": "1", "heritage:operator": "whc", "heritage:ref": "943", "heritage:website": "http://whc.unesco.org/en/list/943", "historic": "belfry", "name": "Stadhuis Diksmuide", "ref:whc": "943-006", "townhall:type": "city", "whc:criteria": "(ii)(iv)", "whc:inscription_date": "2005", "wikidata": "Q13437152", "wikimedia_commons": "File:Belfry_of_Diksmuide_(DSCF9585).jpg", "wikipedia": "nl:Belfort van Diksmuide"}}, {"type": "way", "id": 155326066, "center": {"lat": 50.7808991, "lon": 5.4646456}, "nodes": [4317797093, 4317797094, 4959747695, 4959747694, 4959747696, 4959745706, 2264340611, 4317797096, 4959745702, 4959745705, 4959745703, 4959745709, 4959745711, 4959745710, 4959748333, 4959748335, 4959748334, 4959748337, 4959748339, 4959748338, 4317797105, 4959748340, 4959745712, 4959745713, 4959745714, 4959745717, 4959745716, 4959745719, 4959745718, 4959745720, 4959748521, 4317797108, 4959745858, 4959745857, 4959745859, 4959745861, 4959745860, 4959745862, 4959745715, 4959748524, 4959748526, 4959748531, 4959748532, 4959748530, 4959745868, 4959745870, 4959745875, 4959745873, 3609154682, 4959748528, 4959748527, 4959745866, 4959748523, 4959745865, 4959745864, 4317797114, 4317797099, 4317797104, 6833889926, 4317797111, 4317797112, 4317797100, 4317797098, 4317797097, 4317797095, 4317797087, 4317797075, 4959747681, 4959747679, 4959747678, 4959747677, 4959747672, 4959747674, 4959747676, 4959747675, 4959747680, 4959747673, 4959747659, 4959747658, 4959747657, 4959745850, 4959745852, 4959745855, 4317797073, 4959747660, 4959747662, 4959747669, 4959747666, 4317797074, 4959745854, 4959745849, 4959745851, 4959748325, 4959748322, 4959748323, 4959748218, 4959748216, 4959748217, 4959748215, 4959748211, 4959748213, 4959748206, 4959748203, 4959748204, 4959748194, 4959748190, 4959748191, 4959747769, 4959747768, 4959747766, 4317797068, 4959747767, 4959747770, 4959747771, 6833889893, 4317797071, 4959748201, 4959748208, 4959748214, 4959748209, 4959748205, 4959748202, 4959748199, 4959748188, 4317797069, 4959748192, 4959748193, 4959748195, 4959748196, 4959748197, 4959748198, 4959748189, 4959748200, 4317797070, 4959748207, 4959748210, 4959748212, 4959748219, 4959748220, 4959745847, 4959748321, 1677291171, 4959745853, 4959745856, 4959747661, 4959747664, 4959747667, 4959747668, 1677291176, 4317797081, 4959747682, 4959747683, 6833889904, 4959747689, 4959747687, 4959747690, 4959747691, 4317797085, 4317797093], "tags": {"OnroerendErfgoed:criteria": "A", "addr:city": "Tongeren", "addr:housenumber": "2", "amenity": "place_of_worship", "building": "basilica", "denomination": "roman_catholic", "heritage": "1", "heritage:operator": "whc", "heritage:ref": "943", "heritage:website": "http://whc.unesco.org/en/list/943", "image": "https://commons.wikimedia.org/wiki/File:Onze-Lieve-Vrouwe_Basiliek_Tongeren.JPG", "name": "Onze-Lieve-Vrouwebasiliek", "name:de": "Liebfrauenbasilika", "name:nl": "Onze-Lieve-Vrouwebasiliek", "ref:OnroerendErfgoed": "301296", "ref:whc": "943-024", "religion": "christian", "source:geometry:date": "2017-07-04", "source:geometry:ref": "Gbg/5999004", "start_date": "1240", "whc:criteria": "(ii)(iv)", "whc:inscription_date": "1991", "wikidata": "Q1823915", "wikipedia": "nl:Onze-Lieve-Vrouwebasiliek (Tongeren)"}}, {"type": "way", "id": 182727710, "center": {"lat": 51.208232, "lon": 3.2247851}, "nodes": [1930843087, 1930843086, 3307898279, 1930843081, 8375202854, 469971222, 1930843082, 766773185, 1930843087], "tags": {"OnroerendErfgoed:criteria": "M", "alt_name": "Halletoren", "building": "yes", "building:colour": "#F5DEB3", "building:material": "stone", "building:part": "yes", "description": "Belfort-Hal of Halletoren", "fee": "\u20ac10/adult;\u20ac8/senior (>", "height": "83", "heritage": "1", "heritage:operator": "whc", "heritage:ref": "943", "heritage:website": "http://whc.unesco.org/en/list/943", "historic": "yes", "image": "File:Bruge_Belfry.jpg", "man_made": "tower", "name": "Belfort", "name:be": "\u0417\u0432\u0430\u043d\u0456\u0446\u0430 \u0411\u0435\u043b\u0444\u0430\u0440\u0442", "name:de": "Belfried", "name:en": "Belfry", "name:es": "Campanario", "name:fr": "Beffroi", "name:it": "Beffroi", "name:nl": "Belfort", "name:ru": "\u041a\u043e\u043b\u043e\u043a\u043e\u043b\u044c\u043d\u044f", "opening_hours": "Mo-Su 09:30-18:00", "ref:OnroerendErfgoed": "29457", "ref:whc": "943-004", "tourism": "attraction", "tower:type": "bell_tower", "whc:criteria": "(ii)(iv)", "whc:inscription_date": "1999", "wheelchair": "no", "wikidata": "Q2441211", "wikipedia": "nl:Belfort van Brugge"}}, {"type": "way", "id": 192788704, "center": {"lat": 51.326634, "lon": 4.9441711}, "nodes": [2033269680, 2033269686, 2033269685, 2527217773, 2033269687, 2033269678, 2527217824, 2527217825, 2033269696, 2033269701, 2033269688, 2033269681, 2033269684, 2033269694, 2033269679, 2033269677, 2033269689, 2033269692, 2033269697, 2033269702, 2033269693, 2033269698, 2033269700, 2033269699, 2033269695, 2033269691, 2033269675, 2033269682, 1428137165, 1428137163, 2033269690, 2033269676, 2033269683, 2033269680], "tags": {"heritage": "1", "heritage:operator": "whc", "heritage:website": "http://whc.unesco.org/en/list/855-004", "historic": "yes", "landuse": "residential", "name": "Begijnhof Turnhout", "ref:whc": "855-004", "whc:criteria": "ii, iii, iv", "whc:inscription_date": "1998 (2nd session)", "wikidata": "Q2752519", "wikipedia": "nl:Begijnhof Turnhout"}}, {"type": "way", "id": 217785920, "center": {"lat": 50.8215329, "lon": 5.1939182}, "nodes": [1167019545, 2270919480, 2270919476, 2270919478, 2270919482, 2270919503, 2270919529, 2270919534, 2270919555, 2270919569, 8434322376, 2271551530, 2270919638, 2270919634, 2270919615, 2270919605, 2270919601, 2270919587, 2270919565, 1167019506, 1167019540, 1167019545], "tags": {"alt_name": "begijnhof van Sint-Truiden", "heritage": "1", "heritage:operator": "whc", "heritage:ref": "855", "heritage:website": "https://whc.unesco.org/en/list/855", "landuse": "residential", "name": "Sint-Agnesbegijnhof", "ref:whc": "855-005", "whc:criteria": "(ii)(iii)(iv)", "whc:inscription_date": "1998", "wikidata": "Q2677973", "wikipedia": "nl:Sint-Agnesbegijnhof"}}, {"type": "way", "id": 229587235, "center": {"lat": 50.8351781, "lon": 4.4161756}, "nodes": [2381571641, 2381571643, 2381571645, 2381571647, 2381571648, 2381571649, 2381571650, 2381571652, 2381571653, 2381571655, 2381571659, 2381571662, 2381571664, 2381571666, 2381571668, 2381571670, 2381571661, 2381571595, 2381571587, 2381571617, 2381571638, 2381571672, 2381571622, 2381571657, 2381571651, 2381571613, 2381571603, 2381571607, 2381571609, 2381571615, 2381571620, 2381571626, 2381571632, 2381571636, 2381571639, 2381571634, 2381571630, 2381571628, 2381571624, 2381571619, 2381571611, 2381571605, 2381571601, 2381571599, 2381571597, 2381571593, 2381571591, 2381571589, 2381571584, 2381571576, 2381571574, 2381571572, 2381571570, 2381571568, 2381571567, 2381571565, 2381571563, 2381571559, 2381571553, 2381571539, 2381571531, 2381571523, 2381571519, 2381571515, 2381571507, 2381571505, 2381571509, 2381571511, 2381571557, 2381571492, 2381571495, 2381571480, 2381571482, 2381571499, 2381571501, 2381571513, 2381571521, 2381571529, 2381571537, 2381571543, 2381571545, 2381571549, 2381571551, 2381571547, 2381571541, 2381571535, 2381571525, 2381571533, 2381571503, 2381571517, 2381571555, 2381571561, 2381571580, 2381571586, 2381571497, 2381571527, 2381571578, 2381571582, 2381571641], "tags": {"addr:city": "Woluwe-Saint-Pierre - Sint-Pieters-Woluwe", "addr:housenumber": "279;281", "addr:postcode": "1150", "addr:street": "Avenue de Tervueren - Tervurenlaan", "building": "yes", "heritage": "1", "heritage:operator": "whc", "heritage:ref": "1298", "heritage:since": "2009", "heritage:website": "http://whc.unesco.org/en/list/1298", "historic": "heritage", "name": "Palais Stoclet - Stocletpaleis", "name:fr": "Palais Stoclet", "name:nl": "Stocletpaleis", "ref:UrbIS": "8505802", "start_date": "1911", "wikidata": "Q239028", "wikipedia": "fr:Palais Stoclet"}}, {"type": "way", "id": 230022420, "center": {"lat": 50.8472591, "lon": 4.3805163}, "nodes": [2385519762, 2385519776, 2385519751, 2385519756, 2385519765, 2385519768, 2385519769, 2385519706, 2385519707, 2385519673, 2385519670, 2385519666, 2385519665, 2385519669, 2385519762], "tags": {"access": "private", "addr:city": "Bruxelles - Brussel", "addr:housenumber": "4", "addr:postcode": "1000", "addr:street": "Avenue Palmerston - Palmerstonlaan", "architect": "Victor Horta", "building": "yes", "building:architecture": "art_nouveau", "heritage": "1", "heritage:operator": "whc", "heritage:ref": "1005", "heritage:website": "https://whc.unesco.org/en/list/1005", "historic": "house", "name": "L'H\u00f4tel van Eetvelde", "ref:UrbIS": "8547674", "ref:whc": "1005", "whc:criteria": "(i) (ii) (iv)", "whc:inscription_date": "2000", "wikipedia": "fr:H\u00f4tel van Eetvelde"}}, {"type": "way", "id": 236756555, "center": {"lat": 50.8332757, "lon": 5.1030385}, "nodes": [2447362543, 4482979259, 4482979254, 2447362542, 4482979251, 4482979252, 2447362538, 4482979244, 4482979245, 4482979243, 4482979242, 4482979240, 4482979239, 4482979232, 4482979231, 4482979229, 4482979228, 4482979226, 4482979222, 2447362522, 4482979210, 4482979209, 4482979206, 4482979201, 4482979204, 4482979207, 4482979196, 4482979193, 2447362519, 4482979192, 4482979195, 4482979194, 2447362526, 4482979199, 2447362527, 2447362528, 4482979214, 4482979220, 4482979216, 4482979213, 4482979212, 4482979215, 2447362524, 2447362523, 4482979205, 4482979211, 4482979202, 4482979198, 4482979197, 4482979200, 2447362521, 4482979203, 4482979208, 4482979218, 4482979217, 4482979219, 4482979221, 4482979223, 4482979224, 4482979225, 4482979230, 4482979227, 2447362534, 4482979233, 4482979241, 4482979235, 2447362531, 4482979234, 4482979236, 4482979237, 4482979238, 4482979246, 4482979247, 4482979248, 2447362539, 4482979250, 4482979249, 2447362541, 4482979255, 4482979253, 4482979256, 4482979257, 4482979262, 4482979261, 4482979263, 4482979265, 4482979264, 4482979266, 4482979267, 4482979268, 4482979270, 2447362545, 2447362547, 4482979272, 4482979273, 2447362548, 4482979277, 4482979278, 4482979280, 4482979279, 4482979284, 4482981091, 2447362553, 2447362559, 4482981097, 4482981110, 4482981111, 4482981098, 4482981103, 4482981100, 4482981101, 4482981099, 4482981102, 4482981104, 4482981105, 4482981106, 4482981108, 4482981109, 4482981113, 4482981115, 4482981116, 4482981114, 2447362560, 4482981112, 4482981107, 4482979287, 4482979288, 4482979285, 4482979282, 4482979281, 4482979283, 4482981092, 4482981093, 2447362551, 4482981090, 4482981095, 4482981096, 2447362555, 4482981089, 4482981094, 2447362557, 4482979286, 4482979275, 2447362549, 4482979276, 4482979274, 4482979271, 2447362546, 2447362544, 4482979269, 4482979260, 4482979258, 2447362543], "tags": {"OnroerendErfgoed:criteria": "M", "addr:city": "Zoutleeuw", "amenity": "place_of_worship", "building": "chapel", "denomination": "roman_catholic", "heritage": "1", "heritage:operator": "whc", "heritage:ref": "943", "heritage:website": "http://whc.unesco.org/en/list/943", "image": "https://commons.wikimedia.org/wiki/File:St-Leonarduskerk1.jpg", "name": "Sint-Leonardus", "ref:OnroerendErfgoed": "43127", "ref:whc": "943-026", "religion": "christian", "source:geometry:date": "2012-11-12", "source:geometry:ref": "Gbg/3912031", "whc:criteria": "(ii)(iv)", "whc:inscription_date": "1999", "wikidata": "Q2336343", "wikipedia": "nl:Sint-Leonarduskerk (Zoutleeuw)", "wikipedia:nl": "Sint-Leonarduskerk (Zoutleeuw)"}}, {"type": "way", "id": 243591246, "center": {"lat": 51.1846511, "lon": 3.5663125}, "nodes": [2509782288, 8380695988, 8380695991, 8380695990, 8380695989, 2509782277, 2509782260, 2509782263, 2509782273, 2509782265, 2509782271, 2509782276, 2509782267, 7198580926, 2509782275, 5318698909, 2509782288], "tags": {"addr:city": "Eeklo", "addr:housenumber": "34", "addr:postcode": "9900", "addr:street": "Markt", "amenity": "townhall", "building": "yes", "heritage": "1", "heritage:operator": "whc", "heritage:ref": "943", "heritage:website": "http://whc.unesco.org/en/list/943", "name": "Stadshuis Eeklo", "operator": "stad Eeklo", "ref:whc": "943-007", "townhall:type": "city", "whc:criteria": "(ii)(iv)", "whc:inscription_date": "1999", "wikidata": "Q4086016", "wikipedia": "nl:Belfort van Eeklo"}}, {"type": "way", "id": 257605234, "center": {"lat": 50.8718886, "lon": 4.6960627}, "nodes": [853620904, 6781114805, 303634422, 303634423, 6781114795, 6699214176, 2696825664, 231989350, 2630979727, 3771523148, 3771523150, 3771523144, 3771523145, 3771523151, 5962204849, 7549575182, 7549575183, 16737655, 7549597651, 3771525360, 16737656, 6699214198, 6699214201, 3771525358, 7549597586, 6699214166, 6699214162, 6699214167, 6699214168, 6699214169, 6699214170, 3771525382, 7549597592, 3771525383, 7549597602, 3771525379, 7549597601, 6920464619, 7549597600, 3771525381, 3771525380, 4909443627, 4909443634, 4909443626, 4909443624, 4909439720, 231980130, 6699214171, 231980133, 231980136, 231980140, 6799984321, 3771525394, 3771525392, 6781114722, 4454795002, 4454795003, 4454795004, 2696826191, 2696826189, 6527963452, 6527963362, 6527963364, 303634446, 6781115070, 303634448, 6781115074, 6781114786, 303634425, 6781115108, 6781115107, 6781115106, 303634428, 303634427, 6781115060, 2696826159, 6781115756, 6274534607, 6274534601, 6274534599, 6274534596, 2696825868, 2696825827, 6781115300, 4463317010, 4454593498, 6274534600, 6781115294, 4454593496, 2696825742, 2696825698, 2696825656, 4454614238, 3721287548, 6781114799, 6781114750, 2696825632, 2696825644, 2696825608, 6781115028, 6781115027, 6781115631, 6781115490, 6781114946, 6781114945, 1100580903, 6781114947, 1100580881, 6781115026, 6781114951, 1100580839, 1100580843, 6799542638, 19501806, 6799542635, 6781114943, 6781114942, 6781115500, 6781115637, 6781114939, 4454766248, 4454766259, 6781115903, 6781114878, 6781115872, 6781115594, 6781110479, 6781115465, 6781115926, 6781115956, 6781115363, 6781114834, 6781115521, 6781115711, 6781115830, 6781115649, 6781115247, 231989337, 853620904], "tags": {"OnroerendErfgoed:criteria": "M", "admin_level": "10", "boundary": "administrative", "heritage": "1", "heritage:operator": "whc", "historic": "heritage", "name": "Groot Begijnhof", "name:en": "Great Beguinage", "name:es": "Gran beguinaje", "name:fa": "\u06af\u0631\u0646\u062f \u0628\u06af\u0648\u0626\u06cc\u0646\u0698", "name:fr": "Grand B\u00e9guinage", "name:id": "Groot Begijnhof", "name:ru": "\u0411\u043e\u043b\u044c\u0448\u043e\u0439 \u0431\u0435\u0433\u0438\u043d\u0430\u0436", "name:sl": "Velika begina\u017ea", "name:zh": "\u5927\u8d1d\u5c45\u5b89\u4f1a\u9662", "operator": "KU Leuven", "operator:wikidata": "Q833670", "place": "neighbourhood", "ref:KULeuven": "187-99", "ref:OnroerendErfgoed": "1847", "ref:whc": "855-011", "website": "https://www.visitleuven.be/en/great-beguinage", "whc:criteria": "(ii),(iii),(iv)", "whc:inscription_date": "1998", "wikidata": "Q1049301", "wikimedia_commons": "Category:Groot Begijnhof (Leuven)", "wikipedia": "nl:Groot Begijnhof Leuven"}}, {"type": "way", "id": 284962482, "center": {"lat": 50.4638296, "lon": 4.8670773}, "nodes": [5608197315, 5608197316, 5608197317, 2886654934, 2886654932, 2886654931, 2886654935, 2886654937, 2886654941, 5608197315], "tags": {"alt_name": "Tour Saint-Jacques", "building": "yes", "heritage": "1", "heritage:operator": "whc", "heritage:ref": "943", "heritage:website": "http://whc.unesco.org/en/list/943", "historic": "monument", "man_made": "tower", "name": "Le Beffroi", "name:en": "Belfry of Namur", "ref:whc": "943-030", "tower:type": "bell_tower", "whc:criteria": "(ii)(iv)", "whc:inscription_date": "2005", "wikidata": "Q1884030", "wikipedia": "fr:Beffroi de Namur"}}, {"type": "way", "id": 285674414, "center": {"lat": 50.5607421, "lon": 4.6929562}, "nodes": [2893321636, 2893321635, 2893321637, 2893321638, 2893321636], "tags": {"building": "public", "height": "35", "heritage": "1", "heritage:operator": "whc", "heritage:ref": "943", "heritage:website": "http://whc.unesco.org/en/list/943", "loc_name": "Beffroi communal", "man_made": "tower", "name": "Beffroi de Gembloux", "name:nl": "Belfort van Gembloers", "ref:whc": "943-056", "tower:type": "bell_tower", "whc:criteria": "(ii)(iv)", "whc:inscription_date": "2005", "wikipedia": "fr:Beffroi de Gembloux"}}, {"type": "way", "id": 311239558, "center": {"lat": 50.7546343, "lon": 4.4154308}, "nodes": [3168312500, 5371226722, 5371226723, 5371226724, 5371226725, 5371226726, 5371226727, 5371226728, 5371226729, 5371226730, 5371226731, 5371226732, 3168312474, 3168312466, 3168312465, 5371226733, 3168312463, 3168312462, 3168312360, 3168312358, 3168312357, 3168312356, 5371226734, 3168312350, 3168312349, 3168312348, 5371226735, 3168312347, 3168312345, 5371226736, 5371226737, 5371226738, 5371226739, 3168312344, 5371226740, 3168312343, 3168312341, 3168312340, 3168312337, 5371226741, 5371226742, 3168312335, 3168312321, 5371226743, 5371226744, 5371226745, 3168312301, 5371226746, 3168312297, 3168312294, 3168312293, 3168312291, 5371226747, 5371226748, 3168312288, 5371226749, 5371226750, 5371226751, 5371226752, 5371226753, 5371226754, 3168312328, 3168312333, 3168312334, 3168312342, 3168312346, 3168312351, 3168312359, 3168312464, 5045742300, 3168312467, 5045742295, 3168312479, 3168312484, 4167727294, 3168312487, 4167727296, 3168312488, 3168312489, 5371226721, 3168312491, 3168312505, 3168312503, 3168312502, 3168312501, 3168312506, 3168312507, 3168312508, 3168312510, 3168312513, 3168312521, 3168312525, 3168312524, 3168312522, 3168312523, 3168312516, 3168312515, 3168312514, 3168312512, 3168312511, 3168312509, 3168312504, 3168312500], "tags": {"boundary": "protected_area", "heritage": "1", "heritage:operator": "whc", "leisure": "nature_reserve", "name": "Bosreservaat Joseph Zwaenepoel", "operator": "Agentschap voor Natuur en Bos", "operator:wikidata": "Q2556513", "protection_class": "1", "protection_type": "Bosreservaat", "whc:inscription_date": "2017"}}, {"type": "way", "id": 366674945, "center": {"lat": 50.7961113, "lon": 3.1205295}, "nodes": [3706637799, 2760192245, 3706637788, 3706637789, 3706637800, 3706637799], "tags": {"building": "yes", "building:colour": "brown", "building:material": "stone", "height": "20", "heritage": "1", "heritage:operator": "whc", "heritage:ref": "943", "heritage:website": "http://whc.unesco.org/en/list/943", "historic": "yes", "image": "File:Menen_-_Town_hall_and_belfry_2.jpg", "man_made": "tower", "name": "Belfort Menen", "ref:whc": "943-017", "roof:colour": "brown", "roof:material": "concrete", "roof:shape": "flat", "tower:type": "bell_tower", "website": "https://inventaris.onroerenderfgoed.be/dibe/relict/55745", "whc:criteria": "(ii)(iv)", "whc:inscription_date": "1999", "wikipedia": "nl:Belfort en beiaard van Menen"}}, {"type": "way", "id": 368667008, "center": {"lat": 50.8437994, "lon": 3.6038162}, "nodes": [4314127614, 4314127630, 3725191952, 3725191947, 8380703095, 8380703098, 8380703099, 3725191946, 4314127614], "tags": {"OnroerendErfgoed:criteria": "M", "addr:city": "Oudenaarde", "addr:housenumber": "1", "addr:street": "Markt", "amenity": "townhall", "building": "yes", "heritage": "1", "heritage:operator": "whc", "heritage:ref": "943", "heritage:website": "http://whc.unesco.org/en/list/943", "historic": "townhall", "name": "Stadhuis Oudenaarde", "ref:whc": "943-019", "source:geometry:date": "2011-10-17", "source:geometry:ref": "Gbg/3426577", "townhall:type": "city", "whc:criteria": "(ii)(iv)", "whc:inscription_date": "1999", "wikidata": "Q2752664", "wikipedia": "nl:Stadhuis van Oudenaarde"}}, {"type": "way", "id": 392777891, "center": {"lat": 51.2224657, "lon": 4.4143915}, "nodes": [3959680502, 8387266329, 4866255646, 4866255645, 4866255644, 3959680503, 3959680504, 3959680515, 3959689990, 3959680516, 4866266676, 4866266675, 4866266674, 4866266673, 4866266677, 3959680502], "tags": {"addr:city": "Antwerpen", "addr:housenumber": "39", "addr:street": "Rodestraat", "heritage": "1", "heritage:operator": "whc", "heritage:ref": "855", "heritage:website": "https://whc.unesco.org/en/list/855", "name": "Begijnhof Antwerpen", "ref:whc": "855", "start_date": "1544", "tourism": "museum", "whc:criteria": "(ii)(iii)(iv)", "whc:inscription_date": "1998", "wikidata": "Q779591", "wikipedia": "nl:Begijnhof Antwerpen"}}, {"type": "way", "id": 440962378, "center": {"lat": 50.4354594, "lon": 3.8393692}, "nodes": [4341274080, 874423918, 4341277096, 1925794472, 3115433664, 6790335470, 6790335469, 1925794524, 6790335467, 6790335468, 853343565, 4387298667, 6790335460, 6789173177, 6790335462, 6790335463, 6790335464, 6790335465, 6790335466, 3971678883, 3971678884, 1187677579, 2145855681, 3971678885, 874447257, 1187677330, 1187677460, 4387297584, 4387297587, 4387297586, 4387298671, 4387298673, 4387298674, 4387298675, 4387298685, 1925794478, 4387298676, 4387298677, 4387298678, 4387298679, 4387298680, 4387298682, 4387300494, 874452502, 4387298681, 874452500, 874452488, 3115402858, 853343448, 874423923, 874423920, 4341274080], "tags": {"alt_name": "Grand-Hornu, Grand Hornu", "area": "yes", "heritage": "1", "heritage:operator": "whc", "historic": "industrial", "industrial": "factory", "name": "Grand-Hornu", "ref:whc": "1344-001", "tourism": "attraction", "whc:criteria": "(ii)(iv)", "whc:inscription_date": "2012", "wikipedia": "fr:Grand-Hornu"}}, {"type": "way", "id": 501472628, "center": {"lat": 51.0536613, "lon": 3.7247914}, "nodes": [4922731943, 8378251816, 8378251814, 3062510102, 8378251813, 8378305420, 3062510097, 4922759005, 4922759004, 4922759003, 8378305419, 8378305418, 4922731942, 8378305417, 8378251815, 4922731943], "tags": {"OnroerendErfgoed:criteria": "M", "addr:city": "Gent", "addr:country": "BE", "addr:housenumber": "17", "addr:postcode": "9000", "addr:street": "Botermarkt", "building": "yes", "building:colour": "#C5C1B8", "building:material": "stone", "description": "Belfort", "height": "95", "heritage": "1", "heritage:operator": "whc", "heritage:since": "1999", "heritage:website": "http://whc.unesco.org/en/list/943", "historic": "tower", "image": "File:Gent_Belfort_R03.jpg", "man_made": "tower", "mapillary": "https://www.mapillary.com/map/im/lAMqVRY8LTImwGiOq1Zg8a", "name": "Belfort", "ref:OnroerendErfgoed": "24555", "ref:whc": "943-008", "roof:height": "95", "roof:material": "slate", "roof:shape": "pyramidal", "source:geometry:date": "2015/10/01", "source:geometry:ref": "Gbg/1361776", "tourism": "museum", "tower:type": "bell_tower", "whc:criteria": "(ii)(iv)", "whc:inscription_date": "2005", "wikidata": "Q815443", "wikipedia": "nl:Belfort van Gent"}}, {"type": "way", "id": 684774685, "center": {"lat": 50.6064766, "lon": 3.3888559}, "nodes": [6416149838, 2519078554, 6416149839, 6416149840, 6416149841, 6416149842, 8372033361, 6416149843, 6416149844, 6416149845, 6416149846, 6416149847, 6416149848, 2590084465, 8372033390, 6416149849, 6416149850, 6416149851, 6416149852, 6416149853, 6416149854, 8372033389, 6416149855, 6416149856, 6416149857, 6416149858, 6416149859, 6416149824, 8372033398, 8372033397, 8372033396, 6416149860, 8372033395, 6416149861, 6416149862, 8372033394, 6416149863, 6416149864, 8372033393, 6416149865, 8372033392, 8372033391, 6416149866, 6416149867, 6416149868, 6416149869, 6416149870, 6416149871, 6416149872, 6416149873, 694072626, 6416149874, 8372033388, 6416149875, 8372033387, 6416149876, 6416149877, 8372033386, 8372033385, 8372033384, 6416149878, 6416149879, 6416149880, 6416149881, 6416149882, 6416149883, 8372033383, 6416149884, 6416149985, 8372033382, 5711483573, 6416149986, 8372033381, 6416149987, 6416149988, 8372033380, 6416149989, 8372033379, 6416149990, 6416149991, 8372033378, 6416149992, 6416149993, 6766345042, 6416149994, 8372033375, 8372033376, 8372033377, 6416149996, 8372033374, 8372033373, 6416149997, 8372033372, 6416149998, 8372033371, 6416149999, 8372033370, 8372033369, 6416150000, 8372033368, 8372033366, 8372033367, 6416150001, 8372033365, 8372033364, 6416150002, 8372033363, 6416150003, 8372033362, 6416150004, 6416150005, 6416150006, 6416150007, 6416150008, 6766354301, 2590084469, 2590084476, 6416149838], "tags": {"addr:city": "Tournai", "addr:housenumber": "1", "addr:postcode": "7500", "addr:street": "Place Paul-Emile Janson", "building": "cathedral", "denomination": "roman_catholic", "heritage": "1", "heritage:operator": "whc", "heritage:ref": "1009", "heritage:website": "https://whc.unesco.org/en/list/1009/", "historic": "church", "name": "Cath\u00e9drale Notre Dame de Tournai", "ref:whc": "1009", "start_date": "1171", "whc:criteria": "(ii)(iv)", "whc:inscription_date": "2000", "wheelchair": "limited", "wikidata": "Q391229", "wikimedia_commons": "File:Tournai_JPG006.jpg", "wikipedia": "nl:Kathedraal van Doornik"}}, {"type": "way", "id": 845673711, "center": {"lat": 50.4106842, "lon": 4.1655518}, "nodes": [2199898871, 7889932575, 7889932576, 7889932577, 2199898871], "tags": {"building:part": "yes", "height": "35", "heritage": "1", "heritage:operator": "whc", "historic": "tower", "man_made": "tower", "material": "brick;stone", "name": "Beffroi", "ref:whc": "943-027", "tourism": "attraction", "tower:type": "belfry;clock_tower", "whc:criteria": "(ii)(iv)", "whc:inscription_date": "1999", "wikidata": "Q4310021"}}, {"type": "way", "id": 845814299, "center": {"lat": 50.4124927, "lon": 4.4436331}, "nodes": [7891047992, 7891047993, 7891047994, 7891047995, 7891047992], "tags": {"alt_name": "Beffroi de l'H\u00f4tel de Ville", "building:part": "yes", "height": "70", "heritage": "1", "heritage:operator": "whc", "historic": "tower", "man_made": "tower", "name": "Beffroi", "name:en": "Belfry", "ref:whc": "943-028", "tourism": "attraction", "tower:type": "belfry", "whc:criteria": "(ii)(iv)", "whc:inscription_date": "1999", "wikidata": "Q99020145"}}, {"type": "way", "id": 901987847, "center": {"lat": 51.1292053, "lon": 2.7520703}, "nodes": [6216471192, 6216471190, 6216471191, 8378382289, 8378382290, 6216471195, 6216471192], "tags": {"building": "yes", "height": "35", "heritage": "1", "heritage:operator": "whc", "heritage:ref": "943", "heritage:website": "http://whc.unesco.org/en/list/943", "man_made": "tower", "ref:whc": "943-018", "tower:type": "bell_tower", "whc:criteria": "(ii)(iv)", "whc:inscription_date": "1999"}}, {"type": "way", "id": 902061660, "center": {"lat": 51.0728463, "lon": 2.6616693}, "nodes": [2978960341, 2978960342, 8379028656, 8379028657, 2978960341], "tags": {"building": "yes", "fixme": "niet zeker van plaats en geometrie (foto's zijn niet duidelijk)", "heritage": "1", "heritage:operator": "whc", "heritage:ref": "943", "heritage:website": "http://whc.unesco.org/en/list/943", "historic": "tower", "man_made": "tower", "name": "Belfort van Veurne", "ref:whc": "943-025", "start_date": "1628", "tower:type": "bell_tower", "whc:criteria": "(ii)(iv)", "whc:inscription_date": "1999", "wikidata": "Q2612448", "wikipedia": "nl:Belfort van Veurne"}}, {"type": "way", "id": 908327658, "center": {"lat": 50.7789966, "lon": 5.4692141}, "nodes": [5199512751, 5199512770, 8164760187, 8434238380, 8434238381, 8434238382, 8434238383, 8434238384, 8434238385, 8434238386, 8434238387, 8434238388, 8434238389, 8434238390, 5199512751], "tags": {"alt_name": "Begijnhof van Tongeren", "heritage": "1", "heritage:operator": "whc", "heritage:ref": "855", "heritage:website": "https://whc.unesco.org/en/list/855", "landuse": "residential", "name": "Sint-Catharinabegijnhof", "ref:whc": "855-006", "whc:criteria": "(ii)(iii)(iv)", "whc:inscription_date": "1998", "wikidata": "Q2018241", "wikipedia": "nl:Sint-Catharinabegijnhof"}}, {"type": "relation", "id": 933017, "center": {"lat": 50.8467374, "lon": 4.3525669}, "members": [{"type": "way", "ref": 59917698, "role": ""}, {"type": "way", "ref": 59917695, "role": ""}, {"type": "way", "ref": 22411052, "role": ""}, {"type": "way", "ref": 13494346, "role": ""}, {"type": "way", "ref": 59917697, "role": ""}, {"type": "way", "ref": 3517898, "role": ""}, {"type": "way", "ref": 306856262, "role": ""}, {"type": "way", "ref": 306856862, "role": ""}, {"type": "node", "ref": 3118681510, "role": ""}, {"type": "node", "ref": 3118693283, "role": ""}, {"type": "way", "ref": 306856462, "role": ""}, {"type": "way", "ref": 306856563, "role": ""}, {"type": "way", "ref": 306856605, "role": ""}, {"type": "way", "ref": 306856637, "role": ""}, {"type": "way", "ref": 306856455, "role": ""}, {"type": "way", "ref": 306856450, "role": ""}, {"type": "way", "ref": 306856857, "role": ""}, {"type": "node", "ref": 3118693317, "role": ""}, {"type": "node", "ref": 3118693312, "role": ""}, {"type": "way", "ref": 306856411, "role": ""}, {"type": "way", "ref": 306856407, "role": ""}], "tags": {"heritage": "1", "heritage:operator": "whc", "heritage:ref": "857", "heritage:since": "1998", "heritage:website": "http://whc.unesco.org/en/list/857", "image": "http://commons.wikimedia.org/wiki/File:Grote_Markt_Grand_Place,_Brussels_%284351349910%29.jpg", "name": "La Grand-Place - de Grote Markt", "name:fr": "La Grand-Place", "name:nl": "de Grote Markt", "type": "collection", "whc:criteria": "(ii)(iv)", "whc:inscription_date": "1998", "wikidata": "Q215429", "wikipedia": "fr:Grand-Place de Bruxelles"}}, {"type": "relation", "id": 2284646, "center": {"lat": 50.8511782, "lon": 2.8852982}, "members": [{"type": "way", "ref": 188066455, "role": "outer"}, {"type": "way", "ref": 171796423, "role": "inner"}], "tags": {"addr:city": "Ieper", "building": "historic", "heritage": "1", "heritage:operator": "whc", "heritage:ref": "943", "heritage:since": "1999", "heritage:website": "http://whc.unesco.org/en/list/943", "historic": "building", "name": "Lakenhalle", "name:en": "Cloth Hall", "name:nl": "Lakenhalle", "name:pl": "Sukiennice w Ypres", "ref:whc": "943-010", "start_date": "~1378", "type": "multipolygon", "whc:criteria": "(ii)(iv)", "whc:inscription_date": "2005", "wikidata": "Q1923610", "wikimedia_commons": "File:De_Lakenhal_met_het_Belfort,_Ieper.jpg", "wikipedia": "nl:Lakenhalle van Ieper"}}, {"type": "relation", "id": 3226651, "center": {"lat": 51.4032825, "lon": 4.7639174}, "members": [{"type": "way", "ref": 239233129, "role": "house"}, {"type": "way", "ref": 239233130, "role": "house"}, {"type": "way", "ref": 239233131, "role": "house"}, {"type": "way", "ref": 239233132, "role": "house"}, {"type": "way", "ref": 239233133, "role": "house"}, {"type": "way", "ref": 239233135, "role": "house"}, {"type": "way", "ref": 239233136, "role": "house"}, {"type": "way", "ref": 239269827, "role": "house"}, {"type": "way", "ref": 239269826, "role": "house"}, {"type": "way", "ref": 239269825, "role": "house"}, {"type": "way", "ref": 239269829, "role": "house"}, {"type": "way", "ref": 239269828, "role": "house"}, {"type": "way", "ref": 239269822, "role": "house"}, {"type": "way", "ref": 239269824, "role": "house"}, {"type": "way", "ref": 239269820, "role": "house"}, {"type": "way", "ref": 239269823, "role": "house"}, {"type": "way", "ref": 239269818, "role": "house"}, {"type": "way", "ref": 239269821, "role": "house"}, {"type": "way", "ref": 239269817, "role": "house"}, {"type": "way", "ref": 239269816, "role": "house"}, {"type": "way", "ref": 239269835, "role": "house"}, {"type": "way", "ref": 239269834, "role": "house"}, {"type": "way", "ref": 239269833, "role": "house"}, {"type": "way", "ref": 239269832, "role": "house"}, {"type": "way", "ref": 239269831, "role": "house"}, {"type": "way", "ref": 239269830, "role": "house"}, {"type": "way", "ref": 239269819, "role": "house"}, {"type": "way", "ref": 239269815, "role": "house"}, {"type": "way", "ref": 239375575, "role": "house"}, {"type": "way", "ref": 239375574, "role": "house"}, {"type": "way", "ref": 239375573, "role": "house"}, {"type": "way", "ref": 239375572, "role": "house"}, {"type": "way", "ref": 239375576, "role": "house"}, {"type": "way", "ref": 239375571, "role": "house"}, {"type": "way", "ref": 905903252, "role": "house"}, {"type": "way", "ref": 239375578, "role": "house"}], "tags": {"addr:city": "Hoogstraten", "addr:country": "BE", "addr:postcode": "2320", "addr:province": "Antwerpen", "heritage": "1", "heritage:operator": "whc", "heritage:ref": "855", "heritage:website": "https://whc.unesco.org/en/list/855", "name": "Begijnhof Hoogstraten", "ref:whc": "855-001", "type": "site", "whc:criteria": "(ii)(iii)(iv)", "whc:inscription_date": "1998", "wikidata": "Q1049579", "wikipedia": "nl:Begijnhof Hoogstraten"}}, {"type": "relation", "id": 3417049, "center": {"lat": 50.466522, "lon": 3.1530975}, "members": [{"type": "way", "ref": 252116588, "role": ""}, {"type": "way", "ref": 114133990, "role": ""}, {"type": "way", "ref": 285674414, "role": ""}, {"type": "way", "ref": 81172947, "role": ""}, {"type": "way", "ref": 332352664, "role": ""}, {"type": "way", "ref": 198562542, "role": ""}, {"type": "way", "ref": 521664488, "role": ""}, {"type": "node", "ref": 510346847, "role": ""}, {"type": "way", "ref": 72578053, "role": ""}, {"type": "node", "ref": 2484543082, "role": ""}, {"type": "way", "ref": 178163496, "role": ""}, {"type": "way", "ref": 40848253, "role": ""}, {"type": "node", "ref": 981368273, "role": ""}, {"type": "node", "ref": 2485464030, "role": ""}, {"type": "way", "ref": 252115333, "role": ""}, {"type": "way", "ref": 136658442, "role": ""}, {"type": "way", "ref": 253073176, "role": ""}, {"type": "node", "ref": 2485464018, "role": ""}, {"type": "node", "ref": 2485464024, "role": ""}, {"type": "way", "ref": 255168938, "role": ""}, {"type": "way", "ref": 140246434, "role": ""}, {"type": "node", "ref": 2485633969, "role": ""}, {"type": "way", "ref": 401645034, "role": ""}, {"type": "node", "ref": 2485633971, "role": ""}, {"type": "way", "ref": 845673711, "role": ""}, {"type": "way", "ref": 845814299, "role": ""}], "tags": {"building": "public", "heritage": "1", "heritage:operator": "whc", "name": "Beffrois de Belgique et de France", "name:en": "Belfries of Belgium and France", "name:nl": "Belforten van Belgi\u00eb en Frankrijk", "ref:whc": "943", "type": "site", "whc:criteria": "(ii)(iv)", "whc:inscription_date": "2005"}}, {"type": "relation", "id": 3428464, "center": {"lat": 51.2184774, "lon": 4.3980069}, "members": [{"type": "way", "ref": 32087290, "role": "outer"}, {"type": "way", "ref": 255939101, "role": "inner"}], "tags": {"OnroerendErfgoed:criteria": "M", "addr:city": "Antwerpen", "addr:housenumber": "22", "addr:postcode": "2000", "addr:street": "Vrijdagmarkt", "building": "yes", "description": "Museum Plantin-Moretus", "email": "museum.plantin.moretus@stad.antwerpen.be", "height": "16.4", "heritage": "1", "heritage:operator": "whc", "heritage:ref": "1185", "heritage:since": "2005", "heritage:website": "http://whc.unesco.org/en/list/1185", "name": "Plantin-Moretusmuseum", "name:ru": "\u043a\u043d\u0438\u0433\u043e\u043f\u0435\u0447\u0430\u0442\u0430\u043d\u0438\u044e", "opening_hours": "Tu-Su 10:00-17:00; Jan 1 off; May 1 off; Nov 1 off; Dec 25 off; easter+39 days off", "phone": "+32 3 221 14 50", "photo": "http://en.wikipedia.org/wiki/File:Plantin_antwerp_01.jpg", "ref:OnroerendErfgoed": "4688", "ref:whc": "1185", "tourism": "museum", "type": "multipolygon", "website": "https://www.museumplantinmoretus.be/", "whc:criteria": "C (ii)(iii)(iv)(vi)", "whc:inscription_date": "2005", "wikidata": "Q595802", "wikipedia": "nl:Plantin-Moretusmuseum"}}, {"type": "relation", "id": 7906552, "center": {"lat": 50.9874889, "lon": 5.0610954}, "members": [{"type": "way", "ref": 553506570, "role": "outer"}], "tags": {"heritage": "1", "heritage:operator": "whc", "heritage:ref": "855", "heritage:website": "https://whc.unesco.org/en/list/855", "landuse": "residential", "name": "Begijnhof Diest", "ref:whc": "855-010", "type": "multipolygon", "whc:criteria": "(ii)(iii)(iv)", "whc:inscription_date": "1998", "wikidata": "Q2341843", "wikipedia": "nl:Begijnhof Diest"}}]}