{"version": 0.6, "generator": "Overpass API 0.7.56.7 b85c4387", "osm3s": {"timestamp_osm_base": "2021-03-01T19:09:42Z", "timestamp_areas_base": "2021-03-01T18:09:42Z", "copyright": "The data included in this document is from www.openstreetmap.org. The data is made available under ODbL."}, "elements": [{"type": "node", "id": 672079915, "lat": 48.125033, "lon": 17.2108467, "tags": {"alt_name": "Troji\u010dn\u00fd st\u013ap", "artwork_type": "statue", "denomination": "roman_catholic", "heritage": "2", "name": "Najsv\u00e4tej\u0161ia Trojica", "religion": "christian", "source": "kapor2;http://www.pamiatky.sk/po/po/Details?id=1153", "start_date": "late C18", "tourism": "artwork"}}, {"type": "node", "id": 4315204072, "lat": 48.1416265, "lon": 17.278445, "tags": {"building:architecture": "neoclassicism", "denomination": "roman_catholic", "heritage": "2", "historic": "wayside_shrine", "name": "Bo\u017eia muka sv. Trojice", "religion": "christian", "source": "http://www.pamiatky.sk/po/po/Details?id=2097", "start_date": "~1800"}}, {"type": "node", "id": 26036174, "lat": 48.4580926, "lon": 18.8988414, "tags": {"alt_name:de": "Schebnitz", "city_id": "516643", "city_type": "county_city", "ele": "494", "heritage": "1", "heritage:operator": "whc", "import_ref": "city_import_sk_1", "loc_name": "Banska Stiavnica,Banska Stiavnica a Banska Bela,Bansk\u00e1 \u0160tiavnica,Bansk\u00e1 \u0160tiavnica a Bansk\u00e1 Bel\u00e1,Schemnitz,Selmecbanya,Selmecb\u00e1nya,Selmeczbanya,Selmeczb\u00e1nya", "name": "Bansk\u00e1 \u0160tiavnica", "name:de": "Schemnitz", "name:hu": "Selmecb\u00e1nya", "name:pl": "Ba\u0144ska Szczawnica", "name:ru": "\u0411\u0430\u043d\u0441\u043a\u0430 \u0428\u0442\u044c\u044f\u0432\u043d\u0438\u0446\u0430", "place": "town", "population": "10640", "postal_code": "969 01", "region_id": "602", "source:name": "http://earth-info.nga.mil/gns/html/cntry_files.html,www.statistics.sk", "wikidata": "Q208110", "wikipedia": "sk:Bansk\u00e1 \u0160tiavnica"}}, {"type": "node", "id": 725515163, "lat": 49.0393099, "lon": 19.2783873, "tags": {"heritage": "1", "heritage:operator": "whc", "is_in": "Ru\u017eomberok,Ru\u017eomberok,Slovensko", "name": "Vlkol\u00ednec", "place": "suburb", "postal_code": "034 03", "website": "http://www.vlkolinec.sk/", "wikidata": "Q392365", "wikipedia": "sk:Vlkol\u00ednec"}}, {"type": "node", "id": 35172446, "lat": 48.6644348, "lon": 20.309203, "tags": {"depth": "30", "fee": "yes", "heritage": "1", "heritage:operator": "whc", "is_in": "Ochtin\u00e1", "length": "585", "name": "Ochtinsk\u00e1 aragonitov\u00e1 jasky\u0148a", "name:de": "Ochtinaer Aragonith\u00f6hle", "natural": "cave_entrance", "opening_hours": "Tu-Su", "source:name": "www.ssj.sk", "tourism": "attraction", "wikidata": "Q1075804", "wikipedia": "sk:Ochtinsk\u00e1 aragonitov\u00e1 jasky\u0148a"}}, {"type": "node", "id": 35608664, "lat": 48.4777575, "lon": 20.4698154, "tags": {"contact:email": "domica@ssj.sk", "contact:phone": "+421 58 788 2010", "contact:website": "http://www.ssj.sk/sk/jaskyna/7-domica", "depth": "12", "fee": "yes", "heritage": "1", "heritage:operator": "whc", "length": "5368", "name": "Jasky\u0148a Domica", "name:de": "Domica H\u00f6hle", "name:en": "Domica Cave", "name:hu": "Domica-barlang", "natural": "cave_entrance", "opening_hours": "Feb-May, Sep 01-Dec 23 Tu-Su 09:30-14:00; Jun-Aug Tu-Su 09:00-16:00", "source:name": "www.ssj.sk", "wikidata": "Q908287", "wikipedia": "de:Domica"}}, {"type": "node", "id": 35608663, "lat": 48.5625021, "lon": 20.4655019, "tags": {"depth": "10", "fee": "yes", "heritage": "1", "heritage:operator": "whc", "image": "File:Jaskinia Gombasecka 2.jpg", "is_in": "Slavec", "length": "1525", "name": "Gombaseck\u00e1 jasky\u0148a", "name:de": "Gombaseker H\u00f6hle", "name:hu": "Gombasz\u00f6gi barlang", "natural": "cave_entrance", "opening_hours": "Tu-Su", "ref:whc": "725-858", "source:name": "www.ssj.sk", "tourism": "attraction", "wikidata": "Q1011733", "wikipedia": "sk:Gombaseck\u00e1 jasky\u0148a"}}, {"type": "node", "id": 7977859038, "lat": 48.6634877, "lon": 20.5308531, "tags": {"amenity": "clock", "display": "sundial", "heritage": "2", "heritage:operator": "pusr", "loc_name": "ma\u013eovan\u00e9 slne\u010dn\u00e9 hodiny", "ref:pusr": "808-4690/2", "start_date": "1906", "support": "wall_mounted"}}, {"type": "node", "id": 7977859037, "lat": 48.6621217, "lon": 20.5330075, "tags": {"amenity": "clock", "display": "sundial", "heritage": "2", "heritage:operator": "pusr", "ref:pusr": "808-462/3", "support": "wall_mounted"}}, {"type": "node", "id": 26036345, "lat": 49.0251116, "lon": 20.587999, "tags": {"city_id": "543292", "city_type": "county_city", "ele": "650", "heritage": "1", "heritage:operator": "whc", "import_ref": "city_import_sk_1", "is_in": "Levo\u010da,Pre\u0161ovsk\u00fd kraj,V\u00fdchodn\u00e9 Slovensko,Slovensko", "loc_name": "Leutschau,Levoca,Levocha,Levo\u010da,Locse,L\u00f6cse,L\u0151cse", "name": "Levo\u010da", "name:de": "Leutschau", "name:hu": "L\u0151cse", "name:la": "Leutsovia", "name:pl": "Lewocza", "place": "town", "population": "14716", "postal_code": "054 01", "region_id": "704", "source:name": "http://earth-info.nga.mil/gns/html/cntry_files.html,www.statistics.sk", "wikidata": "Q242478", "wikipedia": "sk:Levo\u010da"}}, {"type": "node", "id": 526186394, "lat": 49.0009127, "lon": 20.7407667, "tags": {"heritage": "1", "heritage:operator": "whc", "name": "Spi\u0161sk\u00e1 Kapitula", "name:de": "Zipser Kapitel", "name:hu": "Szepeshely", "place": "suburb", "wikidata": "Q1042821", "wikipedia": "sk:Spi\u0161sk\u00e1 Kapitula"}}, {"type": "node", "id": 35608666, "lat": 48.6770122, "lon": 20.9772041, "tags": {"addr:city": "Jasov", "addr:postcode": "044 23", "depth": "55", "fee": "yes", "heritage": "1", "heritage:operator": "whc", "is_in": "Jasov", "length": "2811", "name": "Jasovsk\u00e1 jasky\u0148a", "name:cs": "Jasovsk\u00e1 jeskyn\u011b", "name:de": "Jossauer H\u00f6hle", "name:en": "Jasovsk\u00e1 Cave", "name:fr": "Grotte de Jasov", "name:hu": "J\u00e1sz\u00f3i-barlang", "name:pl": "Jaskinia Jasowska", "name:ru": "\u042f\u0441\u043e\u0432\u0441\u043a\u0430\u044f \u043f\u0435\u0449\u0435\u0440\u0430", "natural": "cave_entrance", "opening_hours": "Tu-Su", "operator": "Ing. Menda Jozef", "phone": "+421/ (0)55/ 466 41 65", "source:name": "www.ssj.sk", "tourism": "attraction", "website": "http://www.ssj.sk/sk/jaskyna/11-jasovska-jaskyna", "wikidata": "Q920499", "wikipedia": "sk:Jasovsk\u00e1 jasky\u0148a"}}, {"type": "node", "id": 26037409, "lat": 49.2926871, "lon": 21.2756031, "tags": {"city_id": "519006", "city_type": "county_city", "ele": "353", "heritage": "1", "heritage:operator": "whc", "import_ref": "city_import_sk_1", "is_in": "Bardejov,Pre\u0161ovsk\u00fd kraj,V\u00fdchodn\u00e9 Slovensko,Slovensko", "loc_name": "Bardejov,Bartfa,Bartfeld,B\u00e1rtf", "name": "Bardejov", "name:de": "Bartfeld", "name:hu": "B\u00e1rtfa", "name:pl": "Bardej\u00f3w", "name:sk": "Bardejov", "name:uk": "\u0411\u0430\u0440\u0434\u0435\u0439\u043e\u0432", "place": "town", "population": "33405", "postal_code": "085 01", "region_id": "701", "source:name": "http://earth-info.nga.mil/gns/html/cntry_files.html,www.statistics.sk", "wikidata": "Q27007", "wikipedia": "sk:Bardejov"}}, {"type": "way", "id": 49016550, "center": {"lat": 48.0260239, "lon": 17.1968387}, "nodes": [622066227, 622066230, 622066232, 622066235, 622066237, 622066240, 622066244, 622066246, 622066247, 622066249, 622066250, 622066252, 622066227], "tags": {"building": "yes", "building:architecture": "baroque", "castle_type": "manor", "heritage": "2", "historic": "castle", "name": "\u010cunovsk\u00fd ka\u0161tie\u013e", "source": "kapor2;http://www.pamiatky.sk/po/po/Details?id=1526", "start_date": "1765..1770"}}, {"type": "way", "id": 49016546, "center": {"lat": 48.026217, "lon": 17.1963964}, "nodes": [622066260, 622066270, 622066271, 622066261, 622066260], "tags": {"building": "yes", "building:architecture": "renaissance", "heritage": "2", "historic": "granary", "name": "P\u00e1nska s\u00fdpka", "source": "kapor2;http://www.pamiatky.sk/po/po/Details?id=1527", "start_date": "late C16..early C17"}}, {"type": "way", "id": 25350401, "center": {"lat": 48.0826093, "lon": 17.0865844}, "nodes": [276269069, 8284179732, 4537301943, 276269070], "tags": {"access": "yes", "bicycle": "no", "bridge": "yes", "foot": "yes", "heritage": "2", "highway": "track", "layer": "1", "material": "stone", "motor_vehicle": "no", "name": "Barokov\u00fd most", "name:en": "Baroque bridge", "source": "https://www.pamiatky.sk/po/po/Details?id=24078", "start_date": "C18", "surface": "paved", "tourism": "attraction"}}, {"type": "way", "id": 58127319, "center": {"lat": 48.0657204, "lon": 17.1110533}, "nodes": [721378490, 721378683, 721378468, 721378670, 721378649, 721378487, 721378680, 721378656, 721378636, 721378610, 721378577, 721378540, 721378663, 721378646, 721378611, 721378579, 721378596, 721378554, 721378528, 721378461, 721378608, 721378560, 721378538, 721378484, 721378521, 721378686, 721378660, 721378641, 721378551, 721378525, 721378688, 721378661, 721378679, 721378655, 721378632, 721378594, 721378618, 721378590, 721378547, 721378490], "tags": {"addr:city": "Bratislava", "addr:street": "Mand\u013eov\u00e1", "amenity": "place_of_worship", "building": "church", "building:architecture": "baroque", "denomination": "roman_catholic", "heritage": "2", "name": "Kostol sv\u00e4t\u00e9ho Mikul\u00e1\u0161a", "religion": "christian", "source": "kapor2;http://www.pamiatky.sk/po/po/Details?id=1537", "start_date": "1765"}}, {"type": "way", "id": 378574918, "center": {"lat": 48.136866, "lon": 17.1045849}, "nodes": [7064867937, 3819810832, 3819810830, 3819810828, 8373205807, 3819810827, 3819810829, 8373214122, 8373205806, 3819810831, 3819810834, 3819810837, 7064867935, 7064867936, 3819810840, 8373214121, 3819810842, 8373205809, 3819810844, 3819810845, 8373205808, 3819810843, 3819810841, 3819810839, 8373214120, 3819810835, 7064867937], "tags": {"amenity": "restaurant", "architect": "Jozef Lacko;Ladislav Ku\u0161n\u00edr;Ivan Slame\u0148", "building": "yes", "building:architecture": "modernism", "height": "95", "heritage": "2", "layer": "5", "man_made": "tower", "material": "metal", "min_height": "85", "name": "UFO", "old_name": "Bystrica", "opening_hours": "Mo-Su 10:00-23:00", "roof:material": "metal", "roof:shape": "pyramidal", "source": "https://www.pamiatky.sk/po/po/Details?id=24463", "start_date": "1971", "tourism": "viewpoint", "tower:type": "observation", "website": "http://www.u-f-o.sk", "wikidata": "Q17513752"}}, {"type": "way", "id": 238810163, "center": {"lat": 48.1383438, "lon": 17.1042852}, "nodes": [2466068349, 2484342376, 2466068347, 8373171130, 2466068344, 8373171131, 2466068341, 8373171133, 2466068339, 2466068337, 2466068335, 8373171134, 8373171135, 2466068334, 8373171137, 8373171139, 8373171140, 8373171143, 8373171147, 2466068330, 2466068329, 2466068328, 8373205810, 8373205814, 8373205816, 8373205813, 8373214118, 8373214124, 2466068326, 280685682, 280685679, 2466068327, 3820607534, 8373214125, 8373214119, 8373214117, 8373205815, 8373205812, 8373205811, 8373205805, 1374999939, 2466068331, 8373171146, 8373171144, 8373171145, 2466068332, 8373171142, 8373171141, 8373171138, 2466068333, 8373171136, 8373171123, 8373171124, 2466068336, 2466068340, 2466068346, 8373171122, 2466068357, 32031441, 2466068355, 8373171153, 8373171150, 8373171154, 8373171151, 8373171149, 8373171152, 8373171148, 799476917, 8373114116, 2466068372, 18396376, 18396375, 2466068371, 8373114115, 8373171117, 5345126954, 2466068370, 2466068369, 8373171118, 2466068368, 2466068365, 8373171125, 2466068363, 2466068362, 2466068360, 29536623, 2466068358, 2466068359, 2466068361, 8373171126, 2466068364, 2466068367, 8373171119, 8373171121, 2466068343, 2466068342, 2466068345, 2466068348, 8373171132, 8373171127, 2466068350, 8373171128, 8373171129, 2466068351, 2466068352, 2466068353, 2466068356, 2476642823, 358307004, 2466068349], "tags": {"alt_name": "Nov\u00fd most;Most cestn\u00fd", "architect": "Jozef Lacko;Ladislav Ku\u0161n\u00edr;Ivan Slame\u0148", "bridge": "suspension", "bridge:structure": "cable-stayed", "building:architecture": "modernism", "heritage": "2", "layer": "1", "man_made": "bridge", "name": "Most SNP", "name:de": "Br\u00fccke des Slowakischen Nationalaufstandes", "source": "https://www.pamiatky.sk/po/po/Details?id=24464;https://www.petrzalka.sk/wp-content/uploads/2019/04/sken.pdf", "start_date": "1973", "wikidata": "Q837291"}}, {"type": "way", "id": 34562827, "center": {"lat": 48.1409714, "lon": 17.1174184}, "nodes": [482517450, 482517452, 401245036, 2508066935, 2508066937, 401245029, 6042913071, 6042913074, 401245031, 2508066932, 401245033, 401245035, 401245034, 401245032, 482541268, 482541269, 482517453, 2508066931, 482517450], "tags": {"addr:city": "Bratislava", "addr:conscriptionnumber": "4533", "addr:country": "SK", "addr:housenumber": "2", "addr:street": "Dostojevsk\u00e9ho rad", "addr:streetnumber": "2", "addr:suburb": "Star\u00e9 Mesto", "alt_name": "Umeleck\u00e1 beseda slovensk\u00e1", "architect": "Alois Bal\u00e1n;Ji\u0159\u00ed Grossmann", "building": "yes", "building:architecture": "functionalism", "heritage": "2", "is_in": "Bratislava - Star\u00e9 Mesto", "loc_name": "Umelka", "name": "Umeleck\u00e1 gal\u00e9ria SV\u00da", "source": "kapor2", "start_date": "1925", "url": "https://www.pamiatky.sk/po/po/Details?id=344", "wikidata": "Q16519379"}}, {"type": "way", "id": 39962221, "center": {"lat": 48.1433571, "lon": 17.1167403}, "nodes": [479998472, 479998466, 479998462, 3481196088, 479998465, 479998461, 479998451, 479998474, 479998480, 479998479, 479998475, 479998452, 479998454, 479998457, 479998460, 479998459, 479998458, 479998456, 479998453, 6407535790, 479998476, 479998481, 6407535788, 3481196089, 6407535787, 479998482, 479998478, 479998484, 479998469, 6407535786, 6407535785, 479998467, 6407535784, 6407535783, 6407535782, 479998471, 479998472], "tags": {"addr:city": "Bratislava", "addr:country": "SK", "addr:housenumber": "2", "addr:postcode": "811 09", "addr:street": "Bezru\u010dova", "addr:streetnumber": "2", "addr:suburb": "Star\u00e9 Mesto", "alt_name:hu": "K\u00e9k Templom", "amenity": "place_of_worship", "architect": "Lechner \u00d6d\u00f6n architect (1845-1914)", "building": "church", "building:colour": "brightblue", "denomination": "roman_catholic", "end_date": "1908", "heritage": "2", "historic": "yes", "is_in": "Bratislava - Star\u00e9 Mesto", "loc_name": "Modr\u00fd kostol\u00edk", "loc_name:de": "Blaue Kirche", "loc_name:en": "Blue Church", "name": "Kostol sv\u00e4tej Al\u017ebety", "name:de": "Sankt-Elisabeth-Kirche", "name:en": "Church of St. Elisabeth", "name:fr": "\u00c9glise Sainte-\u00c9lizabeth", "name:hu": "Szent Erzs\u00e9bet templom", "name:it": "Chiesa di Santa Elisabetta", "name:ru": "\u0426\u0435\u0440\u043a\u043e\u0432\u044c \u0441\u0432\u044f\u0442\u043e\u0439 \u0415\u043b\u0438\u0437\u0430\u0432\u0435\u0442\u044b", "name:sk": "Kostol sv\u00e4tej Al\u017ebety", "opening_hours": "Mo-Sa 06:50-07:35,17:30-19:00; Su 07:30-12:00,17:30-19:00", "religion": "christian", "service_times": "Mo-Sa 07:00,18:00; Su 08:00,09:30,11:00,18:00", "start_date": "1907", "website": "https://modrykostol.fara.sk/", "wikidata": "Q579043", "wikipedia": "sk:Kostol sv\u00e4tej Al\u017ebety (Modr\u00fd kostol\u00edk)", "wikipedia:hu": "Lechner \u00d6d\u00f6n"}}, {"type": "way", "id": 372310178, "center": {"lat": 48.1404616, "lon": 17.115842}, "nodes": [3758626271, 3758626272, 3758626273, 3758626274, 3758626275, 3758626283, 3758626276, 3758626277, 3758626278, 3758626279, 3758626280, 3758626281, 3758626282, 3758626271], "tags": {"addr:city": "Bratislava", "addr:housenumber": "2", "addr:postcode": "818 01", "addr:street": "Gondova", "amenity": "university", "building:architecture": "art nouveau", "faculty": "Filozofick\u00e1 fakulta", "heritage": "2", "name": "Filozofick\u00e1 fakulta UK", "name:en": "Faculty of Philosophy - Comenius University", "name:hu": "Comenius Egyetem, B\u00f6lcs\u00e9szettudom\u00e1nyi Kar", "official_name": "Filozofick\u00e1 fakulta Univerzity Komensk\u00e9ho v Bratislave", "operator": "Univerzita Komensk\u00e9ho v Bratislave", "short_name": "FiF UK", "start_date": "1913", "url": "https://www.pamiatky.sk/po/po/Details?id=809", "website": "https://fphil.uniba.sk/", "wikidata": "Q12765841", "wikipedia": "sk:Filozofick\u00e1 fakulta Univerzity Komensk\u00e9ho v Bratislave"}}, {"type": "way", "id": 60898908, "center": {"lat": 48.1448657, "lon": 17.1668645}, "nodes": [762178731, 762170309, 762159833, 1325123343, 1325123339, 1325123336, 1325123337, 762151485, 762145003, 762137667, 762129661, 762174988, 762137158, 762129331, 762174607, 762164554, 762155032, 762148059, 762141762, 762132986, 762147732, 762141396, 762132494, 762178854, 762169958, 762159425, 762151135, 762144609, 762159061, 762150824, 762144242, 762136572, 762129008, 762174191, 762164124, 762154601, 762162608, 762153711, 762146774, 762140270, 762131701, 762177723, 762168466, 762158442, 762176989, 762167332, 762157472, 762150049, 762143438, 762135420, 762181613, 762172836, 762134975, 762181168, 762172332, 762161719, 762153310, 762146452, 762139611, 762131320, 762146043, 762139247, 762130895, 762176426, 762166664, 762156931, 762149594, 762143069, 762169830, 762159316, 762150996, 762144501, 762137034, 762129231, 762174485, 762164456, 762128886, 762174083, 762164013, 762154477, 762147634, 762141294, 762132390, 762178731], "tags": {"addr:city": "Bratislava", "addr:conscriptionnumber": "2339", "addr:housenumber": "2339", "addr:street": "Kr\u00e1sna", "alt_name": "Cs\u00e1kyho ka\u0161tie\u013e;Cs\u00e1kyovsk\u00fd ka\u0161tie\u013e", "building": "yes", "building:architecture": "eclectic", "building:colour": "yellow", "building:levels": "2", "castle_type": "manor", "heritage": "2", "historic": "castle", "import": "budovy201004", "name": "Ka\u0161tie\u013e v Prievoze", "old_name": "Cs\u00e1kyho ka\u0161tie\u013e", "religion": "christian", "roof:levels": "1", "roof:material": "roof_tiles", "roof:shape": "hipped", "source": "kapor2", "start_date": "1902", "url": "https://www.pamiatky.sk/po/po/Details?id=1162", "wikidata": "Q12769063", "wikipedia": "sk:Ka\u0161tie\u013e v Prievoze"}}, {"type": "way", "id": 506306234, "center": {"lat": 48.1954839, "lon": 17.0156927}, "nodes": [4960745297, 4960750636, 4960745298, 4960750622, 4960745299, 4960745319, 4960745300, 4960745320, 4960745301, 4960750621, 4960745302, 4960750637, 4960745303, 4960745304, 4960745305, 4960745306, 4960750623, 4960750631, 4960745307, 4960750624, 4960750632, 4960745308, 4960750635, 4960750625, 4960745309, 4960750634, 4960750626, 4960750633, 4960745310, 4960745311, 4960745312, 4960745313, 4960750630, 4960745314, 4960745315, 4960750628, 4960745316, 4960745317, 4960750627, 4960745318, 4960750629, 4960745297], "tags": {"access": "yes", "building": "yes", "heritage": "2", "historic": "archaeological_site", "historic:civilization": "western_roman", "historic:period": "dominate", "name": "Villa Rustica", "ruins": "yes", "site_type": "villa_rustica", "source": "https://www.pamiatky.sk/po/po/Details?id=1437", "start_date": "~C3"}}, {"type": "way", "id": 69234183, "center": {"lat": 48.1745891, "lon": 17.0730029}, "nodes": [830007171, 830017748, 830004982, 830013290, 830007171], "tags": {"building": "yes", "heritage": "2", "import": "budovy201004", "name": "Str\u00e1\u017eny dom", "source": "kapor2;http://www.pamiatky.sk/po/po/Details?id=1473", "start_date": "1904"}}, {"type": "way", "id": 892094184, "center": {"lat": 48.174469, "lon": 17.0726737}, "nodes": [830021891, 830020202, 830006327, 830011086, 830021891], "tags": {"addr:city": "Bratislava", "addr:conscriptionnumber": "1792", "addr:housenumber": "1792/3", "addr:street": "Cesta na \u010cerven\u00fd most", "addr:streetnumber": "3", "building": "train_station", "heritage": "2", "name": "Stanica \u017delezn\u00e1 studienka", "source": "http://www.pamiatky.sk/po/po/Details?id=1471", "start_date": "1904"}}, {"type": "way", "id": 77918828, "center": {"lat": 48.1461669, "lon": 17.1092836}, "nodes": [915762106, 915764152, 915759829, 915762566, 915764494, 915760907, 915762908, 915764692, 915761371, 915763645, 7213996192, 915764965, 915761869, 915763367, 915764783, 915763961, 915762106], "tags": {"addr:city": "Bratislava", "addr:housenumber": "4", "addr:postcode": "811 06", "addr:street": "N\u00e1mestie Slovensk\u00e9ho n\u00e1rodn\u00e9ho povstania", "amenity": "place_of_worship", "architect": "Franz Wimmer", "building": "church", "building:architecture": "romanesque_revival", "denomination": "reformed", "heritage": "2", "is_in": "Bratislava - Star\u00e9 Mesto", "name": "Kalv\u00ednsky kostol", "name:hu": "Reform\u00e1tus templom", "religion": "christian", "service_times": "Su 09:00,10:30", "source": "http://www.pamiatky.sk/po/po/Details?id=921", "start_date": "1913", "website": "http://refba.sk/sk/kostol", "wikidata": "Q19724879", "wikipedia": "sk:Kostol kres\u0165anskej reformovanej cirkvi (Bratislava)"}}, {"type": "way", "id": 43276129, "center": {"lat": 48.158414, "lon": 17.1244674}, "nodes": [543565004, 543565008, 2479591505, 2479591486, 543564968, 543564964, 2479573609, 2479573616, 543565004], "tags": {"addr:city": "Bratislava", "addr:postcode": "831 04", "addr:street": "\u0160ancov\u00e1", "architect": "Fridrich Weinwurm;Ign\u00e1c V\u00e9csei", "building": "apartments", "building:architecture": "functionalism", "building:levels": "6", "heritage": "2", "name": "Unitas blok G", "source": "https://www.pamiatky.sk/po/po/Details?id=1260", "start_date": "1932"}}, {"type": "way", "id": 23752275, "center": {"lat": 48.1571206, "lon": 17.1213481}, "nodes": [7406083440, 7406083439, 7406083438, 7406083437, 7406083436, 7406083435, 7406083434, 7406083433, 7406083432, 7406083431, 7406083430, 7406083429, 7406083428, 7406083427, 7406083426, 7406083425, 7406083424, 7406083423, 7406083422, 7406083421, 7406083420, 7406083419, 7406083418, 7406083441, 7406083442, 7406083417, 7406083416, 7406083415, 7406083414, 7406083413, 7406083412, 7406083411, 7406083410, 7406083409, 7406083440], "tags": {"addr:city": "Bratislava", "addr:housenumber": "3-7", "addr:postcode": "831 04", "addr:street": "Legion\u00e1rska", "architect": "Alois Bal\u00e1n;Ji\u0159\u00ed Grossman", "building": "apartments", "building:architecture": "rondocubism", "building:levels": "5", "heritage": "2", "name": "Po\u0161tov\u00e9 domy", "source": "kapor2;https://www.pamiatky.sk/po/po/Details?id=1251;https://www.pamiatky.sk/po/po/Details?id=1252;https://www.pamiatky.sk/po/po/Details?id=1253", "start_date": "1925"}}, {"type": "way", "id": 43276124, "center": {"lat": 48.1582679, "lon": 17.1222748}, "nodes": [543564935, 543564903, 2479591495, 2479591476, 543564906, 543564908, 2479591475, 2479591494, 543564935], "tags": {"addr:city": "Bratislava", "addr:postcode": "831 04", "addr:street": "\u0160ancov\u00e1", "architect": "Fridrich Weinwurm;Ign\u00e1c V\u00e9csei", "building": "apartments", "building:architecture": "functionalism", "building:levels": "6", "heritage": "2", "name": "Unitas blok B", "source": "https://www.pamiatky.sk/po/po/Details?id=1255", "start_date": "1932"}}, {"type": "way", "id": 43276125, "center": {"lat": 48.1582979, "lon": 17.1226881}, "nodes": [543564985, 543564982, 2479591498, 2479591479, 543564915, 543564912, 2479591478, 2479591497, 543564985], "tags": {"addr:city": "Bratislava", "addr:postcode": "831 04", "addr:street": "\u0160ancov\u00e1", "architect": "Fridrich Weinwurm;Ign\u00e1c V\u00e9csei", "building": "apartments", "building:architecture": "functionalism", "building:levels": "6", "heritage": "2", "name": "Unitas blok C", "source": "https://www.pamiatky.sk/po/po/Details?id=1256", "start_date": "1932"}}, {"type": "way", "id": 43276126, "center": {"lat": 48.1583348, "lon": 17.123271}, "nodes": [543564987, 543564990, 2479591502, 2479591483, 543564941, 543564938, 2479591482, 2479591501, 543564987], "tags": {"addr:city": "Bratislava", "addr:postcode": "831 04", "addr:street": "\u0160ancov\u00e1", "architect": "Fridrich Weinwurm;Ign\u00e1c V\u00e9csei", "building": "apartments", "building:architecture": "functionalism", "building:levels": "6", "heritage": "2", "name": "Unitas blok D", "source": "https://www.pamiatky.sk/po/po/Details?id=1257", "start_date": "1932"}}, {"type": "way", "id": 43276127, "center": {"lat": 48.1583606, "lon": 17.1236734}, "nodes": [543564996, 543564993, 2479573612, 2479573604, 543564957, 543564954, 2479591485, 2479591503, 543564996], "tags": {"addr:city": "Bratislava", "addr:postcode": "831 04", "addr:street": "\u0160ancov\u00e1", "architect": "Fridrich Weinwurm;Ign\u00e1c V\u00e9csei", "building": "apartments", "building:architecture": "functionalism", "building:levels": "6", "heritage": "2", "name": "Unitas blok E", "source": "https://www.pamiatky.sk/po/po/Details?id=1258", "start_date": "1932"}}, {"type": "way", "id": 43276128, "center": {"lat": 48.1583881, "lon": 17.1240727}, "nodes": [543564999, 543565002, 543564959, 543564962, 2479573606, 2479573614, 543564999], "tags": {"addr:city": "Bratislava", "addr:postcode": "831 04", "addr:street": "\u0160ancov\u00e1", "architect": "Fridrich Weinwurm;Ign\u00e1c V\u00e9csei", "building": "apartments", "building:architecture": "functionalism", "building:levels": "6", "heritage": "2", "name": "Unitas blok F", "source": "https://www.pamiatky.sk/po/po/Details?id=1259", "start_date": "1932"}}, {"type": "way", "id": 92201028, "center": {"lat": 48.1582058, "lon": 17.1215025}, "nodes": [543564893, 543564894, 2479591468, 2479591469, 543564898, 2479591474, 2479591491, 543540053, 543540060, 2479591492, 2479591471, 543540066, 543564893], "tags": {"addr:city": "Bratislava", "addr:postcode": "831 04", "addr:street": "\u0160ancov\u00e1", "architect": "Fridrich Weinwurm;Ign\u00e1c V\u00e9csei", "building": "apartments", "building:architecture": "functionalism", "building:levels": "6", "heritage": "2", "name": "Unitas blok A", "source": "https://www.pamiatky.sk/po/po/Details?id=1254", "start_date": "1932"}}, {"type": "way", "id": 80974959, "center": {"lat": 48.1560211, "lon": 17.1249063}, "nodes": [944077448, 944077417, 944077432, 944077445, 944077439, 944077451, 944077435, 944077447, 944077413, 944077420, 944077414, 944077425, 944077437, 944077443, 944077448], "tags": {"addr:city": "Bratislava", "addr:conscriptionnumber": "3284", "addr:housenumber": "33", "addr:postcode": "831 04", "addr:street": "Kr\u00ed\u017ena", "alt_name": "Budova v\u00fdpravn\u00e1", "building": "yes", "building:architecture": "classicism", "heritage": "2", "name": "Stanica konskej \u017eeleznice", "opening_hours:signed": "no", "source": "kapor2;https://www.pamiatky.sk/po/po/Details?id=1286", "source:conscriptionnumber": "survey", "start_date": "1840", "tourism": "museum"}}, {"type": "way", "id": 60898127, "center": {"lat": 48.1494773, "lon": 17.171466}, "nodes": [762137933, 762129755, 762175197, 762165083, 762155623, 762142721, 762134380, 762180686, 762171660, 762161031, 762152730, 762146021, 762139224, 762152257, 7472489371, 762137933], "tags": {"addr:city": "Bratislava", "addr:conscriptionnumber": "17528", "addr:housenumber": "17528", "addr:street": "Radni\u010dn\u00e9 n\u00e1mestie", "amenity": "place_of_worship", "architect": "Siegfried Theiss;Hans Jaksch", "building": "church", "building:architecture": "cubism", "building:levels": "2", "denomination": "lutheran", "heritage": "2", "import": "budovy201004", "name": "Evanjelick\u00fd kostol", "religion": "christian", "roof:levels": "2", "roof:shape": "gabled", "service_times": "Su 10:00,17:00", "source": "kapor2", "start_date": "1929", "url": "https://www.pamiatky.sk/po/po/Details?id=23582", "website": "https://www.ecavprievoz.sk/"}}, {"type": "way", "id": 60898373, "center": {"lat": 48.1500853, "lon": 17.172958}, "nodes": [762152045, 762170469, 762160008, 762151632, 762145150, 762165211, 762175346, 762152045], "tags": {"addr:city": "Bratislava", "addr:conscriptionnumber": "2064", "addr:country": "SK", "addr:housenumber": "89", "addr:postcode": "821 05", "addr:street": "Mierov\u00e1", "addr:streetnumber": "89", "addr:suburb": "II", "amenity": "fire_station", "building": "yes", "heritage": "2", "import": "budovy201004", "name": "Po\u017eiarna zbrojnica Prievoz", "source": "kapor2", "start_date": "1923", "website": "https://www.pamiatky.sk/po/po/Details?id=1167"}}, {"type": "way", "id": 49293383, "center": {"lat": 48.0324097, "lon": 17.2002215}, "nodes": [626065248, 626065222, 626065224, 626065226, 626065228, 626065230, 626065250, 626065252, 626065253, 626065255, 626065257, 626065258, 626065234, 626065241, 626065242, 626065244, 626065246, 626065248], "tags": {"amenity": "place_of_worship", "building": "church", "building:architecture": "baroque", "denomination": "roman_catholic", "heritage": "2", "name": "Kostol sv\u00e4t\u00e9ho Michala", "religion": "christian", "service_times": "Mo-Fr 17:00; Su 09:00,10:30", "source": "kapor2;http://www.pamiatky.sk/po/po/Details?id=1533", "start_date": "1783", "wikidata": "Q13425316"}}, {"type": "way", "id": 51192221, "center": {"lat": 48.0351929, "lon": 17.250048}, "nodes": [653136923, 653136927, 653136929, 653136931, 653136933, 653136813, 653136935, 653136937, 653136941, 653136943, 653136951, 653136954, 653136956, 653136958, 653136945, 653136947, 653136939, 653136925, 6002885021, 653136923], "tags": {"amenity": "place_of_worship", "building": "church", "building:architecture": "romanesque", "denomination": "roman_catholic", "heritage": "2", "name": "Kostol sv\u00e4t\u00e9ho Kr\u00ed\u017ea", "name:hu": "Sz.Kereszt", "religion": "christian", "source": "kapor2;http://www.pamiatky.sk/po/po/Details?id=2068", "start_date": "early C13", "url": "http://www.obechamuliakovo.sk/kulturne-pamiatky"}}, {"type": "way", "id": 67839935, "center": {"lat": 48.1004076, "lon": 17.1981401}, "nodes": [818962035, 818990415, 818988128, 818967829, 818997669, 818962035], "tags": {"addr:street": "Lieskovec", "building": "yes", "building:architecture": "neoclassicism", "building:levels": "3", "castle_type": "manor", "heritage": "2", "historic": "castle", "import": "budovy201004", "name": "Ka\u0161tie\u013e Lieskovec", "roof:shape": "hipped", "source": "kapor2;http://www.pamiatky.sk/po/po/Details?id=1159", "start_date": "1779..1784", "wikidata": "Q13421949", "wikipedia": "sk:Ka\u0161tie\u013e Lieskovec"}}, {"type": "way", "id": 238308128, "center": {"lat": 48.1242567, "lon": 17.2097897}, "nodes": [2461546939, 2461546944, 2461546948, 2461546950, 2461546954, 2461546956, 2461546952, 2461546958, 2461546962, 2461546967, 2461546976, 2461546973, 2461546964, 2461546979, 2461546960, 7797547158, 7797547155, 7797547156, 7797547157, 2461546949, 2461546947, 2461546943, 2461546946, 2461546941, 7797547154, 2461546939], "tags": {"addr:conscriptionnumber": "12565", "addr:housenumber": "12565", "addr:street": "Vetv\u00e1rska", "addr:suburb": "II", "amenity": "place_of_worship", "building": "church", "building:architecture": "gothic", "building:levels": "2", "denomination": "roman_catholic", "heritage": "2", "name": "Kostol sv\u00e4t\u00e9ho Mikul\u00e1\u0161a", "religion": "christian", "roof:shape": "hipped", "service_times": "Mo,Fr 17:00,18:00; Tu,We 07:00,18:00; Th 17:00; Sa 07:00,08:00; Su 08:00,09:30", "source": "kapor2;http://www.pamiatky.sk/po/po/Details?id=1152", "start_date": "1221", "website": "http://www.farapb.sk/?exp=4&act=kostoly", "wikidata": "Q13425317", "wikipedia": "sk:Kostol sv\u00e4t\u00e9ho Mikul\u00e1\u0161a (Podunajsk\u00e9 Biskupice)"}}, {"type": "way", "id": 67840260, "center": {"lat": 48.1289975, "lon": 17.2047747}, "nodes": [818982425, 818962217, 818961253, 818988621, 818968204, 818998147, 818996433, 818974814, 819006287, 818980177, 818978460, 818960009, 818986453, 818966299, 818964490, 818982425], "tags": {"building": "yes", "heritage": "2", "import": "budovy201004", "name": "K\u00faria Juraja Alberta", "source": "kapor2;http://www.pamiatky.sk/po/po/Details?id=1156", "start_date": "C18"}}, {"type": "way", "id": 67842736, "center": {"lat": 48.1251589, "lon": 17.2115336}, "nodes": [818993808, 818972438, 818970058, 819000546, 818977141, 818958804, 819008480, 818982354, 818962180, 818990860, 818988537, 818968134, 818993808], "tags": {"addr:city": "Bratislava", "addr:conscriptionnumber": "10206", "addr:housenumber": "10206/11", "addr:postcode": "821 06", "addr:street": "Troji\u010dn\u00e9 n\u00e1mestie", "addr:streetnumber": "11", "amenity": "townhall", "building": "yes", "building:architecture": "art_nouveau", "building:levels": "2", "heritage": "2", "import": "budovy201004", "name": "Miestny \u00farad Podunajsk\u00e9 Biskupice", "opening_hours": "Mo 08:00-11:30,12:30-17:00; We 07:30-11:30,12:30-16:30; Fr 07:30-11:30", "source": "kapor2;http://www.pamiatky.sk/po/po/Details?id=1158", "start_date": "1911", "website": "http://www.biskupice.sk/"}}, {"type": "way", "id": 266536214, "center": {"lat": 48.1334173, "lon": 17.2029322}, "nodes": [2720686148, 2720686151, 2720686153, 2720686154, 2720686159, 2720686161, 2720686163, 2720686160, 2720686162, 2720686158, 2720686157, 2720686155, 2720686152, 2720686156, 2720686149, 2720686150, 2720686148], "tags": {"alt_name": "Kaplnka sv\u00e4t\u00e9ho Jozefa", "amenity": "place_of_worship", "building": "church", "building:architecture": "renaissance", "denomination": "roman_catholic", "heritage": "2", "name": "Kostol sv\u00e4t\u00e9ho Jozefa", "religion": "christian", "source": "kapor2;http://www.pamiatky.sk/po/po/Details?id=1157", "source:name": "kapor2", "start_date": "~1640"}}, {"type": "way", "id": 319760600, "center": {"lat": 48.1408071, "lon": 17.2685062}, "nodes": [3262220712, 3262220717, 3262220720, 3262220727, 3262220733, 3262220739, 3262220736, 3262220741, 3262220737, 3262220740, 3262220726, 3262220731, 3262220721, 3262220723, 3262220722, 3262220715, 3262220708, 3262220705, 3262220699, 3262220696, 3262220697, 3262220692, 3262220695, 3262220694, 3262220698, 3262220700, 3262220712], "tags": {"addr:city": "Most pri Bratislave", "addr:conscriptionnumber": "99", "addr:country": "SK", "addr:housenumber": "99", "addr:place": "Most pri Bratislave", "amenity": "place_of_worship", "building": "church", "building:architecture": "gothic", "denomination": "roman_catholic", "heritage": "2", "is_in": "Most pri Bratislave", "name": "Kostol Bo\u017esk\u00e9ho Srdca Je\u017ei\u0161ovho", "old_name": "Kostol sv. Tom\u00e1\u0161a", "religion": "christian", "service_times": "Mo-Fr 18:00; Sa 08:30,18:00; Su 08:00,10:30", "source": "kapor2;http://www.pamiatky.sk/po/po/Details?id=2078", "source:conscriptionnumber": "kapor2", "start_date": "~1283"}}, {"type": "way", "id": 495722401, "center": {"lat": 48.1714111, "lon": 17.2305555}, "nodes": [4874533879, 4874533880, 4874533881, 4874533882, 4874533879], "tags": {"architect": "Du\u0161an Jurkovi\u010d", "artist_name": "Du\u0161an Jurkovi\u010d", "heritage": "2", "historic": "memorial", "material": "stone", "memorial": "memorial", "name": "Mohyla gener\u00e1la M. R. \u0160tef\u00e1nika", "source": "http://www.pamiatky.sk/po/po/Details?id=2090", "start_date": "1923", "wikidata": "Q13450691", "wikipedia": "sk:Mohyla gener\u00e1la Milana Rastislava \u0160tef\u00e1nika"}}, {"type": "way", "id": 249265495, "center": {"lat": 48.192278, "lon": 19.5225262}, "nodes": [8197199395, 8197199396, 2558982034, 2558982002, 8197199397, 8197199399, 8197199400, 8197199398, 8197199393, 8197199394, 8197199406, 2558981999, 2558982035, 8197199395], "tags": {"addr:city": "Mu\u013ea", "addr:conscriptionnumber": "2", "addr:housenumber": "2", "addr:place": "Mu\u013ea", "amenity": "place_of_worship", "architect": "Istv\u00e1n Medgyaszay", "building": "church", "building:architecture": "art_nouveau", "denomination": "catholic", "heritage": "2", "name": "Kostol sv\u00e4tej Al\u017ebety", "name:hu": "Szent Erzs\u00e9bet templom", "religion": "christian", "source": "https://www.pamiatky.sk/po/po/Details?id=12523", "source:conscriptionnumber": "kapor2", "start_date": "1910", "wikidata": "Q964008"}}, {"type": "way", "id": 442681349, "center": {"lat": 48.1724802, "lon": 19.8570404}, "nodes": [4403520569, 4403520564, 4403520561, 4403520559, 4403520558, 4403520555, 5643711309, 5643711310, 5643711311, 4403520550, 4403520552, 4403520551, 4403520554, 4403520553, 4403520557, 4403520556, 4403520560, 4403520562, 4403520563, 4403520565, 4403520567, 4403520566, 4403520570, 4403520568, 4403520571, 4403520569], "tags": {"heritage": "2", "is_in": "Somosk\u0151; Ma\u010farsko", "name": "Kamennn\u00e9 more", "name:en": "Cataract of basalt", "name:hu": "Bazaltzuhatag", "natural": "bare_rock", "tourism": "attraction", "url": "http://pangea.blog.hu/2014/09/10/5_perc_geologia_somoskoi_bazaltorgonak", "wheelchair": "no"}}, {"type": "way", "id": 82278310, "center": {"lat": 48.3848293, "lon": 17.6016757}, "nodes": [958135642, 958134097, 958141682, 958140801, 958140658, 958137894, 958138316, 958140680, 958141245, 958139349, 958203514, 958136156, 958135090, 958137477, 958138423, 958134358, 958136869, 958135413, 958135979, 958137758, 958141757, 958139737, 958138141, 958138803, 958142688, 958136705, 958134778, 958135642], "tags": {"building": "yes", "height": "50", "heritage": "2", "historic": "heritage", "man_made": "water_tower", "name": "Bellu\u0161ov vodojem", "name:en": "Water tower of Bellu\u0161", "source": "kapor2", "tower:type": "observation", "wikidata": "Q16519983", "wikipedia": "sk:Vodojem Trnava"}}, {"type": "way", "id": 232424954, "center": {"lat": 48.7962018, "lon": 17.1087231}, "nodes": [2407774259, 2407774257, 2407774258, 2407774256, 2407774259], "tags": {"addr:city": "Kop\u010dany", "addr:conscriptionnumber": "1147", "addr:housenumber": "1147", "addr:place": "Kop\u010dany", "addr:postcode": "90848", "amenity": "place_of_worship", "building": "church", "heritage": "2", "name": "Kostol sv\u00e4tej Margity Antiochijskej", "name:hu": "Antiokheiai Szent Margit-templom", "ref:minvskaddress": "10672629", "religion": "christian", "source:addr": "minvskaddress 2021-02", "start_date": "~C10", "tourism": "attraction", "wikidata": "Q2509645", "wikipedia": "sk:Kostol sv\u00e4tej Margity Antiochijskej (Kop\u010dany)", "wikipedia:en": "Church of St. Margaret of Antioch, Kop\u010dany"}}, {"type": "way", "id": 51970207, "center": {"lat": 48.6227539, "lon": 18.3794331}, "nodes": [662749208, 662749209, 662749210, 662749211, 1802843196, 662749213, 662749214, 662749200, 662749201, 662749202, 662749208], "tags": {"addr:city": "Partiz\u00e1nske", "addr:conscriptionnumber": "1475", "addr:country": "SK", "addr:housenumber": "1475/34", "addr:postcode": "95801", "addr:street": "N\u00e1mestie SNP", "addr:streetnumber": "34", "amenity": "place_of_worship", "architect": "Vladim\u00edr Karf\u00edk", "building": "church", "building:architecture": "functionalism", "denomination": "roman_catholic", "heritage": "2", "import": "EvidenciaBudovPE", "name": "Kostol Bo\u017esk\u00e9ho Srdca Je\u017ei\u0161ovho", "name:fr": "\u00c9glise du Sacr\u00e9-C\u0153ur-de-J\u00e9sus", "religion": "christian", "source": "kapor2", "start_date": "1949", "url": "http://www.pamiatky.sk/po/po/Details?id=4545", "wikidata": "Q12769519", "wikimedia_commons": "Category:Sacred Heart of Jesus Church, Partiz\u00e1nske", "wikipedia": "sk:Kostol Bo\u017esk\u00e9ho Srdca Je\u017ei\u0161ovho (Partiz\u00e1nske)"}}, {"type": "way", "id": 61486475, "center": {"lat": 48.648969, "lon": 19.1548344}, "nodes": [767356931, 767357382, 767359041, 767356583, 767358148, 767358629, 767358811, 767360460, 767360995, 767357137, 767359997, 767361866, 767356931], "tags": {"addr:city": "Hronsek", "addr:conscriptionnumber": "85", "addr:country": "SK", "addr:housenumber": "85", "addr:place": "Hronsek", "amenity": "place_of_worship", "building": "church", "denomination": "lutheran", "heritage": "1", "heritage:operator": "whc", "historic": "yes", "name": "Dreveny artikularny kostol v Hronesku (1725-1726)", "name:en": "Hronsek Wooden Church", "name:hu": "Evang\u00e9likus fatemplom", "name:sk": "Dreveny artikularny kostol v Hronesku (1725-1726)", "ref:whc": "1273-007", "religion": "christian", "source": "kapor2", "source:conscriptionnumber": "kapor2", "start_date": "1726", "tourism": "attraction", "wikidata": "Q595992", "wikipedia": "sk:Dreven\u00fd artikul\u00e1rny kostol (Hronsek)"}}, {"type": "way", "id": 52062493, "center": {"lat": 48.8791789, "lon": 18.5638734}, "nodes": [663583894, 663583878, 663583879, 663583880, 663583881, 663583882, 663583883, 663583884, 663583885, 663583886, 663583887, 663583895, 663583894], "tags": {"amenity": "place_of_worship", "architect": "Bruno Pompl", "building": "church", "denomination": "roman_catholic", "heritage": "2", "name": "Kostol Pov\u00fd\u0161enia sv\u00e4t\u00e9ho Kr\u00ed\u017ea", "religion": "christian", "source": "kapor2;https://www.pamiatky.sk/po/po/Details?id=4860", "source:name": "kapor2", "start_date": "1936"}}, {"type": "way", "id": 55058083, "center": {"lat": 48.3315099, "lon": 19.6692276}, "nodes": [692709839, 692709840, 692710241, 692710244, 692710245, 692710285, 692709843, 692709860, 692709855, 692709856, 692709857, 692709858, 692709839], "tags": {"addr:city": "Lu\u010denec", "addr:housenumber": "95/13", "addr:street": "J\u00f3kaiho", "amenity": "childcare", "building": "yes", "building:architecture": "art_nouveau", "heritage": "2", "name": "Detsk\u00e9 jasle", "source": "kapor2;https://www.pamiatky.sk/po/po/Details?id=11798", "start_date": "1910"}}, {"type": "way", "id": 55058272, "center": {"lat": 48.3311853, "lon": 19.6701317}, "nodes": [692710865, 692710859, 692710860, 692710861, 692710862, 692710863, 692710858, 692710857, 692710866, 692710865], "tags": {"addr:city": "Lu\u010denec", "addr:housenumber": "98/7", "addr:street": "J\u00f3kaiho", "building": "yes", "building:architecture": "art_nouveau", "heritage": "2", "name": "Rakottayho vila", "source": "kapor2;https://www.pamiatky.sk/po/po/Details?id=11796", "start_date": "1911"}}, {"type": "way", "id": 165009713, "center": {"lat": 49.1886572, "lon": 19.3494122}, "nodes": [1765910872, 1765910870, 1765910857, 1765910847, 1765910862, 1765910855, 1765910869, 1765910871, 1765910887, 1765910893, 1765910908, 1765910909, 1765910901, 1765910903, 1765910895, 1765910898, 1765910872], "tags": {"addr:city": "Le\u0161tiny", "addr:conscriptionnumber": "12", "addr:housenumber": "12", "addr:place": "Le\u0161tiny", "amenity": "place_of_worship", "building": "church", "denomination": "catholic", "heritage": "1", "heritage:operator": "whc", "historic": "heritage", "name": "Evanjelick\u00fd artikul\u00e1rny kostol", "ref:whc": "1273-007", "religion": "christian", "source": "kapor2", "source:conscriptionnumber": "kapor2", "tourism": "attraction", "wikidata": "Q2814199", "wikipedia": "sk:Dreven\u00fd artikul\u00e1rny kostol (Le\u0161tiny)"}}, {"type": "way", "id": 792602158, "center": {"lat": 49.3365808, "lon": 19.5590426}, "nodes": [7411539202, 7411539201, 7411539200, 7411539199, 7411539198, 7411539197, 7411539196, 7411539195, 7411539194, 7411539193, 7411539202], "tags": {"addr:city": "Tvrdo\u0161\u00edn", "addr:street": "Cintor\u00ednska", "amenity": "place_of_worship", "building": "church", "denomination": "catholic", "heritage": "1", "heritage:operator": "whc", "historic": "heritage", "material": "wood", "name": "Dreven\u00fd kostol\u00edk V\u0161etk\u00fdch sv\u00e4t\u00fdch", "name:pl": "Ko\u015bci\u00f3\u0142 pw Wszystkich \u015awi\u0119tych", "ref:whc": "1273-007", "religion": "christian", "source": "kapor2", "tourism": "attraction", "wikidata": "Q2814205", "wikipedia": "sk:Kostol V\u0161etk\u00fdch sv\u00e4t\u00fdch (Tvrdo\u0161\u00edn)"}}, {"type": "way", "id": 73269629, "center": {"lat": 48.9787068, "lon": 20.793037}, "nodes": [869105083, 869105238, 869105418, 869105586, 869105729, 7865358674, 869105874, 869105593, 869105743, 869105889, 869104958, 869105165, 869105315, 869105512, 869105666, 869105323, 869105524, 869105083], "tags": {"addr:city": "\u017dehra", "addr:conscriptionnumber": "108", "addr:country": "SK", "addr:housenumber": "108", "addr:place": "\u017dehra", "amenity": "place_of_worship", "building": "church", "denomination": "roman_catholic", "heritage": "1", "heritage:operator": "whc", "name": "sv\u00e4t\u00e9ho Ducha", "name:de": "Heiligen Geist", "religion": "christian", "source": "kapor2", "source:conscriptionnumber": "kapor2", "wikidata": "Q13425266", "wikipedia": "sk:Kostol Ducha Sv\u00e4t\u00e9ho (\u017dehra)"}}, {"type": "way", "id": 53497801, "center": {"lat": 48.92317, "lon": 20.9326444}, "nodes": [676000970, 676001058, 676000830, 676000941, 676001129, 676001246, 676001298, 676000893, 7512029675, 676001256, 676000848, 676000998, 676001149, 676000970], "tags": {"building": "yes", "heritage": "2", "heritage:operator": "pusr", "historic": "yes", "man_made": "watermill", "ref:pusr": "4457/1", "source": "survey", "watermill:disused": "yes"}}, {"type": "way", "id": 320162459, "center": {"lat": 48.916528, "lon": 20.9518467}, "nodes": [3266616295, 3266616293], "tags": {"bridge": "covered", "bridge:structure": "truss", "heritage": "2", "heritage:operator": "pusr", "highway": "service", "historic": "yes", "layer": "1", "material": "wood", "maxheight": "2", "ref:pusr": "4436/1", "tourism": "attraction"}}, {"type": "way", "id": 219698596, "center": {"lat": 48.9994506, "lon": 20.7674182}, "nodes": [1280194460, 1280194982, 1280194682, 1280194440, 1280194465, 1280194832, 1280194611, 5802326028, 1280195144, 1280194937, 1280194588, 1280194494, 1280194777, 1280195165, 1280194808, 1280194561, 1280195073, 1280194438, 1280194890, 1280194679, 1280194559, 1280194515, 1280194860, 1280195092, 1280194899, 1280194797, 1280195133, 1280194953, 1280194589, 1280194442, 1280195067, 1280195068, 1280194900, 1280195197, 1280194663, 1280194609, 1280194846, 6168914575, 1280195084, 1280195006, 1280194950, 1280195157, 1280195034, 1280195049, 1280194873, 1280194437, 1280194908, 1280194988, 1280194958, 1280194681, 1280194938, 1280194856, 1280194857, 1280194942, 1280195143, 1280194921, 1280194416, 1280195093, 1280194884, 1280194911, 1280194893, 1280195217, 1280194613, 1280194404, 1280195003, 1280195187, 1280194882, 1280194782, 1280194948, 1280195178, 1280194920, 1280194386, 1280194389, 1280194887, 1280194685, 1280195149, 1280194553, 1280194959, 1280195152, 1280195047, 1280194654, 1280194917, 2288376070, 2288376069, 2288376068, 2288376067, 2288376066, 1280194974, 1280194909, 1280195042, 1280194557, 1280194838, 1280194651, 1280195205, 1280194985, 1280194625, 1280194531, 1280194497, 8043761007, 1280194512, 1280195203, 1280194460], "tags": {"barrier": "city_wall", "castle_type": "defensive", "heritage": "1", "heritage:operator": "whc", "historic": "castle", "name": "Spi\u0161sk\u00fd hrad", "name:de": "Zipser Burg", "name:en": "Spi\u0161 Castle", "name:hu": "Szepesi v\u00e1r", "name:pl": "Zamek Spiski", "tourism": "attraction", "wikidata": "Q205558", "wikipedia": "sk:Spi\u0161sk\u00fd hrad"}}, {"type": "way", "id": 36864150, "center": {"lat": 49.1333003, "lon": 20.4282442}, "nodes": [428615328, 428615338, 428615333, 428615331, 428615339, 428615330, 428615327, 428615337, 428615335, 4975093788, 428615334, 428615336, 428615326, 428615328], "tags": {"alt_name": "Dreven\u00fd artikul\u00e1rny kostol", "amenity": "place_of_worship", "building": "church", "building:material": "wood", "denomination": "lutheran", "heritage": "1", "heritage:operator": "whc", "historic": "heritage", "name": "Evanjelick\u00fd kostol Najsv\u00e4tej\u0161ej Trojice", "name:en": "Wooden Articular Church", "opening_hours": "Mo-Sa 09:00-12:00, 14:00-17:00", "ref:whc": "1273-007", "religion": "christian", "tourism": "attraction", "wikidata": "Q288953", "wikipedia": "sk:Kostol Najsv\u00e4tej\u0161ej Trojice (Ke\u017emarok)"}}, {"type": "way", "id": 80057360, "center": {"lat": 49.2466697, "lon": 21.2036366}, "nodes": [933977793, 933977794, 933977795, 933977796, 933977797, 933977798, 933977799, 933977800, 933977801, 933977802, 933977803, 933977793], "tags": {"addr:city": "Hervartov", "addr:conscriptionnumber": "35", "addr:country": "SK", "addr:housenumber": "35", "addr:place": "Hervartov", "amenity": "place_of_worship", "building": "church", "building:material": "wood", "denomination": "roman_catholic", "description:sk": "dreven\u00e1 cerkva", "heritage": "1", "heritage:operator": "whc", "historic": "yes", "import": "budovy201004drev", "is_in": "Hervartov", "name": "sv\u00e4t\u00e9ho Franti\u0161ka z Assisi", "name:hu": "Assisi Szent Ferenc fatemplom", "opening_hours": "Mo-Fr 08:30-17:00 , Sa 09:00-17:00; Su: 13:30-17:30", "photography:inside": "ticket", "photography:tripod": "yes", "ref:whc": "1273-007", "religion": "christian", "source": "kapor2", "source:conscriptionnumber": "kapor2", "tourism": "attraction", "wikidata": "Q336354", "wikipedia": "sk:Kostol sv\u00e4t\u00e9ho Franti\u0161ka z Assisi (Hervartov)"}}, {"type": "way", "id": 70842966, "center": {"lat": 49.3283072, "lon": 21.6266405}, "nodes": [844622093, 844620920, 844620440, 844620935, 844620455, 7868251109, 844622872, 844621727, 844621194, 844622093], "tags": {"addr:city": "Ladomirov\u00e1", "addr:conscriptionnumber": "195", "addr:country": "SK", "addr:housenumber": "195", "addr:place": "Ladomirov\u00e1", "amenity": "place_of_worship", "building": "church", "building:material": "wood", "denomination": "greek_catholic", "description:sk": "dreven\u00e1 cerkva", "heritage": "1", "heritage:operator": "whc", "historic": "heritage", "import": "budovy201004", "is_in": "Ladomirov\u00e1", "name": "Chr\u00e1m sv. Michala Archanjela", "photography:inside": "no", "ref:whc": "1273-007", "religion": "christian", "source": "kapor2", "tourism": "attraction", "wikidata": "Q115882", "wikipedia": "sk:Chr\u00e1m sv\u00e4t\u00e9ho Michala archanjela (Ladomirov\u00e1)"}}, {"type": "way", "id": 219703566, "center": {"lat": 49.3524963, "lon": 21.7077596}, "nodes": [2288417465, 2288417460, 2288417459, 2288417458, 2288417457, 2288417461, 2288417462, 2288417463, 2288417466, 2288417464, 2288417465], "tags": {"addr:city": "Bodru\u017eal", "addr:conscriptionnumber": "32", "addr:country": "SK", "addr:housenumber": "32", "addr:place": "Bodru\u017eal", "amenity": "place_of_worship", "building": "church", "building:material": "wood", "denomination": "greek_catholic", "description:sk": "dreven\u00e1 cerkva", "heritage": "1", "heritage:operator": "whc", "historic": "heritage", "is_in": "Bodru\u017eal", "name": "sv\u00e4t\u00e9ho Mikul\u00e1\u0161a", "ref:whc": "1273-007", "religion": "christian", "source:conscriptionnumber": "kapor2", "start_date": "1658", "tourism": "attraction", "wikidata": "Q198775", "wikipedia": "sk:Chr\u00e1m sv\u00e4t\u00e9ho Mikul\u00e1\u0161a (Bodru\u017eal)"}}, {"type": "way", "id": 51660861, "center": {"lat": 48.8567524, "lon": 22.2966019}, "nodes": [659664268, 659664269, 659664270, 659664271, 659664272, 659664273, 659664274, 659664275, 659664276, 659664277, 659664268], "tags": {"addr:city": "Rusk\u00e1 Bystr\u00e1", "addr:conscriptionnumber": "49", "addr:country": "SK", "addr:housenumber": "49", "addr:place": "Rusk\u00e1 Bystr\u00e1", "amenity": "place_of_worship", "building": "church", "heritage": "1", "heritage:operator": "whc", "historic": "heritage", "name": "sv\u00e4t\u00e1ho Mikul\u00e1\u0161a Biskupa", "ref:whc": "1273-007", "religion": "christian", "source": "kapor2", "source:conscriptionnumber": "kapor2", "tourism": "attraction", "wikidata": "Q82361", "wikipedia": "sk:Chr\u00e1m Prenesenia ostatkov sv\u00e4t\u00e9ho Mikul\u00e1\u0161a"}}, {"type": "relation", "id": 20317, "center": {"lat": 48.0803909, "lon": 17.0919308}, "members": [{"type": "way", "ref": 4762873, "role": "outer"}, {"type": "way", "ref": 25454040, "role": "inner"}, {"type": "way", "ref": 25454088, "role": "inner"}], "tags": {"alt_name": "Ba\u017eantnica", "heritage": "2", "landuse": "forest", "leaf_cycle": "deciduous", "name": "Jarovsk\u00e1 ba\u017eantnica", "source": "http://www.pamiatky.sk/po/po/Details?id=1540", "start_date": "C18", "type": "multipolygon"}}, {"type": "relation", "id": 138872, "center": {"lat": 48.140368, "lon": 17.1146324}, "members": [{"type": "way", "ref": 34562816, "role": "outer"}, {"type": "way", "ref": 34562818, "role": "inner"}, {"type": "way", "ref": 34562817, "role": "inner"}], "tags": {"addr:city": "Bratislava", "addr:country": "SK", "addr:housenumber": "5", "addr:postcode": "814 75", "addr:street": "Fajnorovo n\u00e1bre\u017eie", "addr:streetnumber": "5", "addr:suburb": "Star\u00e9 Mesto", "building": "school", "building:architecture": "eclectic", "building:levels": "3", "heritage": "2", "roof:levels": "1", "roof:shape": "hipped", "source": "https://www.pamiatky.sk/po/po/Details?id=810", "start_date": "1904", "type": "multipolygon", "url": "https://www.pamiatky.sk/po/po/Details?id=810"}}, {"type": "relation", "id": 5893240, "center": {"lat": 48.1402863, "lon": 17.1134426}, "members": [{"type": "way", "ref": 77516641, "role": "outer"}, {"type": "way", "ref": 392983277, "role": "inner"}], "tags": {"architect": "Michal Milan Harminc", "building": "yes", "building:architecture": "historicism", "building:levels": "5", "heritage": "2", "museum": "nature", "name": "Slovensk\u00e9 n\u00e1rodn\u00e9 m\u00fazeum", "name:cs": "Slovensk\u00e9 n\u00e1rodn\u00ed muzeum", "name:de": "Slowakisches Nationalmuseum", "name:en": "Slovak National Museum", "name:fi": "Slovakian kansallismuseo", "name:hu": "Szlov\u00e1k Nemzeti M\u00fazeum", "name:pl": "Muzeum Historii Naturalnej", "name:ru": "\u0421\u043b\u043e\u0432\u0430\u0446\u043a\u0438\u0439 \u043d\u0430\u0440\u043e\u0434\u043d\u044b\u0439 \u043c\u0443\u0437\u0435\u0439", "name:sk": "Slovensk\u00e9 n\u00e1rodn\u00e9 m\u00fazeum", "name:zh": "\u65af\u6d1b\u4f10\u514b\u56fd\u5bb6\u535a\u7269\u9986", "old_name": "Zemedelsk\u00e9 m\u00fazeum", "opening_hours": "Jan-Dec Tu-Fr 09:00-17:00; Jul-Aug Tu-Fr 10:00-18:00", "roof:levels": "2", "roof:shape": "hipped", "start_date": "1928", "tourism": "museum", "type": "multipolygon", "url": "https://www.pamiatky.sk/po/po/Details?id=811", "website": "https://www.snm.sk/?prirodovedne-muzeum-uvodna-stranka", "wheelchair": "on request", "wikidata": "Q13418877", "wikipedia": "sk:Hlavn\u00e1 budova Slovensk\u00e9ho n\u00e1rodn\u00e9ho m\u00fazea"}}, {"type": "relation", "id": 140288, "center": {"lat": 48.1574381, "lon": 17.120674}, "members": [{"type": "way", "ref": 23752274, "role": "inner"}, {"type": "way", "ref": 409118297, "role": "outer"}], "tags": {"addr:city": "Bratislava", "addr:housenumber": "1", "addr:postcode": "831 04", "addr:street": "Legion\u00e1rska", "architect": "Klement \u0160ilinger", "building": "apartments", "building:architecture": "cubism", "building:levels": "5", "heritage": "2", "name": "N\u00e1jomn\u00fd dom po\u0161tov\u00fdch zriadencov", "source": "https://www.pamiatky.sk/po/po/Details?id=1250", "start_date": "1922", "type": "multipolygon"}}, {"type": "relation", "id": 11983103, "center": {"lat": 48.1922091, "lon": 19.5224932}, "members": [{"type": "way", "ref": 881400567, "role": "outer"}, {"type": "way", "ref": 249265495, "role": "inner"}], "tags": {"access": "yes", "heritage": "2", "leisure": "garden", "name": "Z\u00e1hrada pri Kostole sv. Al\u017ebety", "source": "https://www.pamiatky.sk/po/po/Details?id=12524", "type": "multipolygon"}}]}