{"type": "FeatureCollection", "features": [{"type": "Feature", "properties": {"type": "node", "id": 5009024422, "tags": {"addr:housenumber": "10", "addr:postcode": "6000", "addr:street": "\u0411\u043e\u0440\u043e \u0428\u0430\u0438\u043d", "name": "\u041d\u0423 \u0417\u0430\u0432\u043e\u0434 \u0437\u0430 \u0437\u0430\u0448\u0442\u0438\u0442\u0430 \u043d\u0430 \u0441\u043f\u043e\u043c\u0435\u043d\u0438\u0446\u0438\u0442\u0435 \u043d\u0430 \u043a\u0443\u043b\u0442\u0443\u0440\u0430\u0442\u0430 \u0438 \u041c\u0443\u0437\u0435\u0458-\u041e\u0445\u0440\u0438\u0434", "name:en": "Institute for Protection of Monuments of Culture and Museum-Ohrid", "tourism": "museum", "website": "http://muzejohrid.mk/en/"}}, "geometry": {"type": "Point", "coordinates": [20.7944587, 41.1129119]}}, {"type": "Feature", "properties": {"type": "node", "id": 534925163, "tags": {"addr:housenumber": "62", "addr:street": "\u0426\u0430\u0440 \u0421\u0430\u043c\u043e\u0438\u043b", "building": "house", "int_name": "Robev Family House", "name": "\u041a\u0443\u045c\u0430 \u043d\u0430 \u0420\u043e\u0431\u0435\u0432\u0446\u0438", "name:en": "Robev Family House", "name:fr": "Maison de la famille Robev \u2014 Mus\u00e9e arch\u00e9ologique de la ville", "name:tr": "Robevi Evi", "name:zh": "\u7f57\u8d1d\u592b\u5bb6\u65cf\u5b85\u90b8\u56fd\u5bb6\u535a\u7269\u9986", "opening_hours": "Tu-Su 09:00-14:00", "tourism": "museum", "website": "http://muzejohrid.mk/en/house-of-robev-family"}}, "geometry": {"type": "Point", "coordinates": [20.7961416, 41.112361]}}, {"type": "Feature", "properties": {"type": "node", "id": 2279507279, "tags": {"name": "\u0414-\u0440 \u041d\u0438\u043a\u043e\u043b\u0430 \u041d\u0435\u0437\u043b\u043e\u0431\u0438\u043d\u0441\u043a\u0438", "tourism": "museum"}}, "geometry": {"type": "Point", "coordinates": [20.6776078, 41.1805738]}}, {"type": "Feature", "properties": {"type": "node", "id": 5699016423, "tags": {"name": "E\u0442\u043d\u043e\u043b\u043e\u0448\u043a\u0438 \u043c\u0443\u0437\u0435\u0439", "name:en": "Ethnographic museum", "tourism": "museum"}}, "geometry": {"type": "Point", "coordinates": [21.0506131, 41.0240503]}}, {"type": "Feature", "properties": {"type": "node", "id": 4644354189, "tags": {"name:de": "Albanisches Museum", "name:sq": "Muzeu Shqiptare", "tourism": "museum"}}, "geometry": {"type": "Point", "coordinates": [21.3332347, 41.023032]}}, {"type": "Feature", "properties": {"type": "node", "id": 2535153634, "tags": {"name": "\u0421\u043f\u043e\u043c\u0435\u043d \u043a\u0443\u045c\u0430 \u043d\u0430 \u0421\u0442\u0440\u0430\u0448\u043e \u041f\u0438\u043d\u045f\u0443\u0440", "name:de": "Gedenkst\u00e4tte Haus - Strascho Pindjur", "name:en": "Memorial house - Strasho Pindjur", "tourism": "museum"}}, "geometry": {"type": "Point", "coordinates": [22.0181317, 41.4184594]}}, {"type": "Feature", "properties": {"type": "node", "id": 529811458, "tags": {"name": "\u041c\u0443\u0437\u0435\u0458 \u0413\u0430\u043b\u0435\u0440\u0438\u0458\u0430 \u041a\u0430\u0432\u0430\u0434\u0430\u0440\u0446\u0438", "name:en": "Muzej Galerija Kavadarci", "tourism": "museum"}}, "geometry": {"type": "Point", "coordinates": [22.0163228, 41.4343634]}}, {"type": "Feature", "properties": {"type": "node", "id": 2323236969, "tags": {"tourism": "museum"}}, "geometry": {"type": "Point", "coordinates": [22.5090711, 41.1423016]}}, {"type": "Feature", "properties": {"type": "node", "id": 1999950866, "tags": {"name": "Museum of Wine", "name:mk": "\u041c\u0443\u0437\u0435\u0458 \u043d\u0430 \u0411\u0438\u043d\u043e\u0442\u043e", "tourism": "museum"}}, "geometry": {"type": "Point", "coordinates": [22.2447656, 41.4085959]}}, {"type": "Feature", "properties": {"type": "node", "id": 1853704787, "tags": {"name": "\u041c\u0443\u0437\u0435\u0458 \u043d\u0430 \u0414\u043e\u0458\u0440\u0430\u043d", "tourism": "museum"}}, "geometry": {"type": "Point", "coordinates": [22.7221034, 41.1871817]}}, {"type": "Feature", "properties": {"type": "node", "id": 5833918548, "tags": {"name": "Museum of Galichnik's cultural heritage", "tourism": "museum"}}, "geometry": {"type": "Point", "coordinates": [20.652723, 41.5939237]}}, {"type": "Feature", "properties": {"type": "node", "id": 7102244287, "tags": {"addr:housenumber": "94", "addr:postcode": "1000", "addr:street": "\u0412\u043e\u0458\u0432\u043e\u0434\u0430 \u0412\u0430\u0441\u0438\u043b \u0427\u0430\u043a\u0430\u043b\u0430\u0440\u043e\u0432", "email": "galerija.ra@gmail.com", "internet_access": "wlan", "name": "Galerija RA", "name:en": "Gallery RA", "name:hr": "Macedonian", "opening_hours": "Mo-Sa 10:00-20:00", "phone": "+389075435402", "tourism": "museum"}}, "geometry": {"type": "Point", "coordinates": [21.3865879, 41.9989569]}}, {"type": "Feature", "properties": {"type": "node", "id": 6987611917, "tags": {"addr:housenumber": "10", "addr:street": "\u041c\u0430\u043a\u0441\u0438\u043c \u0413\u043e\u0440\u043a\u0438", "name:en": "Museum of illusions", "name:ru": "\u041c\u0443\u0437\u0435\u0439 \u0438\u043b\u043b\u044e\u0437\u0438\u0439", "tourism": "museum"}}, "geometry": {"type": "Point", "coordinates": [21.4291373, 41.9962134]}}, {"type": "Feature", "properties": {"type": "node", "id": 172348137, "tags": {"name": "\u041f\u0440\u0438\u0440\u043e\u0434\u043e\u043d\u0430\u0443\u0447\u0435\u043d \u041c\u0443\u0437\u0435\u0458", "name:tr": "Ulusal Tarih M\u00fczesi", "tourism": "museum"}}, "geometry": {"type": "Point", "coordinates": [21.4174425, 42.005709]}}, {"type": "Feature", "properties": {"type": "node", "id": 1272898175, "tags": {"addr:housenumber": "1a", "name": "Museum Teracotta", "tourism": "museum"}}, "geometry": {"type": "Point", "coordinates": [22.5049622, 41.8841902]}}, {"type": "Feature", "properties": {"type": "node", "id": 2578029313, "tags": {"addr:city": "Kriva Palanka", "addr:postcode": "1330", "addr:street": "Sveti Joakim Osogovski", "name": "City Museum", "tourism": "museum"}}, "geometry": {"type": "Point", "coordinates": [22.3348959, 42.2020133]}}, {"type": "Feature", "properties": {"type": "node", "id": 478699817, "tags": {"name": "\u041c\u0443\u0437\u0435\u0458 \u043d\u0430 \u0433\u0440\u0430\u0434 \u0411\u0435\u0440\u043e\u0432\u043e", "name:en": "Berovo Town Museum", "tourism": "museum", "website": "http://www.berovo.gov.mk/index.php?option=com_content&view=article&id=76&Itemid=117"}}, "geometry": {"type": "Point", "coordinates": [22.8566138, 41.7077548]}}, {"type": "Feature", "properties": {"type": "node", "id": 3695988841, "tags": {"name": "\u041c\u0443\u0437\u0435\u0458 \u043d\u0430 \u0433\u0440\u0430\u0434 \u0414\u0435\u043b\u0447\u0435\u0432\u043e", "name:en": "City Museum", "tourism": "museum"}}, "geometry": {"type": "Point", "coordinates": [22.7729986, 41.9664768]}}, {"type": "Feature", "properties": {"type": "way", "id": 217931793, "tags": {"area": "yes", "int_name": "Bay of Bones", "man_made": "pier", "name": "\u0417\u0430\u043b\u0438\u0432 \u043d\u0430 \u041a\u043e\u0441\u043a\u0438\u0442\u0435", "name:en": "Bay of Bones", "opening_hours": "Tu-Su 09:00-16:15", "tourism": "museum", "tourism_1": "attraction"}}, "geometry": {"type": "Point", "coordinates": [20.798135, 40.9943571]}}, {"type": "Feature", "properties": {"type": "way", "id": 905876263, "tags": {"building": "yes", "museum": "history", "name": "1. \u0411\u0440\u0438\u0433\u0430\u0434\u0430", "name:en": "1 \u0411\u0440\u0438\u0433\u0430\u0434\u0430", "source": "Mapbox", "tourism": "museum", "wikidata": "Q982906", "wikipedia": "mk:\u041f\u0440\u0432\u0430 \u043c\u0430\u043a\u0435\u0434\u043e\u043d\u0441\u043a\u0430 \u0443\u0434\u0430\u0440\u043d\u0430 \u0431\u0440\u0438\u0433\u0430\u0434\u0430"}}, "geometry": {"type": "Point", "coordinates": [20.6486358, 41.3659738]}}, {"type": "Feature", "properties": {"type": "way", "id": 38252572, "tags": {"int_name": "Muzej", "name": "\u041c\u0443\u0437\u0435\u0458", "name:en": "Museum", "tourism": "museum"}}, "geometry": {"type": "Point", "coordinates": [21.3355395, 41.0237932]}}, {"type": "Feature", "properties": {"type": "way", "id": 38580676, "tags": {"building": "yes", "int_name": "Magaza", "name": "\u041c\u0430\u0433\u0430\u0437\u0430", "name:en": "Magaza gallery", "tourism": "museum"}}, "geometry": {"type": "Point", "coordinates": [21.3351642, 41.0299484]}}, {"type": "Feature", "properties": {"type": "way", "id": 224254694, "tags": {"addr:city": "\u041a\u0440\u0443\u0448\u0435\u0432\u043e", "addr:housenumber": "44\u0410", "addr:postcode": "7550", "addr:street": "\u0414\u0438\u043c\u0438\u0442\u0430\u0440 \u0411\u0435\u0440\u0431\u0435\u0440\u043e\u0441\u043a\u0438 - \u0422\u0430\u045c\u0430 \u0411\u0435\u0440\u0431\u0435\u0440", "building": "yes", "name": "\u041c\u0443\u0437\u0435\u0458 \u043d\u0430 \u0418\u043b\u0438\u043d\u0434\u0435\u043d\u0441\u043a\u043e\u0442\u043e \u0432\u043e\u0441\u0442\u0430\u043d\u0438\u0435 \u0438 \u041a\u0440\u0443\u0448\u0435\u0432\u0441\u043a\u0430\u0442\u0430 \u0420\u0435\u043f\u0443\u0431\u043b\u0438\u043a\u0430", "name:en": "Museum of the Ilinden Uprising and the Republic of Krushevo", "phone": "+38970619597;+38970356621", "tourism": "museum", "wikidata": "Q12287450", "wikipedia": "mk:\u041c\u0443\u0437\u0435\u0458 \u043d\u0430 \u0418\u043b\u0438\u043d\u0434\u0435\u043d\u0441\u043a\u043e\u0442\u043e \u0432\u043e\u0441\u0442\u0430\u043d\u0438\u0435 \u0438 \u041a\u0440\u0443\u0448\u0435\u0432\u0441\u043a\u0430\u0442\u0430 \u0420\u0435\u043f\u0443\u0431\u043b\u0438\u043a\u0430"}}, "geometry": {"type": "Point", "coordinates": [21.2453034, 41.3690527]}}, {"type": "Feature", "properties": {"type": "way", "id": 217561610, "tags": {"building": "yes", "name": "\u041c\u0443\u0437\u0435\u0458 \u043d\u0430 \u041d\u041e\u0412", "tourism": "museum"}}, "geometry": {"type": "Point", "coordinates": [21.2457348, 41.3755841]}}, {"type": "Feature", "properties": {"type": "way", "id": 896149100, "tags": {"addr:city": "\u041a\u0440\u0443\u0448\u0435\u0432\u043e", "addr:housenumber": "0", "addr:postcode": "7550", "addr:street": "\u0422\u043e\u043c\u0430 \u041d\u0438\u043a\u043b\u0435\u0432", "building": "yes", "museum": "history", "name": "\u041b\u0435\u0430\u0440\u043d\u0438\u0446\u0430", "name:en": "Foundry", "name:mk": "\u041b\u0435\u0430\u0440\u043d\u0438\u0446\u0430", "phone": "+38970356621;+38975202123", "tourism": "museum", "wikidata": "Q12284846", "wikipedia": "mk:\u041b\u0435\u0430\u0440\u043d\u0438\u0446\u0430 (\u041a\u0440\u0443\u0448\u0435\u0432\u043e)"}}, "geometry": {"type": "Point", "coordinates": [21.2466584, 41.3721718]}}, {"type": "Feature", "properties": {"type": "way", "id": 217568679, "tags": {"artist_name": "Jovan Grabulovski;Iskra Grabuloska", "building": "yes", "historic": "monument", "image": "https://upload.wikimedia.org/wikipedia/commons/f/fe/%D0%9C%D0%B0%D0%BA%D0%B5%D0%B4%D0%BE%D0%BD%D0%B8%D1%83%D0%BC_-_%D0%9A%D1%80%D1%83%D1%88%D0%B5%D0%B2%D0%BE.jpg", "name": "\u041c\u0430\u043a\u0435\u0434\u043e\u043d\u0438\u0443\u043c", "tourism": "museum", "wikidata": "Q2717956"}}, "geometry": {"type": "Point", "coordinates": [21.2484079, 41.3774162]}}, {"type": "Feature", "properties": {"type": "way", "id": 208711817, "tags": {"building": "yes", "name": "11 \u041e\u043a\u0442\u043e\u043c\u0432\u0440\u0438 1941", "name:en": "October the 11th, 1941", "operator": "\u0417\u0430\u0432\u043e\u0434 \u0438 \u041c\u0443\u0437\u0435\u0458 \u043d\u0430 \u0433\u0440\u0430\u0434 \u041f\u0440\u0438\u043b\u0435\u043f", "tourism": "museum", "wheelchair": "no"}}, "geometry": {"type": "Point", "coordinates": [21.5523595, 41.345014]}}, {"type": "Feature", "properties": {"type": "way", "id": 445672540, "tags": {"designation": "Hamam", "int_name": "Begov amam", "name": "\u0411\u0435\u0433\u043e\u0432 \u0430\u043c\u0430\u043c", "name:en": "Bey's Hamam", "tourism": "museum"}}, "geometry": {"type": "Point", "coordinates": [20.9673497, 42.0062618]}}, {"type": "Feature", "properties": {"type": "way", "id": 150596710, "tags": {"building": "yes", "name": "\u0421\u043f\u043e\u043c\u0435\u043d \u041a\u043e\u0441\u0442\u0443\u0440\u043d\u0438\u0446\u0430", "name:en": "Kosturnica Memorial", "name:int": "Spomen Kosturnica", "tourism": "museum"}}, "geometry": {"type": "Point", "coordinates": [21.7894869, 41.7233006]}}, {"type": "Feature", "properties": {"type": "way", "id": 244812164, "tags": {"building": "yes", "name": "\u0415\u043b \u041a\u0430\u043b\u0435\u043c", "tourism": "museum"}}, "geometry": {"type": "Point", "coordinates": [21.2876554, 41.9869509]}}, {"type": "Feature", "properties": {"type": "way", "id": 176040285, "tags": {"addr:city": "C\u043ao\u043fje", "addr:city:en": "Skopje", "addr:country": "MK", "addr:postcode": "1000", "alt_name": "\u0421\u0442\u0430\u0440\u0430 \u0416\u0435\u043b\u0435\u0437\u043d\u0438\u0447\u043a\u0430 \u0421\u0442\u0430\u043d\u0438\u0446\u0430", "building": "yes", "fee": "yes", "name": "\u041c\u0443\u0437\u0435\u0458 \u043d\u0430 \u0413\u0440\u0430\u0434 \u0421\u043a\u043e\u043f\u0458\u0435", "name:en": "Museum of the City of Skopje", "phone": "+389 2 3114742", "tourism": "museum", "website": "http://www.mgs.org.mk/", "wikidata": "Q922143", "wikipedia": "en:Museum of the City of Skopje"}}, "geometry": {"type": "Point", "coordinates": [21.4292053, 41.9907944]}}, {"type": "Feature", "properties": {"type": "way", "id": 172171547, "tags": {"addr:city": "C\u043ao\u043fje", "addr:city:en": "Skopje", "addr:country": "MK", "addr:postcode": "1000", "amenity": "arts_centre", "building": "yes", "email": "contact@nationalgallery.mk", "int_name": "Nacionalna Galerija -Daut Pa\u0161in Amam", "name": "\u041d\u0430\u0446\u0438\u043e\u043d\u0430\u043b\u043d\u0430 \u0433\u0430\u043b\u0435\u0440\u0438\u0458\u0430 \u201e\u0414\u0430\u0443\u0442-\u043f\u0430\u0448\u0438\u043d \u0430\u043c\u0430\u043c\u201c", "name:en": "Daut Pasha Hamam National Gallery", "opening_hours": "Tu-Su 10:00-18:00", "phone": "+389 2 3133102", "tourism": "museum", "website": "http://nationalgallery.mk/", "wikipedia": "en:National Gallery of Macedonia"}}, "geometry": {"type": "Point", "coordinates": [21.4357236, 41.9987239]}}, {"type": "Feature", "properties": {"type": "way", "id": 172180530, "tags": {"addr:city": "C\u043ao\u043fje", "addr:city:en": "Skopje", "addr:country": "MK", "addr:housenumber": "1", "addr:postcode": "1000", "addr:street": "11 \u041c\u0430\u0440\u0442", "building": "public", "email": "mmb@mmb.org.mk", "fax": "+389 2 3256 668", "int_name": "Muzej na Makedonskata borba", "name": "\u041c\u0443\u0437\u0435\u0458 \u043d\u0430 \u043c\u0430\u043a\u0435\u0434\u043e\u043d\u0441\u043a\u0430\u0442\u0430 \u0431\u043e\u0440\u0431\u0430", "name:de": "Museum des mazedonischen Kampfes", "name:en": "Museum of the Macedonian struggle", "name:tr": "Museum of the", "opening_hours": "Tu-Su 10:00-18:00", "phone": "+389 2 3256 667", "tourism": "museum", "website": "http://mmb.org.mk/w/", "wikidata": "Q986531", "wikipedia": "en:Museum of the Macedonian Struggle (Skopje)"}}, "geometry": {"type": "Point", "coordinates": [21.433132, 41.9979845]}}, {"type": "Feature", "properties": {"type": "way", "id": 172186249, "tags": {"addr:city": "C\u043ao\u043fje", "addr:city:en": "Skopje", "addr:country": "MK", "addr:housenumber": "2", "addr:postcode": "1000", "addr:street": "\u0421\u0430\u043c\u043e\u0438\u043b\u043e\u0432\u0430", "addr:street:en": "Samoilova", "building": "public", "email": "info@holocaustfund.org.mk", "fax": "+389 2 3232310", "historic": "memorial", "int_name": "Memorijalen centar na holokaustot na Evreite na Makedonija", "name": "\u041c\u0435\u043c\u043e\u0440\u0438\u0458\u0430\u043b\u0435\u043d \u0446\u0435\u043d\u0442\u0430\u0440 \u043d\u0430 \u0445\u043e\u043b\u043e\u043a\u0430\u0443\u0441\u0442\u043e\u0442 \u043d\u0430 \u0415\u0432\u0440\u0435\u0438\u0442\u0435 \u043e\u0434 \u041c\u0430\u043a\u0435\u0434\u043e\u043d\u0438\u0458\u0430", "name:en": "Holocaust Memorial Center for the Jews of Macedonia", "name:tr": "Holocaust Memorial Center for the Jews of Macedonia", "name:zh": "\u72b9\u592a\u4eba\u5927\u5c60\u6740\u7eaa\u5ff5\u4e2d\u5fc3", "phone": "+389 2 3122697", "tourism": "museum", "website": "http://www.holocaustfund.org", "wikidata": "Q3333150", "wikipedia": "en:Holocaust Memorial Center for the Jews of Macedonia"}}, "geometry": {"type": "Point", "coordinates": [21.4333832, 41.9984656]}}, {"type": "Feature", "properties": {"type": "way", "id": 176051871, "tags": {"addr:city": "C\u043ao\u043fje", "addr:city:en": "Skopje", "addr:country": "MK", "addr:postcode": "1000", "addr:street": "\u041c\u0430\u043a\u0435\u0434\u043e\u043d\u0438\u0458\u0430", "addr:street:en": "Makedonija", "building": "yes", "email": "info@memorialhouseofmotherteresa.org", "fee": "no", "int_name": "Muzej-ku\u1e31a na Majka Tereza", "name": "\u0421\u043f\u043e\u043c\u0435\u043d \u043a\u0443\u045c\u0430 \u043d\u0430 \u041c\u0430\u0458\u043a\u0430 \u0422\u0435\u0440\u0435\u0437\u0430", "name:en": "Memorial House of Mother Teresa", "name:tr": "Rahibe Terasa An\u0131t Evi", "name:zh": "\u7279\u857e\u838e\u4fee\u5973\u7eaa\u5ff5\u9986", "opening_hours": "Mo-Fr 09:00-20:00, Sa-Su 09:00-14:00", "phone": "+389 2 3290674", "tourism": "museum", "website": "http://www.memorialhouseofmotherteresa.org/", "wheelchair": "yes", "wikidata": "Q587617", "wikipedia": "en:Memorial House of Mother Teresa"}}, "geometry": {"type": "Point", "coordinates": [21.430859, 41.9938305]}}, {"type": "Feature", "properties": {"type": "way", "id": 229930502, "tags": {"addr:city": "C\u043ao\u043fje", "addr:city:en": "Skopje", "addr:country": "MK", "addr:postcode": "1000", "building": "public", "int_name": "Arheolo\u0161ki Muzej na Makedonija", "name": "\u0410\u0440\u0445\u0435\u043e\u043b\u043e\u0448\u043a\u0438 \u043c\u0443\u0437\u0435\u0458 \u043d\u0430 \u041c\u0430\u043a\u0435\u0434\u043e\u043d\u0438\u0458\u0430", "name:de": "Arch\u00e4ologisches Museum von Mazedonien", "name:en": "Archaeological Museum of Macedonia", "name:tr": "Kuzey Makedonya Arkeoloji M\u00fczesi", "tourism": "museum"}}, "geometry": {"type": "Point", "coordinates": [21.4344917, 41.9968594]}}, {"type": "Feature", "properties": {"type": "way", "id": 32887087, "tags": {"addr:city": "C\u043ao\u043fje", "addr:city:en": "Skopje", "addr:country": "MK", "addr:postcode": "1000", "addr:street": "\u0421\u0430\u043c\u043e\u0438\u043b\u043e\u0432\u0430", "addr:street:en": "Samoilova", "amenity": "arts_centre", "building": "yes", "charge": "50 MKD", "email": "msu-info@msuskopje.org.mk", "fax": "+389 2 3110123", "fee": "yes", "name": "\u041c\u0443\u0437\u0435\u0458 \u043d\u0430 \u0441\u043e\u0432\u0440\u0435\u043c\u0435\u043d\u0430\u0442\u0430 \u0443\u043c\u0435\u0442\u043d\u043e\u0441\u0442", "name:en": "Contemporary Art Museum of Macedonia", "name:zh": "\u5f53\u4ee3\u827a\u672f\u535a\u7269\u9986", "opening_hours": "Tu-Sa 10:00-15:00; Su 09:00-13:00", "phone": "+389 2 3117734", "tourism": "museum", "website": "https://msu.mk/home/", "wikidata": "Q3329592", "wikipedia": "mk:\u041c\u0443\u0437\u0435\u0458 \u043d\u0430 \u0441\u043e\u0432\u0440\u0435\u043c\u0435\u043d\u0430\u0442\u0430 \u0443\u043c\u0435\u0442\u043d\u043e\u0441\u0442 (\u0421\u043a\u043e\u043f\u0458\u0435)"}}, "geometry": {"type": "Point", "coordinates": [21.4329048, 42.0040225]}}, {"type": "Feature", "properties": {"type": "way", "id": 32812963, "tags": {"addr:city": "C\u043ao\u043fje", "addr:city:en": "Skopje", "addr:country": "MK", "addr:postcode": "1000", "addr:street": "\u041f\u0440\u043e\u0445\u043e\u0440 \u041f\u0447\u0438\u043d\u0441\u043a\u0438", "addr:street:en": "Prohor Pcinski", "building": "public", "fee": "yes", "int_name": "Muzej na Makedonija", "name": "\u041c\u0443\u0437\u0435\u0458 \u043d\u0430 \u041c\u0430\u043a\u0435\u0434\u043e\u043d\u0438\u0458\u0430", "name:bg": "\u041c\u0443\u0437\u0435\u0439 \u043d\u0430 \u041c\u0430\u043a\u0435\u0434\u043e\u043d\u0438\u044f", "name:en": "Museum of Macedonia", "name:es": "Museo de Macedonia", "name:fr": "Mus\u00e9e de Mac\u00e9doine", "name:tr": "Makedonya m\u00fczesi", "payment:notes": "yes", "tourism": "museum", "wikidata": "Q3133557", "wikipedia": "mk:\u041c\u0443\u0437\u0435\u0458 \u043d\u0430 \u041c\u0430\u043a\u0435\u0434\u043e\u043d\u0438\u0458\u0430"}}, "geometry": {"type": "Point", "coordinates": [21.4362139, 42.0026676]}}, {"type": "Feature", "properties": {"type": "way", "id": 834714782, "tags": {"building": "yes", "museum": "history", "name": "Muzeu \"D\u00ebshmor\u00ebt e kombit\"", "tourism": "museum"}}, "geometry": {"type": "Point", "coordinates": [21.620378, 42.1791177]}}, {"type": "Feature", "properties": {"type": "way", "id": 439347125, "tags": {"building": "yes", "fee": "no", "name": "\u041c\u0443\u0437\u0435\u0458 \u0428\u0442\u0438\u043f", "tourism": "museum", "wikidata": "Q3329714", "wikipedia": "mk:\u0417\u0430\u0432\u043e\u0434 \u0438 \u043c\u0443\u0437\u0435\u0458 (\u0428\u0442\u0438\u043f)"}}, "geometry": {"type": "Point", "coordinates": [22.1897425, 41.7366515]}}, {"type": "Feature", "properties": {"type": "way", "id": 443072144, "tags": {"building": "yes", "name": "\u0411\u0435\u0437\u0438\u0441\u0442\u0435\u043d \u0428\u0442\u0438\u043f", "tourism": "museum", "wikidata": "Q32963909", "wikipedia": "mk:\u0411\u0435\u0437\u0438\u0441\u0442\u0435\u043d (\u0428\u0442\u0438\u043f)"}}, "geometry": {"type": "Point", "coordinates": [22.1926992, 41.7375479]}}, {"type": "Feature", "properties": {"type": "way", "id": 839150822, "tags": {"building": "yes", "name": "\u041d\u0430\u0440\u043e\u0434\u0435\u043d \u041c\u0443\u0437\u0435\u0458", "tourism": "museum"}}, "geometry": {"type": "Point", "coordinates": [21.9419067, 41.8650267]}}, {"type": "Feature", "properties": {"type": "relation", "id": 9596426, "tags": {"building": "yes", "tourism": "museum", "type": "multipolygon"}}, "geometry": {"type": "Point", "coordinates": [21.3356403, 41.0238348]}}, {"type": "Feature", "properties": {"type": "relation", "id": 5360062, "tags": {"addr:city": "C\u043ao\u043fje", "addr:city:en": "Skopje", "addr:country": "MK", "addr:postcode": "1000", "amenity": "arts_centre", "building": "yes", "description": "Concert venue", "int_name": "Kursumli An", "name": "\u041a\u0443\u0440\u0448\u0443\u043c\u043b\u0438-\u0430\u043d", "note": "Concert venue & Lapidarium of the Museum of Macedonia", "note:mk": "\u041a\u043e\u043d\u0446\u0435\u0440\u0442\u0435\u043d \u0434\u0432\u043e\u0440 \u0438 \u041b\u0430\u043f\u0438\u0434\u0430\u0440\u0438\u0443\u043c \u043d\u0430 \u041c\u0443\u0437\u0435\u0458\u043e\u0442 \u043d\u0430 \u041c\u0430\u043a\u0435\u0434\u043e\u043d\u0438\u0458\u0430", "tourism": "museum", "type": "multipolygon", "wikidata": "Q1273251"}}, "geometry": {"type": "Point", "coordinates": [21.4370445, 42.0031164]}}]}