{"type": "FeatureCollection", "features": [{"type": "Feature", "properties": {"type": "node", "id": 5370093272, "tags": {"addr:city": "Trebinje", "addr:housenumber": "59", "addr:street": "\u0421\u0442\u0430\u0440\u0438 \u0413\u0440\u0430\u0434", "email": "muzejhtr@teol.net", "name": "Muzej Hercegovine", "name:pl": "Muzeum Hercegowiny", "opening_hours": "Mo-Fr 08:00-20:00; Sa 10:00-20:00; Su 14:00-20:00", "phone": "+387 59 271 060", "tourism": "museum", "wheelchair": "no"}}, "geometry": {"type": "Point", "coordinates": [18.347381, 42.7120543]}}, {"type": "Feature", "properties": {"type": "node", "id": 1066426153, "tags": {"name": "Zavi\u010dajna ku\u0107a Hutovo", "tourism": "museum"}}, "geometry": {"type": "Point", "coordinates": [17.8109044, 42.9569381]}}, {"type": "Feature", "properties": {"type": "node", "id": 5323926645, "tags": {"tourism": "museum"}}, "geometry": {"type": "Point", "coordinates": [17.9550097, 43.0778864]}}, {"type": "Feature", "properties": {"type": "node", "id": 3621408075, "tags": {"tourism": "museum"}}, "geometry": {"type": "Point", "coordinates": [15.8722604, 44.8115488]}}, {"type": "Feature", "properties": {"type": "node", "id": 945324713, "tags": {"name": "Titova pe\u0107ina", "tourism": "museum"}}, "geometry": {"type": "Point", "coordinates": [16.3872313, 44.3808841]}}, {"type": "Feature", "properties": {"type": "node", "id": 606942226, "tags": {"name": "Zavi\u010dajni Muzej", "tourism": "museum"}}, "geometry": {"type": "Point", "coordinates": [16.3768443, 45.0489566]}}, {"type": "Feature", "properties": {"type": "node", "id": 489414033, "tags": {"tourism": "museum"}}, "geometry": {"type": "Point", "coordinates": [16.7094107, 44.9772612]}}, {"type": "Feature", "properties": {"type": "node", "id": 2071273407, "tags": {"name": "Franjeva\u010dka galerija", "tourism": "museum"}}, "geometry": {"type": "Point", "coordinates": [17.5892831, 43.3742901]}}, {"type": "Feature", "properties": {"type": "node", "id": 2071274188, "tags": {"name": "Franjeva\u010dka riznica", "tourism": "museum"}}, "geometry": {"type": "Point", "coordinates": [17.5891919, 43.3745474]}}, {"type": "Feature", "properties": {"type": "node", "id": 6446835327, "tags": {"heritage": "1", "historic": "archaeological_site", "name": "Nekropola ste\u0107aka Naklo", "name:en": "Necropolis Naklo", "opening_hours": "24/7", "site_type": "necropolis"}}, "geometry": {"type": "Point", "coordinates": [17.0706886, 43.6755775]}}, {"type": "Feature", "properties": {"type": "node", "id": 2028786711, "tags": {"name": "Muzej Gorica", "name:de": "Franziskanermuseum Gorica", "tourism": "museum"}}, "geometry": {"type": "Point", "coordinates": [17.0144151, 43.8183553]}}, {"type": "Feature", "properties": {"type": "node", "id": 6986483042, "tags": {"heritage": "1", "historic": "archaeological_site", "name": "Nekropola ste\u0107aka Grepci", "name:en": "Necropolis Grepci", "opening_hours": "24/7", "site_type": "necropolis"}}, "geometry": {"type": "Point", "coordinates": [16.9022995, 43.8633231]}}, {"type": "Feature", "properties": {"type": "node", "id": 5842738748, "tags": {"addr:city": "Tomislavgrad", "addr:housenumber": "bb", "addr:postcode": "80240", "addr:street": "Trg fra. Mije \u010cui\u0107a", "name": "Franjeva\u010dki muzej ''Fra Jozo Kri\u017ei\u0107''", "tourism": "museum"}}, "geometry": {"type": "Point", "coordinates": [17.2260792, 43.7212673]}}, {"type": "Feature", "properties": {"type": "node", "id": 3931863696, "tags": {"name": "Kajtazova ku\u0107a", "name:en": "Kajtaz House", "name:zh": "\u5361\u4f0a\u5854\u5179\u5b85\u90b8", "opening_hours": "Mo-Su 09:00-19:00", "tourism": "museum"}}, "geometry": {"type": "Point", "coordinates": [17.8181378, 43.3354286]}}, {"type": "Feature", "properties": {"type": "node", "id": 792313053, "tags": {"addr:street": "Bi\u0161\u0107evi\u0107a", "charge": "2 KM", "email": "fortuna_headoffice@bih.net.ba", "name": "Ottoman house", "name:zh": "\u571f\u8033\u5176\u4f4f\u5b85", "opening_hours": "Mo-Su 08:30-18:30", "phone": "+387 36 551440", "tourism": "museum", "website": "http://www.fortuna.ba"}}, "geometry": {"type": "Point", "coordinates": [17.8130795, 43.3405658]}}, {"type": "Feature", "properties": {"type": "node", "id": 1350464721, "tags": {"name": "Muzej Stari Most", "name:ar": "\u0645\u062a\u062d\u0641 \u062c\u0633\u0631 \u0645\u0648\u0633\u062a\u0627\u0631", "name:lt": "Senojo tilto muziejus", "name:tr": "Eski K\u00f6pr\u00fc M\u00fczesi", "tourism": "museum", "wheelchair": "no"}}, "geometry": {"type": "Point", "coordinates": [17.8155796, 43.337248]}}, {"type": "Feature", "properties": {"type": "node", "id": 1462925327, "tags": {"addr:housenumber": "38736551602", "addr:postcode": "88000", "addr:street": "Bajatova", "email": "info@muzejhercegovine.com", "name": "Muzej Hercegovine Mostar", "name:tr": "Hersek M\u00fczesi", "source": "http://muzejhercegovine.com", "tourism": "museum", "website": "http://muzejhercegovine.com/web/"}}, "geometry": {"type": "Point", "coordinates": [17.8159429, 43.3389996]}}, {"type": "Feature", "properties": {"type": "node", "id": 3726801474, "tags": {"name": "Muslibegovi\u0107a ku\u0107a", "name:en": "Muslibegovic House", "name:tr": "M\u00fcsl\u00fcm Bey Kona\u011f\u0131", "tourism": "museum", "website": "http://muslibegovichouse.com"}}, "geometry": {"type": "Point", "coordinates": [17.816337, 43.3417057]}}, {"type": "Feature", "properties": {"type": "node", "id": 6099627885, "tags": {"name:en": "Museum of War and Genocide Victims 1992 - 1995", "name:tr": "Sava\u015f ve Soyk\u0131r\u0131m Kurbanlar\u0131 M\u00fczesi 1992-1995", "opening_hours": "Mo-Su 09:00-21:00", "tourism": "museum"}}, "geometry": {"type": "Point", "coordinates": [17.8137082, 43.3408805]}}, {"type": "Feature", "properties": {"type": "node", "id": 6466459086, "tags": {"name:en": "War Photography Exhibition", "name:tr": "Sava\u015f Foto\u011fraf\u0131 Sergisi", "tourism": "museum"}}, "geometry": {"type": "Point", "coordinates": [17.8148212, 43.3372722]}}, {"type": "Feature", "properties": {"type": "node", "id": 6697937687, "tags": {"name:en": "The Hamam Museum", "tourism": "museum"}}, "geometry": {"type": "Point", "coordinates": [17.8137983, 43.3375634]}}, {"type": "Feature", "properties": {"type": "node", "id": 6791374347, "tags": {"addr:housenumber": "bb", "addr:place": "Velagi\u0107evina", "description": "Traditional House of Bosnia and Herzegovina with amazing architecture and nature.", "name": "Velagi\u0107evina", "opening_hours": "Mo-Su 10:00-18:00", "phone": "+387 61 273459", "tourism": "museum"}}, "geometry": {"type": "Point", "coordinates": [17.8981679, 43.2575158]}}, {"type": "Feature", "properties": {"type": "node", "id": 6100964793, "tags": {"name": "Zavi\u010dajni Muzej", "opening_hours": "Mo-Su 09:00-16:30", "tourism": "museum"}}, "geometry": {"type": "Point", "coordinates": [17.9621876, 43.6506085]}}, {"type": "Feature", "properties": {"type": "node", "id": 5459442871, "tags": {"name": "The Library and administration", "tourism": "museum"}}, "geometry": {"type": "Point", "coordinates": [18.4019424, 43.8545671]}}, {"type": "Feature", "properties": {"type": "node", "id": 5459448096, "tags": {"name": "Sarajevo Haggadah", "tourism": "museum"}}, "geometry": {"type": "Point", "coordinates": [18.4021804, 43.8550133]}}, {"type": "Feature", "properties": {"type": "node", "id": 5459442868, "tags": {"name": "Ethnology Department", "tourism": "museum"}}, "geometry": {"type": "Point", "coordinates": [18.4034004, 43.8546309]}}, {"type": "Feature", "properties": {"type": "node", "id": 5459442869, "tags": {"name": "Natural Sciences Department", "tourism": "museum"}}, "geometry": {"type": "Point", "coordinates": [18.4027129, 43.8541831]}}, {"type": "Feature", "properties": {"type": "node", "id": 5459442870, "tags": {"name": "Archaeology Department", "tourism": "museum"}}, "geometry": {"type": "Point", "coordinates": [18.4026321, 43.8549866]}}, {"type": "Feature", "properties": {"type": "node", "id": 5459448097, "tags": {"name": "Botany Section", "tourism": "museum"}}, "geometry": {"type": "Point", "coordinates": [18.4028652, 43.8545114]}}, {"type": "Feature", "properties": {"type": "node", "id": 5016408125, "tags": {"name": "Muzej Ars Aevi", "name:en": "Ars Aevi Collection", "name:fr": "Ars Aevi Collection", "name:hr": "Muzej Ars Aevi", "name:tr": "Ars Aevi Modern Sanat M\u00fczesi", "opening_hours": "Mo-Sa 10:00-18:00", "tourism": "museum"}}, "geometry": {"type": "Point", "coordinates": [18.4147644, 43.8551116]}}, {"type": "Feature", "properties": {"type": "node", "id": 4427605289, "tags": {"contact:email": "info@galerija110795.ba", "contact:phone": "+387 33 953170", "contact:website": "http://galerija110795.ba", "name": "Galerija 11/07/95", "name:en": "Gallery 11/07/95", "name:tr": "Galeri 11/07/95 An\u0131t Sanat Galerisi", "tourism": "museum", "wheelchair": "no"}}, "geometry": {"type": "Point", "coordinates": [18.4257011, 43.8593821]}}, {"type": "Feature", "properties": {"type": "node", "id": 5069119965, "tags": {"name": "Muzej zlo\u010dina protiv \u010dovje\u010dnosti i genocida 1992-1995", "name:en": "Museum of crimes against humanity and genocide 1992-1995", "name:tr": "\u0130nsanl\u0131k ve soyk\u0131r\u0131m su\u00e7lar\u0131 M\u00fczesi 1992-1995", "opening_hours": "9:00-19:00", "phone": "+387 62467764", "tourism": "museum"}}, "geometry": {"type": "Point", "coordinates": [18.4248924, 43.8589621]}}, {"type": "Feature", "properties": {"type": "node", "id": 5614969828, "tags": {"name:en": "Museum of Crimes against Humanity and Genocide 1992-1995", "name:tr": "\u0130nsanl\u0131k ve Soyk\u0131r\u0131m Su\u00e7lar\u0131 M\u00fczesi 1992-1995", "tourism": "museum"}}, "geometry": {"type": "Point", "coordinates": [18.4263536, 43.8589702]}}, {"type": "Feature", "properties": {"type": "node", "id": 5776566121, "tags": {"contact:email": "muzejjevreja@muzejsarajeva.ba", "contact:phone": "+387 33 535688", "name": "Muzej Jevreja BiH", "name:en": "Museum of the Jews of Bosnia and Herzegovina", "name:tr": "Bosna Hersek Yahudileri M\u00fczesi", "opening_hours": "Apr 15-Sep 15: Mo-Fr 10:00-18:00; Sa off; Su 10:00-13:00; Sep 15-Apr 15: Mo-Fr 10:00-16:00; Sa off; Su 10:00-13:00", "operator": "Muzej Sarajeva", "source": "The Sarajevo Museum Depadance - Sarajevo Canton", "tourism": "museum"}}, "geometry": {"type": "Point", "coordinates": [18.4278086, 43.859838]}}, {"type": "Feature", "properties": {"type": "node", "id": 4935316721, "tags": {"contact:phone": "+387 33 535558", "contact:website": "http://warchildhood.org/museum", "fee": "Mo-Su; Th[-1] off", "name": "Muzej ratnog djetinjstva", "name:en": "War childhood museum", "name:hr": "Muzej ratnog djetinjstva", "name:tr": "Sava\u015f \u00c7ocukluk M\u00fczesi", "opening_hours": "Mo-Su 11:00-19:00", "tourism": "museum", "wikidata": "Q28654544"}}, "geometry": {"type": "Point", "coordinates": [18.4285266, 43.8619482]}}, {"type": "Feature", "properties": {"type": "node", "id": 1431604970, "tags": {"addr:city": "Sarajevo", "addr:country": "BA", "addr:housenumber": "1", "addr:postcode": "71000", "addr:street": "Zelenih beretki", "name": "Muzej Sarajevo 1878-1918", "name:en": "Museum of Sarajevo 1878-1918", "name:tr": "Saraybosna M\u00fczesi 1878-1918", "name:zh": "\u8428\u62c9\u70ed\u7a9d1878-1918\u535a\u7269\u9986", "operator": "Muzej Sarajeva", "phone": "+387 33 533288", "tourism": "museum", "website": "http://muzejsarajeva.ba", "wikidata": "Q19720335"}}, "geometry": {"type": "Point", "coordinates": [18.4289875, 43.8579075]}}, {"type": "Feature", "properties": {"type": "node", "id": 1994696989, "tags": {"addr:postcode": "71000", "addr:street": "Franjeva\u010dka", "contact:email": "museum@pivara.ba", "craft": "brewery", "email": "museum@pivara.ba", "fee": "yes", "name": "Sarajevska Pivara", "name:en": "Sarajevo Brewery", "name:pl": "Piwiarnia Browar Sarajewo", "name:tr": "Bira Fabrikas\u0131", "opening_hours": "Tu-Su 10:00-18:00", "phone": "+387 33 491138", "tourism": "museum", "website": "http://sarajevska-pivara.com/muzej", "wheelchair": "limited", "wikidata": "Q25425582"}}, "geometry": {"type": "Point", "coordinates": [18.4323036, 43.856306]}}, {"type": "Feature", "properties": {"type": "node", "id": 5303040488, "tags": {"fee": "yes", "name": "Muzej Stare srpske pravoslavne crkve Sarajevo", "name:en": "Museum of the Old Serbian Orthodox Church Sarajevo", "name:sr": "\u041c\u0443\u0437\u0435\u0458 \u0421\u0442\u0430\u0440\u0435 \u0441\u0440\u043f\u0441\u043a\u0435 \u043f\u0440\u0430\u0432\u043e\u0441\u043b\u0430\u0432\u043d\u0435 \u0446\u0440\u043a\u0432\u0435 \u0421\u0430\u0440\u0430\u0458\u0435\u0432\u043e", "name:tr": "Eski S\u0131rp Ortodoks Kilisesi Saraybosna M\u00fczesi", "start_date": "1889", "tourism": "museum"}}, "geometry": {"type": "Point", "coordinates": [18.4302782, 43.8602356]}}, {"type": "Feature", "properties": {"type": "node", "id": 747043184, "tags": {"name": "Muzej Alije Izetbegovi\u0107a", "name:ar": "\u0645\u062a\u062d\u0641 \u0639\u0644\u064a \u0639\u0632\u062a \u0628\u0648\u0641\u064a\u062a\u0634", "tourism": "museum", "wikidata": "Q20573889"}}, "geometry": {"type": "Point", "coordinates": [18.4366199, 43.8631599]}}, {"type": "Feature", "properties": {"type": "node", "id": 6171715900, "tags": {"name": "Muzej 105. Motorizovane brigade", "tourism": "museum"}}, "geometry": {"type": "Point", "coordinates": [18.4313586, 43.8798449]}}, {"type": "Feature", "properties": {"type": "node", "id": 2151848715, "tags": {"name": "Etno Ku\u0107a Rolji\u0107", "name:sr": "\u0415\u0442\u043d\u043e \u043a\u0443\u045b\u0430 \u0420\u043e\u0459\u0438\u045b", "tourism": "museum"}}, "geometry": {"type": "Point", "coordinates": [17.1092574, 44.4445387]}}, {"type": "Feature", "properties": {"type": "node", "id": 4161525940, "tags": {"name": "Etno selo Ljuba\u010devo", "tourism": "museum", "website": "http://etno-muzej.com"}}, "geometry": {"type": "Point", "coordinates": [17.1917783, 44.6641679]}}, {"type": "Feature", "properties": {"type": "node", "id": 559952410, "tags": {"addr:city": "Banja Luka", "name": "Muzej Republike Srpske", "tourism": "museum"}}, "geometry": {"type": "Point", "coordinates": [17.1917967, 44.7693176]}}, {"type": "Feature", "properties": {"type": "node", "id": 2356449341, "tags": {"name": "Muzej Vranduk", "tourism": "museum"}}, "geometry": {"type": "Point", "coordinates": [17.9039157, 44.2917887]}}, {"type": "Feature", "properties": {"type": "node", "id": 1490047474, "tags": {"name": "Museum", "tourism": "museum"}}, "geometry": {"type": "Point", "coordinates": [18.120867, 44.132734]}}, {"type": "Feature", "properties": {"type": "node", "id": 7524320042, "tags": {"name": "Samostanski muzej i galerija", "name:de": "Klostermuseum und Galerie", "name:en": "Convent's Museum and Gallery", "name:fr": "Mus\u00e9e et galerie conventuels", "operator": "Franjeva\u010dki samostan Kraljeva Sutjeska", "tourism": "museum"}}, "geometry": {"type": "Point", "coordinates": [18.2026935, 44.1223301]}}, {"type": "Feature", "properties": {"type": "node", "id": 1155151331, "tags": {"name": "Etno muzej i muzej RHU Jelah", "tourism": "museum"}}, "geometry": {"type": "Point", "coordinates": [17.9616235, 44.654734]}}, {"type": "Feature", "properties": {"type": "node", "id": 6867840391, "tags": {"name:en": "Battle of Sutjeska Museum", "opening_hours": "Su 09:00-18:00", "tourism": "museum"}}, "geometry": {"type": "Point", "coordinates": [18.6894504, 43.3430277]}}, {"type": "Feature", "properties": {"type": "node", "id": 7938091271, "tags": {"addr:city": "Fo\u010da", "addr:housenumber": "11", "addr:postcode": "73300", "addr:street": "Kralja Petra I", "museum": "history", "name": "Muzej stare Hercegovine", "opening_hours": "Mo-Fr 07:00-15:00", "opening_hours:covid19": "open", "phone": "+387 58 211135", "tourism": "museum"}}, "geometry": {"type": "Point", "coordinates": [18.7753742, 43.5061657]}}, {"type": "Feature", "properties": {"type": "node", "id": 7924729654, "tags": {"name": "Spomen muzej Stari Brod", "name:en": "Memorial museum Stari Brod", "name:sr": "\u0421\u043f\u043e\u043c\u0435\u043d \u043c\u0443\u0437\u0435\u0458 \u0421\u0442\u0430\u0440\u0438 \u0411\u0440\u043e\u0434", "name:sr-Latn": "Spomen muzej Stari Brod", "tourism": "museum", "wikidata": "Q12757450", "wikipedia": "sr:\u041f\u043e\u043a\u043e\u0459 \u0443 \u0421\u0442\u0430\u0440\u043e\u043c \u0411\u0440\u043e\u0434\u0443 \u0438 \u041c\u0438\u043b\u043e\u0448\u0435\u0432\u0438\u045b\u0438\u043c\u0430"}}, "geometry": {"type": "Point", "coordinates": [19.211537, 43.871028]}}, {"type": "Feature", "properties": {"type": "node", "id": 7096128235, "tags": {"name": "Muzej rudarstva", "tourism": "museum"}}, "geometry": {"type": "Point", "coordinates": [19.0787968, 44.169499]}}, {"type": "Feature", "properties": {"type": "node", "id": 6597244098, "tags": {"name": "Kulturni centar Srebrenica", "name:en": "Ethnographic Museum", "tourism": "museum"}}, "geometry": {"type": "Point", "coordinates": [19.2981712, 44.1031881]}}, {"type": "Feature", "properties": {"type": "node", "id": 6597246487, "tags": {"name:en": "Museum of Genocide in Bosnia", "tourism": "museum"}}, "geometry": {"type": "Point", "coordinates": [19.3031238, 44.1568174]}}, {"type": "Feature", "properties": {"type": "node", "id": 489251928, "tags": {"name": "Memorijalni muzej na Mrakovici", "name:en": "War Museum", "tourism": "museum"}}, "geometry": {"type": "Point", "coordinates": [16.9088748, 45.0129966]}}, {"type": "Feature", "properties": {"type": "node", "id": 6502322919, "tags": {"name": "Vrata Bosne", "tourism": "museum"}}, "geometry": {"type": "Point", "coordinates": [18.6514863, 45.0313014]}}, {"type": "Feature", "properties": {"type": "way", "id": 760641579, "tags": {"building": "yes", "name": "Muzej Hercegovine", "tourism": "museum"}}, "geometry": {"type": "Point", "coordinates": [18.347288, 42.711269]}}, {"type": "Feature", "properties": {"type": "way", "id": 902002835, "tags": {"heritage": "1", "heritage:operator": "whc", "heritage:website": "https://whc.unesco.org/en/list/1504/", "historic": "archaeological_site", "historic:era": "medieval", "landcover": "grass", "name": "Nekropola Vido\u0161tak", "religion": "christian", "site_type": "burial_ground", "tourism": "attraction"}}, "geometry": {"type": "Point", "coordinates": [17.9176739, 43.0983811]}}, {"type": "Feature", "properties": {"type": "way", "id": 901995169, "tags": {"boundary": "protected_area", "heritage": "1", "heritage:operator": "whc", "heritage:website": "https://whc.unesco.org/en/list/1504/", "historic": "archaeological_site", "historic:era": "medieval", "landcover": "grass", "name": "Nekropola Radimlja", "religion": "christian", "site_type": "burial_ground", "tourism": "attraction", "website": "https://www.radimlja.ba/index.php?option=com_content&view=article&id=18:radimlja&catid=25:znamenitosti&Itemid=174", "wikidata": "Q949388", "wikipedia": "hr:Nekropola Radimlja"}}, "geometry": {"type": "Point", "coordinates": [17.9239047, 43.0921197]}}, {"type": "Feature", "properties": {"type": "way", "id": 429545316, "tags": {"building": "yes", "name": "\u0160ari\u0107a ku\u0107a", "tourism": "museum"}}, "geometry": {"type": "Point", "coordinates": [17.9586533, 43.0825488]}}, {"type": "Feature", "properties": {"type": "way", "id": 896840416, "tags": {"building": "yes", "name": "Makova hi\u017ea", "tourism": "museum"}}, "geometry": {"type": "Point", "coordinates": [17.9614139, 43.0803193]}}, {"type": "Feature", "properties": {"type": "way", "id": 270447694, "tags": {"building:condition": "completely_ruinous", "castle_type": "defensive", "ele": "398", "fee": "no", "heritage": "2", "heritage:operator": "kons", "historic": "ruins", "name": "Sokola\u010dka kula", "ruins": "yes", "source": "http://kons.gov.ba/main.php?id_struct=6&lang=1&action=view&id=2976", "start_date": "before 1395", "tourism": "attraction"}}, "geometry": {"type": "Point", "coordinates": [15.8950603, 44.7857839]}}, {"type": "Feature", "properties": {"type": "way", "id": 184195012, "tags": {"building": "yes", "historic": "castle", "name": "Kapetanova kula", "tourism": "museum"}}, "geometry": {"type": "Point", "coordinates": [15.8703899, 44.8140143]}}, {"type": "Feature", "properties": {"type": "way", "id": 245490226, "tags": {"addr:city": "Biha\u0107", "addr:housenumber": "2", "addr:postcode": "77000", "addr:street": "5. korpusa", "alt_name": "Muzej Unsko-sanskog kantona", "building": "yes", "name": "Muzej USK", "tourism": "museum"}}, "geometry": {"type": "Point", "coordinates": [15.8680897, 44.8127272]}}, {"type": "Feature", "properties": {"type": "way", "id": 827297662, "tags": {"addr:housenumber": "97", "building": "yes", "name": "Ku\u0107a Branka \u0106opi\u0107a", "tourism": "museum"}}, "geometry": {"type": "Point", "coordinates": [16.3444102, 44.8245119]}}, {"type": "Feature", "properties": {"type": "way", "id": 699789056, "tags": {"building": "yes", "tourism": "museum"}}, "geometry": {"type": "Point", "coordinates": [16.465549, 44.5062622]}}, {"type": "Feature", "properties": {"type": "way", "id": 40585696, "tags": {"building": "yes", "tourism": "museum"}}, "geometry": {"type": "Point", "coordinates": [16.7093653, 44.9771649]}}, {"type": "Feature", "properties": {"type": "way", "id": 212884978, "tags": {"tourism": "museum"}}, "geometry": {"type": "Point", "coordinates": [17.0521149, 43.5725149]}}, {"type": "Feature", "properties": {"type": "way", "id": 232358445, "tags": {"amenity": "community_centre", "building": "yes", "fee": "no", "name": "Narodni univerzitet", "tourism": "museum", "wheelchair": "no"}}, "geometry": {"type": "Point", "coordinates": [16.8491999, 44.0426272]}}, {"type": "Feature", "properties": {"type": "way", "id": 169223369, "tags": {"addr:city": "\u0160\u0107it", "building": "museum", "name": "Muzej Franjeva\u010dkog samostana Rama-\u0160\u0107it", "tourism": "museum"}}, "geometry": {"type": "Point", "coordinates": [17.5309598, 43.8037879]}}, {"type": "Feature", "properties": {"type": "way", "id": 373403618, "tags": {"building": "yes", "name": "MuM", "tourism": "museum"}}, "geometry": {"type": "Point", "coordinates": [17.8157249, 43.3375023]}}, {"type": "Feature", "properties": {"type": "way", "id": 387178927, "tags": {"amenity": "place_of_worship", "building": "yes", "name": "Koski Mehmed Pa\u0161ina d\u017eamija", "name:en": "Koski Mehmed Pasha Mosque", "name:tr": "Koski Mehmet Pa\u015fa Camii", "religion": "muslim", "tourism": "museum"}}, "geometry": {"type": "Point", "coordinates": [17.8147879, 43.338677]}}, {"type": "Feature", "properties": {"type": "way", "id": 444333266, "tags": {"bridge:structure": "humpback", "building": "yes", "heritage": "1", "heritage:operator": "whc", "heritage:website": "http://whc.unesco.org/en/list/946", "historic": "yes", "layer": "1", "man_made": "bridge", "material": "stone", "name": "Stari most", "name:ar": "\u062c\u0633\u0631 \u0645\u0648\u0633\u062a\u0627\u0631 \u0627\u0644\u0642\u062f\u064a\u0645", "name:de": "Alte Br\u00fccke", "name:en": "Old bridge", "name:hr": "Stari most", "name:lt": "Mostaro Senasis tiltas", "name:ru": "\u0421\u0442\u0430\u0440\u044b\u0439 \u043c\u043e\u0441\u0442", "name:sv": "Gamla bron", "name:tr": "Mostar K\u00f6pr\u00fcs\u00fc", "name:zh": "\u83ab\u65af\u5854\u5c14\u53e4\u6865", "old_name:de": "R\u00f6merbr\u00fccke", "ref:whc": "946", "toilets:wheelchair": "no", "tourism": "attraction", "whc:criteria": "(vi)", "whc:inscription_date": "2005", "wheelchair": "no", "wikidata": "Q188528", "wikipedia": "bs:Stari most"}}, "geometry": {"type": "Point", "coordinates": [17.8150548, 43.3372651]}}, {"type": "Feature", "properties": {"type": "way", "id": 220276660, "tags": {"building": "yes", "name": "Muzej bitke na Neretvi", "tourism": "museum"}}, "geometry": {"type": "Point", "coordinates": [17.7606282, 43.6538495]}}, {"type": "Feature", "properties": {"type": "way", "id": 576350197, "tags": {"building": "yes", "name": "Bunker", "tourism": "museum"}}, "geometry": {"type": "Point", "coordinates": [17.7629544, 43.6538873]}}, {"type": "Feature", "properties": {"type": "way", "id": 417818602, "tags": {"building": "yes", "historic": "monastery", "opening_hours": "Mo-Sa 10:00-18:00", "tourism": "museum"}}, "geometry": {"type": "Point", "coordinates": [17.8965013, 43.9614975]}}, {"type": "Feature", "properties": {"type": "way", "id": 119762036, "tags": {"addr:city": "Ilid\u017ea", "addr:country": "BA", "addr:housenumber": "1", "addr:postcode": "71000", "addr:street": "Tuneli", "building": "yes", "email": "info@tunelspasa.ba", "museum": "history", "name": "Tunel spasa - Ku\u0107a Kolara", "opening_hours": "Apr 1-Oct 31 Mo-Su 09:00-17:00; Nov 1-Mar 31 Mo-Su 09:00-16:00", "payment:credit_cards": "no", "phone": "+387 33 778 672", "tourism": "museum", "website": "https://www.tunelspasa.ba"}}, "geometry": {"type": "Point", "coordinates": [18.3373542, 43.8198211]}}, {"type": "Feature", "properties": {"type": "way", "id": 835773405, "tags": {"building": "yes", "museum": "history", "name": "Muzej Mlade Bosne", "tourism": "museum"}}, "geometry": {"type": "Point", "coordinates": [18.3692221, 43.82258]}}, {"type": "Feature", "properties": {"type": "way", "id": 204593145, "tags": {"building": "yes", "name": "Zavi\u010dajni muzej", "tourism": "museum"}}, "geometry": {"type": "Point", "coordinates": [18.1815198, 43.9885621]}}, {"type": "Feature", "properties": {"type": "way", "id": 499987223, "tags": {"addr:city": "Sarajevo", "addr:housenumber": "3", "addr:postcode": "71000", "addr:street": "Zmaja od Bosne", "building": "museum", "building:levels": "3", "name": "Zemaljski muzej Bosne i Hercegovine", "name:en": "National Museum of Bosnia & Herzegovina", "name:tr": "Bosna Hersek Ulusal M\u00fczesi", "source": "ba:fgu", "tourism": "museum", "wheelchair": "no", "wikidata": "Q568938", "wikipedia": "en:National Museum of Bosnia and Herzegovina"}}, "geometry": {"type": "Point", "coordinates": [18.4026477, 43.8549885]}}, {"type": "Feature", "properties": {"type": "way", "id": 23724296, "tags": {"addr:city": "Sarajevo", "addr:housenumber": "5", "addr:postcode": "71000", "addr:street": "Zmaja od Bosne", "building": "museum", "building:levels": "2", "building:use": "cultural", "contact:email": "histmuz@bih.net.ba", "contact:phone": "+387 33 226098", "fixme": "resurvey building:levels", "name": "Historijski Muzej Bosne i Hercegovine", "name:en": "Historical Museum of Bosnia & Herzegovina", "name:tr": "Bosna Hersek Tarih M\u00fczesi", "name:zh": "\u6ce2\u9ed1\u5386\u53f2\u535a\u7269\u9986", "opening_hours": "Mo-Su 09:00-19:00", "tourism": "museum", "website": "http://muzej.ba", "wheelchair": "yes", "wikidata": "Q1621007", "wikipedia": "en:Historical Museum of Bosnia and Herzegovina"}}, "geometry": {"type": "Point", "coordinates": [18.4008689, 43.8549747]}}, {"type": "Feature", "properties": {"type": "way", "id": 190229481, "tags": {"building": "yes", "name": "Despi\u0107a ku\u0107a", "name:bs": "Despi\u0107a ku\u0107a", "name:en": "The Despi\u0107 House", "name:zh": "\u5fb7\u65af\u76ae\u5361\u535a\u7269\u9986", "opening_hours": "Mo-Fr 10:00-18:00; Sa 10:00-15:00", "tourism": "museum", "wikidata": "Q1272929"}}, "geometry": {"type": "Point", "coordinates": [18.4274452, 43.8576097]}}, {"type": "Feature", "properties": {"type": "way", "id": 191303897, "tags": {"building": "yes", "name": "Galerija MAK", "tourism": "museum"}}, "geometry": {"type": "Point", "coordinates": [18.4266371, 43.857782]}}, {"type": "Feature", "properties": {"type": "way", "id": 203251029, "tags": {"addr:housenumber": "32", "addr:street": "Josipa \u0160tadlera", "building": "yes", "name": "Muzej Sarajeva", "tourism": "museum"}}, "geometry": {"type": "Point", "coordinates": [18.4275779, 43.860871]}}, {"type": "Feature", "properties": {"type": "way", "id": 169760856, "tags": {"building": "yes", "name": "Brusa Bezistan", "name:bs": "Brusa Bezistan", "name:en": "The Brusa Bezistan", "source": "op\u0161tina stari grad", "tourism": "museum", "wheelchair": "no", "wikidata": "Q1564450"}}, "geometry": {"type": "Point", "coordinates": [18.4303864, 43.8588029]}}, {"type": "Feature", "properties": {"type": "way", "id": 203586371, "tags": {"addr:housenumber": "8", "addr:street": "Glo\u0111ina", "building": "yes", "name": "Svrzina ku\u0107a", "name:bs": "Svrzina ku\u0107a", "name:en": "Svrzo's House", "name:tr": "Svrzo\u2019nun Evi", "opening_hours": "Mo-Fr 10:00-16:00; Sa 10:00-15:00; Su off", "operator": "Muzej Sarajeva", "tourism": "museum", "wikidata": "Q1397958"}}, "geometry": {"type": "Point", "coordinates": [18.4293235, 43.862452]}}, {"type": "Feature", "properties": {"type": "way", "id": 443550870, "tags": {"heritage": "2", "historic": "heritage", "name": "Had\u017ei\u0161abanovi\u0107a ku\u0107a"}}, "geometry": {"type": "Point", "coordinates": [18.4328705, 43.8621616]}}, {"type": "Feature", "properties": {"type": "way", "id": 443551517, "tags": {"heritage": "2", "historic": "heritage", "start_date": "1866"}}, "geometry": {"type": "Point", "coordinates": [18.43456, 43.8601989]}}, {"type": "Feature", "properties": {"type": "way", "id": 443584679, "tags": {"alt_name": "D\u017eamija Abdesthana", "amenity": "place_of_worship", "building": "mosque", "denomination": "sunni", "heritage": "2", "historic": "heritage", "name": "D\u017eamija \u0160ejh Feraha", "religion": "muslim", "start_date": "late C15"}}, "geometry": {"type": "Point", "coordinates": [18.4328844, 43.861574]}}, {"type": "Feature", "properties": {"type": "way", "id": 192508340, "tags": {"building": "yes", "name": "Muzej AVNOJ-a", "tourism": "museum"}}, "geometry": {"type": "Point", "coordinates": [17.2680144, 44.338134]}}, {"type": "Feature", "properties": {"type": "way", "id": 199528972, "tags": {"building": "yes", "museum": "ethnography", "name": "Zavi\u010dajna etno zbirka Jajca", "tourism": "museum"}}, "geometry": {"type": "Point", "coordinates": [17.2694345, 44.3394666]}}, {"type": "Feature", "properties": {"type": "way", "id": 91396913, "tags": {"building": "yes", "tourism": "museum"}}, "geometry": {"type": "Point", "coordinates": [17.1894241, 44.7720695]}}, {"type": "Feature", "properties": {"type": "way", "id": 91396926, "tags": {"addr:housenumber": "2", "addr:street": "Trg srpskih junaka", "building": "yes", "name": "Muzej savremene umjetnosti RS", "name:sr": "\u041c\u0443\u0437\u0435\u0458 \u0441\u0430\u0432\u0440\u0435\u043c\u0435\u043d\u0435 \u0443\u043c\u0458\u0435\u0442\u043d\u043e\u0441\u0442\u0438 \u0420\u0421", "tourism": "museum", "wikipedia": "sr:\u041c\u0443\u0437\u0435\u0458 \u0441\u0430\u0432\u0440\u0435\u043c\u0435\u043d\u0435 \u0443\u043c\u0458\u0435\u0442\u043d\u043e\u0441\u0442\u0438 \u0420\u0435\u043f\u0443\u0431\u043b\u0438\u043a\u0435 \u0421\u0440\u043f\u0441\u043a\u0435"}}, "geometry": {"type": "Point", "coordinates": [17.1895861, 44.7722817]}}, {"type": "Feature", "properties": {"type": "way", "id": 91396928, "tags": {"building": "yes", "tourism": "museum"}}, "geometry": {"type": "Point", "coordinates": [17.1897647, 44.7725001]}}, {"type": "Feature", "properties": {"type": "way", "id": 168619341, "tags": {"building": "museum", "name": "Zavi\u010dajna zbirka \"Ba\u0161tina\"", "tourism": "museum"}}, "geometry": {"type": "Point", "coordinates": [17.6758243, 44.1765839]}}, {"type": "Feature", "properties": {"type": "way", "id": 170957398, "tags": {"building": "yes", "name": "Zavi\u010dajni muzej Travnik", "tourism": "museum"}}, "geometry": {"type": "Point", "coordinates": [17.6665889, 44.2257256]}}, {"type": "Feature", "properties": {"type": "way", "id": 611774462, "tags": {"building": "yes", "historic": "yes", "name": "Rodna ku\u0107a Ive Andri\u0107a", "name:ar": "\u0645\u062a\u062d\u0641 \u0625\u064a\u0641\u0648 \u0623\u0646\u062f\u0631\u064a\u062a\u0634", "name:en": "Ivo Andric's Birth House", "name:sr": "\u0420\u043e\u0434\u043d\u0430 \u043a\u0443\u045b\u0430 \u0418\u0432\u0435 \u0410\u043d\u0434\u0440\u0438\u045b\u0430", "tourism": "museum"}}, "geometry": {"type": "Point", "coordinates": [17.6680265, 44.2265296]}}, {"type": "Feature", "properties": {"type": "way", "id": 181637545, "tags": {"building": "yes", "tourism": "museum"}}, "geometry": {"type": "Point", "coordinates": [17.9095136, 44.1995608]}}, {"type": "Feature", "properties": {"type": "way", "id": 178767360, "tags": {"building": "civic", "name": "Gradski muzej", "tourism": "museum"}}, "geometry": {"type": "Point", "coordinates": [17.9113815, 44.1999553]}}, {"type": "Feature", "properties": {"type": "way", "id": 882640194, "tags": {"building": "yes", "museum": "local", "name": "Muzej Kaknja", "operator": "KSC Kakanj", "tourism": "museum", "website": "https://ksckakanj.ba/objekti/muzej/"}}, "geometry": {"type": "Point", "coordinates": [18.1161278, 44.1238829]}}, {"type": "Feature", "properties": {"type": "way", "id": 282123452, "tags": {"building": "yes", "name": "Eminagi\u0107a konak - Muzej Grada Te\u0161nja", "operator": "Muzej", "tourism": "museum"}}, "geometry": {"type": "Point", "coordinates": [17.9892458, 44.6155462]}}, {"type": "Feature", "properties": {"type": "way", "id": 170338948, "tags": {"building": "yes", "name": "Zavi\u010dajni muzej Prnjavor", "tourism": "museum"}}, "geometry": {"type": "Point", "coordinates": [17.665393, 44.871217]}}, {"type": "Feature", "properties": {"type": "way", "id": 209793022, "tags": {"building": "yes", "historic": "monument", "name": "Spomen-ku\u0107a bitke na Sutjesci", "name:bs": "Spomen-ku\u0107a bitke na Sutjesci", "name:en": "Battle of Sutjeska Memorial Complex", "name:hr": "Spomen-ku\u0107a bitke na Sutjesci", "name:sr": "\u0421\u043f\u043e\u043c\u0435\u043d-\u043a\u0443\u045b\u0430 \u0431\u0438\u0442\u043a\u0435 \u043d\u0430 \u0421\u0443\u0442\u0458\u0435\u0441\u0446\u0438", "tourism": "museum", "wikidata": "Q65455918", "wikipedia": "en:Case Black"}}, "geometry": {"type": "Point", "coordinates": [18.6884375, 43.3439312]}}, {"type": "Feature", "properties": {"type": "way", "id": 667420490, "tags": {"building": "yes", "name": "Muzejsko-memorijalni centar \"Rorovi\"", "tourism": "museum"}}, "geometry": {"type": "Point", "coordinates": [18.9755196, 43.6758492]}}, {"type": "Feature", "properties": {"type": "way", "id": 372449147, "tags": {"alt_name": "Na Drini \u0106uprija (\u041d\u0430 \u0414\u0440\u0438\u043d\u0438 \u040b\u0443\u043f\u0440\u0438\u0458\u0430)", "heritage": "1", "heritage:operator": "whc", "layer": "1", "length": "179.5", "man_made": "bridge", "name": "Most Mehmed-pa\u0161e Sokolovi\u0107a", "name:de": "Mehmed-Pa\u0161a-Sokolovi\u0107-Br\u00fccke", "name:en": "Mehmed Pa\u0161a Sokolovi\u0107 Bridge", "name:es": "Puente de Mehmed Pacha Sokolovi\u0107", "name:fr": "Pont Mehmed Pacha Sokolovi\u0107", "name:pl": "Most Mehmeda Paszy Sokolovicia", "name:ru": "\u041c\u043e\u0441\u0442 \u041c\u0435\u0445\u043c\u0435\u0434\u0430 \u041f\u0430\u0448\u0438 \u0421\u043e\u043a\u043e\u043b\u043e\u0432\u0438\u0447\u0430", "name:sr": "\u041c\u043e\u0441\u0442 \u041c\u0435\u0445\u043c\u0435\u0434-\u043f\u0430\u0448\u0435 \u0421\u043e\u043a\u043e\u043b\u043e\u0432\u0438\u045b\u0430", "name:sr-Latn": "Most Mehmed-pa\u0161e Sokolovi\u0107a", "name:tr": "Sokullu Mehmet Pa\u015fa K\u00f6pr\u00fcs\u00fc", "name:uk": "\u041c\u0456\u0441\u0442 \u041c\u0435\u0445\u043c\u0435\u0434\u0430-\u043f\u0430\u0448\u0456 \u0421\u043e\u043a\u043e\u043b\u043e\u0432\u0438\u0447\u0430", "ref:whc": "1260", "tourism": "attraction", "whc:inscription_date": "2007", "wikidata": "Q210055", "wikipedia": "en:Mehmed Pa\u0161a Sokolovi\u0107 Bridge"}}, "geometry": {"type": "Point", "coordinates": [19.2879113, 43.7825691]}}, {"type": "Feature", "properties": {"type": "way", "id": 29325876, "tags": {"building": "yes", "building:levels": "3", "name": "Muzej Soni trg", "tourism": "museum"}}, "geometry": {"type": "Point", "coordinates": [18.6757167, 44.5381342]}}, {"type": "Feature", "properties": {"type": "way", "id": 272039242, "tags": {"building": "yes", "name": "Geolo\u0161ki muzej", "tourism": "museum"}}, "geometry": {"type": "Point", "coordinates": [18.6829665, 44.5397713]}}, {"type": "Feature", "properties": {"type": "way", "id": 210113170, "tags": {"name": "Spomen ku\u0107a", "tourism": "museum"}}, "geometry": {"type": "Point", "coordinates": [18.8782226, 44.6376768]}}, {"type": "Feature", "properties": {"type": "way", "id": 276261121, "tags": {"building": "yes", "name": "Muzej Semberije", "name:sr": "\u041c\u0443\u0437\u0435\u0458 \u0421\u0435\u043c\u0431\u0435\u0440\u0438\u0458\u0435", "tourism": "museum"}}, "geometry": {"type": "Point", "coordinates": [19.2179804, 44.7569582]}}, {"type": "Feature", "properties": {"type": "way", "id": 455343113, "tags": {"artwork_type": "sculpture", "heritage": "2", "historic": "memorial", "material": "metal", "name": "Sv. Ana", "start_date": "2002", "tourism": "artwork"}}, "geometry": {"type": "Point", "coordinates": [18.5868529, 45.0599185]}}, {"type": "Feature", "properties": {"type": "relation", "id": 7328446, "tags": {"addr:housenumber": "3", "addr:postcode": "71000", "addr:street": "Zmaja od Bosne", "email": "kontakt@zemaljskimuzej.ba", "name": "Zemaljski muzej Bosne i Hercegovine", "name:bs": "Zemaljski muzej Bosne i Hercegovine", "name:de": "Nationalmuseum von Bosnien und Herzegowina", "name:en": "National Museum of Bosnia and Herzegovina", "name:fi": "Bosnia-Hertsegovinan kansallismuseo", "name:hr": "Zemaljski muzej Bosne i Hercegovine", "name:it": "Museo nazionale della Bosnia ed Erzegovina", "name:pl": "Muzeum Narodowe Bo\u015bni i Hercegowiny", "opening_hours": "Tu-Fr 10:00-19:00; Sa-Su 10:00-14:00", "phone": "+387 33 668027", "tourism": "museum", "type": "multipolygon", "website": "https://www.zemaljskimuzej.ba/", "wheelchair": "no", "wikidata": "Q568938"}}, "geometry": {"type": "Point", "coordinates": [18.4027128, 43.8544752]}}, {"type": "Feature", "properties": {"type": "relation", "id": 9715368, "tags": {"addr:city": "Tuzla", "addr:housenumber": "21", "addr:postcode": "75000", "addr:street": "D\u017eindi\u0107 Mahala", "building": "yes", "name": "Museum of Eastern Bosnia", "opening_hours": "Mo-Fr 08:00-15:00", "tourism": "museum", "type": "multipolygon"}}, "geometry": {"type": "Point", "coordinates": [18.6741322, 44.542204]}}]}