{"type": "FeatureCollection", "features": [{"type": "Feature", "properties": {"type": "node", "id": 331769806, "tags": {"heritage": "1", "heritage:operator": "whc", "historic": "archaeological_site", "name": "\u0392\u03c5\u03b6\u03b1\u03bd\u03c4\u03b9\u03bd\u03ae \u039a\u03ac\u03c3\u03c4\u03c1\u03bf\u03c0\u03bf\u03bb\u03b9\u03c4\u03b5\u03af\u03b1 \u039c\u03c5\u03c3\u03c4\u03c1\u03ac", "name:de": "Mystras", "name:en": "Byzantin Mystras Castle", "name:it": "Castello bizantino di Mistra", "tourism": "attraction", "wikidata": "Q19053", "wikipedia": "en:Mystras"}}, "geometry": {"type": "Point", "coordinates": [22.3692477, 37.0753213]}}, {"type": "Feature", "properties": {"type": "node", "id": 1842659765, "tags": {"addr:postcode": "85500", "alt_name": "Chora", "heritage": "1", "heritage:operator": "whc", "historic": "heritage", "name": "\u03a0\u03ac\u03c4\u03bc\u03bf\u03c2", "name:de": "Patmos", "name:el": "\u03a0\u03ac\u03c4\u03bc\u03bf\u03c2", "name:en": "Patmos", "name:ru": "\u041f\u0430\u0442\u043c\u043e\u0441", "place": "village", "population": "541", "source": "geodata.gov.gr"}}, "geometry": {"type": "Point", "coordinates": [26.5464039, 37.3091187]}}, {"type": "Feature", "properties": {"type": "node", "id": 272760071, "tags": {"heritage": "1", "heritage:operator": "whc", "name": "Joannis Cave", "name:de": "H\u00f6hle der Apokalypse", "name:el": "\u0391\u03c0\u03bf\u03ba\u03b1\u03bb\u03c5\u03c8\u03b7 \u0399\u03c9\u03b1\u03bd\u03bd\u03b7", "opening_hours": "08:00-13:30; Su,Tu,Th 16:00-18:00", "tourism": "attraction"}}, "geometry": {"type": "Point", "coordinates": [26.5449861, 37.3144714]}}, {"type": "Feature", "properties": {"type": "node", "id": 2286658095, "tags": {"heritage": "1", "heritage:operator": "whc", "int_name": "Medieval city of Rhodes", "name": "\u039c\u03b5\u03c3\u03b1\u03b9\u03c9\u03bd\u03b9\u03ba\u03ae \u03c0\u03cc\u03bb\u03b7 \u03c4\u03b7\u03c2 \u03a1\u03cc\u03b4\u03bf\u03c5", "name:de": "Rhodos \u2013 mittelalterliche Stadt", "name:el": "\u039c\u03b5\u03c3\u03b1\u03b9\u03c9\u03bd\u03b9\u03ba\u03ae \u03c0\u03cc\u03bb\u03b7 \u03c4\u03b7\u03c2 \u03a1\u03cc\u03b4\u03bf\u03c5", "name:en": "Medieval city of Rhodes", "name:fi": "Rodoksen vanhakaupunki", "name:ro": "Ora\u0219ul Medieval din Rodos", "place": "suburb", "wikidata": "Q876685", "wikipedia": "el:\u039c\u03b5\u03c3\u03b1\u03b9\u03c9\u03bd\u03b9\u03ba\u03ae \u03c0\u03cc\u03bb\u03b7 \u03c4\u03b7\u03c2 \u03a1\u03cc\u03b4\u03bf\u03c5"}}, "geometry": {"type": "Point", "coordinates": [28.2265569, 36.4428311]}}, {"type": "Feature", "properties": {"type": "node", "id": 275563675, "tags": {"addr:postcode": "83103", "ele": "43", "heritage": "1", "heritage:operator": "whc", "int_name": "Pithagorio", "name": "\u03a0\u03c5\u03b8\u03b1\u03b3\u03cc\u03c1\u03b5\u03b9\u03bf", "name:de": "Pythagoreion", "name:el": "\u03a0\u03c5\u03b8\u03b1\u03b3\u03cc\u03c1\u03b5\u03b9\u03bf", "name:en": "Pythagorio", "name:fr": "Pythagorio", "name:ru": "\u041f\u0438\u0442\u0430\u0433\u043e\u0440\u0438\u043e\u043d", "place": "village", "population": "1327", "wikidata": "Q1857915", "wikipedia": "el:\u03a0\u03c5\u03b8\u03b1\u03b3\u03cc\u03c1\u03b5\u03b9\u03bf"}}, "geometry": {"type": "Point", "coordinates": [26.9423945, 37.6909513]}}]}