{"type": "FeatureCollection", "features": [{"type": "Feature", "properties": {"type": "node", "id": 759627428, "tags": {"gfoss_id": "4643", "heritage": "1", "heritage:operator": "whc", "name": "Pienza", "name:zh": "\u76ae\u6069\u624e", "place": "village", "population": "2233", "ref:whc": "789", "source": "geodati.gfoss.it", "whc:criteria": "(i),(ii),(iv)", "whc:inscription_date": "1996", "wikidata": "Q91341", "wikipedia": "it:Pienza"}}, "geometry": {"type": "Point", "coordinates": [11.6789076, 43.0765459]}}, {"type": "Feature", "properties": {"type": "node", "id": 68507678, "tags": {"ele": "424", "gfoss_id": "49026", "heritage": "1", "heritage:operator": "whc", "istat_id": "5400110002", "name": "Assisi", "name:ar": "\u0623\u0633\u064a\u0632\u064a", "name:es": "As\u00eds", "name:fr": "Assise", "name:he": "\u05d0\u05e1\u05d9\u05d6\u05d9", "name:hr": "Asiz", "name:la": "Asisium", "name:pl": "Asy\u017c", "name:ru": "\u0410\u0441\u0441\u0438\u0437\u0438", "place": "town", "population": "3732", "population:date": "2011-10-09", "population:note": "Popolazione del centro abitato. La popolazione dell'intero comune \u00e8 inserita nella relazione amministrativa", "population:note:en": "Urban centre population. The municipality population is in the boundary relation", "source:population": "Istat 2011 census", "website": "http://www.comune.assisi.pg.it/", "wikidata": "Q20103", "wikipedia": "it:Assisi"}}, "geometry": {"type": "Point", "coordinates": [12.6146669, 43.0711952]}}, {"type": "Feature", "properties": {"type": "node", "id": 67256807, "tags": {"heritage": "1", "heritage:operator": "whc", "name": "Scicli", "place": "town", "population": "26918", "source": "Istat novembre 2019"}}, "geometry": {"type": "Point", "coordinates": [14.7069644, 36.7935701]}}, {"type": "Feature", "properties": {"type": "node", "id": 67256924, "tags": {"heritage": "1", "heritage:operator": "whc", "name": "Modica", "name:it": "Modica", "name:ru": "\u041c\u043e\u0434\u0438\u043a\u0430", "name:scn": "Mu\u00f2rica", "place": "town", "population": "54107", "source": "Istat novembre 2019"}}, "geometry": {"type": "Point", "coordinates": [14.7613018, 36.8589209]}}, {"type": "Feature", "properties": {"type": "node", "id": 67253706, "tags": {"alt_name:ar": "\u0631\u063a\u0648\u0635;\u0631\u0627\u063a\u0648\u0632\u0627;\u0631\u0627\u062c\u0648\u0633\u0627", "capital": "6", "heritage": "1", "heritage:operator": "whc", "name": "Ragusa", "name:ar": "\u0631\u063a\u0648\u0633", "name:el": "\u03a1\u03b1\u03b3\u03ba\u03bf\u03cd\u03b6\u03b1", "name:en": "Ragusa", "name:fr": "Raguse", "name:it": "Ragusa", "name:lt": "Rag\u016bza", "name:ru": "\u0420\u0430\u0433\u0443\u0437\u0430", "name:scn": "Ra\u00f9sa", "name:uk": "\u0420\u0430\u0433\u0443\u0437\u0430", "name:zh": "\u62c9\u53e4\u8428", "place": "city", "population": "73492", "source": "Istat novembre 2019", "wikidata": "Q13674"}}, "geometry": {"type": "Point", "coordinates": [14.7213455, 36.9219828]}}, {"type": "Feature", "properties": {"type": "node", "id": 67257265, "tags": {"heritage": "1", "heritage:operator": "whc", "name": "Noto", "name:ru": "\u041d\u043e\u0442\u043e", "place": "town", "population": "24153", "source": "Istat novembre 2019"}}, "geometry": {"type": "Point", "coordinates": [15.0706454, 36.8908864]}}, {"type": "Feature", "properties": {"type": "node", "id": 67254633, "tags": {"heritage": "1", "heritage:operator": "whc", "name": "Caltagirone", "name:scn": "Cartaggiruni", "place": "town", "population": "37332", "source": "Istat novembre 2019"}}, "geometry": {"type": "Point", "coordinates": [14.5132023, 37.2372009]}}, {"type": "Feature", "properties": {"type": "node", "id": 67257247, "tags": {"heritage": "1", "heritage:operator": "whc", "name": "Palazzolo Acreide", "place": "village", "population": "8487", "source": "Istat novembre 2019"}}, "geometry": {"type": "Point", "coordinates": [14.9039095, 37.0619128]}}, {"type": "Feature", "properties": {"type": "node", "id": 67254708, "tags": {"alt_name": "Militeddu", "heritage": "1", "heritage:operator": "whc", "name": "Militello in Val di Catania", "name:scn": "Milite\u0256\u0256u", "place": "village", "population": "7072", "source": "Istat novembre 2019"}}, "geometry": {"type": "Point", "coordinates": [14.7938785, 37.2745842]}}, {"type": "Feature", "properties": {"type": "node", "id": 67253693, "tags": {"alt_name:el": "\u039a\u03b1\u03c4\u03ac\u03bd\u03b7", "capital": "6", "heritage": "1", "heritage:operator": "whc", "name": "Catania", "name:ar": "\u0643\u0627\u062a\u0627\u0646\u064a\u0627", "name:be": "\u041a\u0430\u0442\u0430\u043d\u0456\u044f", "name:ca": "Cat\u00e0nia", "name:el": "\u039a\u03b1\u03c4\u03ac\u03bd\u03b9\u03b1", "name:en": "Catania", "name:eo": "Katanio", "name:es": "Catania", "name:fi": "Catania", "name:fr": "Catane", "name:he": "\u05e7\u05d8\u05e0\u05d9\u05d4", "name:it": "Catania", "name:la": "Catina", "name:pl": "Katania", "name:pt": "Cat\u00e2nia", "name:ru": "\u041a\u0430\u0442\u0430\u043d\u0438\u044f", "name:uk": "\u041a\u0430\u0442\u0430\u043d\u0456\u044f", "name:zh": "\u5361\u5854\u5c3c\u4e9e", "place": "city", "population": "310247", "source": "Istat novembre 2019", "wikidata": "Q1903"}}, "geometry": {"type": "Point", "coordinates": [15.08738, 37.5022355]}}, {"type": "Feature", "properties": {"type": "node", "id": 1932675079, "tags": {"alt_name:ar": "\u0633\u064a\u0631\u0627\u0642\u0648\u0633\u0629;\u0633\u064a\u0631\u0627\u0643\u0648\u0632", "capital": "6", "heritage": "1", "heritage:operator": "whc", "name": "Siracusa", "name:ar": "\u0633\u0631\u0642\u0648\u0633\u0629", "name:cs": "Syrakusy", "name:de": "Syrakus", "name:el": "\u03a3\u03c5\u03c1\u03b1\u03ba\u03bf\u03cd\u03c3\u03b5\u03c2", "name:en": "Syracuse", "name:fi": "Syrakusa", "name:fr": "Syracuse", "name:it": "Siracusa", "name:la": "Syracusae", "name:lt": "Sirak\u016bzai", "name:pl": "Syrakuzy", "name:ru": "\u0421\u0438\u0440\u0430\u043a\u0443\u0437\u0430", "name:scn": "Sarausa", "name:sk": "Syrak\u00fazy", "name:sv": "Syrakusa", "name:uk": "\u0421\u0456\u0440\u0430\u043a\u0443\u0437\u0430", "name:zh": "\u53d9\u62c9\u53e4", "place": "city", "population": "120533", "ref:whc": "N", "source": "Istat novembre 2019", "website": "http://www.comune.siracusa.it", "whc:criteria": "ii,iii,iv,vi", "whc:inscription_date": "2005", "wikidata": "Q13670", "wikipedia": "it:Siracusa"}}, "geometry": {"type": "Point", "coordinates": [15.2907196, 37.0646139]}}, {"type": "Feature", "properties": {"type": "node", "id": 428339558, "tags": {"capital": "4", "ele": "17", "gfoss_id": "5387", "heritage": "1", "heritage:operator": "whc", "name": "Napoli", "name:af": "Napels", "name:ar": "\u0646\u0627\u0628\u0648\u0644\u064a", "name:ast": "N\u00e1poles", "name:be": "\u041d\u0435\u0430\u043f\u0430\u043b\u044c", "name:ca": "N\u00e0pols", "name:ckb": "\u0646\u0627\u067e\u06c6\u0644\u06cc", "name:cs": "Neapol", "name:de": "Neapel", "name:el": "\u039d\u03ac\u03c0\u03bf\u03bb\u03b7", "name:en": "Naples", "name:eo": "Napolo", "name:es": "N\u00e1poles", "name:fa": "\u0646\u0627\u067e\u0644", "name:fr": "Naples", "name:he": "\u05e0\u05e4\u05d5\u05dc\u05d9", "name:hr": "Napulj", "name:hu": "N\u00e1poly", "name:it": "Napoli", "name:kn": "\u0ca8\u0caa\u0ccb\u0cb2\u0cbf", "name:la": "Neapolis", "name:lt": "Neapolis", "name:mk": "\u041d\u0435\u0430\u043f\u043e\u043b", "name:nap": "Napule", "name:nl": "Napels", "name:oc": "N\u00e0pols", "name:pl": "Neapol", "name:pt": "N\u00e1poles", "name:ru": "\u041d\u0435\u0430\u043f\u043e\u043b\u044c", "name:sk": "Neapol", "name:sl": "Neapelj", "name:sv": "Neapel", "name:uk": "\u041d\u0435\u0430\u043f\u043e\u043b\u044c", "name:zh": "\u90a3\u4e0d\u52d2\u65af", "place": "city", "population": "972212", "postal_code": "80100", "rank": "10", "source": "http://demo.istat.it/bilmens2016gen/index.html", "source:name:oc": "Lo Congr\u00e8s", "wikidata": "Q2634", "wikipedia": "it:Napoli"}}, "geometry": {"type": "Point", "coordinates": [14.2487826, 40.8359336]}}, {"type": "Feature", "properties": {"type": "node", "id": 2279682700, "tags": {"heritage": "1", "heritage:operator": "whc", "name": "Sassi di Matera", "tourism": "attraction", "wikidata": "Q2350404", "wikipedia": "it:Sassi di Matera"}}, "geometry": {"type": "Point", "coordinates": [16.6115607, 40.6660561]}}, {"type": "Feature", "properties": {"type": "node", "id": 2280875727, "tags": {"heritage": "1", "heritage:operator": "whc", "name": "Alberobello", "place": "town", "population": "10745"}}, "geometry": {"type": "Point", "coordinates": [17.2377031, 40.7841242]}}, {"type": "Feature", "properties": {"type": "node", "id": 66587026, "tags": {"alt_name": "Portovenere", "gfoss_id": "1346", "heritage": "1", "heritage:operator": "whc", "name": "Porto Venere", "place": "village", "population": "3630", "source": "geodati.gfoss.it", "wikidata": "Q188315", "wikipedia": "it:Porto Venere"}}, "geometry": {"type": "Point", "coordinates": [9.8344585, 44.0506605]}}, {"type": "Feature", "properties": {"type": "node", "id": 2281877186, "tags": {"ele": "443", "heritage": "1", "heritage:operator": "whc", "name": "Sacro Monte di Crea", "natural": "peak", "ref:whc": "1068-002", "wikidata": "Q1787362", "wikipedia": "it:Sacro Monte di Crea"}}, "geometry": {"type": "Point", "coordinates": [8.2727798, 45.0952103]}}, {"type": "Feature", "properties": {"type": "node", "id": 2281881038, "tags": {"heritage": "1", "heritage:operator": "whc", "name": "Sacro Monte di Belmonte", "natural": "peak", "ref:whc": "1068-009", "wikidata": "Q1787397", "wikipedia": "it:Sacro Monte di Belmonte"}}, "geometry": {"type": "Point", "coordinates": [7.6312533, 45.3675409]}}, {"type": "Feature", "properties": {"type": "node", "id": 2281879013, "tags": {"heritage": "1", "heritage:operator": "whc", "name": "Sacro Monte di Oropa", "natural": "peak", "ref:whc": "1068-005", "wikidata": "Q384966", "wikipedia": "it:Sacro Monte di Oropa"}}, "geometry": {"type": "Point", "coordinates": [7.9805429, 45.6271631]}}, {"type": "Feature", "properties": {"type": "node", "id": 2281873903, "tags": {"ele": "612", "heritage": "1", "heritage:operator": "whc", "name": "Sacro Monte di Varallo", "natural": "peak", "ref:whc": "1068-001", "wikidata": "Q2211082", "wikipedia": "it:Sacro Monte di Varallo"}}, "geometry": {"type": "Point", "coordinates": [8.2560027, 45.8193892]}}, {"type": "Feature", "properties": {"type": "node", "id": 2281886862, "tags": {"heritage": "1", "heritage:operator": "whc", "name": "Sacro Monte Calvario di Domodossola", "natural": "peak", "ref:whc": "1068-008", "wikidata": "Q1787344", "wikipedia": "it:Sacro Monte Calvario di Domodossola"}}, "geometry": {"type": "Point", "coordinates": [8.2889038, 46.106274]}}, {"type": "Feature", "properties": {"type": "node", "id": 475012573, "tags": {"heritage": "1", "heritage:operator": "whc", "name": "Sacro Monte di Orta", "natural": "peak", "ref:whc": "1068-003", "wikidata": "Q1787480", "wikipedia": "it:Sacro Monte di Orta"}}, "geometry": {"type": "Point", "coordinates": [8.4106173, 45.7968221]}}, {"type": "Feature", "properties": {"type": "node", "id": 465507417, "tags": {"ele": "880", "heritage": "1", "heritage:operator": "whc", "is_in": "massif Campo dei Fiori di Varese", "name": "Sacro Monte di Varese", "natural": "peak", "ref:whc": "1068-004", "source": "Regione Lombardia - La banca dati territoriali CTR10000 e' prodotta da Regione Lombardia - Infrastruttura per l'Informazione Territoriale", "wikidata": "Q1224490", "wikipedia": "it:Sacro Monte di Varese"}}, "geometry": {"type": "Point", "coordinates": [8.7924939, 45.8617326]}}, {"type": "Feature", "properties": {"type": "node", "id": 2281882649, "tags": {"heritage": "1", "heritage:operator": "whc", "name": "Sacro Monte di Ghiffa", "place": "locality", "ref:whc": "1068-007", "wikidata": "Q1455908", "wikipedia": "it:Sacro Monte di Ghiffa"}}, "geometry": {"type": "Point", "coordinates": [8.6162144, 45.9624721]}}, {"type": "Feature", "properties": {"type": "node", "id": 2279303717, "tags": {"heritage": "1", "heritage:operator": "whc", "historic": "district", "name": "Centro storico di San Gimignano", "wikidata": "Q91413", "wikipedia": "it:San Gimignano"}}, "geometry": {"type": "Point", "coordinates": [11.0431816, 43.4678366]}}, {"type": "Feature", "properties": {"type": "node", "id": 61753373, "tags": {"capital": "6", "gfoss_id": "4654", "heritage": "1", "heritage:operator": "whc", "name": "Siena", "name:el": "\u03a3\u03b9\u03ad\u03bd\u03b1", "name:en": "Siena", "name:fr": "Sienne", "name:it": "Siena", "name:ru": "\u0421\u0438\u0435\u043d\u0430", "name:sr": "\u0421\u0438\u0435\u043d\u0430", "name:zh": "\u9521\u8036\u7eb3", "place": "city", "population": "53903", "ref:whc": "717", "source": "geodati.gfoss.it", "whc:criteria": "(i),(ii),(iv)", "whc:inscription_date": "1995", "wikidata": "Q2751", "wikipedia": "it:Siena"}}, "geometry": {"type": "Point", "coordinates": [11.3316533, 43.3185536]}}, {"type": "Feature", "properties": {"type": "node", "id": 61753360, "tags": {"alt_name:gl": "Florenza", "capital": "4", "ele": "50", "gfoss_id": "4495", "heritage": "1", "heritage:operator": "whc", "int_name": "Florence", "name": "Firenze", "name:ar": "\u0641\u0644\u0648\u0631\u0646\u0633\u0627", "name:be": "\u0424\u043b\u0430\u0440\u044d\u043d\u0446\u044b\u044f", "name:ca": "Flor\u00e8ncia", "name:cs": "Florencie", "name:de": "Florenz", "name:el": "\u03a6\u03bb\u03c9\u03c1\u03b5\u03bd\u03c4\u03af\u03b1", "name:en": "Florence", "name:eo": "Florenco", "name:es": "Florencia", "name:fa": "\u0641\u0644\u0648\u0631\u0627\u0646\u0633", "name:fr": "Florence", "name:gl": "Florencia", "name:he": "\u05e4\u05d9\u05e8\u05e0\u05e6\u05d4", "name:hr": "Firenca", "name:it": "Firenze", "name:ja": "\u30d5\u30a3\u30ec\u30f3\u30c4\u30a7", "name:la": "Florentia", "name:lb": "Florenz", "name:lt": "Florencija", "name:nl": "Florence", "name:pl": "Florencja", "name:pt": "Floren\u00e7a", "name:ru": "\u0424\u043b\u043e\u0440\u0435\u043d\u0446\u0438\u044f", "name:sk": "Florencia", "name:sl": "Firence", "name:sv": "Florens", "name:tt": "\u0424\u043b\u043e\u0440\u0435\u043d\u0446\u0438\u044f", "name:uk": "\u0424\u043b\u043e\u0440\u0435\u043d\u0446\u0456\u044f", "name:zh": "\u4f5b\u7f57\u4f26\u8428", "old_name": "Florentia", "place": "city", "population": "382808", "postal_code": "50100", "rank": "20", "ref:whc": "174", "source": "geodati.gfoss.it", "whc:criteria": "(i),(ii),(iii),(iv),(vi)", "whc:inscription_date": "1982", "wikidata": "Q2044", "wikipedia": "en:Florence"}}, "geometry": {"type": "Point", "coordinates": [11.2555757, 43.7698712]}}, {"type": "Feature", "properties": {"type": "node", "id": 259855860, "tags": {"capital": "6", "ele": "9", "heritage": "1", "heritage:operator": "whc", "name": "Ferrara", "name:egl": "Fr\u00e0ra", "name:el": "\u03a6\u03b5\u03c1\u03c1\u03ac\u03c1\u03b1", "name:en": "Ferrara", "name:fr": "Ferrare", "name:he": "\u05e4\u05e8\u05d0\u05e8\u05d4", "name:it": "Ferrara", "name:lt": "Ferara", "name:ru": "\u0424\u0435\u0440\u0440\u0430\u0440\u0430", "name:sr": "\u0424\u0435\u0440\u0430\u0440\u0430", "name:uk": "\u0424\u0435\u0440\u0440\u0430\u0440\u0430", "name:vec": "Ferara", "name:zh": "\u8d39\u62c9\u62c9", "place": "city", "population": "133155", "postal_code": "44121;44122;44123;44124", "ref:ISTAT": "038008", "ref:catasto": "D548", "website": "http://www.comune.ferrara.it/", "wikidata": "Q13362", "wikipedia": "it:Ferrara"}}, "geometry": {"type": "Point", "coordinates": [11.6186451, 44.8372737]}}, {"type": "Feature", "properties": {"type": "node", "id": 70978843, "tags": {"capital": "8", "gfoss_id": "4227", "heritage": "1", "heritage:operator": "whc", "name": "Urbino", "name:rgn": "Urb\u00ecn", "name:ru": "\u0423\u0440\u0431\u0438\u043d\u043e", "name:zh": "\u4e4c\u5c14\u6bd4\u8bfa", "old_name:lat": "Urvinum Mataurense", "place": "town", "population": "15019", "ref:whc": "828", "source": "geodati.gfoss.it", "whc:criteria": "(ii),(iv)", "whc:inscription_date": "1998", "wikidata": "Q2759", "wikipedia": "it:Urbino"}}, "geometry": {"type": "Point", "coordinates": [12.6363135, 43.7262608]}}, {"type": "Feature", "properties": {"type": "node", "id": 62513274, "tags": {"gfoss_id": "2735", "heritage": "1", "heritage:operator": "whc", "is_in": "Mantova, Lombardia, Italy", "name": "Sabbioneta", "name:egl": "Sabi\u00f9n\u00e8da", "place": "village", "population": "4288", "postal_code": "46018", "ref:ISTAT": "020054", "source": "geodati.gfoss.it", "wikidata": "Q43014", "wikipedia": "it:Sabbioneta"}}, "geometry": {"type": "Point", "coordinates": [10.4885871, 44.9984358]}}, {"type": "Feature", "properties": {"type": "node", "id": 62505610, "tags": {"admin_level": "8", "capital": "6", "gfoss_id": "2711", "heritage": "1", "heritage:operator": "whc", "is_in": "Mantova, Lombardia, Italy", "is_in:continent": "Europe", "name": "Mantova", "name:ar": "\u0645\u0627\u0646\u062a\u0648\u0641\u0627", "name:ca": "M\u00e0ntua", "name:de": "Mantua", "name:egl": "M\u00e0ntua", "name:el": "\u039c\u03ac\u03bd\u03c4\u03bf\u03b2\u03b1", "name:en": "Mantua", "name:es": "Mantua", "name:fr": "Mantoue", "name:he": "\u05de\u05e0\u05d8\u05d5\u05d1\u05d4", "name:it": "Mantova", "name:la": "Mantua", "name:nl": "Mantua", "name:pl": "Mantua", "name:ru": "\u041c\u0430\u043d\u0442\u0443\u044f", "name:vec": "M\u00e0ntoa", "name:zh": "\u66fc\u6258\u74e6", "old_name:lat": "Mantua", "place": "city", "population": "47790", "ref:ISTAT": "020030", "source": "geodati.gfoss.it", "wikidata": "Q6247", "wikipedia": "it:Mantova"}}, "geometry": {"type": "Point", "coordinates": [10.7917191, 45.1566683]}}, {"type": "Feature", "properties": {"type": "node", "id": 64778101, "tags": {"capital": "6", "gfoss_id": "3181", "heritage": "1", "heritage:operator": "whc", "name": "Verona", "name:ar": "\u0641\u064a\u0631\u0648\u0646\u0627", "name:el": "\u0392\u03b5\u03c1\u03cc\u03bd\u03b1", "name:en": "Verona", "name:eo": "Verono", "name:fa": "\u0648\u0631\u0648\u0646\u0627", "name:fr": "V\u00e9rone", "name:fur": "Verone", "name:hu": "Verona", "name:it": "Verona", "name:pl": "Werona", "name:ru": "\u0412\u0435\u0440\u043e\u043d\u0430", "name:sr": "\u0412\u0435\u0440\u043e\u043d\u0430", "name:uk": "\u0412\u0435\u0440\u043e\u043d\u0430", "name:ur": "\u0648\u06cc\u0631\u0648\u0646\u0627", "name:zh": "\u7ef4\u7f57\u7eb3", "old_name:de": "Welsch-Bern", "place": "city", "population": "258765", "source": "Regione Veneto, License IODL-2.0", "wikidata": "Q2028", "wikipedia": "it:Verona"}}, "geometry": {"type": "Point", "coordinates": [10.9924122, 45.4384958]}}, {"type": "Feature", "properties": {"type": "node", "id": 64778102, "tags": {"capital": "6", "gfoss_id": "3303", "heritage": "1", "heritage:operator": "whc", "name": "Vicenza", "name:el": "\u0392\u03b9\u03c4\u03c3\u03ad\u03bd\u03c4\u03c3\u03b1", "name:en": "Vicenza", "name:fr": "Vicence", "name:he": "\u05d5\u05d9\u05e6'\u05e0\u05e6\u05d4", "name:it": "Vicenza", "name:ru": "\u0412\u0438\u0447\u0435\u043d\u0446\u0430", "name:sr": "\u0412\u0438\u0447\u0435\u043d\u0446\u0430", "name:uk": "\u0412\u0456\u0447\u0435\u043d\u0446\u0430", "name:vec": "Vicensa", "name:zh": "\u7ef4\u7434\u5bdf", "place": "city", "population": "112953", "source": "geodati.gfoss.it", "wikidata": "Q6537", "wikipedia": "it:Vicenza"}}, "geometry": {"type": "Point", "coordinates": [11.5478825, 45.5488306]}}, {"type": "Feature", "properties": {"type": "node", "id": 8376763836, "tags": {"access": "customers", "heritage": "1", "heritage:operator": "whc", "historic": "archaeological_site", "historic:civilization": "iron-age", "name": "Bedolina Map", "name:en": "Bedolina Map", "name:fr": "Carte de Bedolina", "name:it": "Mappa di Bedolina", "official_name:fr": "Rocher 1 de Bedolina", "official_name:it": "Roccia 1 Bedolina", "ref:whc": "94", "site_type": "petroglyph", "start_date": "~C6..C4 BC", "tourism": "attraction", "whc:criteria": "(iii)(vi)", "whc:inscription_date": "1979", "wikidata": "Q18712797", "wikipedia": "en:Bedolina Map"}}, "geometry": {"type": "Point", "coordinates": [10.3415641, 46.0351711]}}, {"type": "Feature", "properties": {"type": "node", "id": 64778090, "tags": {"capital": "4", "ele": "1", "gfoss_id": "3515", "heritage": "1", "heritage:operator": "whc", "is_in:country": "Italy", "name": "Venezia", "name:ar": "\u0627\u0644\u0628\u0646\u062f\u0642\u064a\u0629", "name:ast": "Venecia", "name:be": "\u0412\u0435\u043d\u0435\u0446\u044b\u044f", "name:bg": "\u0412\u0435\u043d\u0435\u0446\u0438\u044f", "name:ca": "Ven\u00e8cia", "name:cs": "Ben\u00e1tky", "name:cy": "Fenis", "name:da": "Venedig", "name:de": "Venedig", "name:el": "\u0392\u03b5\u03bd\u03b5\u03c4\u03af\u03b1", "name:en": "Venice", "name:eo": "Venecio", "name:es": "Venecia", "name:et": "Veneetsia", "name:fa": "\u0648\u0646\u06cc\u0632", "name:fi": "Venetsia", "name:fr": "Venise", "name:fur": "Vignesie", "name:fy": "Feneesje", "name:he": "\u05d5\u05e0\u05e6\u05d9\u05d4", "name:hr": "Venecija", "name:hsb": "Benatki", "name:hu": "Velence", "name:it": "Venezia", "name:ja": "\u30f4\u30a7\u30cd\u30c4\u30a3\u30a2", "name:kn": "\u0cb5\u0cc6\u0ca8\u0cbf\u0cb8\u0ccd", "name:ku": "W\u00ean\u00ees", "name:la": "Venetiae", "name:lb": "Venedeg", "name:lt": "Venecija", "name:nl": "Veneti\u00eb", "name:pl": "Wenecja", "name:pt": "Veneza", "name:rm": "Vnescha", "name:ro": "Vene\u0163ia", "name:ru": "\u0412\u0435\u043d\u0435\u0446\u0438\u044f", "name:sk": "Ben\u00e1tky", "name:sl": "Benetke", "name:sr": "\u0412\u0435\u043d\u0435\u0446\u0438\u0458\u0430", "name:sv": "Venedig", "name:tr": "Venedik", "name:tt": "\u0412\u0435\u043d\u0435\u0446\u0438\u044f", "name:uk": "\u0412\u0435\u043d\u0435\u0446\u0456\u044f", "name:ve": "Venesia", "name:vec": "Venesia", "name:vi": "V\u01a1-ni-d\u01a1", "name:zh": "\u5a01\u5c3c\u65af", "note:population": "solo centro abitato 51298", "place": "city", "population": "263352", "postal_code": "30100", "rank": "20", "wikidata": "Q641", "wikipedia": "it:Venezia"}}, "geometry": {"type": "Point", "coordinates": [12.3345898, 45.4371908]}}, {"type": "Feature", "properties": {"type": "node", "id": 2283435913, "tags": {"heritage": "1", "heritage:operator": "whc", "name": "Parco archeologico di Pal\u00f9 di Livenza (Sito UNESCO)"}}, "geometry": {"type": "Point", "coordinates": [12.4837412, 46.0207085]}}, {"type": "Feature", "properties": {"type": "node", "id": 66503315, "tags": {"alt_name:de": "Agley;Aglarn;Aglar", "gfoss_id": "3675", "heritage": "1", "heritage:operator": "whc", "loc_name": "Aquilea", "name": "Aquileia", "name:de": "Aquileja", "name:es": "Aquilea", "name:fr": "Aquil\u00e9e", "name:fur": "Aquilee", "name:he": "\u05d0\u05e7\u05d5\u05d5\u05d9\u05dc\u05d9\u05d4", "name:hr": "Akvileja", "name:it": "Aquileia", "name:pl": "Akwileja", "name:ru": "\u0410\u043a\u0432\u0438\u043b\u0435\u044f", "name:sl": "Oglej", "name:uk": "\u0410\u043a\u0432\u0456\u043b\u0435\u044f", "place": "village", "population": "3329", "source": "geodati.gfoss.it", "wikidata": "Q53216", "wikipedia": "it:Aquileia"}}, "geometry": {"type": "Point", "coordinates": [13.3697982, 45.7696144]}}, {"type": "Feature", "properties": {"type": "way", "id": 81578382, "tags": {"alt_name": "Su Nuraxi di Barumini", "barrier": "fence", "description": "Su Nuraxi di Barumini is included is a UNESCO World Heritage Site.", "heritage": "1", "heritage:operator": "whc", "historic": "archaeological_site", "historic:civilization": "nuragic", "historic:period": "nuragic", "megalith_type": "nuraghe", "name": "Su Nuraxi", "phone": "+39 070 9368128", "ruins": "yes", "site_type": "megalith", "surveillance": "yes", "website": "http://www.sardegnacultura.it/j/v/253?s=20710&v=2&c=2488&c1=2127&t=1", "wheelchair": "limited", "wikidata": "Q253241", "wikipedia": "it:Su Nuraxi"}}, "geometry": {"type": "Point", "coordinates": [8.9908794, 39.7059421]}}, {"type": "Feature", "properties": {"type": "way", "id": 82665029, "tags": {"amenity": "place_of_worship", "building": "church", "denomination": "roman_catholic", "heritage": "1", "heritage:operator": "whc", "historic": "archaeological_site", "importance": "regional", "name": "Duomo di Monreale", "name:en": "Monreale Cathedral", "name:fr": "Cath\u00e9drale de Monreale", "name:it": "Duomo di Santa Maria La Nuova Monreale", "name:ru": "\u041c\u043e\u043d\u0440\u0435\u0430\u043b\u044c\u0441\u043a\u0438\u0439 \u0441\u043e\u0431\u043e\u0440", "ref:whc": "1487-009", "religion": "christian", "tourism": "attraction", "website": "http://monrealeduomo.it", "whc:criteria": "ii;iv", "whc:inscription_date": "2015", "wheelchair": "yes", "wikidata": "Q1303856", "wikipedia": "it:Duomo di Monreale"}}, "geometry": {"type": "Point", "coordinates": [13.2922769, 38.0820286]}}, {"type": "Feature", "properties": {"type": "way", "id": 279329114, "tags": {"building": "yes", "heritage": "1", "heritage:operator": "whc", "historic": "archaeological_site", "name": "Palazzo della Zisa", "name:en": "Zisa Palace", "name:fr": "Palais de la Zisa", "ref:whc": "1487-006", "source": "Comune di Palermo", "whc:criteria": "ii;iv", "whc:inscription_date": "2015"}}, "geometry": {"type": "Point", "coordinates": [13.3390963, 38.1185174]}}, {"type": "Feature", "properties": {"type": "way", "id": 49786077, "tags": {"amenity": "place_of_worship", "building": "church", "denomination": "catholic", "heritage": "1", "heritage:operator": "whc", "historic": "archaeological_site", "name": "Chiesa di San Giovanni degli Eremiti", "name:en": "Church of San Giovanni degli Eremiti", "name:fr": "\u00c9glise de San Giovanni degli Eremiti", "ref:whc": "1487-002", "religion": "christian", "whc:criteria": "ii;iv", "whc:inscription_date": "2015", "wikidata": "Q745359", "wikipedia": "it:Chiesa di San Giovanni degli Eremiti"}}, "geometry": {"type": "Point", "coordinates": [13.3546904, 38.1095736]}}, {"type": "Feature", "properties": {"type": "way", "id": 400424488, "tags": {"addr:postcode": "90134", "amenity": "place_of_worship", "building:part": "yes", "contact:phone": "+39 091 705 4879", "denomination": "catholic", "heritage": "1", "heritage:operator": "whc", "name": "Cappella Palatina", "name:en": "Palatine Chapel", "name:fr": "Chapelle Palatine", "name:ko": "\ud314\ub77c\ud2f0\ub178 \ucc44\ud50c", "ref:whc": "1487-001", "religion": "christian", "tourism": "museum", "website": "https://www.cappellapalatinapalermo.it/", "whc:criteria": "ii;iv", "whc:inscription_date": "2015", "wheelchair": "limited", "wikidata": "Q1034853", "wikipedia": "it:Cappella Palatina (Palermo)"}}, "geometry": {"type": "Point", "coordinates": [13.3535122, 38.1108745]}}, {"type": "Feature", "properties": {"type": "way", "id": 49750033, "tags": {"alt_name": "Cattedrale di Palermo", "amenity": "place_of_worship", "building": "church", "denomination": "catholic", "heritage": "1", "heritage:operator": "whc", "historic": "archaeological_site", "name": "Cattedrale Santa Vergine Maria Assunta", "name:en": "Palermo Cathedral", "name:fr": "Cath\u00e9drale de Palerme", "name:ko": "\ud314\ub808\ub974\ubaa8 \ub300\uc131\ub2f9", "name:ru": "\u0421\u043e\u0431\u043e\u0440 \u0423\u0441\u043f\u0435\u043d\u0438\u044f \u041f\u0440\u0435\u0441\u0432\u044f\u0442\u043e\u0439 \u0411\u043e\u0433\u043e\u0440\u043e\u0434\u0438\u0446\u044b \u0432 \u041f\u0430\u043b\u0435\u0440\u043c\u043e", "opening_hours": "Mo-Su 09:00-17:30", "ref:whc": "1487-005", "religion": "christian", "tourism": "attraction", "website": "http://www.cattedrale.palermo.it", "whc:criteria": "ii;iv", "whc:inscription_date": "2015", "wheelchair": "limited", "wikidata": "Q1478407", "wikipedia": "it:Cattedrale di Palermo"}}, "geometry": {"type": "Point", "coordinates": [13.356033, 38.1143158]}}, {"type": "Feature", "properties": {"type": "way", "id": 86870886, "tags": {"alt_name": "La Martorana", "amenity": "place_of_worship", "building": "church", "denomination": "greek_catholic", "heritage": "1", "heritage:operator": "whc", "historic": "yes", "name": "Santa Maria dell\u2019Ammiraglio (La Martorana)", "name:en": "Church of Santa Maria dell\u2019Ammiraglio", "name:fr": "\u00c9glise de Santa Maria dell\u2019Ammiraglio", "name:ko": "\uc0b0\ud0c0 \ub9c8\ub9ac\uc544 \uad50\ud68c", "ref:whc": "1487-003", "religion": "christian", "start_date": "1143", "tourism": "attraction", "whc:criteria": "ii;iv", "whc:inscription_date": "2015", "wheelchair": "no", "wikidata": "Q1644597", "wikipedia": "it:Chiesa della Martorana"}}, "geometry": {"type": "Point", "coordinates": [13.362893, 38.1147401]}}, {"type": "Feature", "properties": {"type": "way", "id": 86870896, "tags": {"amenity": "place_of_worship", "building": "church", "denomination": "roman_catholic", "heritage": "1", "heritage:operator": "whc", "historic": "yes", "name": "Chiesa di San Cataldo", "name:en": "Church of San Cataldo", "name:fr": "\u00c9glise de San Cataldo", "ref:whc": "1487-004", "religion": "christian", "reservation": "no", "start_date": "1160", "tourism": "attraction", "whc:criteria": "ii;iv", "whc:inscription_date": "2015", "wheelchair": "no", "wikidata": "Q2066497", "wikipedia": "it:Chiesa di San Cataldo (Palermo)"}}, "geometry": {"type": "Point", "coordinates": [13.3624703, 38.1147522]}}, {"type": "Feature", "properties": {"type": "way", "id": 699377602, "tags": {"access": "no", "bridge": "yes", "heritage": "1", "heritage:operator": "whc", "highway": "pedestrian", "historic": "archaeological_site", "layer": "1", "name": "Ponte dell'Ammiraglio", "name:en": "Admiral\u2019s Bridge", "name:fr": "Pont de l'Amiral", "ref:whc": "1487-007", "start_date": "1132", "whc:criteria": "ii;iv", "whc:inscription_date": "2015", "wikidata": "Q1262976", "wikipedia": "it:Ponte dell'Ammiraglio"}}, "geometry": {"type": "Point", "coordinates": [13.3750649, 38.105024]}}, {"type": "Feature", "properties": {"type": "way", "id": 52049889, "tags": {"heritage": "1", "historic": "archaeological_site", "historic:civilization": "ancient_roman", "importance": "international", "name": "Ostia Antica", "opening_hours": "Oct 29-Feb 15 08:30-16:30; Feb 16-Mar 15 08:30-17:00; Mar 16-24 08:30-17:30; Mar 25-Aug 31 08:30-19:15; Sep 01-30 08:30-19:00; Oct 01-28 08:30-18:30", "tourism": "attraction", "website": "https://www.ostiaantica.beniculturali.it/", "wikidata": "Q1012797", "wikipedia": "it:Ostia (citt\u00e0 antica)"}}, "geometry": {"type": "Point", "coordinates": [12.2885468, 41.7534705]}}, {"type": "Feature", "properties": {"type": "way", "id": 23370510, "tags": {"addr:city": "Roma", "addr:housenumber": "1", "addr:postcode": "00146", "addr:street": "Piazzale San Paolo", "amenity": "place_of_worship", "basilica": "major", "building": "basilica", "denomination": "catholic", "email": "info@basilicasanpaolo.org", "end_date": "1854", "heritage": "1", "heritage:operator": "whc", "ise": "Zona extraterritoriale della Santa Sede", "name": "Basilica di San Paolo fuori le mura", "name:cs": "Bazilika svat\u00e9ho Pavla za hradbami", "name:de": "Basilika Sankt Paul vor den Mauern", "name:en": "Basilica of Saint Paul Outside the Walls", "name:es": "Bas\u00edlica de San Pablo Extramuros", "name:fr": "Basilique Saint-Paul-hors-les-Murs", "name:he": "\u05d1\u05d6\u05d9\u05dc\u05d9\u05e7\u05ea \u05e4\u05d0\u05d5\u05dc\u05d5\u05e1 \u05d4\u05e7\u05d3\u05d5\u05e9 \u05de\u05d7\u05d5\u05e5 \u05dc\u05d7\u05d5\u05de\u05d5\u05ea", "name:nl": "Sint-Paulus buiten de Muren", "name:pl": "Bazylika \u015bw Paw\u0142a za murami", "name:ru": "\u0421\u0430\u043d-\u041f\u0430\u043e\u043b\u043e-\u0444\u0443\u043e\u0440\u0438-\u043b\u0435-\u041c\u0443\u0440\u0430", "name:sk": "Bazilika sv\u00e4t\u00e9ho Pavla za hradbami", "name:zh": "\u57ce\u5916\u5723\u4fdd\u7f57\u6559\u5802", "official_name": "Basilica di San Paolo fuori le mura", "ref:whc": "91", "religion": "christian", "service_times": "Mo-Su 06:45-18:00", "start_date": "1823", "tourism": "attraction", "website": "http://www.basilicasanpaolo.org/", "whc:inscription_date": "1980", "wikidata": "Q231699", "wikipedia": "it:Basilica di San Paolo fuori le mura"}}, "geometry": {"type": "Point", "coordinates": [12.4768291, 41.8586828]}}, {"type": "Feature", "properties": {"type": "way", "id": 110134183, "tags": {"addr:city": "Roma", "addr:country": "IT", "addr:housename": "Abbazia di San Paolo fuori le mura", "addr:housenumber": "186", "addr:postcode": "00146", "addr:street": "Via Ostiense", "amenity": "monastery", "community": "OSB", "denomination": "catholic", "heritage": "1", "heritage:operator": "whc", "ise": "Zona extraterritoriale della Santa Sede", "name": "Abbazia di San Paolo fuori le mura", "name:de": "Abtei Sankt Paul vor den Mauern", "name:en": "Abbey of Saint Paul Outside the Walls", "official_name": "Abbazia di San Paolo fuori le mura", "operator": "OSB", "ref:whc": "91", "religion": "christian", "religious_rank": "abbey", "website": "http://www.abbaziasanpaolo.net/", "whc:criteria": "1;2;3;4;6", "whc:inscription_date": "1980", "wikidata": "Q798411", "wikipedia": "it:Abbazia di San Paolo fuori le mura"}}, "geometry": {"type": "Point", "coordinates": [12.4770209, 41.8577801]}}, {"type": "Feature", "properties": {"type": "way", "id": 718818794, "tags": {"heritage": "1", "heritage:operator": "whc", "whc:criteria": "(ix)"}}, "geometry": {"type": "Point", "coordinates": [12.1445784, 42.1687324]}}, {"type": "Feature", "properties": {"type": "way", "id": 152327656, "tags": {"email": "villa.adriana@coopculture.it", "heritage": "1", "heritage:operator": "whc", "historic": "archaeological_site", "historic:civilization": "ancient_roman", "name": "Villa Adriana", "name:da": "Hadrians villa", "name:de": "Hadriansvilla", "name:en": "Hadrian's Villa", "name:fr": "Villa d'Hadrien", "name:it": "Villa Adriana", "name:la": "Villa Hadriana", "phone": "+ 39 0774 382733", "ruins": "yes", "site_type": "roman_villa", "tourism": "attraction", "website": "https://www.levillae.com/", "wikidata": "Q272777", "wikipedia": "it:Villa Adriana"}}, "geometry": {"type": "Point", "coordinates": [12.7767428, 41.9408162]}}, {"type": "Feature", "properties": {"type": "way", "id": 823717163, "tags": {"boundary": "protected_area", "heritage": "1", "heritage:operator": "whc", "heritage:website": "http://whc.unesco.org/en/list/1133/multiple=1&unique_number=2152", "leisure": "nature_reserve", "name": "Monte Cimino UNESCO ancient depressed beech forest", "protect_class": "98", "ref:whc": "1133ter-047", "type": "site", "whc:criteria": "IX", "whc:inscription_date": "2017-07-7", "wikipedia": "it:Monte Cimino"}}, "geometry": {"type": "Point", "coordinates": [12.2031301, 42.4089032]}}, {"type": "Feature", "properties": {"type": "way", "id": 391912311, "tags": {"access": "no", "addr:city": "Spoleto", "addr:postcode": "06049", "addr:street": "Largo Salmi", "building": "church", "description": "Basilica IV - V secolo, parte del sito seriale \"Longobardi in Italia: i luoghi del potere\", iscritto alla Lista dei patrimoni dell'umanit\u00e0 dell'UNESCO - Chiesa sconsacrata", "heritage": "1", "heritage:operator": "whc", "name": "San Salvatore", "note": "Closed. Damaged earthquake 2016", "note:it": "Chiuso. Danneggiato sisma 2016", "religion": "christian", "tourism": "attraction", "wikidata": "Q1868633", "wikipedia": "it:Chiesa di San Salvatore (Spoleto)"}}, "geometry": {"type": "Point", "coordinates": [12.7434148, 42.7418388]}}, {"type": "Feature", "properties": {"type": "way", "id": 168541215, "tags": {"addr:city": "Campello sul Clitunno", "addr:housenumber": "1", "addr:postcode": "06042", "addr:street": "Via del Tempio", "building": "yes", "email": "pm-umb@beniculturali.it", "heritage": "1", "heritage:operator": "whc", "historic": "church", "historic:civilization": "roman", "name": "Tempietto del Clitunno", "opening_hours": "Tu-Su 12:00-18:00; Mo off", "phone": "+39 0743 275085", "tourism": "museum", "website": "http://polomusealeumbria.beniculturali.it/?page_id=3676", "wikidata": "Q3983167", "wikipedia": "it:Tempietto del Clitunno"}}, "geometry": {"type": "Point", "coordinates": [12.7568922, 42.8422354]}}, {"type": "Feature", "properties": {"type": "way", "id": 34357303, "tags": {"amenity": "place_of_worship", "building": "church", "denomination": "catholic", "dog": "no", "heritage": "1", "heritage:operator": "whc", "historic": "church", "importance": "regional", "name": "Basilica di San Francesco d'Assisi", "name:en": "Basilica of Saint Francis of Assisi", "ref:whc": "990", "religion": "christian", "whc:criteria": "1,2,3,4,6", "whc:inscription_date": "2000", "wikidata": "Q207486", "wikipedia": "it:Basilica di San Francesco"}}, "geometry": {"type": "Point", "coordinates": [12.6057319, 43.0748213]}}, {"type": "Feature", "properties": {"type": "way", "id": 39096127, "tags": {"alt_name": "Akragas", "heritage": "1", "heritage:operator": "whc", "historic": "archaeological_site", "name": "Valle dei Templi", "name:de": "Tal der Tempel", "name:en": "Valley of the Temples", "name:fr": "Vall\u00e9e des Temples", "name:ko": "\uc2e0\uc804\uc758 \uacc4\uace1", "type": "boundary", "wheelchair": "yes", "wikidata": "Q3607380", "wikipedia": "it:Akragas", "wikipedia:de": "Arch\u00e4ologische_St\u00e4tten_von_Agrigent", "wikipedia:en": "Valle_dei_Templi"}}, "geometry": {"type": "Point", "coordinates": [13.5895744, 37.2911631]}}, {"type": "Feature", "properties": {"type": "way", "id": 218984839, "tags": {"heritage": "1", "heritage:operator": "whc", "historic": "archaeological_site", "name": "Pantalica - Necropoli di Filiporto", "site_type": "necropolis", "wikipedia": "it:Pantalica"}}, "geometry": {"type": "Point", "coordinates": [15.0153729, 37.1325347]}}, {"type": "Feature", "properties": {"type": "way", "id": 318200847, "tags": {"area": "yes", "heritage": "1", "heritage:operator": "whc", "historic": "archaeological_site", "name": "Pantalica - Necropoli di Nord-Ovest", "site_type": "necropolis", "tourism": "attraction", "wikipedia": "it:Pantalica"}}, "geometry": {"type": "Point", "coordinates": [15.0217175, 37.136229]}}, {"type": "Feature", "properties": {"type": "way", "id": 318200845, "tags": {"area": "yes", "heritage": "1", "heritage:operator": "whc", "historic": "archaeological_site", "name": "Pantalica - Necropoli Sud", "site_type": "necropolis", "tourism": "attraction", "wikipedia": "it:Pantalica"}}, "geometry": {"type": "Point", "coordinates": [15.026534, 37.1313018]}}, {"type": "Feature", "properties": {"type": "way", "id": 318200844, "tags": {"area": "yes", "heritage": "1", "heritage:operator": "whc", "historic": "grave_yard", "name": "Pantalica - Necropoli Nord", "tourism": "attraction", "wikipedia": "it:Pantalica"}}, "geometry": {"type": "Point", "coordinates": [15.0289246, 37.1415806]}}, {"type": "Feature", "properties": {"type": "way", "id": 318200846, "tags": {"area": "yes", "heritage": "1", "heritage:operator": "whc", "historic": "grave_yard", "name": "Pantalica - Necropoli della Cavetta", "tourism": "attraction", "wikipedia": "it:Pantalica"}}, "geometry": {"type": "Point", "coordinates": [15.0328039, 37.1381116]}}, {"type": "Feature", "properties": {"type": "way", "id": 425988640, "tags": {"amenity": "place_of_worship", "building": "church", "denomination": "roman_catholic", "heritage": "1", "heritage:operator": "whc", "historic": "archaeological_site", "name": "Duomo di Cefal\u00f9", "name:en": "Cefal\u00f9 Cathedral", "name:fr": "Cath\u00e9drale de Cefal\u00f9", "ref:whc": "1487-008", "religion": "christian", "whc:criteria": "ii;iv", "whc:inscription_date": "2015", "wheelchair": "limited", "wikidata": "Q1354756", "wikipedia": "it:Duomo di Cefal\u00f9"}}, "geometry": {"type": "Point", "coordinates": [14.0235864, 38.0398381]}}, {"type": "Feature", "properties": {"type": "way", "id": 439773989, "tags": {"heritage": "1", "heritage:operator": "whc", "landuse": "residential", "name": "Isola di Ortigia", "name:el": "\u039f\u03c1\u03c4\u03c5\u03b3\u03af\u03b1", "place": "island", "ref:whc": "N", "whc:criteria": "ii,iii,iv,vi", "whc:inscription_date": "2005", "wikidata": "Q1233234", "wikipedia": "it:Isola di Ortigia"}}, "geometry": {"type": "Point", "coordinates": [15.2942794, 37.0601422]}}, {"type": "Feature", "properties": {"type": "way", "id": 97709710, "tags": {"addr:street": "Via Magna Graecia", "addr:streetnumber": "917/919", "heritage": "1", "heritage:operator": "whc", "historic": "archaeological_site", "historic:civilization": "ancient_greek", "historic:period": "archaic_greece", "landuse": "grass", "name": "Sito archeologico di Paestum", "name:el": "\u03a0\u03bf\u03c3\u03b5\u03b9\u03b4\u03c9\u03bd\u03af\u03b1", "name:en": "Archaeological site of Paestum", "name:fr": "Site arch\u00e9ologique de Paestum", "ref:whc": "842", "site_type": "city", "start_date": "C7 BC", "tourism": "attraction", "website": "http://www.museopaestum.beniculturali.it/", "whc:inscription_date": "1998", "wikidata": "Q329967", "wikipedia": "it:Paestum"}}, "geometry": {"type": "Point", "coordinates": [15.0049009, 40.4216488]}}, {"type": "Feature", "properties": {"type": "way", "id": 757317072, "tags": {"boundary": "national_park", "heritage": "1", "leisure": "nature_reserve", "name": "Parco Nazionale del Vesuvio", "protect_class": "2", "protected_area": "national_park", "wikidata": "Q635414", "wikipedia": "it:Parco Nazionale del Vesuvio"}}, "geometry": {"type": "Point", "coordinates": [14.4323258, 40.8234675]}}, {"type": "Feature", "properties": {"type": "way", "id": 351900172, "tags": {"heritage": "1", "heritage:operator": "whc", "historic": "archaeological_site", "name": "Ercolano", "name:en": "Herculaneum", "name:es": "Herculano", "name:fr": "Herculanum", "name:it": "Ercolano", "operator": "Soprintendenza Speciale per i Beni Archeologici di Pompei, Ercolano e Stabia", "ref:whc": "829", "source": "Wikipedia", "whc:criteria": "(iii),(iv),(v)", "whc:inscription_date": "1997", "wikidata": "Q178813", "wikipedia": "it:Scavi archeologici di Ercolano"}}, "geometry": {"type": "Point", "coordinates": [14.3472304, 40.8053649]}}, {"type": "Feature", "properties": {"type": "way", "id": 195803487, "tags": {"addr:city": "Torre Annunziata", "addr:housenumber": "1", "addr:postcode": "80058", "addr:street": "Via Sepolcri", "heritage": "1", "heritage:operator": "whc", "historic": "archaeological_site", "name": "Scavi archeologici di Oplonti", "tourism": "attraction", "wikidata": "Q542944", "wikipedia": "it:Scavi archeologici di Oplonti"}}, "geometry": {"type": "Point", "coordinates": [14.4530471, 40.7572139]}}, {"type": "Feature", "properties": {"type": "way", "id": 845154928, "tags": {"access": "no", "bridge": "yes", "heritage": "1", "highway": "track", "historic": "bridge", "layer": "1"}}, "geometry": {"type": "Point", "coordinates": [14.2607568, 40.8751443]}}, {"type": "Feature", "properties": {"type": "way", "id": 26707240, "tags": {"area": "yes", "heritage": "1", "heritage:operator": "whc", "historic": "archaeological_site", "historic:civilization": "ancient_roman", "importance": "international", "name": "Scavi archeologici di Pompei", "name:af": "Pompeji", "name:cs": "Pompeje", "name:da": "Pompeji", "name:de": "Pompeji", "name:en": "Pompeii", "name:es": "Pompeya", "name:et": "Pompei", "name:fr": "Pomp\u00e9i", "name:lb": "Pompeji", "name:nl": "Pompei", "name:sl": "Pompeji", "ref:whc": "829", "site_type": "city", "tourism": "attraction", "whc:criteria": "(iii) (iv) (v)", "whc:inscription_date": "1997", "wikidata": "Q18222399", "wikipedia": "it:Scavi archeologici di Pompei"}}, "geometry": {"type": "Point", "coordinates": [14.486876, 40.750919]}}, {"type": "Feature", "properties": {"type": "way", "id": 84697866, "tags": {"bridge": "yes", "heritage": "1", "heritage:operator": "whc", "highway": "track", "historic": "heritage", "layer": "1", "name": "Ponti della Valle", "ref:whc": "549rev", "tourism": "attraction", "tracktype": "grade1", "whc:criteria": "(i)(ii)(iii)(iv)", "wikipedia": "it:Acquedotto Carolino"}}, "geometry": {"type": "Point", "coordinates": [14.4025221, 41.0590335]}}, {"type": "Feature", "properties": {"type": "way", "id": 192771155, "tags": {"addr:city": "Benevento", "addr:postcode": "82100", "addr:street": "piazza Giacomo Matteotti", "amenity": "place_of_worship", "building": "yes", "heritage": "1", "heritage:operator": "whc", "historic": "heritage", "name": "Chiesa di Santa Sofia", "note": "Chiesa di Santa Sofia Patrimonio dell'Unesco", "religion": "christian", "tourism": "attraction", "wheelchair": "yes", "wikidata": "Q1456931", "wikipedia": "it:Chiesa di Santa Sofia (Benevento)"}}, "geometry": {"type": "Point", "coordinates": [14.781249, 41.1305801]}}, {"type": "Feature", "properties": {"type": "way", "id": 97710114, "tags": {"heritage": "1", "heritage:operator": "whc", "historic": "archaeological_site", "historic:civilization": "ancient_greek", "historic:period": "classical_greece", "leisure": "park", "name": "Archaeological site of Elea-Velia", "name:el": "\u0395\u03bb\u03ad\u03b1", "name:it": "Sito archeologico di Elea-Velia", "ref:whc": "842", "site_type": "city", "start_date": "538 BC", "tourism": "attraction", "website": "http://www.beniculturali.it/mibac/opencms/MiBAC/sito-MiBAC/Luogo/MibacUnif/Luoghi-della-Cultura/visualizza_asset.html?id=150685&pagename=157031", "whc:inscription_date": "1998", "wikipedia": "it:Elea-Velia"}}, "geometry": {"type": "Point", "coordinates": [15.1568716, 40.1601967]}}, {"type": "Feature", "properties": {"type": "way", "id": 256044928, "tags": {"building": "yes", "building:part": "no", "heritage": "1", "heritage:operator": "whc", "historic": "castle", "importance": "national", "name": "Castel del Monte", "name:en": "Castel del Monte", "name:fr": "Castel del Monte", "tourism": "attraction", "whc:criteria": "1;2;3", "whc:inscription_date": "1996", "wikidata": "Q215897", "wikipedia": "it:Castel del Monte", "wikipedia:en": "Castel del Monte, Apulia", "wikipedia:fr": "Castel del Monte"}}, "geometry": {"type": "Point", "coordinates": [16.2709323, 41.0847543]}}, {"type": "Feature", "properties": {"type": "way", "id": 92402804, "tags": {"amenity": "place_of_worship", "building": "basilica", "contact:website": "http://www.santuariosanmichele.it/", "denomination": "catholic", "heritage": "1", "heritage:operator": "whc", "name": "Santuario San Michele Arcangelo", "opening_hours": "Jul-Sep Mo-Sa 07:30-19:30; Jul-Sep Su,PH 07:00-20:00; Apr-Jun,Oct Mo-Sa 07:30-12:30,14:30-19:00; Apr-Jun,Oct Su,PH 07:00-13:00,14:30-20:00; Nov-Mar Mo-Sa 07:30-12:30,14:30-17:00; Nov-Mar Su,PH 07:00-13:00,14:30-19:00", "ref:whc": "1318-007", "religion": "christian", "whc:inscription_date": "2011", "wheelchair": "limited", "wikidata": "Q1448870", "wikipedia": "it:Santuario di San Michele Arcangelo"}}, "geometry": {"type": "Point", "coordinates": [15.9548355, 41.7081662]}}, {"type": "Feature", "properties": {"type": "way", "id": 218941660, "tags": {"alt_name": "Castello di Casotto", "castle_type": "stately", "heritage": "1", "heritage:operator": "whc", "historic": "castle", "name": "Reggia di Valcasotto", "source": "bing", "wikidata": "Q19863", "wikipedia": "it:Reggia di Valcasotto"}}, "geometry": {"type": "Point", "coordinates": [7.9249285, 44.2301034]}}, {"type": "Feature", "properties": {"type": "way", "id": 27974295, "tags": {"heritage": "1", "heritage:operator": "whc", "name": "Isola del Tinetto", "natural": "coastline", "place": "islet", "ref:whc": "826-004", "whc:inscription_date": "1997", "wikidata": "Q752505", "wikipedia": "it:Tinetto"}}, "geometry": {"type": "Point", "coordinates": [9.8509901, 44.0238619]}}, {"type": "Feature", "properties": {"type": "way", "id": 27974306, "tags": {"heritage": "1", "heritage:operator": "whc", "name": "Isola del Tino", "natural": "coastline", "place": "islet", "ref:whc": "826-003", "whc:inscription_date": "1997", "wikidata": "Q660758", "wikipedia": "it:Isola del Tino"}}, "geometry": {"type": "Point", "coordinates": [9.8506075, 44.0269707]}}, {"type": "Feature", "properties": {"type": "way", "id": 4882166, "tags": {"heritage": "1", "heritage:operator": "whc", "name": "Isola Palmaria", "natural": "coastline", "place": "island", "ref:whc": "826-002", "source": "Regione Liguria", "whc:inscription_date": "1997", "wikidata": "Q757114", "wikipedia": "it:Palmaria"}}, "geometry": {"type": "Point", "coordinates": [9.8443122, 44.0424154]}}, {"type": "Feature", "properties": {"type": "way", "id": 22977576, "tags": {"building": "yes", "description": "sistema dei Rolli n\u00b011", "heritage": "1", "heritage:operator": "whc", "historic": "heritage", "name": "Palazzo Carrega Cataldi", "wikidata": "Q3889811", "wikipedia": "it:Palazzo Carrega-Cataldi"}}, "geometry": {"type": "Point", "coordinates": [8.9340269, 44.41066]}}, {"type": "Feature", "properties": {"type": "way", "id": 164425517, "tags": {"building": "yes", "description": "sistema dei Rolli n\u00b03", "heritage": "1", "heritage:operator": "whc", "historic": "heritage", "name": "Palazzo Giorgio Spinola", "source": "Regione Liguria", "wikidata": "Q3890219", "wikipedia": "it:Palazzo Giorgio Spinola"}}, "geometry": {"type": "Point", "coordinates": [8.9359132, 44.4103074]}}, {"type": "Feature", "properties": {"type": "way", "id": 164570196, "tags": {"alt_name": "Palazzo Agostino Ayrolo", "building": "yes", "description": "sistema dei Rolli n\u00b06", "heritage": "1", "heritage:operator": "whc", "historic": "heritage", "name": "Palazzo Negrone", "wikidata": "Q3890545", "wikipedia": "it:Palazzo Negrone"}}, "geometry": {"type": "Point", "coordinates": [8.9352154, 44.4105345]}}, {"type": "Feature", "properties": {"type": "way", "id": 76035010, "tags": {"building": "yes", "heritage": "1", "heritage:operator": "whc", "historic": "heritage", "name": "Palazzo Ambrogio De Nigro", "note": "sistema dei Rolli n\u00b040", "wikidata": "Q3889530", "wikipedia": "it:Palazzo Ambrogio Di Negro"}}, "geometry": {"type": "Point", "coordinates": [8.9297893, 44.4095925]}}, {"type": "Feature", "properties": {"type": "way", "id": 107718550, "tags": {"building": "yes", "heritage": "1", "heritage:operator": "whc", "historic": "heritage", "layer": "1", "name": "Palazzo Emanuele Filiberto Di Negro", "note": "sistema dei Rolli n\u00b041", "wikidata": "Q3890068", "wikipedia": "it:Palazzo Emanuele Filiberto Di Negro"}}, "geometry": {"type": "Point", "coordinates": [8.929473, 44.4095214]}}, {"type": "Feature", "properties": {"type": "way", "id": 164572586, "tags": {"building": "yes", "heritage": "1", "heritage:operator": "whc", "historic": "heritage", "name": "Palazzo Gio Battista Grimaldi", "note": "sistema dei Rolli n\u00b038", "wikidata": "Q5406650", "wikipedia": "it:Palazzo Gio Battista Grimaldi (piazza San Luca)"}}, "geometry": {"type": "Point", "coordinates": [8.9300613, 44.4102747]}}, {"type": "Feature", "properties": {"type": "way", "id": 164572591, "tags": {"building": "yes", "heritage": "1", "heritage:operator": "whc", "historic": "heritage", "name": "Palazzo Stefano De Mari", "note": "sistema dei Rolli n\u00b039", "wikidata": "Q3890951", "wikipedia": "it:Palazzo Stefano De Mari"}}, "geometry": {"type": "Point", "coordinates": [8.9300231, 44.4101368]}}, {"type": "Feature", "properties": {"type": "way", "id": 23856074, "tags": {"building": "yes", "description": "sistema dei Rolli n\u00b02", "heritage": "1", "heritage:operator": "whc", "historic": "heritage", "name": "Palazzo Clemente della Rovere", "wikidata": "Q3889869", "wikipedia": "it:Palazzo Clemente Della Rovere"}}, "geometry": {"type": "Point", "coordinates": [8.9361166, 44.4096821]}}, {"type": "Feature", "properties": {"type": "way", "id": 153185249, "tags": {"building": "yes", "description": "sistema dei Rolli n\u00b05", "heritage": "1", "heritage:operator": "whc", "historic": "heritage", "name": "Palazzo Giacomo Spinola \"dei Marmi\"", "wikidata": "Q3890190", "wikipedia": "it:Palazzo Giacomo Spinola"}}, "geometry": {"type": "Point", "coordinates": [8.9354831, 44.4099267]}}, {"type": "Feature", "properties": {"type": "way", "id": 164425515, "tags": {"building": "yes", "description": "sistema dei Rolli n\u00b04", "heritage": "1", "heritage:operator": "whc", "historic": "heritage", "name": "Palazzo Tomaso Spinola", "wikidata": "Q3890998", "wikipedia": "it:Palazzo Tommaso Spinola"}}, "geometry": {"type": "Point", "coordinates": [8.9357514, 44.4100648]}}, {"type": "Feature", "properties": {"type": "way", "id": 22977475, "tags": {"building": "yes", "description": "sistema dei Rolli n\u00b018", "heritage": "1", "heritage:operator": "whc", "historic": "heritage", "name": "Palazzo Bianco", "tourism": "museum", "wikidata": "Q1808872", "wikipedia": "it:Palazzo Bianco"}}, "geometry": {"type": "Point", "coordinates": [8.9318442, 44.4116125]}}, {"type": "Feature", "properties": {"type": "way", "id": 41725189, "tags": {"building": "yes", "description": "sistema dei Rolli n\u00b027", "heritage": "1", "heritage:operator": "whc", "historic": "heritage", "name": "Palazzo Gio Francesco Balbi", "wikidata": "Q3890212", "wikipedia": "it:Palazzo Gio Francesco Balbi"}}, "geometry": {"type": "Point", "coordinates": [8.9277334, 44.4140492]}}, {"type": "Feature", "properties": {"type": "way", "id": 76035022, "tags": {"building": "yes", "description": "sistema dei Rolli n\u00b037", "heritage": "1", "heritage:operator": "whc", "historic": "heritage", "name": "Palazzo Gio Batta Grimaldi", "wikidata": "Q3890209", "wikipedia": "it:Palazzo Gio Battista Grimaldi (vico San Luca)"}}, "geometry": {"type": "Point", "coordinates": [8.9302437, 44.4105612]}}, {"type": "Feature", "properties": {"type": "way", "id": 106971520, "tags": {"building": "yes", "description": "sistema dei Rolli n\u00b021", "heritage": "1", "heritage:operator": "whc", "historic": "heritage", "name": "Palazzo Gio Carlo Brignole", "url": "http://www.irolli.it/genova_unesco/palazzo/piazza_della_meridiana_2.html", "wikidata": "Q3361305", "wikipedia": "it:Palazzo Gio Carlo Brignole"}}, "geometry": {"type": "Point", "coordinates": [8.9313092, 44.4113665]}}, {"type": "Feature", "properties": {"type": "way", "id": 107714384, "tags": {"building": "yes", "description": "sistema dei Rolli n\u00b029", "heritage": "1", "heritage:operator": "whc", "historic": "heritage", "layer": "1", "name": "Palazzo Francesco Balbi Piovera", "wikidata": "Q3890141", "wikipedia": "it:Palazzo Francesco Maria Balbi Piovera"}}, "geometry": {"type": "Point", "coordinates": [8.926667, 44.4144972]}}, {"type": "Feature", "properties": {"type": "way", "id": 107716422, "tags": {"building": "yes", "description": "sistema dei Rolli n\u00b023", "heritage": "1", "heritage:operator": "whc", "historic": "heritage", "name": "Palazzo Lomellini Doria Lamba", "website": "http://www.irolli.it/genova_unesco/palazzo/via_cairoli_18.html=1", "wikidata": "Q3890351", "wikipedia": "it:Palazzo Lomellini-Doria Lamba"}}, "geometry": {"type": "Point", "coordinates": [8.9296927, 44.4131711]}}, {"type": "Feature", "properties": {"type": "way", "id": 107716424, "tags": {"building": "yes", "description": "sistema dei Rolli n\u00b025", "height": "37.63", "heritage": "1", "heritage:operator": "whc", "historic": "heritage", "name": "Palazzo Belimbau", "wikidata": "Q3889631", "wikipedia": "it:Palazzo Belimbau"}}, "geometry": {"type": "Point", "coordinates": [8.9281874, 44.4135531]}}, {"type": "Feature", "properties": {"type": "way", "id": 164326908, "tags": {"building": "yes", "description": "sistema dei Rolli n\u00b031", "height": "35.67", "heritage": "1", "heritage:operator": "whc", "historic": "heritage", "name": "Palazzo Cosma Centurione", "website": "http://www.irolli.it/genova_unesco/palazzo/via_lomellini_8.html", "wikidata": "Q3889944", "wikipedia": "it:Palazzo Cosma Centurione"}}, "geometry": {"type": "Point", "coordinates": [8.9291368, 44.4127544]}}, {"type": "Feature", "properties": {"type": "way", "id": 164326910, "tags": {"building": "yes", "description": "sistema dei Rolli n\u00b034", "height": "33.14", "heritage": "1", "heritage:operator": "whc", "historic": "heritage", "name": "Palazzo Cipriano Pallavicini", "wikidata": "Q3889863", "wikipedia": "it:Palazzo Cipriano Pallavicini"}}, "geometry": {"type": "Point", "coordinates": [8.9288829, 44.4119945]}}, {"type": "Feature", "properties": {"type": "way", "id": 164570793, "tags": {"building": "house", "description": "sistema dei Rolli n\u00b022", "heritage": "1", "heritage:operator": "whc", "historic": "heritage", "name": "Palazzo Bartolomeo Lomellini", "source": "Regione Liguria", "wikidata": "Q3889615", "wikipedia": "it:Palazzo Bartolomeo Lomellini"}}, "geometry": {"type": "Point", "coordinates": [8.9301352, 44.4136231]}}, {"type": "Feature", "properties": {"type": "way", "id": 164571099, "tags": {"building": "house", "description": "sistema dei Rolli n\u00b024", "heritage": "1", "heritage:operator": "whc", "historic": "heritage", "name": "Palazzo Giacomo Lomellini", "source": "Regione Liguria", "wikidata": "Q3890188", "wikipedia": "it:Palazzo Giacomo Lomellini"}}, "geometry": {"type": "Point", "coordinates": [8.929647, 44.4136027]}}, {"type": "Feature", "properties": {"type": "way", "id": 164571713, "tags": {"building": "yes", "description": "sistema dei Rolli n\u00b033", "heritage": "1", "heritage:operator": "whc", "historic": "heritage", "name": "Palazzo Gio Battista Centurione", "wikidata": "Q3890206", "wikipedia": "it:Palazzo Gio Battista Centurione"}}, "geometry": {"type": "Point", "coordinates": [8.9291183, 44.412131]}}, {"type": "Feature", "properties": {"type": "way", "id": 164571806, "tags": {"building": "yes", "description": "sistema dei Rolli n\u00b032", "heritage": "1", "heritage:operator": "whc", "historic": "heritage", "name": "Palazzo Giorgio Centurione", "wikidata": "Q3890217", "wikipedia": "it:Palazzo Giorgio Centurione"}}, "geometry": {"type": "Point", "coordinates": [8.9294249, 44.4122157]}}, {"type": "Feature", "properties": {"type": "way", "id": 164571807, "tags": {"building": "yes", "heritage": "1", "heritage:operator": "whc", "historic": "heritage", "name": "Palazzo Nicol\u00f2 Spinola di San Luca", "note": "sistema dei Rolli n\u00b035", "wikidata": "Q3890553", "wikipedia": "it:Palazzo Nicol\u00f2 Spinola"}}, "geometry": {"type": "Point", "coordinates": [8.9297064, 44.4111668]}}, {"type": "Feature", "properties": {"type": "way", "id": 22977675, "tags": {"alt_name": "Palazzo Gambaro", "building": "yes", "description": "sistema dei Rolli n\u00b09", "heritage": "1", "heritage:operator": "whc", "historic": "heritage", "name": "Palazzo Pantaleo Spinola", "wikidata": "Q3890608", "wikipedia": "it:Palazzo Pantaleo Spinola"}}, "geometry": {"type": "Point", "coordinates": [8.9344114, 44.4106184]}}, {"type": "Feature", "properties": {"type": "way", "id": 22977705, "tags": {"building": "yes", "description": "sistema dei Rolli n\u00b015", "heritage": "1", "heritage:operator": "whc", "historic": "heritage", "name": "Palazzo Cattaneo Adorno", "wikidata": "Q3889823", "wikipedia": "it:Palazzo Cattaneo-Adorno"}}, "geometry": {"type": "Point", "coordinates": [8.9332468, 44.4108935]}}, {"type": "Feature", "properties": {"type": "way", "id": 22977719, "tags": {"alt_name": "Palazzo Campanella", "building": "yes", "description": "sistema dei Rolli n\u00b017", "heritage": "1", "heritage:operator": "whc", "historic": "heritage", "name": "Palazzo Baldassarre Lomellini", "wikidata": "Q3889577", "wikipedia": "it:Palazzo Baldassarre Lomellini"}}, "geometry": {"type": "Point", "coordinates": [8.9328488, 44.4109567]}}, {"type": "Feature", "properties": {"type": "way", "id": 22977884, "tags": {"building": "yes", "description": "sistema dei Rolli n\u00b014", "heritage": "1", "heritage:operator": "whc", "historic": "heritage", "name": "Palazzo Podest\u00e0", "wikidata": "Q964943", "wikipedia": "it:Palazzo Podest\u00e0"}}, "geometry": {"type": "Point", "coordinates": [8.9334507, 44.4112475]}}, {"type": "Feature", "properties": {"type": "way", "id": 164570452, "tags": {"building": "yes", "description": "sistema dei Rolli n\u00b07", "heritage": "1", "heritage:operator": "whc", "historic": "heritage", "name": "Palazzo Paolo Battista e Nicol\u00f2 Interiano", "wikidata": "Q1123712", "wikipedia": "it:Palazzo Paolo Battista e Niccol\u00f2 Interiano"}}, "geometry": {"type": "Point", "coordinates": [8.9350078, 44.4108418]}}, {"type": "Feature", "properties": {"type": "way", "id": 370348566, "tags": {"description": "Cercle de pierres", "heritage": "2", "heritage:operator": "mhs", "historic": "archaeological_site", "historic:civilization": "celtic", "megalith_type": "stone_circle", "mhs:inscription_date": "1956-10-13", "name": "Cromlech du Petit-Saint-Bernard", "name:it": "Cromlech del Piccolo San Bernardo", "ref:mhs": "PA00118307", "site_type": "megalith", "source:heritage": "data.gouv.fr, Minist\u00e8re de la Culture - 2016", "tourism": "attraction", "wikidata": "Q3003706", "wikipedia": "fr:Cromlech du Petit-Saint-Bernard"}}, "geometry": {"type": "Point", "coordinates": [6.8839447, 45.6804224]}}, {"type": "Feature", "properties": {"type": "way", "id": 684156550, "tags": {"building": "yes", "castle_type": "stately", "heritage": "1", "heritage:operator": "whc", "historic": "castle", "name": "Villa dei Laghi", "wikidata": "Q19843", "wikipedia": "it:Castello dei Laghi"}}, "geometry": {"type": "Point", "coordinates": [7.5811712, 45.1675143]}}, {"type": "Feature", "properties": {"type": "way", "id": 27755927, "tags": {"amenity": "place_of_worship", "building": "church", "denomination": "catholic", "heritage": "1", "heritage:operator": "whc", "historic": "church", "name": "Santa Maria delle Grazie", "name:it": "Santa Maria delle Grazie", "name:ko": "\uc138\uc778\ud2b8 \ub9c8\ub9ac\uc544 \ub378\ub808 \uadf8\ub77c\ucc0c\uc544 \uc131\ub2f9", "name:ru": "\u0421\u0430\u043d\u0442\u0430 \u041c\u0430\u0440\u0438\u044f \u0434\u0435\u043b\u043b\u0435 \u0413\u0440\u0430\u0446\u0438\u0435", "name:zh": "\u611f\u6069\u5723\u6bcd\u6559\u5802", "opening_hours": "Tu-Su 08:15-18:45", "ref:whc": "93", "religion": "christian", "start_date": "1482", "tourism": "attraction", "website": "http://www.cenacolovinciano.org", "whc:criteria": "(i),(ii)", "whc:inscription_date": "1980", "wheelchair": "yes", "wikidata": "Q244952", "wikipedia": "it:Chiesa di Santa Maria delle Grazie (Milano)"}}, "geometry": {"type": "Point", "coordinates": [9.1711716, 45.4659771]}}, {"type": "Feature", "properties": {"type": "way", "id": 173633775, "tags": {"email": "parcoarcheologico.castelseprio@beniculturali.it", "heritage": "1", "heritage:operator": "whc", "historic": "archaeological_site", "leisure": "park", "name": "Parco archeologico di Castel Seprio", "phone": "+39 0331 820438", "website": "http://www.antiquarium.castelseprio.beniculturali.it", "wikipedia": "it:Parco archeologico di Castelseprio"}}, "geometry": {"type": "Point", "coordinates": [8.8586848, 45.7286182]}}, {"type": "Feature", "properties": {"type": "way", "id": 173633776, "tags": {"building": "yes", "heritage": "1", "heritage:operator": "whc", "historic": "church", "name": "Santa Maria Foris Portas", "wikidata": "Q1132538", "wikipedia": "it:Chiesa di Santa Maria foris portas"}}, "geometry": {"type": "Point", "coordinates": [8.8558718, 45.7297993]}}, {"type": "Feature", "properties": {"type": "way", "id": 409048659, "tags": {"heritage": "1", "heritage:operator": "whc", "loc_name": "Crespi", "name": "Crespi d'Adda", "operator:heritage": "whc", "place": "village", "ref:whc": "730", "tourism": "attraction", "whc:criteria": "(iv)(v)", "whc:inscription_date": "1995", "wikidata": "Q726842", "wikipedia": "it:Crespi d'Adda"}}, "geometry": {"type": "Point", "coordinates": [9.5372849, 45.5952418]}}, {"type": "Feature", "properties": {"type": "way", "id": 157564765, "tags": {"building": "yes", "email": "pm-tos.villamediceacerretoguidi@beniculturali.it", "heritage": "1", "heritage:operator": "whc", "historic": "manor", "name": "Villa Medicea", "opening_hours": "Apr-Sep: Mo-Sa 09:00-18:00; Su 10:00-19:00; Oct-Mar: Mo-Sa 10:00-18:00; Su 10:00-19:00; Mo [2, 3] off; Jan 1 off; Dec 25 off", "phone": "+39 0571 55707", "tourism": "attraction", "website": "http://www.polomusealetoscana.beniculturali.it/index.php?it/186/villa-medicea-di-cerreto-guidi-e-museo-storico-della-caccia-e-del-territorio-firenze", "wikidata": "Q1585931", "wikipedia": "it:Villa medicea di Cerreto Guidi"}}, "geometry": {"type": "Point", "coordinates": [10.8791925, 43.7586358]}}, {"type": "Feature", "properties": {"type": "way", "id": 43795574, "tags": {"building": "yes", "heritage": "1", "heritage:operator": "whc", "historic": "manor", "name": "Villa Medicea La Ferdinanda", "tourism": "attraction", "wikipedia": "it:Villa medicea di Artimino"}}, "geometry": {"type": "Point", "coordinates": [11.0442701, 43.781875]}}, {"type": "Feature", "properties": {"type": "way", "id": 49323561, "tags": {"building": "yes", "heritage": "1", "heritage:operator": "whc", "historic": "manor", "name": "Villa Medicea", "wikidata": "Q733389", "wikipedia": "it:Villa medicea di Poggio a Caiano"}}, "geometry": {"type": "Point", "coordinates": [11.0562447, 43.8174463]}}, {"type": "Feature", "properties": {"type": "way", "id": 29241538, "tags": {"boundary": "protected_area", "governance_type": "social_group", "heritage": "1", "heritage:operator": "whc", "historic": "heritage", "name": "Cattedrale, Torre Civica e Piazza Grande", "protect_class": "22", "protected": "perpetual", "protection_aim": "edificio storico e complesso monumentale", "protection_object": "historic", "protection_title": "The Cathedral, Torre Civica 827 Italy C(i)(ii)(iii)(iv) and Piazza Grande, Modena", "ref:whc": "827", "related_law": "WORLD HERITAGE COMMITTEE - Twenty-first session Naples, Italy, 1-6 December 1997", "site_ownership": "UNESCO", "site_status": "designated", "whc:criteria": "i,ii,iii,iv", "whc:inscription_date": "1997"}}, "geometry": {"type": "Point", "coordinates": [10.9256969, 44.6461758]}}, {"type": "Feature", "properties": {"type": "way", "id": 157922129, "tags": {"building": "yes", "heritage": "1", "heritage:operator": "whc", "name": "Cappella Arcivescovile", "name:es": "Capilla arzobispal", "ref:whc": "788-004", "source": "Regione Emilia Romagna", "tourism": "attraction", "whc:inscription_date": "1996", "wikidata": "Q600062", "wikipedia": "it:Cappella Arcivescovile"}}, "geometry": {"type": "Point", "coordinates": [12.1977007, 44.4150937]}}, {"type": "Feature", "properties": {"type": "way", "id": 157923784, "tags": {"access": "yes", "area": "yes", "building": "yes", "heritage": "1", "heritage:operator": "whc", "historic": "church", "name": "Battistero Neoniano", "name:es": "Baptisterio neoniano", "ref:whc": "788-003", "source": "Regione Emilia Romagna", "tourism": "attraction", "whc:inscription_date": "1996", "wheelchair": "yes", "wikidata": "Q1256487", "wikipedia": "it:Battistero Neoniano"}}, "geometry": {"type": "Point", "coordinates": [12.1973601, 44.4155913]}}, {"type": "Feature", "properties": {"type": "way", "id": 157757738, "tags": {"access": "yes", "amenity": "place_of_worship", "building": "church", "denomination": "catholic", "heritage": "1", "heritage:operator": "whc", "historic": "church", "name": "Basilica di San Vitale", "name:es": "Iglesia de San Vital", "name:ja": "\u30b5\u30f3\u30fb\u30f4\u30a3\u30bf\u30fc\u30ec\u8056\u5802", "ref:whc": "788-002", "religion": "christian", "source": "Regione Emilia Romagna", "whc:inscription_date": "1996", "wheelchair": "yes", "wikidata": "Q721817", "wikipedia": "it:Basilica di San Vitale (Ravenna)"}}, "geometry": {"type": "Point", "coordinates": [12.196346, 44.4205412]}}, {"type": "Feature", "properties": {"type": "way", "id": 157758113, "tags": {"access": "yes", "building": "yes", "heritage": "1", "heritage:operator": "whc", "historic": "tomb", "name": "Mausoleo di Galla Placidia", "name:en": "Mausoleum of Galla Placidia", "name:es": "Mausoleo de Gala Placidia", "name:ja": "\u30ac\u30c3\u30e9\u30fb\u30d7\u30e9\u30ad\u30c7\u30a3\u30a2\uff08\u30ac\u30c3\u30e9\u30fb\u30d7\u30e9\u30c1\u30fc\u30c7\u30a3\u30a2\uff09\u5edf\u5802", "ref:whc": "788-001", "source": "Regione Emilia Romagna", "tourism": "attraction", "whc:inscription_date": "1996", "wheelchair": "yes", "wikidata": "Q644288", "wikipedia": "it:Mausoleo di Galla Placidia"}}, "geometry": {"type": "Point", "coordinates": [12.1970909, 44.4209627]}}, {"type": "Feature", "properties": {"type": "way", "id": 158269491, "tags": {"addr:city": "Ravenna", "addr:postcode": "48121", "addr:street": "Piazzetta degli Ariani", "building": "yes", "email": "pm-ero.musnaz-ra@beniculturali.it", "heritage": "1", "heritage:operator": "whc", "historic": "church", "name": "Battistero degli Ariani", "name:de": "Baptisterium der Arianer", "name:en": "Arian Baptistery", "opening_hours": "Mar 31-Oct 26: Mo-Su 08:30-19:30; Oct 27-Mar 30: Mo-Su 08:30-16:30; Jan 1 off; Dec 25 off", "phone": "+39 0544 543710", "ref:whc": "788-006", "source": "Regione Emilia Romagna", "tourism": "attraction", "website": "https://www.polomusealeemiliaromagna.beniculturali.it/musei/battistero-degli-ariani", "whc:inscription_date": "1996", "wikidata": "Q1449217", "wikipedia": "it:Battistero degli Ariani"}}, "geometry": {"type": "Point", "coordinates": [12.2024257, 44.4186972]}}, {"type": "Feature", "properties": {"type": "way", "id": 253315225, "tags": {"amenity": "place_of_worship", "building": "church", "denomination": "catholic", "heritage": "1", "heritage:operator": "whc", "historic": "church", "name": "Basilica di Sant'Apollinare Nuovo", "ref:whc": "788-005", "religion": "christian", "toilets:wheelchair": "yes", "whc:inscription_date": "1996", "wheelchair": "yes", "wikidata": "Q832278", "wikipedia": "it:Basilica di Sant'Apollinare Nuovo"}}, "geometry": {"type": "Point", "coordinates": [12.2049286, 44.4167547]}}, {"type": "Feature", "properties": {"type": "way", "id": 158591056, "tags": {"addr:city": "Ravenna", "addr:housenumber": "224", "addr:postcode": "48125", "addr:street": "Via Romea Sud", "amenity": "place_of_worship", "building": "church", "denomination": "catholic", "email": "pm-ero.musnaz-ra@beniculturali.it", "heritage": "1", "heritage:operator": "whc", "historic": "heritage", "importance": "regional", "name": "Basilica di Sant'Apollinare in Classe", "name:ja": "\u30b5\u30f3\u30bf\u30dd\u30ea\u30ca\u30fc\u30ec\u30fb\u30a4\u30f3\u30fb\u30af\u30e9\u30c3\u30bb\u8056\u5802", "phone": "+39 0544 527308", "ref:whc": "788-008", "religion": "christian", "service_times": "Mo-Sa 08:30-19:30; Su, PH 13:00-19:30; Jan 1 off; Dec 25 off", "source": "Regione Emilia Romagna", "tourism": "attraction", "website": "https://www.polomusealeemiliaromagna.beniculturali.it/musei/sant-apollinare-in-classe", "whc:inscription_date": "1996", "wheelchair": "yes", "wikidata": "Q744552", "wikipedia": "it:Basilica di Sant'Apollinare in Classe"}}, "geometry": {"type": "Point", "coordinates": [12.2330022, 44.3802781]}}, {"type": "Feature", "properties": {"type": "way", "id": 213879983, "tags": {"building": "yes", "email": "pm-ero.musnaz-ra@beniculturali.it", "heritage": "1", "heritage:operator": "whc", "historic": "monument", "name": "Mausoleo di Teodorico", "name:de": "Mausoleum des Theoderich", "name:en": "Mausoleum of Theodoric", "name:ja": "\u30c6\u30aa\u30c9\u30ea\u30c3\u30af\u5edf", "opening_hours": "Mar 31-Oct 26: Mo-Su 08:30-19:00; Oct 27-Mar 30: Mo-Su 08:30-16:30; Jan 1 off; Dec 25 off", "phone": "+39 0544 456701", "ref:whc": "788-007", "source": "Ground plan from: Incerti, M., Lavoratti, G. & Iurilli, S. Survey, archaeoastronomy and communication: The mausoleum of theodoric in Ravenna (Italy). Mediterranean Archaeology and Archaeometry, 4, 437\u2013446 (2016).", "website": "https://www.polomusealeemiliaromagna.beniculturali.it/musei/mausoleo-di-teodorico", "whc:inscription_date": "1996", "wikidata": "Q289427", "wikipedia": "it:Mausoleo di Teodorico"}}, "geometry": {"type": "Point", "coordinates": [12.209145, 44.4250417]}}, {"type": "Feature", "properties": {"type": "way", "id": 219083640, "tags": {"amenity": "place_of_worship", "building": "church", "denomination": "catholic", "heritage": "1", "heritage:operator": "whc", "importance": "regional", "name": "Chiesa di San Salvatore", "religion": "christian", "wikidata": "Q334267", "wikipedia": "it:Chiesa di San Salvatore (Brescia)"}}, "geometry": {"type": "Point", "coordinates": [10.2285569, 45.5397913]}}, {"type": "Feature", "properties": {"type": "way", "id": 219145778, "tags": {"castle_type": "defensive", "heritage": "1", "heritage:operator": "whc", "historic": "castle", "name": "Castellaro Lagusello", "wikipedia": "it:Castellaro Lagusello"}}, "geometry": {"type": "Point", "coordinates": [10.6351636, 45.3725398]}}, {"type": "Feature", "properties": {"type": "way", "id": 249816942, "tags": {"building": "yes", "heritage": "1", "heritage:operator": "whc", "historic": "manor", "name": "Villa Badoer", "opening_hours": "Th-Su 10:00-12:00,15:30-18:30; Fr off", "tourism": "attraction", "wikidata": "Q2031664", "wikipedia": "en:Villa Badoer"}}, "geometry": {"type": "Point", "coordinates": [11.6403202, 45.030433]}}, {"type": "Feature", "properties": {"type": "way", "id": 158946319, "tags": {"building": "yes", "heritage": "1", "heritage:operator": "whc", "historic": "manor", "name": "Villa Pisani", "tourism": "attraction", "wikidata": "Q2705507", "wikipedia": "it:Villa Pisani (Montagnana)"}}, "geometry": {"type": "Point", "coordinates": [11.4696385, 45.2305149]}}, {"type": "Feature", "properties": {"type": "way", "id": 251597557, "tags": {"building": "yes", "heritage": "1", "heritage:operator": "whc", "historic": "manor", "name": "Villa Pojana", "wikidata": "Q2688899", "wikipedia": "it:Villa Pojana"}}, "geometry": {"type": "Point", "coordinates": [11.4982622, 45.2854001]}}, {"type": "Feature", "properties": {"type": "way", "id": 218879394, "tags": {"building": "yes", "heritage": "1", "heritage:operator": "whc", "historic": "manor", "name": "Villa Serego", "wikipedia": "it:Villa Serego"}}, "geometry": {"type": "Point", "coordinates": [10.9239706, 45.4993528]}}, {"type": "Feature", "properties": {"type": "way", "id": 218873248, "tags": {"building": "yes", "heritage": "1", "heritage:operator": "whc", "historic": "manor", "name": "Villa Pisani", "wikidata": "Q514069", "wikipedia": "it:Villa Pisani (Bagnolo)"}}, "geometry": {"type": "Point", "coordinates": [11.3713808, 45.357144]}}, {"type": "Feature", "properties": {"type": "way", "id": 218875178, "tags": {"building": "yes", "heritage": "1", "heritage:operator": "whc", "historic": "manor", "name": "Villa Trissino", "wikidata": "Q2546376", "wikipedia": "it:Barchesse di Villa Trissino"}}, "geometry": {"type": "Point", "coordinates": [11.4131123, 45.4322257]}}, {"type": "Feature", "properties": {"type": "way", "id": 218871019, "tags": {"building": "yes", "heritage": "1", "heritage:operator": "whc", "historic": "manor", "manor:type": "venetian_villa", "name": "Villa Chiericati", "tourism": "attraction", "wikidata": "Q2722026", "wikipedia": "it:Villa Chiericati"}}, "geometry": {"type": "Point", "coordinates": [11.6442754, 45.5032925]}}, {"type": "Feature", "properties": {"type": "way", "id": 218870908, "tags": {"addr:housenumber": "2", "addr:postcode": "36030", "addr:street": "Via Pagello", "building": "yes", "building:type": "venetian_villa", "description": "architetto Andrea Palladio, 1542. Bene protetto dall'UNESCO.", "heritage": "1", "heritage:operator": "whc", "historic": "manor", "name": "Villa Caldogno", "tourism": "attraction", "website": "villacaldogno.it", "wheelchair": "no", "wikidata": "Q738794", "wikipedia": "it:Villa Caldogno"}}, "geometry": {"type": "Point", "coordinates": [11.5068969, 45.6144524]}}, {"type": "Feature", "properties": {"type": "way", "id": 138733240, "tags": {"building": "yes", "heritage": "1", "heritage:operator": "whc", "historic": "heritage", "name": "Villa Trissino", "wikidata": "Q2722437", "wikipedia": "it:Villa Trissino (Cricoli)"}}, "geometry": {"type": "Point", "coordinates": [11.548201, 45.5663891]}}, {"type": "Feature", "properties": {"type": "way", "id": 140813799, "tags": {"addr:housenumber": "23", "addr:street": "Via San Cristoforo", "architect": "Andrea Palladio", "building": "yes", "heritage": "1", "heritage:operator": "whc", "historic": "heritage", "name": "Villa Gazzotti", "old_name": "Villa Marcello", "start_date": "C16", "tourism": "attraction", "wikidata": "Q2271780", "wikipedia": "it:Villa Gazzotti"}}, "geometry": {"type": "Point", "coordinates": [11.6009118, 45.5593239]}}, {"type": "Feature", "properties": {"type": "way", "id": 674705936, "tags": {"building": "yes", "heritage": "1", "heritage:operator": "whc", "historic": "manor", "name": "Villa Thiene", "wikidata": "Q2115058", "wikipedia": "it:Villa Thiene"}}, "geometry": {"type": "Point", "coordinates": [11.6252681, 45.5729559]}}, {"type": "Feature", "properties": {"type": "way", "id": 218876146, "tags": {"building": "yes", "heritage": "1", "heritage:operator": "whc", "historic": "manor", "name": "Villa Valmarana", "wikidata": "Q2722506", "wikipedia": "it:Villa Valmarana (Vigardolo)"}}, "geometry": {"type": "Point", "coordinates": [11.5844171, 45.6073781]}}, {"type": "Feature", "properties": {"type": "way", "id": 140852756, "tags": {"building": "yes", "heritage": "1", "heritage:operator": "whc", "historic": "manor", "name": "Villa Valmarana", "wikidata": "Q2721458", "wikipedia": "it:Villa Valmarana (Lisiera)"}}, "geometry": {"type": "Point", "coordinates": [11.610323, 45.5800027]}}, {"type": "Feature", "properties": {"type": "way", "id": 218871352, "tags": {"building": "yes", "heritage": "1", "heritage:operator": "whc", "historic": "manor", "name": "Villa Forni Cerato", "wikidata": "Q2598094", "wikipedia": "it:Villa Forni Cerato"}}, "geometry": {"type": "Point", "coordinates": [11.562338, 45.6588317]}}, {"type": "Feature", "properties": {"type": "way", "id": 523256321, "tags": {"heritage": "1", "heritage:operator": "whc", "historic": "archaeological_site", "historic:period": "bronze-age", "megalith_type": "menhir", "name": "Parco Archeologico Asinino - Anv\u00f2ia", "site_type": "megalith", "wikipedia": "it:Incisioni rupestri della Val Camonica"}}, "geometry": {"type": "Point", "coordinates": [10.2500622, 45.9611657]}}, {"type": "Feature", "properties": {"type": "way", "id": 717877540, "tags": {"fixme": "Le etichette a anche la forma sono da rivedere, solo il nome \u00e8 corretto", "heritage": "1", "heritage:operator": "whc", "historic": "archaeological_site", "historic:period": "bronze-age", "megalith_type": "menhir", "name": "Riserva naturale Incisioni rupestri di Ceto, Cimbergo e Paspardo", "site_type": "megalith", "wikipedia": "it:Riserva naturale Incisioni rupestri di Ceto, Cimbergo e Paspardo"}}, "geometry": {"type": "Point", "coordinates": [10.3619098, 46.032264]}}, {"type": "Feature", "properties": {"type": "way", "id": 233146745, "tags": {"alt_name": "Forte di Cadine", "building": "yes", "ehl:inscription_date": "2017", "heritage": "1", "heritage:operator": "ehl", "historic": "fort", "name": "Forte Bus de Vela - Stra\u00dfensperre Bus de Vela", "name:de": "Stra\u00dfensperre Bus de Vela", "name:it": "Forte Bus de Vela", "source:heritage": "ec.europa.eu - 2020", "start_date": "1860", "tourism": "attraction", "wikidata": "Q914933", "wikipedia": "it:Tagliata stradale Bus de Vela"}}, "geometry": {"type": "Point", "coordinates": [11.0723391, 46.0835667]}}, {"type": "Feature", "properties": {"type": "way", "id": 261621335, "tags": {"addr:city": "Lugo di Vicenza", "addr:housename": "Villa Godi Malinverni", "addr:housenumber": "44", "addr:postcode": "36030", "addr:street": "Via Palladio", "architect:wikipedia": "en:Andrea Palladio", "heritage": "1", "heritage:operator": "whc", "leisure": "park", "name": "Villa Godi - Andrea Palladio", "operator": "Malinverni", "phone": "+39 0445860561", "tourism": "attraction", "website": "http://villagodi.com/", "wikipedia": "it:Villa Godi"}}, "geometry": {"type": "Point", "coordinates": [11.5348265, 45.7455041]}}, {"type": "Feature", "properties": {"type": "way", "id": 244552817, "tags": {"addr:city": "Lugo di Vicenza", "alt_name": "Villa Piovene", "heritage": "1", "heritage:operator": "whc", "historic": "manor", "manor:type": "venetian_villa", "name": "Villa Piovene Porto Godi", "tourism": "attraction", "wikipedia": "it:Villa Piovene"}}, "geometry": {"type": "Point", "coordinates": [11.5332372, 45.7476546]}}, {"type": "Feature", "properties": {"type": "way", "id": 244552816, "tags": {"addr:city": "Lugo di Vicenza", "building": "yes", "heritage": "1", "heritage:operator": "whc", "historic": "manor", "manor:type": "venetian_villa", "name": "Villa Godi", "wikidata": "Q2084394", "wikipedia": "it:Villa Godi"}}, "geometry": {"type": "Point", "coordinates": [11.5347257, 45.7456454]}}, {"type": "Feature", "properties": {"type": "way", "id": 164191810, "tags": {"building": "yes", "heritage": "1", "heritage:operator": "whc", "historic": "manor", "name": "Villa Angarano Bianchi-Michiel", "name:he": "\u05d5\u05d9\u05dc\u05d4 \u05d0\u05e0\u05d2\u05e8\u05d0\u05e0\u05d5", "wikidata": "Q2299483", "wikipedia": "it:Villa Angarano"}}, "geometry": {"type": "Point", "coordinates": [11.7231728, 45.7806533]}}, {"type": "Feature", "properties": {"type": "way", "id": 764460408, "tags": {"boundary": "protected_area", "heritage": "1", "heritage:operator": "whc", "heritage:website": "http://whc.unesco.org/en/list/1237", "leisure": "nature_reserve", "name": "UNESCO-Weltnaturerbe \u201eGeoparc Bletterbach\u201c \u2013 Teilgebiet Dolomiten  -  \"GEOPARC Bletterbach\" Dolomiti Patrimonio Mondiale UNESCO", "name:de": "UNESCO-Weltnaturerbe \u201eGeoparc Bletterbach\u201c \u2013 Teilgebiet Dolomiten", "name:it": "\"GEOPARC Bletterbach\" Dolomiti Patrimonio Mondiale UNESCO", "protect_class": "98", "protection_title": "Weltnaturerbe", "ref:whc": "1237rev-008", "website": "https://www.bletterbach.info/", "whc:criteria": "(vii)(viii)", "whc:inscription_date": "2009", "wikipedia": "de:Bletterbach"}}, "geometry": {"type": "Point", "coordinates": [11.4192682, 46.3596729]}}, {"type": "Feature", "properties": {"type": "way", "id": 30001347, "tags": {"heritage": "1", "heritage:operator": "whc", "historic": "heritage", "leisure": "park", "name": "Orto Botanico di Padova", "name:ru": "\u0411\u043e\u0442\u0430\u043d\u0438\u0447\u0435\u0441\u043a\u0438\u0439 \u0441\u0430\u0434", "old_name": "Orto dei semplici", "opening_hours": "Apr-May Mo-Su 09:00-19:00; Jun-Sep Tu-Su 09:00-19:00, PH 09:00-19:00; Oct Tu-Su 09:00-18:00, PH 09:00-18:00; Nov-Mar Tu-Su 09:00-17:00, PH 09:00-17:00", "ref:whc": "824", "tourism": "attraction", "unesco": "yes", "website": "http://m.ortobotanicopd.it/en/orari", "wheelchair": "yes", "wikidata": "Q598892", "wikipedia": "it:Orto botanico di Padova"}}, "geometry": {"type": "Point", "coordinates": [11.8806012, 45.398492]}}, {"type": "Feature", "properties": {"type": "way", "id": 365693195, "tags": {"building": "yes", "heritage": "1", "heritage:operator": "whc", "historic": "manor", "name": "Villa Cornaro", "wikidata": "Q2698156", "wikipedia": "it:Villa Cornaro"}}, "geometry": {"type": "Point", "coordinates": [11.9993923, 45.6070994]}}, {"type": "Feature", "properties": {"type": "way", "id": 148140837, "tags": {"building": "yes", "heritage": "1", "heritage:operator": "whc", "historic": "manor", "name": "Villa Emo", "name:he": "\u05d5\u05d9\u05dc\u05d4 \u05d0\u05de\u05d5", "name:it": "Villa Emo", "tourism": "attraction", "wikidata": "Q1258865", "wikipedia": "it:Villa Emo"}}, "geometry": {"type": "Point", "coordinates": [11.9912735, 45.7117288]}}, {"type": "Feature", "properties": {"type": "way", "id": 193898887, "tags": {"PVCP": "VE", "addr:city": "Mira", "addr:country": "IT", "addr:housenumber": "11", "addr:street": "Via dei Turisti", "architect": "Palladio Andrea", "building": "yes", "heritage": "1", "heritage:operator": "whc", "historic": "manor", "manor:type": "venetian_villa", "name": "Villa Foscari, detta \"La Malcontenta\"", "ref:IT:IRVV": "00004471", "start_date": "c16", "tourism": "attraction", "wikidata": "Q1139609", "wikipedia": "it:Villa Foscari"}}, "geometry": {"type": "Point", "coordinates": [12.2016658, 45.436763]}}, {"type": "Feature", "properties": {"type": "way", "id": 194358528, "tags": {"building": "yes", "heritage": "1", "heritage:operator": "whc", "historic": "manor", "name": "Villa Zeno", "wikidata": "Q2271810", "wikipedia": "it:Villa Zeno"}}, "geometry": {"type": "Point", "coordinates": [12.6429446, 45.7003769]}}, {"type": "Feature", "properties": {"type": "way", "id": 43721496, "tags": {"boundary": "protected_area", "heritage": "2", "heritage:operator": "whc", "it:fvg:regional_catalog:COMUNI_INT": "Andreis, Cimolais, Claut, Erto e Casso, Frisanco, Forni di Sopra, Forni di Sotto, Tramonti di Sopra", "it:fvg:regional_catalog:ID1": "1", "it:fvg:regional_catalog:ISTITUZION": "L.R. n. 42 del 30.9.1996, art. 41", "it:fvg:regional_catalog:LINK_INFO": "http://www.regione.fvg.it/asp/parchiareeprotette/contenuto/ricerche/SchedaParco.asp?id=4000048", "it:fvg:regional_catalog:ORGANO_GES": "Ente parco naturale delle Dolomiti Friulane", "leisure": "nature_reserve", "name": "Parco naturale regionale delle Dolomiti Friulane", "name:de": "Regionaler Naturpark der Friauler Dolomiten", "name:fur": "Parc regjon\u00e2l des Dolomitis furlanis", "name:sl": "Naravni park Furlanski Dolomiti", "protect_class": "2", "protection_title": "Parco naturale regionale", "wikidata": "Q683241", "wikipedia": "it:Parco naturale delle Dolomiti Friulane"}}, "geometry": {"type": "Point", "coordinates": [12.5227789, 46.3223253]}}, {"type": "Feature", "properties": {"type": "way", "id": 145740467, "tags": {"alt_name": "Villa Barbaro", "building": "yes", "heritage": "1", "heritage:operator": "whc", "historic": "manor", "name": "Villa di Maser", "name:he": "\u05d5\u05d9\u05dc\u05d4 \u05d1\u05e8\u05d1\u05d0\u05e8\u05d5", "name:it": "Villa di Maser", "tourism": "attraction", "website": "http://www.villadimaser.it", "wikidata": "Q1071495", "wikipedia": "it:Villa Barbaro"}}, "geometry": {"type": "Point", "coordinates": [11.9762935, 45.8122608]}}, {"type": "Feature", "properties": {"type": "relation", "id": 395010, "tags": {"addr:housenumber": "1", "addr:street": "Piazza del Parlamento", "alt_name": "Royal Palace", "alt_name:en": "Royal Palace", "alt_name:fr": "Palais Royal", "building": "yes", "heritage": "1", "heritage:operator": "whc", "historic": "castle", "name": "Palazzo dei Normanni", "name:fr": "Palais des Normands", "name:ko": "\ub178\ub974\ub9cc \uad81\uc804", "name:ru": "\u041a\u0430\u043f\u0435\u043b\u043b\u0430 \u041f\u0430\u043b\u0430\u0442\u0438\u043d\u043e", "opening_hours": "Mo-Sa 08:15-17:45; Su 08:15-13:00", "phone": "+39 091 626 2833", "ref:whc": "1847:001", "tourism": "attraction", "type": "multipolygon", "website": "https://www.federicosecondo.org/palazzo-reale-2/", "whc:criteria": "ii;iv", "whc:inscription_date": "2015", "wikidata": "Q1473825", "wikipedia": "it:Palazzo dei Normanni"}}, "geometry": {"type": "Point", "coordinates": [13.3533944, 38.1112051]}}, {"type": "Feature", "properties": {"type": "relation", "id": 1370434, "tags": {"email": "sba-em@beniculturali.it", "field": "yes", "heritage": "1", "heritage:operator": "whc", "historic": "archaeological_site", "historic:civilization": "etruscan", "name": "Cerveteri-Necropoli della Banditaccia", "note": "this is the relation for the whole necropoli di Cerveteri. It also includes the parts that don't require a fee to enter", "phone": "+39 06 3202010", "ref:whc": "1158", "site_type": "necropolis", "type": "site", "url": "http://whc.unesco.org/en/list/1158", "website": "http://etruriameridionale.beniculturali.it/index.php?it/156/necropoli-della-banditaccia-di-cerveteri", "whc:criteria": "1;3;4", "whc:inscription_date": "2004", "wikidata": "Q2364239", "wikipedia": "it:Necropoli della Banditaccia"}}, "geometry": {"type": "Point", "coordinates": [12.1022779, 42.0060708]}}, {"type": "Feature", "properties": {"type": "relation", "id": 1370478, "tags": {"fee": "yes", "field": "yes", "heritage": "1", "heritage:operator": "whc", "historic": "archaeological_site", "historic:civilization": "etruscan", "name": "Cerveteri-Necropoli della Banditaccia", "note": "this is the relation for the fenced part of the necropoli that requires an entrance fee and for the services (parking, tickets) and fences", "operator": "Ministero per i Beni Culturali e Ambientali, Soprintendenza Archeologica per l'Etruria Meridionale", "ref:whc": "1158", "site_type": "tumulus", "start_date:unesco:inscription": "2004", "tourism": "attraction", "type": "site", "url": "http://whc.unesco.org/en/list/1158"}}, "geometry": {"type": "Point", "coordinates": [12.1034253, 42.0071126]}}, {"type": "Feature", "properties": {"type": "relation", "id": 12213226, "tags": {"boundary": "protected_area", "heritage": "1", "heritage:operator": "whc", "heritage:website": "http://whc.unesco.org/en/list/1133/multiple=1&unique_number=2152", "image": "https://upload.wikimedia.org/wikipedia/commons/6/6e/Faggeta_vetusta_depressa_di_Oriolo_Romano.jpg", "leisure": "nature_reserve", "name": "Monte Raschio UNESCO ancient depressed beech forest", "name:en": "Monte Raschio UNESCO ancient depressed beech forest", "name:fr": "UNESCO For\u00eat ancienne de h\u00eatres de Monte Raschio", "name:it": "UNESCO Faggeta vetusta depressa Monte Raschio", "opening_hours": "24/7", "operator": "UNESCO", "protect_class": "98", "protection_title": "World Heritage Convention", "ref:whc": "1133ter-048", "site": "heritage", "start_date": "2017-07-07", "type": "multipolygon", "whc:criteria": "(ix)", "whc:inscription_date": "2017-07-07", "wikidata": "Q97011004", "wikipedia": "it:Faggeta vetusta depressa di Monte Raschio"}}, "geometry": {"type": "Point", "coordinates": [12.1607596, 42.1732393]}}, {"type": "Feature", "properties": {"type": "relation", "id": 1537040, "tags": {"alt_name": "Necropoli del Calvario", "heritage": "1", "heritage:operator": "whc", "historic": "archaeological_site", "historic:civilization": "etruscan", "name": "Necropoli dei Monterozzi", "note:opening_hours": "Ticket office closes one hour before the site", "opening_hours": "tu-su 8:30-19:30", "operator": "Soprintendenza per i Beni Archeologici dell'Etruria meridionale", "ref:whc": "1158", "site_type": "necropolis", "tourism": "attraction", "type": "multipolygon", "url": "http://whc.unesco.org/en/list/1158", "website": "http://etruriameridionale.beniculturali.it/index.php?it/135/aree-archeologiche", "whc:criteria": "1;3;4", "whc:inscription_date": "2004", "wikidata": "Q2564175", "wikipedia": "it:Necropoli dei Monterozzi"}}, "geometry": {"type": "Point", "coordinates": [11.7698533, 42.2497501]}}, {"type": "Feature", "properties": {"type": "relation", "id": 270239, "tags": {"building": "yes", "email": "info@villadestetivoli.info", "heritage": "1", "heritage:operator": "whc", "historic": "manor", "name": "Villa d'Este", "name:it": "Villa d'Este", "name:zh": "\u57c3\u65af\u7279\u522b\u5885", "tourism": "yes", "type": "multipolygon", "website": "http://www.villadestetivoli.info/index.htm", "wikidata": "Q746063", "wikipedia": "it:Villa d'Este (Tivoli)"}}, "geometry": {"type": "Point", "coordinates": [12.7961171, 41.9621377]}}, {"type": "Feature", "properties": {"type": "relation", "id": 1518653, "tags": {"heritage": "1", "heritage:operator": "whc", "name": "Assisi", "ref:whc": "990", "type": "site", "whc:criteria": "1,2,3,4,6", "whc:inscription_date": "2000"}}, "geometry": {"type": "Point", "coordinates": [12.6160907, 43.0605062]}}, {"type": "Feature", "properties": {"type": "relation", "id": 7585417, "tags": {"boundary": "protected_area", "description": "Trattasi della core zone del WHC Site, mentre la buffer zone \u00e8 costituita dalla Zona B del Parco Naturale Regionale 'Parco dell'Etna' http://whc.unesco.org/en/list/1427/multiple=1&unique_number=1910", "heritage": "1", "heritage:operator": "whc", "heritage:website": "http://whc.unesco.org/en/list/1427/", "protect_class": "98", "ref:whc": "1427", "type": "multipolygon", "whc:criteria": "(VIII)", "whc:inscription_date": "2013"}}, "geometry": {"type": "Point", "coordinates": [14.9684597, 37.7738384]}}, {"type": "Feature", "properties": {"type": "relation", "id": 10788612, "tags": {"boundary": "protected_area", "heritage": "1", "historic": "archaeological_site", "historic:civilization": "ancient_roman", "historic:period": "late_antiquity", "leisure": "park", "name": "Villa Romana del Casale", "name:ru": "\u0412\u0438\u043b\u043b\u0430 \u041a\u0430\u0437\u0430\u043b\u0435", "protect_class": "22", "ref:whc": "832", "site_type": "roman_villa", "tourism": "attraction", "type": "multipolygon", "website": "http://www.villaromanadelcasale.it/", "whc:criteria": "(i),(ii),(iii)", "whc:inscription_date": "1997", "whc:name": "Villa Romana del Casale", "whc:website": "https://whc.unesco.org/en/list/832", "wheelchair": "yes", "wikidata": "Q505617", "wikipedia": "it:Villa del Casale", "wikipedia:en": "en:Villa Romana del Casale"}}, "geometry": {"type": "Point", "coordinates": [14.3338928, 37.3642246]}}, {"type": "Feature", "properties": {"type": "relation", "id": 3868740, "tags": {"alt_name": "Isole Lipari", "alt_name:cs": "Eolsk\u00e9 ostrovy", "alt_name:de": "Liparische Inseln", "alt_name:en": "Lipari Islands", "alt_name:fr": "\u00eeles Lipari", "alt_name:pt": "Ilhas L\u00edparas", "alt_name:scn": "Isuli Lipari", "alt_name:sl": "Liparski otoki;Liparsko oto\u010dje;Vetrni otoki;Eolski otoki;", "heritage": "1", "heritage:operator": "whc", "name": "Isole Eolie", "name:ar": "\u0627\u0644\u062c\u0632\u0631 \u0627\u0644\u0625\u064a\u0648\u0644\u064a\u0629", "name:be": "\u041b\u0456\u043f\u0430\u0440\u0441\u043a\u0456\u044f \u0430\u0441\u0442\u0440\u0430\u0432\u044b", "name:bg": "\u0415\u043e\u043b\u0438\u0439\u0441\u043a\u0438 \u043e\u0441\u0442\u0440\u043e\u0432\u0438", "name:br": "Inizi Eolian", "name:ca": "Illes E\u00f2lies", "name:cs": "Liparsk\u00e9 ostrovy", "name:cy": "Ynysoedd Aeolaidd", "name:da": "De \u00c6oliske \u00d8er", "name:de": "\u00c4olische Inseln", "name:el": "\u0391\u03b9\u03bf\u03bb\u03af\u03b4\u03b5\u03c2 \u039d\u03ae\u03c3\u03bf\u03b9", "name:en": "Aeolian Islands", "name:eo": "Liparaj insuloj", "name:es": "Islas Eolias", "name:et": "Lipari saared", "name:eu": "Eoliar uharteak", "name:fa": "\u062c\u0632\u0627\u06cc\u0631 \u0622\u06cc\u0648\u0644\u06cc\u0646", "name:fi": "Liparisaaret", "name:fr": "\u00celes \u00c9oliennes", "name:fy": "Liparyske of Eolyske Eilannen", "name:gl": "Illas Eolias", "name:he": "\u05d4\u05d0\u05d9\u05d9\u05dd \u05d4\u05dc\u05d9\u05e4\u05d0\u05e8\u05d9\u05d9\u05dd", "name:hr": "Liparski otoci", "name:hu": "Lipari-szigetek", "name:hy": "\u053c\u056b\u057a\u0561\u0580\u0575\u0561\u0576 \u056f\u0572\u0566\u056b\u0576\u0565\u0580", "name:id": "Kepulauan Aeolia", "name:io": "Eolia-insuli", "name:ja": "\u30a8\u30aa\u30ea\u30a2\u8af8\u5cf6", "name:ko": "\uc5d0\uc62c\ub9ac\uc5d0 \uc81c\ub3c4", "name:ky": "\u041b\u0438\u043f\u0430\u0440\u0438 \u0430\u0440\u0430\u043b\u0434\u0430\u0440\u044b", "name:la": "Aeoliae insulae", "name:lb": "Eolesch Inselen", "name:lt": "Lipario salos", "name:lv": "Lip\u0101ru salas", "name:mk": "\u041b\u0438\u043f\u0430\u0440\u0441\u043a\u0438 \u041e\u0441\u0442\u0440\u043e\u0432\u0438", "name:mt": "Lipari", "name:nl": "Eolische Eilanden", "name:nn": "Dei eoliske \u00f8yane", "name:no": "De eoliske \u00f8yer", "name:oc": "Illas Eolianas", "name:os": "\u041b\u0438\u043f\u0430\u0440\u0438\u0439\u044b \u0441\u0430\u043a\u044a\u0430\u0434\u00e6\u0445\u0442\u00e6", "name:pl": "Wyspy Liparyjskie", "name:pt": "Ilhas E\u00f3lias", "name:ru": "\u041b\u0438\u043f\u0430\u0440\u0441\u043a\u0438\u0435 \u043e\u0441\u0442\u0440\u043e\u0432\u0430", "name:scn": "Isuli Eol\u00ee", "name:sk": "Liparsk\u00e9 ostrovy", "name:sl": "Eolsko oto\u010dje", "name:sr": "\u0415\u043e\u043b\u0441\u043a\u0430 \u043e\u0441\u0442\u0440\u0432\u0430", "name:sv": "Eoliska \u00f6arna", "name:th": "\u0e2b\u0e21\u0e39\u0e48\u0e40\u0e01\u0e32\u0e30\u0e40\u0e2d\u0e42\u0e2d\u0e40\u0e25\u0e35\u0e22\u0e19", "name:uk": "\u041b\u0456\u043f\u0430\u0440\u0441\u044c\u043a\u0456 \u043e\u0441\u0442\u0440\u043e\u0432\u0438", "name:uz": "Lipari orollari", "name:vi": "Qu\u1ea7n \u0111\u1ea3o Eolie", "name:zh": "\u57c3\u5965\u5229\u7fa4\u5c9b", "place": "archipelago", "ref:whc": "908", "type": "multipolygon", "wikidata": "Q179883", "wikipedia": "it:Isole Eolie"}}, "geometry": {"type": "Point", "coordinates": [14.7958551, 38.5921719]}}, {"type": "Feature", "properties": {"type": "relation", "id": 1789814, "tags": {"boundary": "protected_area", "heritage": "1", "name": "Parco Regionale dei Monti Picentini", "protect_class": "2", "protected_area": "landscape", "type": "multipolygon", "wikidata": "Q3895726"}}, "geometry": {"type": "Point", "coordinates": [15.0001124, 40.7924536]}}, {"type": "Feature", "properties": {"type": "relation", "id": 4100859, "tags": {"boundary": "national_park", "heritage": "1", "heritage:operator": "whc", "leisure": "nature_reserve", "name": "Parco Nazionale Cilento, Vallo di Diano e Alburni", "protect_class": "2", "protected_area": "national_park", "ref:whc": "842", "source": "cilentoediano.it (apparently uses Google maps to communicate its park boundary", "type": "boundary", "whc:inscription_date": "1998", "wikidata": "Q867361", "wikipedia": "it:Parco nazionale del Cilento, Vallo di Diano e Alburni"}}, "geometry": {"type": "Point", "coordinates": [15.298374, 40.2833541]}}, {"type": "Feature", "properties": {"type": "relation", "id": 3174626, "tags": {"boundary": "protected_area", "heritage": "1", "name": "Parco Regionale del Partenio", "name:de": "Regionalpark Partenio", "name:en": "Partenio Regional Park", "protect_class": "2", "protected_area": "landscape", "ref:EUAP": "EUAP0954", "type": "multipolygon", "wikidata": "Q3895740", "wikipedia": "it:Parco regionale del Partenio"}}, "geometry": {"type": "Point", "coordinates": [14.5882809, 40.9656786]}}, {"type": "Feature", "properties": {"type": "relation", "id": 1555812, "tags": {"alt_name": "Palazzo Reale di Caserta", "building": "yes", "castle_type": "stately", "heritage": "1", "heritage:operator": "whc", "historic": "castle", "int_name": "Royal Palace of Caserta;Palace of Caserta", "name": "Reggia di Caserta", "name:de": "Palast von Caserta", "name:en": "Royal Palace of Caserta", "name:fr": "Palais royal de Caserte", "name:ru": "\u041a\u043e\u0440\u043e\u043b\u0435\u0432\u0441\u043a\u0438\u0439 \u0434\u0432\u043e\u0440\u0435\u0446 18 \u0432.", "ref:whc": "549rev", "tourism": "attraction", "type": "multipolygon", "whc:criteria": "(i),(ii),(iii),(iv)", "whc:inscription_date": "1997", "whc:name": "18th-Century Royal Palace at Caserta with the Park, the Aqueduct of Vanvitelli, and the San Leucio Complex", "whc:website": "http://whc.unesco.org/en/list/549rev", "wikidata": "Q327983", "wikipedia": "it:Reggia di Caserta"}}, "geometry": {"type": "Point", "coordinates": [14.3271018, 41.0731721]}}, {"type": "Feature", "properties": {"type": "relation", "id": 1889621, "tags": {"email": "belvedere@comune.caserta.it", "heritage": "1", "heritage:operator": "whc", "historic": "monument", "name": "Complesso Monumentale del Belvedere di San Leucio", "opening_hours": "We-Mo 9:00-17:00", "operator": "Citt\u00e0 di Caserta", "ref:whc": "549rev", "tourism": "attraction", "type": "multipolygon", "website": "http://www.comune.caserta.it/belvedere/", "whc:criteria": "1;2;3;4", "whc:inscription_date": "1997", "wikidata": "Q16531852", "wikipedia": "it:Belvedere di San Leucio"}}, "geometry": {"type": "Point", "coordinates": [14.3170564, 41.1012146]}}, {"type": "Feature", "properties": {"type": "relation", "id": 3177465, "tags": {"addr:city": "Cautano", "addr:postcode": "82030", "addr:street": "Piazza Vittorio Veneto", "area": "yes", "boundary": "protected_area", "heritage": "1", "name": "Parco Regionale del Taburno - Camposauro", "operator": "Ente Parco Taburno", "protect_class": "2", "protected_area": "landscape", "type": "multipolygon", "wikidata": "Q3895742", "wikipedia": "it:Parco regionale del Taburno - Camposauro"}}, "geometry": {"type": "Point", "coordinates": [14.5902456, 41.1337312]}}, {"type": "Feature", "properties": {"type": "relation", "id": 1475189, "tags": {"addr:city": "Padula", "addr:housenumber": "1", "addr:postcode": "84034", "addr:street": "Viale Certosa", "building": "yes", "heritage": "1", "heritage:operator": "whc", "historic": "monastery", "name": "Certosa di San Lorenzo", "opening_hours": "We-Mo 09:00-19:00; Tu, Jan 1, May 1, Dec 25 off", "phone": "+39 0975 77745", "ref:whc": "842", "type": "multipolygon", "website": "http://www.polomusealecampania.beniculturali.it/index.php/la-certosa-padula", "whc:inscription_date": "1998", "wikidata": "Q1051820", "wikipedia": "it:Certosa di Padula"}}, "geometry": {"type": "Point", "coordinates": [15.6517584, 40.3371554]}}, {"type": "Feature", "properties": {"type": "relation", "id": 7399494, "tags": {"ele": "302", "email": "pm-pie.villadellaregina@beniculturali.it", "heritage": "1", "heritage:operator": "whc", "historic": "castle", "name": "Residenze sabaude in Piemonte", "name:en": "Residences of the Royal House of Savoy", "name:fr": "R\u00e9sidences des Savoie", "name:it": "Residenze sabaude in Piemonte", "note": "A questo link https://www.castellorealedigovone.it dati pi\u00f9 aderenti alla struttura.", "opening_hours": "Mo off; Tu-Su 10:00-17:00", "phone": "+39 011 8194484", "ref:whc": "823", "source": "http://whc.unesco.org/fr/list/823", "type": "multipolygon", "website": "http://polomusealepiemonte.beniculturali.it/index.php/musei-e-luoghi-della-cultura/villa-della-regina/", "whc:criteria": "(i),(ii),(iv),(v)", "whc:inscription_date": "1997"}}, "geometry": {"type": "Point", "coordinates": [7.8051942, 44.9088515]}}, {"type": "Feature", "properties": {"type": "relation", "id": 3671826, "tags": {"addr:city": "Racconigi", "addr:postcode": "12035", "addr:street": "Piazza Carlo Alberto", "building": "yes", "castle_type": "stately", "email": "pm-pie.racconigi@beniculturali.it", "heritage": "1", "heritage:operator": "whc", "historic": "castle", "name": "Castello Reale di Racconigi", "opening_hours": "Tu-Su 09:00-18:00", "phone": "+39 0172 84005", "ref:whc": "823-010", "type": "building", "website": "http://polomusealepiemonte.beniculturali.it/index.php/musei-e-luoghi-della-cultura/castello-di-racconigi/", "wikidata": "Q19851"}}, "geometry": {"type": "Point", "coordinates": [7.6757415, 44.7692785]}}, {"type": "Feature", "properties": {"type": "relation", "id": 10704585, "tags": {"addr:city": "Racconigi", "addr:postcode": "12035", "addr:street": "Piazza Carlo Alberto", "building": "yes", "castle_type": "stately", "email": "pm-pie.racconigi@beniculturali.it", "heritage": "1", "heritage:operator": "whc", "historic": "castle", "name": "Castello Reale di Racconigi", "opening_hours": "Tu-Su 09:00-18:00", "phone": "+39 0172 84005", "ref:whc": "823-010", "type": "multipolygon", "website": "http://polomusealepiemonte.beniculturali.it/index.php/musei-e-luoghi-della-cultura/castello-di-racconigi/", "wikidata": "Q19851", "wikipedia": "it:Castello Reale di Racconigi"}}, "geometry": {"type": "Point", "coordinates": [7.6757415, 44.7692785]}}, {"type": "Feature", "properties": {"type": "relation", "id": 2194145, "tags": {"heritage": "1", "heritage:operator": "whc", "name": "Palazzi dei Rolli di Genova", "ref:whc": "1121", "type": "site", "whc:criteria": "2;4", "whc:inscription_date": "2006"}}, "geometry": {"type": "Point", "coordinates": [8.9314772, 44.4116636]}}, {"type": "Feature", "properties": {"type": "relation", "id": 2908593, "tags": {"building": "yes", "description": "sistema dei Rolli n\u00b0 42", "heritage": "1", "heritage:operator": "whc", "historic": "heritage", "name": "Palazzo De Marini Croce", "type": "multipolygon", "url": "http://www.irolli.it/genova_unesco/palazzo/piazza_de_marini_1.html", "wikidata": "Q3889992", "wikipedia": "it:Palazzo De Marini-Croce"}}, "geometry": {"type": "Point", "coordinates": [8.9293165, 44.4087685]}}, {"type": "Feature", "properties": {"type": "relation", "id": 1285143, "tags": {"building": "yes", "description": "sistema dei Rolli n\u00b01", "heritage": "1", "heritage:operator": "whc", "historic": "heritage", "name": "Prefettura - Palazzo Doria Spinola", "office": "government", "type": "multipolygon", "wikidata": "Q3361298", "wikipedia": "it:Palazzo Doria-Spinola"}}, "geometry": {"type": "Point", "coordinates": [8.9373213, 44.4099949]}}, {"type": "Feature", "properties": {"type": "relation", "id": 1532374, "tags": {"addr:city": "Genova", "addr:housenumber": "10", "addr:postcode": "16126", "addr:street": "Via Balbi", "building": "yes", "description": "sistema dei Rolli n\u00b030", "email": "pal-ge@beniculturali.it", "fee": "yes", "heritage": "1", "heritage:operator": "whc", "historic": "heritage", "name": "Museo Palazzo Reale di Genova", "opening_hours": "Tu-Fr 09:00-14:00; We-Th 09:00-19:00; Sa-Su 13:30-19:00; PH 13:30-19:00; Mo off; Jan 1 off; Dec 25 off", "operator": "Museo di Palazzo Reale", "phone": "+39 010 2710236", "tourism": "museum", "type": "multipolygon", "website": "http://palazzorealegenova.beniculturali.it", "wheelchair": "yes", "wikidata": "Q1514006", "wikipedia": "it:Palazzo Reale (Genova)"}}, "geometry": {"type": "Point", "coordinates": [8.9259151, 44.4147201]}}, {"type": "Feature", "properties": {"type": "relation", "id": 1524218, "tags": {"building": "yes", "description": "sistema dei Rolli n\u00b036", "heritage": "1", "heritage:operator": "whc", "historic": "heritage", "name": "Palazzo Spinola di Pellicceria", "type": "multipolygon", "wikidata": "Q3361333", "wikipedia": "it:Palazzo Spinola di Pellicceria"}}, "geometry": {"type": "Point", "coordinates": [8.9303221, 44.4107791]}}, {"type": "Feature", "properties": {"type": "relation", "id": 1524221, "tags": {"building": "yes", "description": "sistema dei Rolli n\u00b019", "heritage": "1", "heritage:operator": "whc", "historic": "heritage", "layer": "1", "name": "Palazzo Rosso", "tourism": "museum", "type": "multipolygon", "wikidata": "Q2034331", "wikipedia": "it:Palazzo Rosso (Genova)"}}, "geometry": {"type": "Point", "coordinates": [8.9320719, 44.4111383]}}, {"type": "Feature", "properties": {"type": "relation", "id": 1532375, "tags": {"alt_name": "Palazzo Balbi-Senarega", "building": "yes", "description": "sistema dei Rolli n\u00b028", "heritage": "1", "heritage:operator": "whc", "historic": "heritage", "name": "Palazzo Giacomo e Pantaleo Balbi", "type": "multipolygon", "wikidata": "Q3889576", "wikipedia": "it:Palazzo Balbi-Senarega"}}, "geometry": {"type": "Point", "coordinates": [8.927109, 44.414237]}}, {"type": "Feature", "properties": {"type": "relation", "id": 1532405, "tags": {"alt_name": "Palazzo della Meridiana", "building": "yes", "description": "sistema dei Rolli n\u00b020", "heritage": "1", "heritage:operator": "whc", "historic": "heritage", "name": "Palazzo Gerolamo Grimaldi", "type": "multipolygon", "wikidata": "Q3890183", "wikipedia": "it:Palazzo Gerolamo Grimaldi"}}, "geometry": {"type": "Point", "coordinates": [8.9313677, 44.4117873]}}, {"type": "Feature", "properties": {"type": "relation", "id": 1917383, "tags": {"building": "yes", "description": "sistema dei Rolli n\u00b026", "heritage": "1", "heritage:operator": "whc", "historic": "heritage", "name": "Palazzo G. Agostino Balbi", "type": "multipolygon", "wikidata": "Q3890060", "wikipedia": "it:Palazzo Durazzo-Pallavicini"}}, "geometry": {"type": "Point", "coordinates": [8.9274844, 44.4146245]}}, {"type": "Feature", "properties": {"type": "relation", "id": 1524215, "tags": {"building": "yes", "description": "sistema dei Rolli n\u00b010", "heritage": "1", "heritage:operator": "whc", "historic": "heritage", "name": "Palazzo Lercari Parodi", "type": "multipolygon", "wikidata": "Q3890337", "wikipedia": "it:Palazzo Lercari-Parodi"}}, "geometry": {"type": "Point", "coordinates": [8.9342132, 44.4110784]}}, {"type": "Feature", "properties": {"type": "relation", "id": 1524217, "tags": {"building": "yes", "description": "sistema dei Rolli n\u00b08", "heritage": "1", "heritage:operator": "whc", "historic": "heritage", "name": "Palazzo Pallavicini-Cambiaso", "type": "multipolygon", "wikidata": "Q3890590", "wikipedia": "it:Palazzo Pallavicini-Cambiaso"}}, "geometry": {"type": "Point", "coordinates": [8.9345309, 44.41096]}}, {"type": "Feature", "properties": {"type": "relation", "id": 1524219, "tags": {"alt_name": "Palazzo Doria", "building": "yes", "description": "sistema dei Rolli n\u00b013", "heritage": "1", "heritage:operator": "whc", "historic": "heritage", "name": "Palazzo Gio Battista Spinola", "type": "multipolygon", "wikidata": "Q3890211", "wikipedia": "it:Palazzo Gio Battista Spinola"}}, "geometry": {"type": "Point", "coordinates": [8.9336423, 44.4107956]}}, {"type": "Feature", "properties": {"type": "relation", "id": 1524220, "tags": {"building": "yes", "description": "sistema dei Rolli n\u00b012", "heritage": "1", "heritage:operator": "whc", "historic": "heritage", "name": "Palazzo Angelo Giovanni Spinola", "type": "multipolygon", "wikidata": "Q3361280", "wikipedia": "it:Palazzo Angelo Giovanni Spinola"}}, "geometry": {"type": "Point", "coordinates": [8.9338255, 44.4112128]}}, {"type": "Feature", "properties": {"type": "relation", "id": 1524216, "tags": {"addr:housenumber": "9", "addr:street": "Via Giuseppe Garibaldi", "alt_name": "Palazzo Tursi", "building": "yes", "description": "sistema dei Rolli n\u00b016", "foot": "yes", "heritage": "1", "heritage:operator": "whc", "historic": "heritage", "name": "Palazzo Doria-Tursi", "type": "multipolygon", "wikidata": "Q162965", "wikipedia": "it:Palazzo Doria-Tursi"}}, "geometry": {"type": "Point", "coordinates": [8.9326983, 44.4115232]}}, {"type": "Feature", "properties": {"type": "relation", "id": 4265333, "tags": {"heritage": "1", "heritage:operator": "whc", "name": "Sacri Monti del Piemonte e della Lombardia", "name:fr": "Sacri Monti du Pi\u00e9mont et de Lombardie", "ref:whc": "1068", "type": "site", "whc:criteria": "(ii)(iv)", "whc:inscription_date": "2003"}}, "geometry": {"type": "Point", "coordinates": [8.2118736, 45.6007422]}}, {"type": "Feature", "properties": {"type": "relation", "id": 1900117, "tags": {"building": "house", "castle_type": "stately", "heritage": "1", "heritage:operator": "whc", "historic": "castle", "int_name": "Palazzina di caccia of Stupinigi", "name": "Palazzina di caccia di Stupinigi", "ref:whc": "823-006", "type": "multipolygon", "wikidata": "Q19834", "wikipedia": "it:Palazzina di caccia di Stupinigi"}}, "geometry": {"type": "Point", "coordinates": [7.6053146, 44.9959694]}}, {"type": "Feature", "properties": {"type": "relation", "id": 6877868, "tags": {"building": "yes", "castle_type": "stately", "heritage": "1", "heritage:operator": "whc", "historic": "castle", "name": "Castello del Valentino", "ref:whc": "823-002", "tourism": "attraction", "type": "multipolygon", "wikidata": "Q19830", "wikipedia": "it:Castello del Valentino"}}, "geometry": {"type": "Point", "coordinates": [7.6862191, 45.0542188]}}, {"type": "Feature", "properties": {"type": "relation", "id": 2222658, "tags": {"building": "yes", "castle_type": "stately", "email": "pm-pie.palazzocarignano@beniculturali.it", "heritage": "1", "heritage:operator": "whc", "historic": "castle", "name": "Palazzo Carignano", "opening_hours": "Mo off; Tu-Su 10:00-17:00", "phone": "+39 011 5641791", "ref:whc": "823-001C", "tourism": "attraction", "type": "building", "website": "http://polomusealepiemonte.beniculturali.it/index.php/musei-e-luoghi-della-cultura/palazzo-carignano/", "wheelchair": "limited", "wikidata": "Q19829", "wikipedia": "it:Palazzo Carignano"}}, "geometry": {"type": "Point", "coordinates": [7.6856351, 45.0689423]}}, {"type": "Feature", "properties": {"type": "relation", "id": 2579573, "tags": {"building": "castle", "castle_type": "stately", "ele": "240", "email": "palazzomadama@fondazionetorinomusei.it", "heritage": "1", "heritage:operator": "whc", "historic": "castle", "name": "Palazzo Madama", "opening_hours": "We-Mo 10:00-18:00; Tu off", "phone": "+39 011 4433501", "ref:whc": "823-001B", "tourism": "attraction", "type": "multipolygon", "website": "https://www.palazzomadamatorino.it/it", "wheelchair": "yes", "wikidata": "Q19826", "wikipedia": "it:Palazzo Madama e Casaforte degli Acaja"}}, "geometry": {"type": "Point", "coordinates": [7.685825, 45.0709641]}}, {"type": "Feature", "properties": {"type": "relation", "id": 10794761, "tags": {"building": "yes", "castle_type": "stately", "email": "pm-pie.palazzocarignano@beniculturali.it", "heritage": "1", "heritage:operator": "whc", "historic": "castle", "name": "Palazzo Carignano", "opening_hours": "Mo off; Tu-Su 10:00-17:00", "phone": "+39 011 5641791", "ref:whc": "823-001C", "tourism": "attraction", "type": "multipolygon", "website": "http://polomusealepiemonte.beniculturali.it/index.php/musei-e-luoghi-della-cultura/palazzo-carignano/", "wheelchair": "limited", "wikidata": "Q19829", "wikipedia": "it:Palazzo Carignano"}}, "geometry": {"type": "Point", "coordinates": [7.6856351, 45.0689423]}}, {"type": "Feature", "properties": {"type": "relation", "id": 2396528, "tags": {"building": "castle", "castle_type": "palace", "ele": "240", "email": "mr-to@beniculturali.it", "height": "30", "heritage": "1", "heritage:operator": "whc", "historic": "castle", "name": "Palazzo Reale", "name:ru": "\u041a\u043e\u0440\u043e\u043b\u0435\u0432\u0441\u043a\u0438\u0439 \u0434\u0432\u043e\u0440\u0435\u0446", "opening_hours": "Tu-Su 08:30-18:00", "phone": "+39 011 4361455", "ref:whc": "823-001A", "tourism": "attraction", "type": "multipolygon", "website": "https://www.museireali.beniculturali.it/palazzo-reale/", "wikidata": "Q19824", "wikipedia": "it:Palazzo Reale di Torino"}}, "geometry": {"type": "Point", "coordinates": [7.6863813, 45.0730518]}}, {"type": "Feature", "properties": {"type": "relation", "id": 1188499, "tags": {"building": "yes", "castle_type": "stately", "heritage": "1", "heritage:operator": "whc", "historic": "castle", "name": "Borgo Castello", "ref:whc": "823-008", "type": "multipolygon", "wikidata": "Q19840", "wikipedia": "it:Borgo Castello nel parco de La Mandria"}}, "geometry": {"type": "Point", "coordinates": [7.5998657, 45.1460827]}}, {"type": "Feature", "properties": {"type": "relation", "id": 2524248, "tags": {"heritage": "1", "heritage:operator": "whc", "name": "Sacro Monte di Crea", "type": "site"}}, "geometry": {"type": "Point", "coordinates": [8.2758091, 45.0948192]}}, {"type": "Feature", "properties": {"type": "relation", "id": 2896607, "tags": {"addr:city": "Agli\u00e8", "addr:country": "IT", "addr:housenumber": "1", "addr:postcode": "10011", "addr:street": "Piazza Castello", "building": "castle", "castle_type": "stately", "contact:email": "pm-pie.aglie@beniculturali.it", "contact:fax": "+39 0124 330279", "contact:phone": "+39 0124 330102", "contact:website": "http://polomusealepiemonte.beniculturali.it/index.php/musei-e-luoghi-della-cultura/castello-di-aglie/visita-il-castello-di-aglie/", "fee": "yes", "heritage": "1", "heritage:operator": "whc", "historic": "castle", "name": "Castello ducale di Agli\u00e8", "opening_hours": "Apr-Oct: Tu-Su 08:30-18:00", "ref:whc": "823bis-009", "type": "multipolygon", "wikidata": "Q19846", "wikipedia": "it:Castello ducale di Agli\u00e8"}}, "geometry": {"type": "Point", "coordinates": [7.7694439, 45.361359]}}, {"type": "Feature", "properties": {"type": "relation", "id": 3567280, "tags": {"alt_name": "Sacro Monte Beata Vergine del Soccorso", "amenity": "place_of_worship", "denomination": "catholic", "heritage": "1", "heritage:operator": "whc", "name": "Sacro Monte di Ossuccio", "note": "Bessere Ideen zur Erfassung eines Kreuzweges bitte nach http://forum.openstreetmap.org/viewtopic.php?id=19886", "ref:whc": "1068rev", "religion": "christian", "tourism": "attraction", "type": "site", "whc:criteria": "(ii),(iv)", "whc:inscription_date": "2003", "wikidata": "Q1472544", "wikipedia": "it:Sacro Monte di Ossuccio"}}, "geometry": {"type": "Point", "coordinates": [9.1798861, 45.9741892]}}, {"type": "Feature", "properties": {"type": "relation", "id": 89842, "tags": {"heritage": "1", "heritage:operator": "whc", "historic": "railway", "image": "https://commons.wikimedia.org/wiki/File:RhB_ABe_4-4_III_Kreisviadukt_Brusio.jpg", "name": "Berninabahn", "network": "RhB", "operator": "RhB", "public_transport:version": "1", "ref": "R 5", "route": "train", "type": "route", "whc:inscription_date": "2008-07-07", "wikidata": "Q277177", "wikimedia_commons": "Category:Bernina_railway", "wikipedia": "de:Berninabahn"}}, "geometry": {"type": "Point", "coordinates": [10.0059797, 46.3637425]}}, {"type": "Feature", "properties": {"type": "relation", "id": 2895018, "tags": {"heritage": "1", "heritage:operator": "whc", "name": "Piazza dei Miracoli", "type": "collection", "wikipedia": "it:Piazza dei Miracoli"}}, "geometry": {"type": "Point", "coordinates": [10.3953429, 43.7235948]}}, {"type": "Feature", "properties": {"type": "relation", "id": 7399484, "tags": {"heritage": "1", "heritage:operator": "whc", "name": "Monumenti paleocristiani di Ravenna", "name:en": "Early Christian Monuments of Ravenna", "name:fr": "Monuments pal\u00e9ochr\u00e9tiens de Ravenne", "name:it": "Monumenti paleocristiani di Ravenna", "ref:whc": "788", "source": "http://whc.unesco.org/fr/list/788/", "type": "multipolygon", "whc:criteria": "(i),(ii),(iii),(iv)", "whc:inscription_date": "1996"}}, "geometry": {"type": "Point", "coordinates": [12.2147463, 44.4025636]}}, {"type": "Feature", "properties": {"type": "relation", "id": 2898909, "tags": {"addr:city": "Brescia", "addr:housenumber": "81/B", "addr:postcode": "25121", "addr:street": "Via dei Musei", "building": "yes", "building:levels": "3", "heritage": "1", "heritage:operator": "whc", "historic": "monastery", "name": "Monastero di Santa Giulia", "type": "multipolygon", "wikidata": "Q3860542", "wikipedia": "it:Monastero di Santa Giulia"}}, "geometry": {"type": "Point", "coordinates": [10.2289911, 45.5396569]}}, {"type": "Feature", "properties": {"type": "relation", "id": 5408704, "tags": {"heritage": "1", "heritage:operator": "whc", "historic": "manor", "manor:type": "venetian_villa", "name": "Villa Saraceno", "type": "site", "wikidata": "Q387517", "wikipedia": "it:Villa Saraceno"}}, "geometry": {"type": "Point", "coordinates": [11.5662088, 45.31242]}}, {"type": "Feature", "properties": {"type": "relation", "id": 9962374, "tags": {"boundary": "protected_area", "fixme": "Per i siti puntuali sostituire con le aree.", "heritage": "1", "heritage:operator": "whc", "name": "Arte rupestre della Valle Camonica", "name:en": "Valle Camonica Rock Art", "name:es": "Arte rupestre de Val Cam\u00f3nica", "name:fr": "Art Rupestre du Valcamonica", "name:ru": "\u041d\u0430\u0441\u043a\u0430\u043b\u044c\u043d\u0430\u044f \u0436\u0438\u0432\u043e\u043f\u0438\u0441\u044c \u0432 \u0412\u0430\u043b\u044c-\u041a\u0430\u043c\u043e\u043d\u0438\u043a\u0435", "protect_class": "3", "ref:whc": "94", "type": "site", "whc:criteria": "(iii),(vi)", "whc:inscription_date": "1978", "wikidata": "Q945514", "wikipedia": "it:Incisioni rupestri della Val Camonica"}}, "geometry": {"type": "Point", "coordinates": [10.2710163, 46.0274543]}}, {"type": "Feature", "properties": {"type": "relation", "id": 2139488, "tags": {"heritage": "1", "heritage:operator": "whc", "heritage:website": "http://whc.unesco.org/en/list/1237", "is_in:continent": "Europe", "name": "Dolomiti", "name:cs": "Dolomity", "name:de": "Dolomiten", "name:en": "Dolomites", "name:fr": "Dolomites", "name:it": "Dolomiti", "name:nl": "Dolomieten", "note": "http://forum.openstreetmap.org/viewtopic.php?id", "place": "region", "ref:aveo": "52", "ref:whc": "1237rev", "region:type": "mountain_area", "type": "boundary", "website": "http://www.dolomitiunesco.info/", "whc:criteria": "(vii)(viii)", "whc:inscription_date": "2009", "wikidata": "Q1283", "wikipedia": "it:Dolomiti", "wikipedia:de": "Dolomiten"}}, "geometry": {"type": "Point", "coordinates": [11.9681327, 46.2945796]}}, {"type": "Feature", "properties": {"type": "relation", "id": 1163604, "tags": {"heritage": "1", "heritage:operator": "whc", "name:en": "Venice and its Lagoon", "name:fr": "Venise et sa lagune", "name:it": "Venezia e la sua laguna", "ref:whc": "394", "type": "site", "whc:criteria": "1,2,3,4,5,6", "whc:inscription_date": "1987"}}, "geometry": {"type": "Point", "coordinates": [12.3355242, 45.4361832]}}, {"type": "Feature", "properties": {"type": "relation", "id": 7761352, "tags": {"boundary": "national_park", "heritage": "1", "heritage:operator": "whc", "name": "Parco Nazionale delle Dolomiti Bellunesi", "name:de": "Nationalpark Belluneser Dolomiten", "name:fr": "Parc national des Dolomites Bellunesi", "name:it": "Parco Nazionale Dolomiti Bellunesi", "protect_class": "2", "protected_area": "national_park", "ref:EUAP": "0015", "related_law": "DMA 20/04/1990;DPR 12/07/1993", "type": "multipolygon", "website": "http://www.dolomitipark.it/", "wikidata": "Q1086637", "wikipedia": "it:Parco nazionale delle Dolomiti Bellunesi"}}, "geometry": {"type": "Point", "coordinates": [12.0155379, 46.1814193]}}, {"type": "Feature", "properties": {"type": "relation", "id": 2233738, "tags": {"heritage": "1", "heritage:operator": "whc", "name": "Archaeological Area and the Patriarchal Basilica of Aquileia", "ref:whc": "825", "type": "site", "whc:inscription_date": "1998-12-05"}}, "geometry": {"type": "Point", "coordinates": [13.365889, 45.7738995]}}, {"type": "Feature", "properties": {"type": "relation", "id": 159654, "tags": {"building": "yes", "contact:phone": "+39 0432 700867", "height": "21 m", "heritage": "1", "heritage:operator": "whc", "it:fvg:ctrn:code": "4AED", "name": "Complesso museale Convento Santa Maria in Valle", "opening_hours": "Apr-Sep Mo-Fr 10:00-13:30,15:00-18:00; Oct-Mar Mo-Fr 10:00-13:30,14:00-17:00; Sa-Su,PH 10:00-17:00", "operator": "Comune di Cividale del Fiuli", "tourism": "museum", "type": "multipolygon"}}, "geometry": {"type": "Point", "coordinates": [13.4328552, 46.0937059]}}]}