{"type": "FeatureCollection", "features": [{"type": "Feature", "properties": {"type": "node", "id": 21750062, "tags": {"admin_level": "8", "capital": "6", "ele": "106", "heritage": "1", "heritage:operator": "whc", "name": "C\u00f3rdoba", "name:ar": "\u0642\u0631\u0637\u0628\u0629", "name:be": "\u041a\u043e\u0440\u0434\u0430\u0432\u0430", "name:bg": "\u041a\u043e\u0440\u0434\u043e\u0431\u0430", "name:ca": "C\u00f2rdova", "name:da": "Cordoba", "name:el": "\u039a\u03cc\u03c1\u03b4\u03bf\u03b2\u03b1", "name:es": "C\u00f3rdoba", "name:eu": "Kordoba", "name:ext": "C\u00f3rduba", "name:fr": "Cordoue", "name:he": "\u05e7\u05d5\u05e8\u05d3\u05d5\u05d1\u05d4", "name:hu": "C\u00f3rdoba", "name:id": "Kordoba", "name:it": "Cordova", "name:ja": "\u30b3\u30eb\u30c9\u30d0", "name:kn": "\u0c95\u0ccb\u0cb0\u0ccd\u0ca1\u0cca\u0cac", "name:lt": "Kordoba", "name:pl": "Kordoba", "name:pt": "C\u00f3rdova", "name:ru": "\u041a\u043e\u0440\u0434\u043e\u0432\u0430", "name:sr": "\u041a\u043e\u0440\u0434\u043e\u0431\u0430", "name:uk": "\u041a\u043e\u0440\u0434\u043e\u0432\u0430", "place": "city", "population": "328428", "ref:ine": "14021000900", "ref:whc": "313", "source": "Instituto Geogr\u00e1fico Nacional", "source:date": "2011-06", "source:ele": "MDT5", "source:file": "http://centrodedescargas.cnig.es/CentroDescargas/equipamiento/BD_Municipios-Entidades.zip", "source:name": "Nomencl\u00e1tor Geogr\u00e1fico de Municipios y Entidades de Poblaci\u00f3n", "source:population": "INE", "whc:criteria": "(i)(ii)(iii)(iv)", "whc:inscription_date": "1984", "wikidata": "Q5818", "wikipedia": "es:C\u00f3rdoba (Espa\u00f1a)"}}, "geometry": {"type": "Point", "coordinates": [-4.7760138, 37.8845813]}}, {"type": "Feature", "properties": {"type": "node", "id": 29215168, "tags": {"admin_level": "8", "alt_name:ar": "\u0634\u0642\u0648\u0628\u064a;\u0634\u0642\u0648\u0628\u064a\u0647;\u0623\u0634\u0642\u0648\u0628\u064a\u0647;\u0633\u064a\u062c\u0648\u0641\u064a\u0627", "capital": "6", "ele": "1002", "heritage": "1", "heritage:operator": "whc", "name": "Segovia", "name:ar": "\u0634\u0642\u0648\u0628\u064a\u0629", "name:be": "\u0421\u0435\u0433\u043e\u0432\u0456\u044f", "name:ca": "Seg\u00f2via", "name:el": "\u03a3\u03b5\u03b3\u03cc\u03b2\u03b9\u03b1", "name:es": "Segovia", "name:fa": "\u0633\u06af\u0648\u0628\u06cc\u0627", "name:fr": "S\u00e9govie", "name:lt": "Segovija", "name:ru": "\u0421\u0435\u0433\u043e\u0432\u0438\u044f", "name:sr": "\u0421\u0435\u0433\u043e\u0432\u0438\u0458\u0430", "name:ur": "\u0634\u0642\u0648\u0628\u06cc\u06c1", "name:zh": "\u585e\u54e5\u7dad\u4e9e", "place": "city", "population": "50309", "population:date": "2015", "ref:ine": "40194000600", "source": "Instituto Geogr\u00e1fico Nacional", "source:date": "2011-06", "source:ele": "MDT5", "source:file": "http://centrodedescargas.cnig.es/CentroDescargas/equipamiento/BD_Municipios-Entidades.zip", "source:name": "Nomencl\u00e1tor Geogr\u00e1fico de Municipios y Entidades de Poblaci\u00f3n", "source:population": "BOE REAL DECRETO 1683/2007, de 14 de diciembre", "wikidata": "Q15684", "wikipedia": "es:Segovia"}}, "geometry": {"type": "Point", "coordinates": [-4.1241494, 40.9502159]}}, {"type": "Feature", "properties": {"type": "node", "id": 209144042, "tags": {"admin_level": "8", "alt_name:ar": "\u0623\u0644\u0643\u0627\u0644\u0627 \u062f\u064a \u0625\u064a\u0646\u0627\u0631\u064a\u0633", "capital": "8", "ele": "587", "heritage": "1", "heritage:operator": "whc", "name": "Alcal\u00e1 de Henares", "name:ar": "\u0627\u0644\u0642\u0644\u0639\u0629 \u0627\u0644\u062d\u062c\u0627\u0631\u0629", "name:el": "\u0391\u03bb\u03ba\u03b1\u03bb\u03ac \u03bd\u03c4\u03b5 \u0395\u03bd\u03ac\u03c1\u03b5\u03c2", "name:es": "Alcal\u00e1 de Henares", "name:fa": "\u0627\u0644\u06a9\u0627\u0644\u0627 \u062f \u0647\u0646\u0627\u0631\u0633", "name:hu": "Alcal\u00e1 de Henares", "name:lt": "Alkala de Henaresas", "name:ru": "\u0410\u043b\u044c\u043a\u0430\u043b\u0430-\u0434\u0435-\u042d\u043d\u0430\u0440\u0435\u0441", "name:sr": "\u0410\u043b\u043a\u0430\u043b\u0430 \u0434\u0435 \u0415\u043d\u0430\u0440\u0435\u0441", "name:uk": "\u0410\u043b\u044c\u043a\u0430\u043b\u0430-\u0434\u0435-\u0415\u043d\u0430\u0440\u0435\u0441", "name:ur": "\u0627\u0644\u06a9\u0627\u0644\u0627 \u062f\u06d2 \u0627\u06cc\u0646\u0627\u0631\u06cc\u0633", "place": "city", "population": "200537", "population:date": "2014", "ref:ine": "28005000100", "source": "Instituto Geogr\u00e1fico Nacional", "source:date": "2011-06", "source:ele": "MDT5", "source:file": "http://centrodedescargas.cnig.es/CentroDescargas/equipamiento/BD_Municipios-Entidades.zip", "source:name": "Nomencl\u00e1tor Geogr\u00e1fico de Municipios y Entidades de Poblaci\u00f3n", "wikidata": "Q46940", "wikipedia": "es:Alcal\u00e1 de Henares"}}, "geometry": {"type": "Point", "coordinates": [-3.3644973, 40.4818396]}}, {"type": "Feature", "properties": {"type": "node", "id": 240357542, "tags": {"admin_level": "8", "alt_name:ar": "\u0642\u0634\u0631\u0634;\u0643\u0627\u062b\u064a\u0631\u064a\u0633;\u0643\u0627\u062b\u064a\u0631\u0633", "capital": "6", "ele": "457", "heritage": "1", "heritage:operator": "whc", "name": "C\u00e1ceres", "name:ar": "\u0642\u0635\u0631\u0634", "name:be": "\u041a\u0430\u0441\u0435\u0440\u044d\u0441", "name:ca": "C\u00e0ceres", "name:el": "\u039a\u03ac\u03b8\u03b5\u03c1\u03b5\u03c2", "name:es": "C\u00e1ceres", "name:fa": "\u06a9\u0627\u0633\u0631\u0633", "name:ja": "\u30ab\u30bb\u30ec\u30b9", "name:lt": "Kaseresas", "name:ru": "\u041a\u0430\u0441\u0435\u0440\u0435\u0441", "name:ur": "\u06a9\u0627\u06a9\u06cc\u0631\u06cc\u0633", "name:zh": "\u5361\u585e\u96f7\u65af", "place": "city", "population": "95814", "ref:ine": "10037000100", "source": "Instituto Geogr\u00e1fico Nacional", "source:date": "2011-06", "source:ele": "MDT5", "source:file": "http://centrodedescargas.cnig.es/CentroDescargas/equipamiento/BD_Municipios-Entidades.zip", "source:name": "Nomencl\u00e1tor Geogr\u00e1fico de Municipios y Entidades de Poblaci\u00f3n", "source:population": "BOE REAL DECRETO 1683/2007, de 14 de diciembre", "website": "https://www.ayto-caceres.es/", "wikidata": "Q15678", "wikipedia": "es:C\u00e1ceres"}}, "geometry": {"type": "Point", "coordinates": [-6.3716761, 39.4745175]}}, {"type": "Feature", "properties": {"type": "node", "id": 240422991, "tags": {"admin_level": "6", "alt_name:ar": "\u0642\u0648\u0646\u0642\u0629;\u0643\u0648\u0646\u064a\u0643\u0627", "capital": "6", "ele": "997", "heritage": "1", "heritage:operator": "whc", "name": "Cuenca", "name:ar": "\u0642\u0648\u0646\u0643\u0629", "name:be": "\u041a\u0443\u044d\u043d\u043a\u0430", "name:ca": "Conca", "name:el": "\u039a\u03bf\u03c5\u03ad\u03bd\u03ba\u03b1", "name:es": "Cuenca", "name:lt": "Kuenka", "name:ru": "\u041a\u0443\u044d\u043d\u043a\u0430", "name:sr": "\u041a\u0443\u0435\u043d\u043a\u0430", "place": "city", "population": "52980", "ref:ine": "16078000300", "ref:whc": "781", "source": "Instituto Geogr\u00e1fico Nacional", "source:date": "2011-06", "source:ele": "MDT5", "source:file": "http://centrodedescargas.cnig.es/CentroDescargas/equipamiento/BD_Municipios-Entidades.zip", "source:name": "Nomencl\u00e1tor Geogr\u00e1fico de Municipios y Entidades de Poblaci\u00f3n", "source:population": "BOE REAL DECRETO 1683/2007, de 14 de diciembre", "whc:criteria": "(ii)(v)", "whc:inscription_date": "1996", "wikidata": "Q15098", "wikipedia": "es:Cuenca (Espa\u00f1a)"}}, "geometry": {"type": "Point", "coordinates": [-2.1348241, 40.0681156]}}, {"type": "Feature", "properties": {"type": "node", "id": 240423010, "tags": {"admin_level": "8", "alt_name:ar": "\u0633\u0644\u0645\u0627\u0646\u0643\u0627", "capital": "6", "ele": "798", "heritage": "1", "heritage:operator": "whc", "name": "Salamanca", "name:ar": "\u0634\u0644\u0645\u0646\u0642\u0629", "name:be": "\u0421\u0430\u043b\u0430\u043c\u0430\u043d\u043a\u0430", "name:el": "\u03a3\u03b1\u03bb\u03b1\u03bc\u03ac\u03bd\u03ba\u03b1", "name:es": "Salamanca", "name:fa": "\u0633\u0627\u0644\u0627\u0645\u0627\u0646\u06a9\u0627", "name:fr": "Salamanque", "name:ja": "\u30b5\u30e9\u30de\u30f3\u30ab", "name:lt": "Salamanka", "name:ru": "\u0421\u0430\u043b\u0430\u043c\u0430\u043d\u043a\u0430", "name:sr": "\u0421\u0430\u043b\u0430\u043c\u0430\u043d\u043a\u0430", "name:uk": "\u0421\u0430\u043b\u0430\u043c\u0430\u043d\u043a\u0430", "name:ur": "\u0633\u0627\u0644\u0627\u0645\u0627\u0646\u06a9\u0627", "place": "city", "population": "146438", "population:date": "2015", "ref:ine": "37274000200", "source": "Instituto Geogr\u00e1fico Nacional", "source:date": "2011-06", "source:ele": "MDT5", "source:file": "http://centrodedescargas.cnig.es/CentroDescargas/equipamiento/BD_Municipios-Entidades.zip", "source:name": "Nomencl\u00e1tor Geogr\u00e1fico de Municipios y Entidades de Poblaci\u00f3n", "source:population": "http://www.ine.es/", "wikidata": "Q15695", "wikipedia": "es:Salamanca"}}, "geometry": {"type": "Point", "coordinates": [-5.6640182, 40.9651572]}}, {"type": "Feature", "properties": {"type": "node", "id": 252751393, "tags": {"admin_level": "8", "capital": "8", "ele": "495", "heritage": "1", "heritage:operator": "whc", "name": "Aranjuez", "place": "town", "population": "51014", "population:date": "2009", "ref:ine": "28013000200", "source": "Instituto Geogr\u00e1fico Nacional", "source:date": "2011-06", "source:ele": "MDT5", "source:file": "http://centrodedescargas.cnig.es/CentroDescargas/equipamiento/BD_Municipios-Entidades.zip", "source:name": "Nomencl\u00e1tor Geogr\u00e1fico de Municipios y Entidades de Poblaci\u00f3n", "wikidata": "Q486792", "wikipedia": "es:Aranjuez"}}, "geometry": {"type": "Point", "coordinates": [-3.6039604, 40.03221]}}, {"type": "Feature", "properties": {"type": "node", "id": 308207026, "tags": {"admin_level": "8", "capital": "8", "ele": "82", "heritage": "1", "heritage:operator": "whc", "int_name": "Ibiza", "loc_name": "Vila", "name": "Eivissa / Ibiza", "name:de": "Ibiza-Stadt", "name:en": "Ibiza", "name:es": "Ibiza", "name:fr": "Ibiza (ville)", "name:nl": "Ibiza", "place": "town", "population": "49516", "population:date": "2009", "ref:ine": "07026000100", "source": "Instituto Geogr\u00e1fico Nacional", "source:date": "2011-06", "source:ele": "MDT5", "source:file": "http://centrodedescargas.cnig.es/CentroDescargas/equipamiento/BD_Municipios-Entidades.zip", "source:name": "Nomencl\u00e1tor Geogr\u00e1fico de Municipios y Entidades de Poblaci\u00f3n"}}, "geometry": {"type": "Point", "coordinates": [1.4340443, 38.9094091]}}, {"type": "Feature", "properties": {"type": "node", "id": 394737758, "tags": {"castle_type": "defensive", "heritage": "2", "historic": "castle", "name": "Castell del Brull", "ref:BCIN": "744-MH", "ref:IPAC": "832", "ref:bic": "RI-0005211", "ruins": "yes", "start_date": "s.12", "wheelchair": "no", "wikidata": "Q5639526", "wikipedia": "ca:Castell del Brull"}}, "geometry": {"type": "Point", "coordinates": [2.3044104, 41.8167403]}}, {"type": "Feature", "properties": {"type": "node", "id": 418842011, "tags": {"heritage": "1", "heritage:operator": "whc", "historic": "archaeological_site", "name": "Cueva de Altamira", "name:ar": "\u0643\u0647\u0641 \u0623\u0644\u062a\u0645\u064a\u0631\u0627", "name:az": "Altamira", "name:be": "\u041f\u044f\u0447\u043e\u0440\u0430 \u0410\u043b\u044c\u0442\u0430\u043c\u0456\u0440\u0430", "name:bg": "\u0410\u043b\u0442\u0430\u043c\u0438\u0440\u0430", "name:bn": "\u0986\u09b2\u09a4\u09be\u09ae\u09bf\u09b0\u09be \u0997\u09c1\u09b9\u09be", "name:ca": "Cova d'Altamira", "name:cs": "Altamira", "name:cy": "Altamira", "name:da": "Altamira", "name:de": "H\u00f6hle von Altamira", "name:el": "\u03a3\u03c0\u03ae\u03bb\u03b1\u03b9\u03bf \u03c4\u03b7\u03c2 \u0391\u03bb\u03c4\u03b1\u03bc\u03af\u03c1\u03b1", "name:en": "Cave of Altamira", "name:eo": "Altamira", "name:es": "Cueva de Altamira", "name:et": "Altamira", "name:eu": "Altamirako leizea", "name:fa": "\u063a\u0627\u0631 \u0622\u0644\u062a\u0627\u0645\u06cc\u0631\u0627", "name:fi": "Altamira", "name:fr": "Altamira", "name:gl": "Cova de Altamira", "name:he": "\u05de\u05e2\u05e8\u05ea \u05d0\u05dc\u05d8\u05d0\u05de\u05d9\u05e8\u05d4", "name:hr": "Altamira", "name:hu": "Altamira-barlang", "name:hy": "\u0531\u056c\u057f\u0561\u0574\u056b\u0580\u0561", "name:it": "Grotte di Altamira", "name:ja": "\u30a2\u30eb\u30bf\u30df\u30e9\u6d1e\u7a9f", "name:ka": "\u10d0\u10da\u10e2\u10d0\u10db\u10d8\u10e0\u10d8\u10e1 \u10db\u10e6\u10d5\u10d8\u10db\u10d4", "name:kk": "\u0410\u043b\u044c\u0442\u0430\u043c\u0438\u0440\u0430", "name:ko": "\uc54c\ud0c0\ubbf8\ub77c \ub3d9\uad74", "name:lb": "Altamira", "name:lv": "Altamira", "name:mzn": "\u0622\u0644\u062a\u0627\u0645\u06cc\u0631\u0627\u06cc \u063a\u0627\u0631", "name:nl": "Altamira", "name:no": "Altamira", "name:oc": "Bauma d'Altamira", "name:pl": "Altamira", "name:pt": "Caverna de Altamira", "name:ro": "Grota din Altamira", "name:ru": "\u0410\u043b\u044c\u0442", "name:uk": "\u0410\u043b\u044c\u0442\u0430\u043c\u0456\u0440\u0430", "natural": "cave_entrance", "tourism": "attraction", "wikidata": "Q133575", "wikipedia": "es:Cueva de Altamira"}}, "geometry": {"type": "Point", "coordinates": [-4.1197476, 43.3768445]}}, {"type": "Feature", "properties": {"type": "node", "id": 492408857, "tags": {"admin_level": "8", "bic:criteria": "CH", "capital": "8", "ele": "747", "heritage": "2", "historic": "heritage", "name": "Espinosa de los Monteros", "place": "village", "population": "1320", "population:date": "2017", "postal_code": "09560", "ref:ine": "09124000200", "source": "Instituto Geogr\u00e1fico Nacional", "source:date": "2011-06", "source:ele": "MDT5", "source:file": "http://centrodedescargas.cnig.es/CentroDescargas/equipamiento/BD_Municipios-Entidades.zip", "source:name": "Nomencl\u00e1tor Geogr\u00e1fico de Municipios y Entidades de Poblaci\u00f3n"}}, "geometry": {"type": "Point", "coordinates": [-3.5534546, 43.0789612]}}, {"type": "Feature", "properties": {"type": "node", "id": 662563603, "tags": {"heritage": "1", "heritage:operator": "whc", "historic": "archaeological_site", "name": "Ekain", "natural": "cave_entrance", "wikidata": "Q1414019", "wikipedia": "eu:Ekain (leizea)"}}, "geometry": {"type": "Point", "coordinates": [-2.2756492, 43.2361328]}}, {"type": "Feature", "properties": {"type": "node", "id": 998649870, "tags": {"admin_level": "8", "alt_name:ar": "\u0634\u0646\u062a \u064a\u0627\u0642\u0648\u0647;\u0634\u0646\u062a \u064a\u0627\u0642\u0648\u0628;\u0634\u0646\u062a \u064a\u0627\u0642;\u0633\u0646\u062a\u064a\u0627\u063a\u0648 \u062f\u064a \u0643\u0648\u0645\u0628\u0648\u0633\u062a\u064a\u0644\u0627;\u0633\u0627\u0646\u062a\u064a\u0627\u063a\u0648 \u062f\u064a \u0643\u0648\u0645\u0628\u0648\u0633\u062a\u064a\u0644\u0627", "capital": "4", "ele": "260", "heritage": "1", "heritage:operator": "whc", "int_name": "Santiago de Compostela", "name": "Santiago de Compostela", "name:ar": "\u0634\u0646\u062a \u064a\u0627\u0642\u0628", "name:be": "\u0421\u0430\u043d\u0442'\u044f\u0433\u0430-\u0434\u044d-\u041a\u0430\u043c\u043f\u0430\u0441\u0442\u044d\u043b\u0430", "name:bg": "\u0421\u0430\u043d\u0442\u044f\u0433\u043e \u0434\u0435 \u041a\u043e\u043c\u043f\u043e\u0441\u0442\u0435\u043b\u0430", "name:br": "Sant-Jakez a Gompostela", "name:ca": "Santiago de Compostel\u00b7la", "name:el": "\u03a3\u03b1\u03bd\u03c4\u03b9\u03ac\u03b3\u03bf \u03bd\u03c4\u03b5 \u039a\u03bf\u03bc\u03c0\u03bf\u03c3\u03c4\u03ad\u03bb\u03b1", "name:es": "Santiago de Compostela", "name:eu": "Compostelako Donejakue", "name:fa": "\u0633\u0627\u0646\u062a\u06cc\u0627\u06af\u0648 \u062f \u06a9\u0627\u0645\u067e\u0648\u0633\u062a\u0644\u0627", "name:fr": "Saint-Jacques-de-Compostelle", "name:gl": "Santiago de Compostela", "name:he": "\u05e1\u05e0\u05d8\u05d9\u05d0\u05d2\u05d5 \u05d3\u05d4 \u05e7\u05d5\u05de\u05e4\u05d5\u05e1\u05d8\u05dc\u05d4", "name:it": "Santiago di Compostela", "name:ja": "\u30b5\u30f3\u30c6\u30a3\u30a2\u30b4\u30fb\u30c7\u30fb\u30b3\u30f3\u30dd\u30b9\u30c6\u30fc\u30e9", "name:la": "Compostella", "name:lt": "Santjago de Kompostela", "name:nl": "Santiago de Compostella", "name:oc": "Compost\u00e8la", "name:ru": "\u0421\u0430\u043d\u0442\u044c\u044f\u0433\u043e-\u0434\u0435-\u041a\u043e\u043c\u043f\u043e\u0441\u0442\u0435\u043b\u0430", "name:sr": "\u0421\u0430\u043d\u0442\u0438\u0458\u0430\u0433\u043e \u0434\u0435 \u041a\u043e\u043c\u043f\u043e\u0441\u0442\u0435\u043b\u0430", "name:th": "\u0e0b\u0e32\u0e19\u0e40\u0e15\u0e35\u0e22\u0e42\u0e01\u0e40\u0e14\u0e01\u0e2d\u0e21\u0e42\u0e1b\u0e2a\u0e40\u0e15\u0e25\u0e32", "name:uk": "\u0421\u0430\u043d\u0442\u044c\u044f\u0491\u043e-\u0434\u0435-\u041a\u043e\u043c\u043f\u043e\u0441\u0442\u0435\u043b\u0430", "name:zh": "\u5b54\u6ce2\u65af\u7279\u62c9\u7684\u8056\u5730\u7259\u54e5", "old_name:ca": "Sant Jaume de Gal\u00edcia", "place": "city", "population": "94824", "ref:ine": "15078000100", "ref:whc": "347", "source": "Instituto Geogr\u00e1fico Nacional", "source:date": "2011-06", "source:ele": "MDT5", "source:file": "http://centrodedescargas.cnig.es/CentroDescargas/equipamiento/BD_Municipios-Entidades.zip", "source:name": "Nomencl\u00e1tor Geogr\u00e1fico de Municipios y Entidades de Poblaci\u00f3n", "source:name:br": "ofis publik ar brezhoneg", "whc:criteria": "(i)(ii)(vi)", "whc:inscription_date": "1985", "wikidata": "Q14314", "wikipedia": "es:Santiago de Compostela"}}, "geometry": {"type": "Point", "coordinates": [-8.5458608, 42.8804219]}}, {"type": "Feature", "properties": {"type": "node", "id": 1036673662, "tags": {"admin_level": "8", "capital": "8", "ele": "549", "heritage": "1", "heritage:operator": "whc", "heritage:operator_1": "Gobierno de Canarias", "heritage_1": "3", "loc_name": "La Laguna", "name": "San Crist\u00f3bal de La Laguna", "name:ko": "\uc0b0\ud06c\ub9ac\uc2a4\ud1a0\ubc1c\ub370\ub77c\ub77c\uad6c\ub098", "name:lt": "San Kristobal de la Lag\u016bna", "name:ru": "\u0421\u0430\u043d-\u041a\u0440\u0438\u0441\u0442\u043e\u0431\u0430\u043b\u044c-\u0434\u0435-\u041b\u0430-\u041b\u0430\u0433\u0443\u043d\u0430", "name:uk": "\u0421\u0430\u043d-\u041a\u0440\u0456\u0441\u0442\u043e\u0431\u0430\u043b\u044c-\u0434\u0435-\u043b\u0430-\u041b\u0430\u0433\u0443\u043d\u0430", "name:zh": "\u62c9\u53e4\u7eb3\u7684\u5723\u514b\u91cc\u65af\u6258\u74e6\u5c14", "place": "city", "population": "31337", "ref:ine": "38023001700", "source": "Instituto Geogr\u00e1fico Nacional", "source:date": "2011-06", "source:ele": "MDT5", "source:file": "http://centrodedescargas.cnig.es/CentroDescargas/equipamiento/BD_Municipios-Entidades.zip", "source:name": "Nomencl\u00e1tor Geogr\u00e1fico de Municipios y Entidades de Poblaci\u00f3n", "wikidata": "Q54898", "wikipedia": "es:San Crist\u00f3bal de La Laguna"}}, "geometry": {"type": "Point", "coordinates": [-16.3159422, 28.4857715]}}, {"type": "Feature", "properties": {"type": "node", "id": 1075503042, "tags": {"admin_level": "8", "capital": "8", "ele": "200", "heritage": "1", "historic": "heritage", "name": "Sant Josep de sa Talaia", "name:ca": "Sant Josep de sa Talaia", "name:es": "San Jos\u00e9", "place": "town", "population": "2703", "population:date": "2009", "ref:ine": "07048000500"}}, "geometry": {"type": "Point", "coordinates": [1.2939942, 38.9220629]}}, {"type": "Feature", "properties": {"type": "node", "id": 1268730012, "tags": {"heritage": "1", "heritage:operator": "whc", "historic": "archaeological_site", "megalith_type": "stone", "name": "La Pedra de les Orenetes", "ref:whc": "874-001", "site_type": "megalith", "whc:inscription_date": "1998", "wikidata": "Q9059484", "wikipedia": "ca:Pedra de les Orenetes"}}, "geometry": {"type": "Point", "coordinates": [2.3244351, 41.5667224]}}, {"type": "Feature", "properties": {"type": "node", "id": 1470838073, "tags": {"admin_level": "8", "capital": "8", "ele": "769", "heritage": "1", "heritage:operator": "whc", "name": "Baeza", "name:ar": "\u0628\u064a\u0627\u0633\u0629", "place": "town", "population": "15519", "population:date": "2009", "ref:ine": "23009000200", "ref:whc": "522-002", "source": "Instituto Geogr\u00e1fico Nacional", "source:date": "2011-06", "source:ele": "MDT5", "source:file": "http://centrodedescargas.cnig.es/CentroDescargas/equipamiento/BD_Municipios-Entidades.zip", "source:name": "Nomencl\u00e1tor Geogr\u00e1fico de Municipios y Entidades de Poblaci\u00f3n", "whc:criteria": "(ii)(iv)", "whc:inscription_date": "2003", "wikidata": "Q488555", "wikipedia": "es:Baeza (Espa\u00f1a)"}}, "geometry": {"type": "Point", "coordinates": [-3.4708163, 37.9945171]}}, {"type": "Feature", "properties": {"type": "node", "id": 1679058496, "tags": {"admin_level": "8", "capital": "4", "heritage": "1", "heritage:operator": "whc", "idee:name": "Toledo", "name": "Toledo", "name:ar": "\u0637\u0644\u064a\u0637\u0644\u0629", "name:be": "\u0422\u0430\u043b\u0435\u0434\u0430", "name:ca": "Toledo", "name:el": "\u03a4\u03bf\u03bb\u03ad\u03b4\u03bf", "name:eu": "Toledo", "name:fr": "Tol\u00e8de", "name:ko": "\ud1a8\ub808\ub3c4", "name:la": "Toletum", "name:lt": "Toledas", "name:pt": "Toledo", "name:ru": "\u0422\u043e\u043b\u0435\u0434\u043e", "name:uk": "\u0422\u043e\u043b\u0435\u0434\u043e", "place": "city", "population": "83334", "wikidata": "Q5836", "wikipedia": "es:Toledo"}}, "geometry": {"type": "Point", "coordinates": [-4.0239568, 39.8560679]}}, {"type": "Feature", "properties": {"type": "node", "id": 2087456291, "tags": {"heritage": "2", "heritage:operator": "mecd", "heritage:website": "https://www.culturaydeporte.gob.es/cultura/patrimonio/bienes-culturales-protegidos.html", "historic": "castle", "name": "Castell de Pradell", "protection_title": "Bien de Inter\u00e9s Cultural", "protection_title:category": "Monumento", "ref:bic": "4026-MH", "wikidata": "Q47185068", "wikimedia_commons": "Category:Castell de Pradell (Preixens)", "wikipedia": "ca:Castell de Pradell de Si\u00f3"}}, "geometry": {"type": "Point", "coordinates": [1.0289309, 41.797392]}}, {"type": "Feature", "properties": {"type": "node", "id": 2626987628, "tags": {"artwork_type": "statue", "heritage": "2", "historic": "yes", "image": "https://commons.wikimedia.org/wiki/File:San_Juan_Arri.jpg", "name": "San Juan Arri", "tourism": "artwork"}}, "geometry": {"type": "Point", "coordinates": [-1.7887482, 43.3382657]}}, {"type": "Feature", "properties": {"type": "node", "id": 3054870688, "tags": {"alt_name": "Albayz\u00edn", "heritage": "1", "heritage:operator": "whc", "name": "Albaic\u00edn", "place": "neighbourhood", "ref:whc": "314-002", "wikidata": "Q576339", "wikipedia": "es:Albaic\u00edn"}}, "geometry": {"type": "Point", "coordinates": [-3.5946668, 37.1815692]}}, {"type": "Feature", "properties": {"type": "node", "id": 3443026616, "tags": {"artwork_type": "sculpture", "heritage": "1", "heritage:operator": "whc", "name": "Obelisco de Santa Eulalia", "ref:whc": "664-018", "tourism": "artwork", "whc:inscription_date": "1993"}}, "geometry": {"type": "Point", "coordinates": [-6.3412362, 38.919213]}}, {"type": "Feature", "properties": {"type": "node", "id": 3443026622, "tags": {"heritage": "1", "heritage:operator": "whc", "historic": "archaeological_site", "historic:civilization": "ancient_roman", "name": "Templo Culto Imperial", "ref:whc": "664-006", "whc:inscription_date": "1993"}}, "geometry": {"type": "Point", "coordinates": [-6.3468246, 38.9185481]}}, {"type": "Feature", "properties": {"type": "node", "id": 3443026765, "tags": {"heritage": "1", "heritage:operator": "whc", "historic": "archaeological_site", "historic:civilization": "ancient_roman", "name": "Torre Albarrana y Muralla Romana", "ref:whc": "664-016", "whc:inscription_date": "1993"}}, "geometry": {"type": "Point", "coordinates": [-6.3440588, 38.9194358]}}, {"type": "Feature", "properties": {"type": "node", "id": 3840749597, "tags": {"heritage": "1", "heritage:operator": "whc", "man_made": "tower", "name": "Torre mud\u00e9jar", "tower:type": "bell_tower", "whc:criteria": "(iv)"}}, "geometry": {"type": "Point", "coordinates": [-1.1686223, 41.4036817]}}, {"type": "Feature", "properties": {"type": "node", "id": 3918145321, "tags": {"bic:criteria": "M", "geological": "palaeontological_site", "heritage": "2", "historic": "monument", "historic:civilization": "prehistoric", "historic:era": "paleolithic", "historic:period": "stone-age", "name": "Cova de Eir\u00f3s", "name:en": "Eir\u00f3s Cave", "name:es": "Cova de Eir\u00f3s", "natural": "cave_entrance", "protection_title": "Bien de Inter\u00e9s Cultural", "source": "BOE N\u00fam. 151 Lunes 26 de junio de 2017", "website": "http://www.iphes.cat/cova-eir%C3%B3s", "wikidata": "Q3393299", "wikipedia": "es:Cueva Eir\u00f3s"}}, "geometry": {"type": "Point", "coordinates": [-7.2048972, 42.766178]}}, {"type": "Feature", "properties": {"type": "node", "id": 4719619322, "tags": {"denomination": "catholic", "heritage": "2", "historic": "monastery", "name": "Monestir de Sant Cugat", "ref": "RI-51-000433", "religion": "christian", "start_date": "s.IX", "wikidata": "Q615763", "wikipedia": "ca:Monestir de Sant Cugat"}}, "geometry": {"type": "Point", "coordinates": [2.0851089, 41.4738103]}}, {"type": "Feature", "properties": {"type": "node", "id": 4804502081, "tags": {"bic:criteria": "ZA", "bic:inscription_date": "23/01/2019", "heritage": "2", "heritage:operator": "mecd", "historic": "archaeological_site", "name": "Tomb Son Olivaret", "name:es": "Sepulcro de Son Olivaret", "protection_title": "Bien de Inter\u00e9s Cultural", "protection_title:category": "archeological_site", "site_type": "megalith", "wikidata": "Q64605333", "wikipedia": "ca:Sepulcre de Son Olivaret"}}, "geometry": {"type": "Point", "coordinates": [3.837074, 39.9431377]}}, {"type": "Feature", "properties": {"type": "node", "id": 5224648292, "tags": {"amenity": "fountain", "heritage": "2", "name": "Fuente de las Cuatro Estaciones", "protection_title": "Bien de Inter\u00e9s Cultural"}}, "geometry": {"type": "Point", "coordinates": [-8.2171805, 43.2789322]}}, {"type": "Feature", "properties": {"type": "node", "id": 5256181772, "tags": {"bic:criteria": "M", "bic:inscription_date": "27-11-2017", "heritage": "2", "historic": "monument", "man_made": "bridge", "name": "Ponte Medieval de Ponte Vea", "name:en": "Medieval Bridge of Ponte Vea", "protection_title": "Bien de Inter\u00e9s Cultural", "protection_title:category": "monument"}}, "geometry": {"type": "Point", "coordinates": [-8.5481079, 42.759777]}}, {"type": "Feature", "properties": {"type": "node", "id": 6320547910, "tags": {"heritage": "2", "name": "Campo del Agua, El Regueiral y Las Vali\u00f1as", "protection_title": "Bien de Inter\u00e9s Cultural", "protection_title:category": "Conjunto hist\u00f3rico", "ref:bic": "RI-53-0000556"}}, "geometry": {"type": "Point", "coordinates": [-6.8254548, 42.7753188]}}, {"type": "Feature", "properties": {"type": "node", "id": 6814251888, "tags": {"denomination": "catholic", "heritage": "2", "heritage:operator": "Ayuntamiento de Montefr\u00edo", "historic": "wayside_cross", "name": "Cruz Altera", "protection_title": "Bien de Inter\u00e9s Cultural", "protection_title:category": "Cruces de t\u00e9rmino", "ref:pgou": "UC-RU-02", "religion": "christian", "start_date": "C17..C18", "tourism": "attraction"}}, "geometry": {"type": "Point", "coordinates": [-3.9873429, 37.3252853]}}, {"type": "Feature", "properties": {"type": "node", "id": 6814251889, "tags": {"denomination": "catholic", "heritage": "2", "heritage:operator": "Ayuntamiento de Montefr\u00edo", "historic": "wayside_cross", "name": "Cruz Color\u00e1", "protection_title": "Bien de Inter\u00e9s Cultural", "protection_title:category": "Cruces de t\u00e9rmino", "ref:pgou": "UC-RU-05", "religion": "christian", "start_date": "C17..C18", "tourism": "attraction"}}, "geometry": {"type": "Point", "coordinates": [-4.0336427, 37.3377791]}}, {"type": "Feature", "properties": {"type": "node", "id": 6814251890, "tags": {"denomination": "catholic", "heritage": "2", "heritage:operator": "Ayuntamiento de Montefr\u00edo", "historic": "wayside_cross", "name": "Cruz de Matute", "protection_title": "Bien de Inter\u00e9s Cultural", "protection_title:category": "Cruces de t\u00e9rmino", "ref:pgou": "UC-RU-08", "religion": "christian", "start_date": "C17..C18", "tourism": "attraction"}}, "geometry": {"type": "Point", "coordinates": [-3.932646, 37.3653165]}}, {"type": "Feature", "properties": {"type": "node", "id": 6814251891, "tags": {"denomination": "catholic", "heritage": "2", "heritage:operator": "Ayuntamiento de Montefr\u00edo", "historic": "wayside_cross", "name": "Cruz de Muro", "protection_title": "Bien de Inter\u00e9s Cultural", "protection_title:category": "Cruces de t\u00e9rmino", "ref:pgou": "UC-RU-09", "religion": "christian", "start_date": "C17..C18", "tourism": "attraction"}}, "geometry": {"type": "Point", "coordinates": [-4.0597268, 37.2933103]}}, {"type": "Feature", "properties": {"type": "node", "id": 6814251892, "tags": {"denomination": "catholic", "heritage": "2", "heritage:operator": "Ayuntamiento de Montefr\u00edo", "historic": "wayside_cross", "name": "Cruz de Ruip\u00e9rez", "protection_title": "Bien de Inter\u00e9s Cultural", "protection_title:category": "Cruces de t\u00e9rmino", "ref:pgou": "UC-RU-11", "religion": "christian", "start_date": "C17..C18", "tourism": "attraction"}}, "geometry": {"type": "Point", "coordinates": [-3.9345878, 37.342506]}}, {"type": "Feature", "properties": {"type": "node", "id": 6814251893, "tags": {"denomination": "catholic", "heritage": "2", "heritage:operator": "Ayuntamiento de Montefr\u00edo", "historic": "wayside_cross", "name": "Cruz del Bujeo", "protection_title": "Bien de Inter\u00e9s Cultural", "protection_title:category": "Cruces de t\u00e9rmino", "ref:pgou": "UC-RU-12", "religion": "christian", "start_date": "C17..C18", "tourism": "attraction"}}, "geometry": {"type": "Point", "coordinates": [-4.012024, 37.3368484]}}, {"type": "Feature", "properties": {"type": "node", "id": 6814251894, "tags": {"denomination": "catholic", "heritage": "2", "heritage:operator": "Ayuntamiento de Montefr\u00edo", "historic": "wayside_cross", "name": "Cruz del Cortijillo", "protection_title": "Bien de Inter\u00e9s Cultural", "protection_title:category": "Cruces de t\u00e9rmino", "ref:pgou": "UC-RU-15", "religion": "christian", "start_date": "C17..C18", "tourism": "attraction"}}, "geometry": {"type": "Point", "coordinates": [-3.9915098, 37.3239674]}}, {"type": "Feature", "properties": {"type": "node", "id": 6814251895, "tags": {"denomination": "catholic", "heritage": "2", "heritage:operator": "Ayuntamiento de Montefr\u00edo", "historic": "wayside_cross", "name": "Cruz del T\u00edo Campos", "protection_title": "Bien de Inter\u00e9s Cultural", "protection_title:category": "Cruces de t\u00e9rmino", "ref:pgou": "UC-RU-17", "religion": "christian", "start_date": "C17..C18", "tourism": "attraction"}}, "geometry": {"type": "Point", "coordinates": [-4.0046397, 37.3117272]}}, {"type": "Feature", "properties": {"type": "node", "id": 6814251896, "tags": {"denomination": "catholic", "heritage": "2", "heritage:operator": "Ayuntamiento de Montefr\u00edo", "historic": "wayside_cross", "name": "Cruz del Ventorro", "protection_title": "Bien de Inter\u00e9s Cultural", "protection_title:category": "Cruces de t\u00e9rmino", "ref:pgou": "UC-RU-01", "religion": "christian", "start_date": "C17..C18", "tourism": "attraction"}}, "geometry": {"type": "Point", "coordinates": [-4.0205507, 37.3529903]}}, {"type": "Feature", "properties": {"type": "node", "id": 6814263087, "tags": {"denomination": "catholic", "heritage": "2", "heritage:operator": "Ayuntamiento de Montefr\u00edo", "historic": "wayside_cross", "name": "Cruz de Marcos", "protection_title": "Bien de Inter\u00e9s Cultural", "protection_title:category": "Cruces de t\u00e9rmino", "ref:pgou": "UC-RU-07", "religion": "christian", "start_date": "C17..C18", "tourism": "attraction"}}, "geometry": {"type": "Point", "coordinates": [-3.990746, 37.3205699]}}, {"type": "Feature", "properties": {"type": "node", "id": 6814263088, "tags": {"denomination": "catholic", "heritage": "2", "heritage:operator": "Ayuntamiento de Montefr\u00edo", "historic": "wayside_cross", "name": "Cruz de la Loma del Rosal", "protection_title": "Bien de Inter\u00e9s Cultural", "protection_title:category": "Cruces de t\u00e9rmino", "ref:pgou": "UC-RU-03", "religion": "christian", "start_date": "~1940", "tourism": "attraction"}}, "geometry": {"type": "Point", "coordinates": [-4.0493068, 37.3536851]}}, {"type": "Feature", "properties": {"type": "node", "id": 6814265786, "tags": {"denomination": "catholic", "heritage": "2", "heritage:operator": "Ayuntamiento de Montefr\u00edo", "historic": "wayside_cross", "name": "Cruz del Calvario (La Parrilla)", "protection_title": "Bien de Inter\u00e9s Cultural", "protection_title:category": "Cruces de t\u00e9rmino", "ref:pgou": "UC-RU-06", "religion": "christian", "start_date": "C17..C18", "tourism": "attraction"}}, "geometry": {"type": "Point", "coordinates": [-4.0372558, 37.2762305]}}, {"type": "Feature", "properties": {"type": "node", "id": 6814265787, "tags": {"denomination": "catholic", "heritage": "2", "heritage:operator": "Ayuntamiento de Montefr\u00edo", "historic": "wayside_cross", "name": "Cruz del Espinar", "protection_title": "Bien de Inter\u00e9s Cultural", "protection_title:category": "Cruces de t\u00e9rmino", "ref:pgou": "UC-RU-16", "religion": "christian", "start_date": "C17..C18", "tourism": "attraction"}}, "geometry": {"type": "Point", "coordinates": [-3.9921408, 37.3528174]}}, {"type": "Feature", "properties": {"type": "node", "id": 6814270985, "tags": {"denomination": "catholic", "heritage": "2", "heritage:operator": "Ayuntamiento de Montefr\u00edo", "historic": "wayside_cross", "name": "Cruz Bajera", "protection_title": "Bien de Inter\u00e9s Cultural", "protection_title:category": "Cruces de t\u00e9rmino", "ref:pgou": "UC-RU-04", "religion": "christian", "start_date": "C17..C18", "tourism": "attraction"}}, "geometry": {"type": "Point", "coordinates": [-3.98438, 37.3274372]}}, {"type": "Feature", "properties": {"type": "node", "id": 6814271085, "tags": {"denomination": "catholic", "heritage": "2", "heritage:operator": "Ayuntamiento de Montefr\u00edo", "historic": "wayside_cross", "name": "Cruz de Pe\u00f1uela", "protection_title": "Bien de Inter\u00e9s Cultural", "protection_title:category": "Cruces de t\u00e9rmino", "ref:pgou": "UC-RU-10", "religion": "christian", "start_date": "C17..C18", "tourism": "attraction"}}, "geometry": {"type": "Point", "coordinates": [-3.961999, 37.3301812]}}, {"type": "Feature", "properties": {"type": "node", "id": 6814271086, "tags": {"denomination": "catholic", "heritage": "2", "heritage:operator": "Ayuntamiento de Montefr\u00edo", "historic": "wayside_cross", "name": "Cruz del Ca\u00f1azo", "protection_title": "Bien de Inter\u00e9s Cultural", "protection_title:category": "Cruces de t\u00e9rmino", "ref:pgou": "UC-RU-13", "religion": "christian", "start_date": "C17..C18", "tourism": "attraction"}}, "geometry": {"type": "Point", "coordinates": [-3.9382867, 37.3204117]}}, {"type": "Feature", "properties": {"type": "node", "id": 6814271087, "tags": {"denomination": "catholic", "heritage": "2", "heritage:operator": "Ayuntamiento de Montefr\u00edo", "historic": "wayside_cross", "name": "Cruz del Cerro (Covaleda)", "protection_title": "Bien de Inter\u00e9s Cultural", "protection_title:category": "Cruces de t\u00e9rmino", "ref:pgou": "UC-RU-14", "religion": "christian", "start_date": "C17..C18", "tourism": "attraction"}}, "geometry": {"type": "Point", "coordinates": [-3.9982637, 37.2805407]}}, {"type": "Feature", "properties": {"type": "node", "id": 7058358490, "tags": {"heritage": "1", "heritage:operator": "whc", "historic": "archaeological_site", "name": "Pintures rupestres de la Vall de la Coma", "site_type": "rock_painting", "source": "Institut Cartogr\u00e0fic i Geol\u00f2gic de Catalunya", "website": "http://patrimoni.gencat.cat/ca/artrupestre/pintures-rupestres-de-lalbi", "wikidata": "Q24058712", "wikipedia": "ca:Balma de la Vall de la Coma"}}, "geometry": {"type": "Point", "coordinates": [0.931733, 41.4524662]}}, {"type": "Feature", "properties": {"type": "node", "id": 7168234938, "tags": {"alt_name": "Castell de Sant Mart\u00ed", "castle_type": "defensive", "heritage": "2", "historic": "castle", "name": "Castell de Centelles", "old_name": "Castell de Sant Esteve", "ref:BCIN": "1499-MH", "ref:BIC": "RI-51-0005651", "ref:IPAC": "1695", "ruins": "yes", "start_date": "898", "wheelchair": "no", "wikidata": "Q8342260", "wikipedia": "ca:Castell de Centelles"}}, "geometry": {"type": "Point", "coordinates": [2.2066482, 41.7695712]}}, {"type": "Feature", "properties": {"type": "node", "id": 7196845758, "tags": {"heritage": "1", "heritage:operator": "whc", "historic": "archaeological_site", "name": "Pintures rupestres de la balma dels Punts", "site_type": "rock_painting", "source": "Institut Cartogr\u00e0fic i Geol\u00f2gic de Catalunya", "website": "http://patrimoni.gencat.cat/ca/artrupestre/pintures-rupestres-de-lalbi", "wikidata": "Q21081295", "wikipedia": "ca:Balma dels Punts"}}, "geometry": {"type": "Point", "coordinates": [0.9063917, 41.4480446]}}, {"type": "Feature", "properties": {"type": "node", "id": 7608306136, "tags": {"heritage": "2", "historic": "memorial", "memorial": "statue", "name": "Estatua de la Caridad", "protection_title": "Bien de Inter\u00e9s Cultural", "protection_title:category": "Monumento"}}, "geometry": {"type": "Point", "coordinates": [-8.2184006, 43.2779765]}}, {"type": "Feature", "properties": {"type": "way", "id": 11473682, "tags": {"addr:city": "Oviedo/Uvi\u00e9u", "building": "church", "heritage": "1", "heritage:operator": "whc", "historic": "heritage", "name": "Santuyano", "name:ast": "Santuyano", "name:es": "San Juli\u00e1n de los Prados", "wheelchair": "no", "wikidata": "Q2067282", "wikipedia": "es:San Juli\u00e1n de los Prados"}}, "geometry": {"type": "Point", "coordinates": [-5.837302, 43.3677009]}}, {"type": "Feature", "properties": {"type": "way", "id": 18536017, "tags": {"addr:city": "Sevilla", "addr:housenumber": "3", "addr:postcode": "41004", "addr:street": "Avenida de la Constituci\u00f3n", "colour": "#F4E6CB", "height": "8", "heritage": "1", "heritage:operator": "whc", "name": "Archivo de Indias", "name:en": "General Archive of the Indies", "opening_hours": "Mo-Sa 9:30-17:00; Su 10:00-14:00", "phone": "+34 95 450 05 28", "source": "ide.Sevilla", "source:date": "2011", "tourism": "museum", "wikidata": "Q477051", "wikipedia": "es:Archivo General de Indias"}}, "geometry": {"type": "Point", "coordinates": [-5.9930327, 37.3847109]}}, {"type": "Feature", "properties": {"type": "way", "id": 22747187, "tags": {"addr:city": "Sevilla", "addr:postcode": "41004", "addr:street": "Patio de Banderas", "area": "yes", "castle_type": "stately", "colour": "#AD9A94", "email": "actividades@patronato-alcazarsevilla.es", "heritage": "1", "heritage:operator": "whc", "historic": "castle", "name": "Real Alc\u00e1zar de Sevilla", "name:en": "Alc\u00e1zar of Seville", "name:ko": "\uc138\ube44\uc57c \uc54c\uce74\uc0ac\ub974", "name:ru": "\u0421\u0435\u0432\u0438\u043b\u044c\u0441\u043a\u0438\u0439 \u0410\u043b\u044c\u043a\u0430\u0441\u0430\u0440", "name:zh": "\u585e\u7ef4\u5229\u4e9a\u738b\u5bab", "opening_hours": "Oct-Mar 09:30-17:00; Apr-Sep 09:30-23:00", "phone": "+34 902 55 93 86", "source": "catastro", "tourism": "attraction", "website": "https://www.alcazarsevilla.org/", "wheelchair": "yes", "wikidata": "Q498261", "wikipedia": "es:Real Alc\u00e1zar de Sevilla"}}, "geometry": {"type": "Point", "coordinates": [-5.9902534, 37.3832454]}}, {"type": "Feature", "properties": {"type": "way", "id": 23377876, "tags": {"addr:city": "Valencia", "addr:housenumber": "2", "addr:postcode": "46001", "addr:street": "Carrer de la Llotja", "building": "yes", "heritage": "1", "heritage:operator": "whc", "historic": "heritage", "name": "Llotja de la Seda", "name:de": "Seidenb\u00f6rse", "name:en": "Silk Exchange", "name:es": "Lonja de la Seda", "name:ru": "\u0428\u0435\u043b\u043a\u043e\u0432\u0430\u044f \u0431\u0438\u0440\u0436\u0430", "name:uk": "\u0428\u043e\u0432\u043a\u043e\u0432\u0430 \u0431\u0456\u0440\u0436\u0430", "name:zh": "\u7d72\u7da2\u4ea4\u6613\u4e2d\u5fc3", "phone": "+34 96 352 54 78", "ref:whc": "782", "source": "http://www.museosymonumentosvalencia.com/monumentos/la-lonja/", "tourism": "attraction", "whc:criteria": "(i)(iv)", "whc:inscription_date": "1996", "wikidata": "Q588009", "wikipedia": "en:Llotja de la Seda"}}, "geometry": {"type": "Point", "coordinates": [-0.37842, 39.4744154]}}, {"type": "Feature", "properties": {"type": "way", "id": 27447931, "tags": {"alt_name": "Bizkaiko Zubia;Puente Colgante de Vizcaya;Puente de Palacio;Puente Vizcaya;Puente Colgante", "architect": "Alberto Palacios", "heritage": "1", "heritage:operator": "whc", "layer": "1", "man_made": "bridge", "name": "Puente Colgante de Bizkaia - Bizkaia zubia", "name:es": "Puente Colgante de Bizkaia", "name:eu": "Bizkaia zubia", "name:it": "Ponte di Vizcaya", "start_date": "1890", "tourism": "attraction", "wheelchair": "yes", "wheelchair:description": "En: Photos show East side terminal facilities for foot passengers using the Transporter Bridge. View from both sides fully accessible.", "wikidata": "Q331996", "wikipedia": "es:Puente de Vizcaya"}}, "geometry": {"type": "Point", "coordinates": [-3.0171379, 43.3232139]}}, {"type": "Feature", "properties": {"type": "way", "id": 31262241, "tags": {"addr:city": "Anaz", "addr:country": "ES", "addr:postcode": "39718", "addr:street": "Barrio El Cotornal", "building": "yes", "heritage": "2", "historic": "heritage", "name": "Lavadero de \u00c1naz"}}, "geometry": {"type": "Point", "coordinates": [-3.7489355, 43.3632893]}}, {"type": "Feature", "properties": {"type": "way", "id": 31279155, "tags": {"addr:city": "Sobremazas", "addr:country": "ES", "addr:postcode": "39718", "addr:street": "Barrio Los Cuetos", "building": "yes", "heritage": "2", "historic": "heritage", "name": "Palacio de los Cuetos", "wikipedia": "es:Casa Solariega de los Cuetos"}}, "geometry": {"type": "Point", "coordinates": [-3.7516962, 43.3736686]}}, {"type": "Feature", "properties": {"type": "way", "id": 33705786, "tags": {"abutters": "residential", "addr:city": "Oviedo / Uvi\u00e9u", "amenity": "place_of_worship", "building": "church", "denomination": "catholic", "height": "30", "heritage": "1", "heritage:operator": "whc", "historic": "church", "name": "Catedral de San Salvador de Oviedo", "religion": "christian", "wikidata": "Q1534288", "wikipedia": "es:Catedral de San Salvador de Oviedo"}}, "geometry": {"type": "Point", "coordinates": [-5.8432972, 43.3625242]}}, {"type": "Feature", "properties": {"type": "way", "id": 34474214, "tags": {"addr:housenumber": "8", "addr:postcode": "29016", "addr:street": "Paseo de Reding", "bic:inscription_date": "20181-02-11", "heritage": "2", "heritage:operator": "mecd", "heritage:website": "http://www.culturaydeporte.gob.es/cultura-mecd/areas-cultura/patrimonio/bienes-culturales-protegidos.html", "historic": "building", "image": "https://images.mapillary.com/7SAQhE57TEouIObV_AsDzQ/thumb-2048.jpg", "leisure": "stadium", "mapillary": "7SAQhE57TEouIObV_AsDzQ", "name": "Plaza de Toros La Malagueta", "name:en": "Bullring La Malagueta", "name:ko": "\ud22c\uc6b0\uacbd\uae30\uc7a5", "name:ru": "\u0410\u0440\u0435\u043d\u0430 \u0434\u043b\u044f \u0431\u043e\u044f \u0431\u044b\u043a\u043e\u0432 \u041b\u0430 \u043c\u0430\u043b\u0430\u0433\u0435\u0442\u0430", "protection_title": "Bien de Inter\u00e9s Cultural", "protection_title:category": "Monumento", "ref:bic": "RI-51-0004470", "sport": "bullfighting", "tourism": "attraction", "url": "https://www.youtube.com/watch?v=n4XFscWNn9I", "wikidata": "Q523311", "wikimedia_commons": "Category:Plaza de toros de la Malagueta", "wikipedia": "en:Plaza de toros de La Malagueta"}}, "geometry": {"type": "Point", "coordinates": [-4.4107867, 36.7203523]}}, {"type": "Feature", "properties": {"type": "way", "id": 35773299, "tags": {"amenity": "theatre", "contact:facebook": "teatrocervantes", "heritage": "2", "heritage:operator": "mecd", "heritage:website": "https://www.culturaydeporte.gob.es/cultura/patrimonio/bienes-culturales-protegidos.html", "historic": "building", "image": "https://d1cuyjsrcm0gby.cloudfront.net/ttR3aZlR6_-M3gRuiKeKZQ/thumb-2048.jpg", "mapillary": "ttR3aZlR6_-M3gRuiKeKZQ", "name": "Teatro Cervantes", "phone": "+34 952 22 41 00", "protection_title": "Bien de Inter\u00e9s Cultural", "protection_title:category": "Conjunto hist\u00f3rico", "url": "https://www.youtube.com/watch?v=xYc4kAe4YCk", "website": "http://www.teatrocervantes.com", "wikidata": "Q3826922", "wikimedia_commons": "Category:Teatro Cervantes, M\u00e1laga", "wikipedia": "es:Teatro Miguel de Cervantes"}}, "geometry": {"type": "Point", "coordinates": [-4.4184491, 36.7247742]}}, {"type": "Feature", "properties": {"type": "way", "id": 37858766, "tags": {"barrier": "wall", "heritage": "1", "heritage:operator": "whc", "historic": "archaeological_site", "historic:civilization": "ancient_roman", "name": "Conjunto Arqueol\u00f3gico de M\u00e9rida", "ref:whc": "664-005", "source": "Yahoo", "tourism": "attraction", "whc:inscription_date": "1993", "wikidata": "Q15233334", "wikipedia": "es:Conjunto arqueol\u00f3gico de M\u00e9rida"}}, "geometry": {"type": "Point", "coordinates": [-6.3383183, 38.9155871]}}, {"type": "Feature", "properties": {"type": "way", "id": 37858770, "tags": {"building": "museum", "heritage": "1", "heritage:operator": "whc", "name": "Museo Nacional de Arte Romano", "ref:whc": "664-017", "source": "Yahoo", "tourism": "museum", "whc:inscription_date": "1993", "wheelchair": "yes", "wikidata": "Q3330685", "wikipedia": "es:Museo Nacional de Arte Romano"}}, "geometry": {"type": "Point", "coordinates": [-6.3398744, 38.9172408]}}, {"type": "Feature", "properties": {"type": "way", "id": 37916768, "tags": {"bridge": "aqueduct", "heritage": "1", "heritage:operator": "whc", "historic": "archaeological_site", "historic:civilization": "ancient_roman", "layer": "1", "man_made": "bridge", "name": "Acueducto de San L\u00e1zaro", "ref:whc": "664-002", "tourism": "attraction", "whc:inscription_date": "1993", "wikidata": "Q15274875"}}, "geometry": {"type": "Point", "coordinates": [-6.3354148, 38.9229021]}}, {"type": "Feature", "properties": {"type": "way", "id": 38692327, "tags": {"amenity": "place_of_worship", "building": "church", "denomination": "catholic", "heritage": "2", "image": "https://commons.wikimedia.org/wiki/File:Iglesia_de_Nuestra_Sra._del_Juncal.jpg", "name": "Junkalgo Amaren eliza", "name:es": "Nuestra Se\u00f1ora del Juncal", "religion": "christian"}}, "geometry": {"type": "Point", "coordinates": [-1.7869982, 43.3402592]}}, {"type": "Feature", "properties": {"type": "way", "id": 39387988, "tags": {"amenity": "place_of_worship", "building": "church", "denomination": "catholic", "heritage": "2", "heritage:operator": "mecd", "historic": "yes", "name": "Colegiata de Santillana del Mar", "name:ca": "Col\u00b7legiata de Santillana del Mar", "name:es": "Colegiata de Santillana del Mar", "name:fr": "Coll\u00e9giale Sainte Juliana", "name:it": "Collegiata di Santa Juliana", "name:oc": "Collegiada de Santa Juliana", "note": "Siglo XII y XIII", "religion": "christian", "source": "WMS Catastro", "source:name": "Plano Ayuntamiento de Santillana del Mar OF aprobada el 7-3-2002", "tourism": "attraction", "wikidata": "Q1609022", "wikipedia": "es:Colegiata de Santillana del Mar"}}, "geometry": {"type": "Point", "coordinates": [-4.1060322, 43.3923004]}}, {"type": "Feature", "properties": {"type": "way", "id": 39813332, "tags": {"boundary": "protected_area", "heritage": "1", "heritage:operator": "whc", "leisure": "nature_reserve", "name": "Parque Nacional de Do\u00f1ana", "protect_class": "2", "type": "boundary"}}, "geometry": {"type": "Point", "coordinates": [-6.4068825, 36.9632931]}}, {"type": "Feature", "properties": {"type": "way", "id": 39990857, "tags": {"boundary": "protected_area", "heritage": "2", "heritage:operator": "mecd", "heritage:type": "ensemble", "historic": "town", "landuse": "residential", "name": "Madrigal de las Altas Torres", "protect_class": "22", "protection_title": "BIC", "protection_title:category": "conjunto hist\u00f3rico", "protection_title:inscription_date": "09-07-1963", "wikidata": "Q24009133"}}, "geometry": {"type": "Point", "coordinates": [-4.9988422, 41.0879048]}}, {"type": "Feature", "properties": {"type": "way", "id": 40923302, "tags": {"amenity": "place_of_worship", "building": "church", "denomination": "catholic", "heritage": "2", "historic": "monument", "name": "Iglesia de San Juan Bautista", "protection_title": "Bien de Inter\u00e9s Cultural", "protection_title:category": "monument", "religion": "christian", "wikidata": "Q51772677"}}, "geometry": {"type": "Point", "coordinates": [-6.0435624, 39.980202]}}, {"type": "Feature", "properties": {"type": "way", "id": 42798242, "tags": {"amenity": "place_of_worship", "building": "church", "denomination": "roman_catholic", "heritage": "2", "historic": "yes", "image": "https://commons.wikimedia.org/wiki/File:Interior_de_la_colegiata_de_Roncesvalles.jpg", "layer": "2", "name": "Santa Maria Kolegiata", "name:es": "Real Colegiata de Santa Mar\u00eda", "name:eu": "Orreagako Santa Maria Errege Kolegiata", "name:fr": "L\u2019\u00e9glise de Sainte-Marie de la Maison-Dieu", "religion": "christian", "source": "PNOA", "source:date": "2008"}}, "geometry": {"type": "Point", "coordinates": [-1.3194942, 43.0099579]}}, {"type": "Feature", "properties": {"type": "way", "id": 43067972, "tags": {"addr:city": "Irun", "addr:country": "ES", "addr:housenumber": "2", "addr:postcode": "20304", "addr:street": "Ermita", "amenity": "place_of_worship", "b5m:id": "D_19525", "b5m:url": "http://b5m.gipuzkoa.net/b5map/r1/eu/mapa/lekutu/D_19525", "b5m:urlOrto": "http://b5m.gipuzkoa.net/url5000/index.php?id=D_19525&lengua=1&actu=0&categoria=VITO_FOTO", "building": "chapel", "denomination": "roman_catholic", "heritage": "2", "historic": "archaeological_site", "historic:civilization": "ancient_roman", "historic:period": "principate", "image": "https://commons.wikimedia.org/wiki/File:Ama_Xantalen_ermita.jpg", "name": "Ama Xantalen ermita", "religion": "christian", "site_type": "necropolis", "source": "b5m", "tourism": "attraction", "wikidata": "Q40738442"}}, "geometry": {"type": "Point", "coordinates": [-1.7852598, 43.3354461]}}, {"type": "Feature", "properties": {"type": "way", "id": 44493576, "tags": {"addr:city": "Hondarribia", "addr:country": "ES", "addr:housenumber": "1", "addr:postcode": "20280", "addr:street": "Kale Nagusia", "amenity": "place_of_worship", "b5m:id": "D_13694", "b5m:url": "http://b5m.gipuzkoa.net/b5map/r1/eu/mapa/lekutu/D_13694", "b5m:urlOrto": "http://b5m.gipuzkoa.net/url5000/index.php?id=D_13694&lengua=1&actu=0&categoria=VITO_FOTO", "building": "church", "denomination": "catholic", "height": "30", "heritage": "2", "historic": "yes", "image": "https://commons.wikimedia.org/wiki/File:Iglesia_de_la_Asunci%C3%B3n_y_el_Manzano.jpg", "name": "Nuestra Sra. de la Asunci\u00f3n y del Manzano", "name:es": "Nuestra Sra. de la Asunci\u00f3n y del Manzano", "name:eu": "Jasokunde eta Sagarrondoko Ama Birjinaren eliza", "religion": "christian", "source": "b5m"}}, "geometry": {"type": "Point", "coordinates": [-1.7909648, 43.3629865]}}, {"type": "Feature", "properties": {"type": "way", "id": 45976728, "tags": {"barrier": "city_wall", "building": "yes", "building:architecture": "romanesque", "height": "12", "heritage": "2", "heritage_type": "military", "historic": "citywalls", "int_name": "\u00c1vila Walls", "layer": "5", "material": "stone", "name": "Murallas de \u00c1vila", "name:pt": "Muralhas de \u00c1vila", "note": "A ras de suelo (desplazada sobre el perfil de la ortofoto para cuadrar)", "protect_class": "22", "protection_title": "BIC", "protection_title:category": "Monumento", "protection_title:inscription_date": "24-03-1884", "ref:bic": "51 - 0000036 - 00000", "source": "ITACyL, Catastro", "source:date": "2012", "start_date": "C11", "wikidata": "Q3050235", "wikipedia": "es:Muralla de \u00c1vila"}}, "geometry": {"type": "Point", "coordinates": [-4.7021212, 40.6564133]}}, {"type": "Feature", "properties": {"type": "way", "id": 46344508, "tags": {"addr:city": "Le\u00f3n", "addr:housenumber": "s/n", "addr:postcode": "24003", "addr:street": "Plaza de la Regla", "alt_name": "Catedral de Santa Mar\u00eda de Regla", "amenity": "place_of_worship", "building": "cathedral", "denomination": "roman_catholic", "height": "15 m", "heritage": "2", "heritage:operator": "bic", "historic": "church", "name": "Catedral de Le\u00f3n", "opening_hours": "Mo-Sa 09:30-13:30; Su 09:30-11:30", "religion": "christian", "source": "ITACyL", "website": "https://www.catedraldeleon.org/", "wheelchair": "yes", "wikidata": "Q175874", "wikipedia": "es:Catedral de Le\u00f3n (Espa\u00f1a)"}}, "geometry": {"type": "Point", "coordinates": [-5.5666505, 42.5994575]}}, {"type": "Feature", "properties": {"type": "way", "id": 47131551, "tags": {"addr:city": "Ponferrada", "addr:street": "Plaza Virgen de la Encina", "amenity": "place_of_worship", "building": "church", "denomination": "roman_catholic", "heritage": "2", "heritage:operator": "cha", "historic": "church", "image": "https://commons.wikimedia.org/wiki/File:Bas\u00edlica_de_la_Encina._Ponferrada.jpg", "name": "Bas\u00edlica de Nuestra Se\u00f1ora de la Encina", "religion": "christian", "wikidata": "Q2843637", "wikimedia_commons": "File:Bas\u00edlica_de_la_Encina._Ponferrada.jpg", "wikipedia": "es:Bas\u00edlica de la Virgen de la Encina"}}, "geometry": {"type": "Point", "coordinates": [-6.5917275, 42.5442601]}}, {"type": "Feature", "properties": {"type": "way", "id": 47131623, "tags": {"barrier": "city_wall", "bic:criteria": "M", "bic:inscription_date": "1924-02-07", "heritage": "2", "heritage:operator": "mecd", "heritage:website": "http://www.culturaydeporte.gob.es/cultura-mecd/areas-cultura/patrimonio/bienes-culturales-protegidos.html", "historic": "heritage", "image": "https://commons.wikimedia.org/wiki/File:Vista_del_Castillo_y_la_Bas\u00edcila_de_la_Encina_desde_El_Pajariel.jpg?uselang=de", "name": "Castillo de Ponferrada", "protection_title": "Bien de Inter\u00e9s Cultural", "protection_title:category": "monument", "ref:bic": "(R.I.) - 51 - 0000264 - 00000", "type": "fortress", "wikidata": "Q1049270", "wikimedia_commons": "File:Vista_del_Castillo_y_la_Bas\u00edcila_de_la_Encina_desde_El_Pajariel.jpg?uselang=de", "wikipedia": "es:Castillo de Ponferrada"}}, "geometry": {"type": "Point", "coordinates": [-6.5936667, 42.5440165]}}, {"type": "Feature", "properties": {"type": "way", "id": 47854892, "tags": {"area": "yes", "barrier": "city_wall", "heritage": "1", "heritage:operator": "whc", "historic": "citywalls", "name": "Dalt Vila", "tourism": "attraction"}}, "geometry": {"type": "Point", "coordinates": [1.4361944, 38.9073526]}}, {"type": "Feature", "properties": {"type": "way", "id": 48151007, "tags": {"amenity": "place_of_worship", "building": "church", "denomination": "catholic", "heritage": "2", "heritage:operator": "mecd", "heritage:website": "https://www.culturaydeporte.gob.es/cultura/patrimonio/bienes-culturales-protegidos.html", "historic": "church", "name": "Nuestra Se\u00f1ora del Azogue", "protection_title": "Bien de Inter\u00e9s Cultural", "protection_title:category": "Monumento", "religion": "christian", "wheelchair": "limited", "wikidata": "Q5909672", "wikipedia": "es:Iglesia de Santa Mar\u00eda del Azogue (Puebla de Sanabria)"}}, "geometry": {"type": "Point", "coordinates": [-6.633807, 42.0546967]}}, {"type": "Feature", "properties": {"type": "way", "id": 49734773, "tags": {"building": "roof", "heritage": "1", "heritage:operator": "whc", "name": "Yacimientos de la Sierra de Atapuerca", "source": "ITACyL", "tourism": "attraction", "wikipedia": "ca:Jaciment arqueol\u00f2gic d'Atapuerca"}}, "geometry": {"type": "Point", "coordinates": [-3.5195505, 42.3488658]}}, {"type": "Feature", "properties": {"type": "way", "id": 51260215, "tags": {"addr:city": "Barcelona", "addr:housename": "Bas\u00edlica de Santa Maria del Mar", "addr:housenumber": "1", "addr:postcode": "08003", "addr:street": "Pla\u00e7a Santa Maria", "amenity": "place_of_worship", "building": "church", "denomination": "catholic", "heritage": "2", "heritage:operator": "mecd", "name": "Bas\u00edlica de Santa Maria del Mar", "name:ko": "\uc0b0\ud0c0\ub9c8\ub9ac\uc544 \ub378 \ub9c8\ub974 \uc131\ub2f9", "name:ru": "\u0411\u0430\u0437\u0438\u043b\u0438\u043a\u0430 \u0421\u0430\u043d\u0442\u0430-\u041c\u0430\u0440\u0438\u044f-\u0434\u0435\u043b\u044c-\u041c\u0430\u0440", "name:zh": "\u677e\u6a39\u8056\u6bcd\u8056\u6bbf", "protection_title": "Bien de Inter\u00e9s Cultural", "protection_title:category": "Monumento hist\u00f3rico", "ref:bic": "RI-51-0000421", "religion": "christian", "start_date": "1329", "tourism": "attraction", "wikidata": "Q908802", "wikipedia": "ca:Santa Maria del Mar"}}, "geometry": {"type": "Point", "coordinates": [2.1820034, 41.3838035]}}, {"type": "Feature", "properties": {"type": "way", "id": 56659827, "tags": {"amenity": "theatre", "bic:inscription_date": "2021-01-13", "building": "yes", "heritage": "2", "name": "Teatre Principal D'Olot", "protection_title": "Bien de Inter\u00e9s Cultural", "protection_title:category": "Monumento hist\u00f3rico", "wikidata": "Q18005978", "wikipedia": "ca:Teatre Principal (Olot)"}}, "geometry": {"type": "Point", "coordinates": [2.4871903, 42.1824938]}}, {"type": "Feature", "properties": {"type": "way", "id": 59608582, "tags": {"heritage": "1", "heritage:operator": "whc", "leisure": "nature_reserve", "name": "Parque Natural Las M\u00e9dulas", "wikipedia": "es:Las M\u00e9dulas"}}, "geometry": {"type": "Point", "coordinates": [-6.766167, 42.4569405]}}, {"type": "Feature", "properties": {"type": "way", "id": 60435858, "tags": {"amenity": "place_of_worship", "building": "church", "denomination": "catholic", "fref": "RI-51-0000438", "heritage": "2", "name": "Esgl\u00e9sia de Santa Eug\u00e8nia de Berga", "religion": "christian", "start_date": "s.XI", "wikidata": "Q543069", "wikipedia": "ca:Esgl\u00e9sia de Santa Eug\u00e8nia de Berga"}}, "geometry": {"type": "Point", "coordinates": [2.2833089, 41.9002182]}}, {"type": "Feature", "properties": {"type": "way", "id": 66345216, "tags": {"amenity": "place_of_worship", "building": "yes", "denomination": "catholic", "heritage": "1", "heritage:operator": "whc", "historic": "heritage", "name": "Santa Mar\u00eda del Naranco", "religion": "christian", "wikidata": "Q1246842", "wikipedia": "es:Santa Mar\u00eda del Naranco"}}, "geometry": {"type": "Point", "coordinates": [-5.8659905, 43.3790628]}}, {"type": "Feature", "properties": {"type": "way", "id": 66345229, "tags": {"amenity": "place_of_worship", "building": "yes", "denomination": "catholic", "heritage": "1", "heritage:operator": "whc", "historic": "heritage", "name": "San Miguel de Lillo", "religion": "christian", "wikidata": "Q1812874", "wikipedia": "es:San Miguel de Lillo"}}, "geometry": {"type": "Point", "coordinates": [-5.8683723, 43.3802996]}}, {"type": "Feature", "properties": {"type": "way", "id": 66713401, "tags": {"architect": "Antoni Gaudi", "heritage": "1", "heritage:operator": "whc", "historic": "heritage", "int_name": "Park G\u00fcell", "leisure": "park", "name": "Park G\u00fcell", "name:en": "Park Guell", "name:es": "Parc G\u00fcell", "name:he": "\u05e4\u05d0\u05e8\u05e7 \u05d2\u05d5\u05d0\u05dc", "name:ko": "\uad6c\uc5d8 \uacf5\uc6d0", "name:ru": "\u041f\u0430\u0440\u043a \u0413\u0443\u044d\u043b\u044f", "name:uk": "\u041f\u0430\u0440\u043a \u0490\u0443\u0435\u043b\u044c", "name:zh": "\u53e4\u57c3\u5c14\u516c\u56ed", "opening_hours": "Jan 01-Mar 24,Oct 28-Dec 31 08:30-18:15; Mar 25-Apr 29 08:00-20:30; Apr 30-Aug 26 08:00-21:30", "ref:whc": "320-001", "tourism": "attraction", "website": "https://www.parkguell.cat/", "whc:inscription_date": "1984", "wheelchair": "limited", "wikidata": "Q212867", "wikipedia": "ca:Park G\u00fcell"}}, "geometry": {"type": "Point", "coordinates": [2.1516124, 41.4141561]}}, {"type": "Feature", "properties": {"type": "way", "id": 74483005, "tags": {"barrier": "fence", "fence_type": "metal", "heritage": "1", "heritage:operator": "whc", "historic": "archaeological_site", "historic:civilization": "ancient_roman", "name": "Los Columbarios", "ref:whc": "664-011", "source": "local_knowledge", "tourism": "attraction", "whc:inscription_date": "1993"}}, "geometry": {"type": "Point", "coordinates": [-6.3387789, 38.9123839]}}, {"type": "Feature", "properties": {"type": "way", "id": 74483026, "tags": {"building": "roof", "heritage": "1", "heritage:operator": "whc", "historic": "archaeological_site", "historic:civilization": "ancient_roman", "name": "Casa del Mitreo", "ref:whc": "664-011", "ruins": "yes", "source": "local_knowledge", "tourism": "attraction", "whc:inscription_date": "1993", "wikidata": "Q43176182"}}, "geometry": {"type": "Point", "coordinates": [-6.3411019, 38.9111927]}}, {"type": "Feature", "properties": {"type": "way", "id": 87292930, "tags": {"alt_name": "Pont des Diables;Pont del diable", "bicycle": "no", "bridge": "aqueduct", "heritage": "1", "highway": "footway", "historic": "aqueduct", "historic:civilization": "ancient_roman", "inscription": "Pont des diables", "layer": "1", "name": "Aq\u00fceducte de les Ferreres", "name:ca": "Aq\u00fceducte de les Ferreres", "name:fr": "Aqueduc de Tarragone", "tourism": "attraction", "width": "0.5", "wikidata": "Q623448", "wikipedia": "en:Les Ferreres Aqueduct"}}, "geometry": {"type": "Point", "coordinates": [1.2438975, 41.1459284]}}, {"type": "Feature", "properties": {"type": "way", "id": 92528618, "tags": {"barrier": "city_wall", "castle_type": "defensive", "colour": "#BD7841", "description": "Moorish palace and fortress complex.", "dog": "no", "heritage": "1", "heritage:operator": "whc", "historic": "castle", "name": "Alhambra", "name:es": "Alhambra", "name:he": "\u05d0\u05dc\u05d4\u05de\u05d1\u05e8\u05d4", "name:ko": "\uc54c\ub78c\ube0c\ub77c", "name:ru": "\u0410\u043b\u044c\u0433\u0430\u043c\u0431\u0440\u0430", "ref:whc": "314-001", "tourism": "attraction", "wikidata": "Q47476", "wikipedia": "es:Alhambra"}}, "geometry": {"type": "Point", "coordinates": [-3.5890424, 37.1760592]}}, {"type": "Feature", "properties": {"type": "way", "id": 95095712, "tags": {"alt_name": "Torre Vig\u00eda de Las Palomas", "bic:inscription_date": "1993-06-22", "building": "yes", "heritage": "2", "heritage:operator": "mecd", "heritage:website": "http://www.mecd.gob.es/cultura-mecd/areas-cultura/patrimonio/bienes-culturales-protegidos.html", "historic": "tower", "historic:civilization": "modern", "man_made": "tower", "name": "Torre de Las Palomas", "protection_title": "Bien de Inter\u00e9s Cultural", "protection_title:category": "Monumento", "ref:bic": "RI-51-0008050", "ruins": "yes", "source": "ideandalucia.es 2008", "tower:type": "watchtower", "wikidata": "Q43138200", "wikimedia_commons": "Category:Torre de las Palomas"}}, "geometry": {"type": "Point", "coordinates": [-4.3275608, 36.7122188]}}, {"type": "Feature", "properties": {"type": "way", "id": 102526725, "tags": {"amenity": "place_of_worship", "building": "yes", "denomination": "roman_catholic", "heritage": "2", "historic": "monument", "image": "https://www.wikidata.org/wiki/Q5549765#/media/File:Loja_Campanario.jpg", "name": "Iglesia de la Encarnaci\u00f3n", "ref:bic": "RI-51-0004376-00000", "religion": "christian", "wikidata": "Q5549765", "wikimedia_commons": "Category:Iglesia de la Encarnaci\u00f3n, Loja"}}, "geometry": {"type": "Point", "coordinates": [-4.1523984, 37.1663893]}}, {"type": "Feature", "properties": {"type": "way", "id": 103929827, "tags": {"addr:city": "Lasarte", "addr:country": "ES", "addr:housenumber": "11", "addr:postcode": "01194", "addr:province": "Araba/\u00c1lava", "addr:street": "Kale Nagusia/Calle Mayor", "amenity": "place_of_worship", "bic:criteria": "M", "building": "yes", "denomination": "roman_catholic", "heritage": "2", "heritage:operator": "mecd", "name": "Iglesia de Lasarte", "protection_title": "Bien de Inter\u00e9s Cultural", "protection_title:category": "Monumento", "ref:bic": "RI-51-0000361", "religion": "christian", "wikidata": "Q9006906", "wikipedia": "es:Iglesia de Nuestra Se\u00f1ora de la Asunci\u00f3n (Lasarte)"}}, "geometry": {"type": "Point", "coordinates": [-2.6906078, 42.8190656]}}, {"type": "Feature", "properties": {"type": "way", "id": 105660043, "tags": {"amenity": "place_of_worship", "bic:inscription_date": "1951-06-01", "building": "chapel", "building:levels": "2", "denomination": "catholic", "heritage": "2", "heritage:operator": "mecd", "historic": "chapel", "name": "Santuario de Nuestra Se\u00f1ora de Salas", "protection_title": "Bien de Inter\u00e9s Cultural", "protection_title:category": "Monumento", "ref:bic": "RI-51-0001237-00000", "ref:sipca": "7-INM-HUE-006-125-005", "religion": "christian", "start_date": "C13", "wikidata": "Q43090995"}}, "geometry": {"type": "Point", "coordinates": [-0.3903013, 42.1284888]}}, {"type": "Feature", "properties": {"type": "way", "id": 110229892, "tags": {"addr:housenumber": "1", "addr:postcode": "29016", "addr:street": "Avenida de Pr\u00edes", "alt_name": "Cementerio de San Jorge; Cementerio Anglicano", "alt_name:en": "Saint George's British Cemetery", "bic:inscription_date": "2012-11-20", "denomination": "anglican", "email": "info@cementerioinglesmalaga.org", "fee": "yes", "heritage": "2", "heritage:operator": "mecd", "heritage:website": "https://www.culturaydeporte.gob.es/cultura/patrimonio/bienes-culturales-protegidos.html", "historic": "cemetery", "landuse": "cemetery", "name": "Cementerio Ingl\u00e9s de M\u00e1laga", "name:en": "The English Cemetery in M\u00e1laga", "name:es": "Cementerio Ingl\u00e9s de M\u00e1laga", "opening_hours": "Mo-Fr 9:00-15:00;Sa-Mo 10:30-15:00", "operator": "Fundaci\u00f3n Cementerio Ingl\u00e9s de M\u00e1laga", "operator:en": "The English Cemetery in Malaga Foundation", "owner": "Fundaci\u00f3n Cementerio Ingl\u00e9s de M\u00e1laga", "owner:en": "The English Cemetery in Malaga Foundation", "phone": "+34 952 223 552", "protection_title": "Bien de Inter\u00e9s Cultural", "protection_title:category": "Monumento", "religion": "christian", "start_date": "1831", "tourism": "attraction", "website": "https://cementerioinglesmalaga.org/", "wikidata": "Q5378201", "wikimedia_commons": "Category:Anglican_Cemetery,_M\u00e1laga", "wikipedia": "es:Cementerio Ingl\u00e9s (M\u00e1laga)"}}, "geometry": {"type": "Point", "coordinates": [-4.4068238, 36.7216854]}}, {"type": "Feature", "properties": {"type": "way", "id": 118250717, "tags": {"bic:criteria": "M", "building": "yes", "heritage": "2", "historic": "monument", "image": "File:Espinosa de los Monteros Palacio Chiloeches.jpg", "name": "Palacio de los Chiloeches", "protection_title:category": "Monumento", "ref": "17", "ref:bic": "RI-51-0007099", "tourism": "attraction", "wikidata": "Q6057894", "wikimedia_commons": "Category:Chiloeches Palace, Espinosa de los Monteros", "wikipedia": "es:Palacio de Chiloeches (Espinosa de los Monteros)"}}, "geometry": {"type": "Point", "coordinates": [-3.5514439, 43.0769066]}}, {"type": "Feature", "properties": {"type": "way", "id": 132514125, "tags": {"addr:housenumber": "24-26", "addr:street": "Carrer de les Carolines", "architect": "Antoni Gaud\u00ed i Cornet", "architect:wikidata": "Q25328", "building": "house", "building:levels": "3", "building:levels:underground": "1", "castle_type": "palace", "fee": "yes", "heritage": "1", "heritage:operator": "whc", "historic": "castle", "name": "Casa Vicens", "name:he": "\u05e7\u05d0\u05d6\u05d4 \u05d5\u05d9\u05e1\u05e0\u05e1", "name:ru": "\u0411\u0430\u043b\u043a\u043e\u043d \u0413\u0430\u0443\u0434\u0438 Casa Vicens", "name:zh": "\u6587\u68ee\u4e4b\u5bb6", "opening_hours": "PH,Mo-Su 10:00-20:00; Dec 25,Jan 1,Jan 6 off", "opening_hours:url": "https://casavicens.org/prepare-your-visit/", "phone": "+34935475980", "ref:whc": "320", "source": "Catastro Espana", "tourism": "attraction", "website": "https://casavicens.org/", "whc:criteria": "(i)(ii)(iv)", "whc:inscription_date": "1984", "wheelchair": "yes", "wikidata": "Q746333", "wikipedia": "ca:Casa Vicens"}}, "geometry": {"type": "Point", "coordinates": [2.1506266, 41.4034992]}}, {"type": "Feature", "properties": {"type": "way", "id": 141045099, "tags": {"building": "yes", "castle_type": "stately", "heritage": "2", "historic": "castle", "image": "https://commons.wikimedia.org/wiki/File:Arbelaitz_jauregia.jpg", "name": "Palacio de Arbelaitz", "tourism": "attraction"}}, "geometry": {"type": "Point", "coordinates": [-1.7881836, 43.3390425]}}, {"type": "Feature", "properties": {"type": "way", "id": 148187530, "tags": {"barrier": "city_wall", "building": "yes", "heritage": "2", "historic": "yes", "layer": "2"}}, "geometry": {"type": "Point", "coordinates": [-1.7912741, 43.3618051]}}, {"type": "Feature", "properties": {"type": "way", "id": 151332587, "tags": {"addr:housename": "Porta de Carlos V", "barrier": "city_wall", "building": "yes", "designation": "Porta de Carlos V", "heritage": "2", "heritage:operator": "mecd", "historic": "city_gate", "material": "stone", "name": "Porta de Carlos V", "name:es": "Puerta de Carlos V", "name:gl": "Porta de Carlos V", "protection_title": "Bien de Inter\u00e9s Cultural", "protection_title:category": "monument", "ref:bic": "RI-51-0001115", "source": "Ministerio de Cultura", "wheelchair": "yes", "wikidata": "Q6091868", "wikipedia": "gl:Porta de Carlos V"}}, "geometry": {"type": "Point", "coordinates": [-7.5962684, 43.6623113]}}, {"type": "Feature", "properties": {"type": "way", "id": 152829747, "tags": {"heritage": "1", "heritage:operator": "whc", "historic": "archaeological_site", "historic:civilization": "ancient_roman", "name": "Casa del Anfiteatro", "ref:whc": "664-005", "ruins": "yes", "whc:inscription_date": "1993", "wikidata": "Q43176197"}}, "geometry": {"type": "Point", "coordinates": [-6.3378439, 38.917592]}}, {"type": "Feature", "properties": {"type": "way", "id": 152837480, "tags": {"area": "yes", "heritage": "1", "heritage:operator": "whc", "historic": "archaeological_site", "historic:civilization": "ancient_roman", "layer": "1", "name": "Circo Romano de M\u00e9rida", "ref:whc": "664-010", "site_type": "roman_circus", "whc:inscription_date": "1993", "wikidata": "Q1984155", "wikipedia": "es:Circo romano de M\u00e9rida"}}, "geometry": {"type": "Point", "coordinates": [-6.3321329, 38.9200261]}}, {"type": "Feature", "properties": {"type": "way", "id": 153254035, "tags": {"designation": "presa romana de Cornalvo", "heritage": "1", "heritage:operator": "whc", "historic": "archaeological_site", "name": "presa romana de Cornalvo", "ref:whc": "664-013", "waterway": "dam", "whc:inscription_date": "1993", "wikidata": "Q1133155", "wikipedia": "es:Embalse de Cornalvo"}}, "geometry": {"type": "Point", "coordinates": [-6.1913561, 38.9886736]}}, {"type": "Feature", "properties": {"type": "way", "id": 154706128, "tags": {"addr:city": "Santa Coloma de Cervell\u00f3", "addr:postcode": "08690", "addr:street": "Carrer de Reixach", "amenity": "place_of_worship", "architect": "Antoni Gaudi", "building": "church", "denomination": "catholic", "email": "coloniaguell@adleisure.com", "heritage": "1", "heritage:operator": "whc", "historic": "heritage", "name": "Cripta de la Col\u00f2nia G\u00fcell", "phone": "+34 93 630 58 07", "ref:whc": "320-007", "religion": "christian", "website": "http://www.gaudicoloniaguell.org/", "whc:inscription_date": "2005", "wheelchair": "yes", "wikidata": "Q2160663", "wikipedia": "ca:Cripta de la Col\u00f2nia G\u00fcell"}}, "geometry": {"type": "Point", "coordinates": [2.0278596, 41.3637521]}}, {"type": "Feature", "properties": {"type": "way", "id": 157741431, "tags": {"alt_name": "Hospital visigodo", "heritage": "1", "heritage:operator": "whc", "historic": "archaeological_site", "name": "Xenodoquio", "ref:whc": "664-007", "whc:inscription_date": "1993"}}, "geometry": {"type": "Point", "coordinates": [-6.3377736, 38.9209812]}}, {"type": "Feature", "properties": {"type": "way", "id": 157977944, "tags": {"building": "yes", "heritage": "2", "historic": "yes", "image": "https://commons.wikimedia.org/wiki/File:Casa_Casdevante.jpg", "name": "Casa Casadevante", "name:es": "Palacio de Casadevante", "name:eu": "Casadevante jauregia", "wikidata": "Q20492255", "wikipedia": "eu:Casadevante jauregia"}}, "geometry": {"type": "Point", "coordinates": [-1.7911299, 43.3626473]}}, {"type": "Feature", "properties": {"type": "way", "id": 157977950, "tags": {"building": "yes", "heritage": "2", "historic": "yes", "image": "https://commons.wikimedia.org/wiki/File:Casa_Etxebeste.jpg", "name": "Casa Etxebeste", "wikidata": "Q19669071", "wikipedia": "eu:Etxebeste dorretxea"}}, "geometry": {"type": "Point", "coordinates": [-1.7909249, 43.3619251]}}, {"type": "Feature", "properties": {"type": "way", "id": 159693570, "tags": {"amenity": "place_of_worship", "building": "yes", "denomination": "catholic", "heritage": "2", "historic": "monastery", "name": "Monestir de Sant Quirze de Colera", "old_name": "Sant Quirc de Colera", "ref": "RI-51-000562", "religion": "christian", "ruins": "yes", "start_date": "935", "tourism": "attraction", "wikidata": "Q6746492", "wikipedia": "ca:Monestir de Sant Quirze de Colera"}}, "geometry": {"type": "Point", "coordinates": [3.0588943, 42.4162793]}}, {"type": "Feature", "properties": {"type": "way", "id": 159877715, "tags": {"bic:criteria": "M", "building": "yes", "heritage": "2", "historic": "monument", "image": "File:Palacio de los Fern\u00e1ndez Villa.JPG", "name": "Torre Palacio de los Fern\u00e1ndez Villa", "operator": "Mantequer\u00eda Las Nieves", "phone": "+34947120043", "protection_title:category": "Monumento", "ref": "10", "ref:bic": "RI-51-0008323", "tourism": "attraction", "website": "http://restaurantelamantequeria.com/", "wikidata": "Q6058416", "wikimedia_commons": "Category:Fern\u00e1ndez-Villa's Palace, Espinosa de los Monteros", "wikipedia": "es:Palacio de los Fern\u00e1ndez-Villa (Espinosa de los Monteros)"}}, "geometry": {"type": "Point", "coordinates": [-3.5479638, 43.0755692]}}, {"type": "Feature", "properties": {"type": "way", "id": 160718300, "tags": {"amenity": "place_of_worship", "building": "yes", "denomination": "catholic", "heritage": "2", "name": "Monestir de Santa Maria de Ripoll", "ref:bcin": "182-MH", "ref:bic": "RI-51-0000567", "religion": "christian", "start_date": "880", "wikipedia": "ca:Monestir de Santa Maria de Ripoll"}}, "geometry": {"type": "Point", "coordinates": [2.1908167, 42.2014251]}}, {"type": "Feature", "properties": {"type": "way", "id": 166565579, "tags": {"addr:city": "Barcelona", "addr:housenumber": "3-5", "addr:postcode": "08001", "addr:street": "Carrer Nou de la Rambla", "architect": "Antoni Gaud\u00ed", "building": "palace", "building:levels": "5", "building:levels:underground": "1", "castle_type": "palace", "fee": "yes", "fee:conditional": "no @ (Su[1]; May 21,Apr 23,Sep 11,Sep 24)", "heritage": "1", "heritage:operator": "whc", "historic": "castle", "name": "Palau G\u00fcell", "name:es": "Palacio G\u00fcell", "name:he": "\u05e4\u05dc\u05d0\u05d5 \u05d2\u05d5\u05d0\u05dc", "name:ko": "\uad6c\uc5d8 \uad81\uc804", "name:ru": "\u0414\u0432\u043e\u0440\u0435\u0446 \u0413\u0443\u044d\u043b\u044f", "name:zh": "\u594e\u723e\u5bae", "opening_hours": "Apr-Oct 10:00-20:00; Nov-Mar 10:00-17:30", "ref:whc": "320-002", "tourism": "attraction", "website": "https://palauguell.cat/", "whc:inscription_date": "1984", "wikidata": "Q597051", "wikipedia": "ca:Palau G\u00fcell"}}, "geometry": {"type": "Point", "coordinates": [2.1742337, 41.3788127]}}, {"type": "Feature", "properties": {"type": "way", "id": 174179237, "tags": {"amenity": "place_of_worship", "denomination": "roman_catholic", "heritage": "1", "heritage:operator": "whc", "landuse": "religious", "name": "Reial Monestir de Santa Maria de Poblet", "name:el": "\u039c\u03bf\u03bd\u03ae \u03a0\u03bf\u03bc\u03c0\u03bb\u03ad\u03c4", "name:es": "Real Monasterio de Santa Mar\u00eda de Poblet", "opening_hours": "Mo-Su 15:00-17:25", "operator": "SOC", "ref:whc": "518rev", "religion": "christian", "source": "Bing", "website": "http://www.poblet.cat", "whc:criteria": "1;4", "whc:inscription_date": "1991", "wheelchair": "yes", "wikidata": "Q645157", "wikipedia": "ca:Reial Monestir de Santa Maria de Poblet"}}, "geometry": {"type": "Point", "coordinates": [1.0827355, 41.3810774]}}, {"type": "Feature", "properties": {"type": "way", "id": 174630254, "tags": {"heritage": "1", "heritage:operator": "whc", "leisure": "nature_reserve", "name": "Parc natural de ses Salines", "name:ca": "Parc natural de ses Salines", "name:es": "Parque natural de las Salinas", "source": "http://www.caib.es/sacmicrofront/archivopub.do?ctrl=MCRST34ZI79465&id=79465", "wikipedia": "ca:Parc natural de ses Salines"}}, "geometry": {"type": "Point", "coordinates": [1.4131203, 38.8040627]}}, {"type": "Feature", "properties": {"type": "way", "id": 184154065, "tags": {"addr:housenumber": "78", "addr:postcode": "29015", "addr:street": "Calle Granada", "amenity": "place_of_worship", "bic:inscription_date": "2006-11-21", "building": "church", "building:levels": "2", "denomination": "catholic", "heritage": "2", "heritage:operator": "mecd", "heritage:website": "http://www.mecd.gob.es", "historic": "church", "name": "Iglesia de Santiago", "protection_title": "Bien de Inter\u00e9s Cultural", "protection_title:category": "Monumento", "ref:bic": "RI-51-0012062", "religion": "christian", "wheelchair": "yes", "wikidata": "Q5912117", "wikipedia": "es:Iglesia de Santiago Ap\u00f3stol (M\u00e1laga)"}}, "geometry": {"type": "Point", "coordinates": [-4.4175094, 36.7223338]}}, {"type": "Feature", "properties": {"type": "way", "id": 187454826, "tags": {"addr:city": "Irun", "addr:country": "ES", "addr:housenumber": "1", "addr:postcode": "20305", "addr:street": "Jaizubia Hiribidea", "b5m:id": "D_223640", "b5m:url": "http://b5m.gipuzkoa.net/b5map/r1/eu/mapa/lekutu/D_223640", "b5m:urlOrto": "http://b5m.gipuzkoa.net/url5000/index.php?id=D_223640&lengua=1&actu=0&categoria=VITO_FOTO", "building": "yes", "castle_type": "stately", "heritage": "2", "historic": "castle", "image": "https://commons.wikimedia.org/wiki/File:Urdanibia_jauregia.jpg", "name": "Urdanibia jauregia", "source": "b5m", "tourism": "attraction", "wikidata": "Q12268627"}}, "geometry": {"type": "Point", "coordinates": [-1.8201433, 43.3394965]}}, {"type": "Feature", "properties": {"type": "way", "id": 188740674, "tags": {"amenity": "place_of_worship", "bic:inscription_date": "20/07/1984", "building": "yes", "denomination": "catholic", "heritage": "2", "heritage:operator": "mecd", "heritage:website": "https://www.culturaydeporte.gob.es/cultura/patrimonio/bienes-culturales-protegidos.html", "name": "Santa Maria del Castell", "protection_title": "Bien de Inter\u00e9s Cultural", "protection_title:category": "Monumento", "ref:bic": "115-MH-EN", "religion": "christian", "wikidata": "Q11947629", "wikimedia_commons": "Category:Esgl\u00e9sia de Santa Maria del Castell de Cubells", "wikipedia": "ca:Santa Maria del Castell de Cubells"}}, "geometry": {"type": "Point", "coordinates": [0.9586678, 41.8514688]}}, {"type": "Feature", "properties": {"type": "way", "id": 194897103, "tags": {"addr:housenumber": "1", "addr:street": "Plaza Mayor", "amenity": "townhall", "building": "public", "building:levels": "2", "contact:phone": "+34 980 62 00 02", "heritage": "2", "heritage:operator": "mecd", "heritage:website": "https://www.culturaydeporte.gob.es/cultura/patrimonio/bienes-culturales-protegidos.html", "name": "Ayuntamiento de Puebla de Sanabria", "protection_title": "Bien de Inter\u00e9s Cultural", "protection_title:category": "Monumento", "source:geometry": "Imagen Catastro de Espa\u00f1a", "website": "https://www.pueblasanabria.com/", "wikidata": "Q29986413"}}, "geometry": {"type": "Point", "coordinates": [-6.6339435, 42.0543134]}}, {"type": "Feature", "properties": {"type": "way", "id": 196490785, "tags": {"alt_name": "Generalife", "heritage": "1", "heritage:operator": "whc", "historic": "heritage", "leisure": "garden", "name": "Jardines Bajos del Generalife", "name:ar": "\u062d\u062f\u0627\u0626\u0642 \u0627\u0644\u062c\u0646\u0629", "name:en": "Generalife Gardens", "name:ko": "\ud5e4\ub124\ub784\ub9ac\ud398", "ref:whc": "314-001", "tourism": "attraction", "wikidata": "Q72624765", "wikipedia": "es:Generalife"}}, "geometry": {"type": "Point", "coordinates": [-3.5850739, 37.1769498]}}, {"type": "Feature", "properties": {"type": "way", "id": 197867117, "tags": {"amenity": "place_of_worship", "building": "yes", "denomination": "catholic", "heritage": "1", "heritage:operator": "whc", "historic": "heritage", "name": "Sant Climent de Ta\u00fcll", "religion": "christian", "wikidata": "Q2117586", "wikipedia": "ca:Sant Climent de Ta\u00fcll"}}, "geometry": {"type": "Point", "coordinates": [0.8486664, 42.5174484]}}, {"type": "Feature", "properties": {"type": "way", "id": 197867118, "tags": {"amenity": "place_of_worship", "denomination": "catholic", "heritage": "1", "heritage:operator": "whc", "historic": "heritage", "name": "Sant Quirc de Durro", "religion": "christian", "wikidata": "Q3056759", "wikipedia": "ca:Sant Quirc de Durro"}}, "geometry": {"type": "Point", "coordinates": [0.8115833, 42.4951046]}}, {"type": "Feature", "properties": {"type": "way", "id": 198504959, "tags": {"amenity": "monastery", "building": "church", "denomination": "catholic", "heritage": "1", "heritage:operator": "whc", "historic": "heritage", "name": "Monasterio de Suso", "name:eu": "Susoko monasterioa", "religion": "christian", "tourism": "attraction", "wikidata": "Q2572709", "wikipedia": "es:Monasterio de San Mill\u00e1n de Suso"}}, "geometry": {"type": "Point", "coordinates": [-2.8727111, 42.3293769]}}, {"type": "Feature", "properties": {"type": "way", "id": 202213492, "tags": {"building": "yes", "heritage": "1", "heritage:operator": "whc", "historic": "ruins", "name": "Acueducto de los Milagros", "name:zh": "\u6c34\u9053\u6a4b", "ref:whc": "664-001", "whc:inscription_date": "1993", "wikipedia": "es:Acueducto de los Milagros"}}, "geometry": {"type": "Point", "coordinates": [-6.3478941, 38.9239468]}}, {"type": "Feature", "properties": {"type": "way", "id": 202213495, "tags": {"building": "yes", "heritage": "1", "heritage:operator": "whc", "historic": "archaeological_site", "historic:civilization": "ancient_roman", "name": "Templo de Diana", "name:zh": "\u9edb\u5b89\u5a1c\u795e\u6bbf", "ref:whc": "664-020", "whc:inscription_date": "1993", "wikidata": "Q18808444", "wikipedia": "es:Templo de Diana (M\u00e9rida)"}}, "geometry": {"type": "Point", "coordinates": [-6.3443658, 38.9165376]}}, {"type": "Feature", "properties": {"type": "way", "id": 202213521, "tags": {"heritage": "1", "heritage:operator": "whc", "historic": "archaeological_site", "historic:civilization": "ancient_roman", "name": "Arco de Trajano", "name:en": "Trajan Arch", "name:es": "Arco de Trajano", "name:ru": "\u0410\u0440\u043a\u0430 \u0422\u0440\u043e\u044f\u043d\u0430", "ref:whc": "664-006", "tourism": "attraction", "whc:inscription_date": "1993", "wikipedia": "es:Arco de Trajano (M\u00e9rida)"}}, "geometry": {"type": "Point", "coordinates": [-6.3464283, 38.9178344]}}, {"type": "Feature", "properties": {"type": "way", "id": 210655995, "tags": {"heritage": "2", "historic": "yes", "man_made": "tower", "name": "Torre de Vallferosa", "ref:BIC": "RI-51-0006509", "start_date": "970", "tourism": "attraction", "tower:type": "defensive", "wikidata": "Q9088961", "wikipedia": "ca:Torre de Vallferosa"}}, "geometry": {"type": "Point", "coordinates": [1.4454586, 41.8616997]}}, {"type": "Feature", "properties": {"type": "way", "id": 213845833, "tags": {"amenity": "place_of_worship", "building": "church", "denomination": "roman_catholic", "heritage": "1", "heritage:operator": "whc", "historic": "heritage", "name": "Bas\u00edlica de Santa Eulalia", "ref:whc": "664-009", "religion": "christian", "whc:inscription_date": "1993", "wikidata": "Q5722039", "wikipedia": "es:Bas\u00edlica de Santa Eulalia (M\u00e9rida)"}}, "geometry": {"type": "Point", "coordinates": [-6.3419809, 38.9207376]}}, {"type": "Feature", "properties": {"type": "way", "id": 216968824, "tags": {"alt_name": "Catedral de Santa Mar\u00eda de Huesca", "amenity": "place_of_worship", "bic:inscription_date": "1931-06-03", "building": "church", "denomination": "roman_catholic", "heritage": "2", "heritage:operator": "mecd", "historic": "church", "name": "Iglesia Catedral de la Transfiguraci\u00f3n del Se\u00f1or", "protection_title": "Bien de Inter\u00e9s Cultural", "protection_title:category": "Monumento", "ref:bic": "RI-51-0000626-00000", "religion": "christian", "start_date": "C13", "wikidata": "Q2942691", "wikipedia": "es:Catedral de Santa Mar\u00eda de Huesca"}}, "geometry": {"type": "Point", "coordinates": [-0.4081212, 42.1404457]}}, {"type": "Feature", "properties": {"type": "way", "id": 216968828, "tags": {"addr:housenumber": "4", "addr:postcode": "22002", "addr:street": "Plaza de Navarra", "bic:inscription_date": "2007-01-03", "building": "yes", "building:colour": "#fff5ee", "heritage": "2", "heritage:operator": "mecd", "historic": "building", "loc_name": "Casino", "name": "Edificio del C\u00edrculo Oscense", "protection_title": "Bien de Inter\u00e9s Cultural", "protection_title:category": "Monumento", "ref:bic": "RI-51-0012066-00000", "start_date": "1901", "tourism": "attraction", "wikidata": "Q5796522"}}, "geometry": {"type": "Point", "coordinates": [-0.4096146, 42.136162]}}, {"type": "Feature", "properties": {"type": "way", "id": 216968841, "tags": {"amenity": "place_of_worship", "bic:inscription_date": "2005-03-29", "building": "church", "denomination": "roman_catholic", "heritage": "2", "heritage:operator": "mecd", "historic": "church", "name": "Iglesia de Santo Domingo y San Mart\u00edn", "protection_title": "Bien de Inter\u00e9s Cultural", "protection_title:category": "Monumento", "ref:bic": "RI-51-0011233-00000", "religion": "christian", "start_date": "C17", "wikidata": "Q5912238"}}, "geometry": {"type": "Point", "coordinates": [-0.4044754, 42.1390484]}}, {"type": "Feature", "properties": {"type": "way", "id": 219150698, "tags": {"amenity": "place_of_worship", "building": "yes", "denomination": "catholic", "heritage": "1", "heritage:operator": "whc", "historic": "heritage", "name": "Santa Cristina de Lena", "name:ast": "Santa Cristina de \u1e36\u1e37ena", "name:es": "Santa Cristina de Lena", "religion": "christian", "start_date": "s. IX", "tourism": "attraction", "wikidata": "Q665154", "wikipedia": "es:Santa Cristina de Lena"}}, "geometry": {"type": "Point", "coordinates": [-5.8143567, 43.1273041]}}, {"type": "Feature", "properties": {"type": "way", "id": 219154835, "tags": {"addr:city": "M\u00e9rida", "addr:housenumber": "1", "addr:postcode": "06800", "addr:street": "Plaza de Santa Mar\u00eda", "amenity": "place_of_worship", "building": "yes", "denomination": "catholic", "heritage": "1", "heritage:operator": "whc", "historic": "heritage", "name": "Concatedral de Santa Mar\u00eda la Mayor", "religion": "christian", "wikidata": "Q923396", "wikipedia": "es:Concatedral de M\u00e9rida"}}, "geometry": {"type": "Point", "coordinates": [-6.347181, 38.9165654]}}, {"type": "Feature", "properties": {"type": "way", "id": 219155036, "tags": {"building": "yes", "heritage": "1", "heritage:operator": "whc", "historic": "church", "name": "Iglesia de Santa Clara", "ref:whc": "664-012", "whc:inscription_date": "1993", "wikidata": "Q5911536", "wikipedia": "es:Iglesia de Santa Clara (M\u00e9rida)"}}, "geometry": {"type": "Point", "coordinates": [-6.3468805, 38.9171117]}}, {"type": "Feature", "properties": {"type": "way", "id": 219159024, "tags": {"heritage": "1", "heritage:operator": "whc", "historic": "archaeological_site", "name": "Necr\u00f2poli de Puig des Molins", "site_type": "necropolis", "website": "http://whc.unesco.org/en/list/417", "wikidata": "Q3346918", "wikipedia": "ca:Necr\u00f2polis cartagineses a Eivissa"}}, "geometry": {"type": "Point", "coordinates": [1.4298366, 38.9061546]}}, {"type": "Feature", "properties": {"type": "way", "id": 219226040, "tags": {"amenity": "place_of_worship", "denomination": "catholic", "heritage": "1", "heritage:operator": "whc", "historic": "heritage", "name": "Sant Feliu de Barruera", "religion": "christian", "wikidata": "Q1588443", "wikipedia": "ca:Sant Feliu de Barruera"}}, "geometry": {"type": "Point", "coordinates": [0.8024297, 42.5040259]}}, {"type": "Feature", "properties": {"type": "way", "id": 219372164, "tags": {"amenity": "place_of_worship", "building": "yes", "denomination": "catholic", "heritage": "1", "heritage:operator": "whc", "historic": "heritage", "name": "Sant Joan de Bo\u00ed", "religion": "christian", "wikidata": "Q3585406", "wikipedia": "ca:Sant Joan de Bo\u00ed"}}, "geometry": {"type": "Point", "coordinates": [0.8335733, 42.5223952]}}, {"type": "Feature", "properties": {"type": "way", "id": 219372371, "tags": {"amenity": "place_of_worship", "building": "yes", "denomination": "catholic", "heritage": "1", "heritage:operator": "whc", "historic": "heritage", "name": "Santa Eul\u00e0lia d'Erill la Vall", "religion": "christian", "wikidata": "Q1589509", "wikipedia": "ca:Santa Eul\u00e0lia d'Erill la Vall"}}, "geometry": {"type": "Point", "coordinates": [0.8255094, 42.5247946]}}, {"type": "Feature", "properties": {"type": "way", "id": 219372499, "tags": {"amenity": "place_of_worship", "building": "yes", "denomination": "catholic", "heritage": "1", "heritage:operator": "whc", "historic": "heritage", "name": "Santa Maria de l\u2019Assumpci\u00f3 de C\u00f3ll", "religion": "christian", "wikipedia": "ca:Santa Maria de C\u00f3ll"}}, "geometry": {"type": "Point", "coordinates": [0.7726521, 42.4720968]}}, {"type": "Feature", "properties": {"type": "way", "id": 219372719, "tags": {"amenity": "place_of_worship", "building": "yes", "denomination": "catholic", "heritage": "1", "heritage:operator": "whc", "historic": "heritage", "name": "Nativitat de la Mare de D\u00e9u de Durro", "religion": "christian", "wikidata": "Q977148", "wikipedia": "ca:La Nativitat de Durro"}}, "geometry": {"type": "Point", "coordinates": [0.8206828, 42.4981787]}}, {"type": "Feature", "properties": {"type": "way", "id": 219374698, "tags": {"heritage": "1", "heritage:operator": "whc", "name": "Serra de Tramuntana", "natural": "ridge", "wikipedia": "es:Sierra de Tramontana"}}, "geometry": {"type": "Point", "coordinates": [2.7052859, 39.7366997]}}, {"type": "Feature", "properties": {"type": "way", "id": 219396824, "tags": {"disused": "yes", "heritage": "1", "heritage:operator": "whc", "historic": "mine", "landuse": "quarry", "name": "Parque Minero de Almad\u00e9n", "phone": "+34 926265002", "ref:whc": "1313-001", "url": "http://www.parqueminerodealmaden.es/", "whc:inscription_date": "2012"}}, "geometry": {"type": "Point", "coordinates": [-4.8456696, 38.7754173]}}, {"type": "Feature", "properties": {"type": "way", "id": 219476542, "tags": {"alt_name": "Valle Salado", "alt_name:es": "Salinas de A\u00f1ana", "bic:criteria": "M", "heritage": "2", "heritage:operator": "mecd", "landuse": "salt_pond", "name": "A\u00f1anako Gatz harana/Valle Salado de A\u00f1ana", "name:es": "Valle Salado de A\u00f1ana", "name:eu": "A\u00f1anako Gatz harana", "natural": "water", "protection_title": "Bien de Inter\u00e9s Cultural", "protection_title:category": "Monumento", "ref:bic": "RI-51-0005132", "source": "bing", "wikidata": "Q18286647", "wikipedia": "es:Valle Salado (A\u00f1ana)"}}, "geometry": {"type": "Point", "coordinates": [-2.9857445, 42.7992813]}}, {"type": "Feature", "properties": {"type": "way", "id": 224383792, "tags": {"amenity": "monastery", "building": "monastery", "community:gender": "female", "denomination": "catholic", "heritage": "2", "historic": "yes", "name": "Monestir de Vallbona de les Monges", "ref": "RI-51-0000698", "religion": "christian", "source": "Bing", "start_date": "1153", "wikidata": "Q591491", "wikipedia": "ca:Santa Maria de Vallbona de les Monges"}}, "geometry": {"type": "Point", "coordinates": [1.0884531, 41.5244178]}}, {"type": "Feature", "properties": {"type": "way", "id": 228371109, "tags": {"amenity": "place_of_worship", "building": "cathedral", "denomination": "catholic", "heritage": "1", "heritage:operator": "whc", "heritage:operator_1": "Gobierno de Arag\u00f3n", "heritage_1": "3", "name": "Catedral de Santa Mar\u00eda", "opening_hours": "Mo-Fr 11:00-14:00,16:00-19:00", "religion": "christian", "wikidata": "Q513893", "wikipedia": "es:Catedral de Teruel"}}, "geometry": {"type": "Point", "coordinates": [-1.1072595, 40.3438549]}}, {"type": "Feature", "properties": {"type": "way", "id": 237010763, "tags": {"building": "yes", "heritage": "1", "heritage:operator": "whc", "historic": "monument", "historic:civilization": "ancient_roman", "name": "Arc de Ber\u00e0", "name:en": "Ber\u00e0 Arch", "ref:whc": "874-014", "start_date": "~13 BC", "tourism": "attraction", "whc:criteria": "(ii),(iii)", "whc:inscription_date": "2000", "wikidata": "Q631051", "wikipedia": "ca:Arc de Ber\u00e0"}}, "geometry": {"type": "Point", "coordinates": [1.4691463, 41.1733086]}}, {"type": "Feature", "properties": {"type": "way", "id": 242194700, "tags": {"area": "yes", "barrier": "fence", "heritage": "1", "heritage:operator": "whc", "historic": "archaeological_site", "name": "Conjunto arqueol\u00f3gico D\u00f3lmenes de Antequera", "name:en": "Antequera Dolmens Site", "ref:whc": "1501", "tourism": "attraction", "whc:criteria": "(i),(iii),(iv)", "whc:inscription_date": "2016", "wikidata": "Q24568174", "wikipedia": "es:Sitio de los D\u00f3lmenes de Antequera"}}, "geometry": {"type": "Point", "coordinates": [-4.5471784, 37.0243135]}}, {"type": "Feature", "properties": {"type": "way", "id": 246024017, "tags": {"alt_name": "Palacio Egiluz", "building": "yes", "castle_type": "palace", "heritage": "2", "historic": "manor", "image": "https://commons.wikimedia.org/wiki/File:Casa_de_Juana_la_Loca.jpg", "name": "Casa de Juana La Loca", "wikidata": "Q20492159"}}, "geometry": {"type": "Point", "coordinates": [-1.7920744, 43.3637123]}}, {"type": "Feature", "properties": {"type": "way", "id": 246332656, "tags": {"addr:city": "Hondarribia", "addr:country": "ES", "addr:housenumber": "8", "addr:postcode": "20280", "addr:street": "Kale Nagusia", "alt_name": "Case de Torre Alta", "b5m:id": "D_13701", "b5m:url": "http://b5m.gipuzkoa.net/b5map/r1/eu/mapa/lekutu/D_13701", "b5m:urlOrto": "http://b5m.gipuzkoa.net/url5000/index.php?id=D_13701&lengua=1&actu=0&categoria=VITO_FOTO", "castle_type": "palace", "heritage": "2", "historic": "castle", "image": "https://commons.wikimedia.org/wiki/File:Zuloaga_jauregia.jpg", "name": "Palacio Zuloaga", "source": "b5m"}}, "geometry": {"type": "Point", "coordinates": [-1.7914505, 43.3628053]}}, {"type": "Feature", "properties": {"type": "way", "id": 246755544, "tags": {"building": "yes", "heritage": "1", "historic": "archaeological_site", "name": "Vil\u00b7la Romana de Centcelles", "opening_hours": "Tu-Sa 10:00-13:30, 15:00-17:30; Su 10:00-14:00", "phone": "+34 977 52 33 74", "website": "https://www.mnat.cat/?page=centcelles-centre-info-general", "wikidata": "Q1053521", "wikipedia": "ca:Mausoleu de Centcelles"}}, "geometry": {"type": "Point", "coordinates": [1.2262657, 41.1557871]}}, {"type": "Feature", "properties": {"type": "way", "id": 255916025, "tags": {"addr:city": "A Coru\u00f1a", "addr:housenumber": "1", "addr:street": "Estrada da Torre de H\u00e9rcules", "building": "yes", "height": "68", "heritage": "1", "heritage:operator": "whc", "historic": "monument", "importance": "international", "layer": "5", "name": "Torre de H\u00e9rcules", "name:ar": "\u0628\u0631\u062c \u0647\u0631\u0642\u0644", "name:ca": "Torre d'H\u00e8rcules", "name:ceb": "Tower of Hercules", "name:de": "Herkulesturm", "name:en": "Tower of Hercules", "name:eo": "Turo de Herkulo", "name:es": "Torre de H\u00e9rcules", "name:eu": "Herkulesen Dorrea", "name:fi": "Herkuleen torni", "name:fr": "Tour d'Hercule", "name:gl": "Torre de H\u00e9rcules", "name:hi": "\u0939\u0930\u0915\u094d\u092f\u0942\u0932\u093f\u0938 \u0915\u093e \u091f\u093e\u0935\u0930", "name:it": "Torre di Ercole", "name:ja": "\u30d8\u30e9\u30af\u30ec\u30b9\u306e\u5854", "name:ko": "\ud5e4\ub77c\ud074\ub808\uc2a4\uc758 \ud0d1", "name:ml": "\u0d1f\u0d35\u0d7c \u0d13\u0d2b\u0d4d \u0d39\u0d46\u0d7c\u0d15\u0d4d\u0d15\u0d41\u0d32\u0d38\u0d4d", "name:nl": "Herculestoren", "name:pa": "\u0a39\u0a30\u0a15\u0a42\u0a32\u0a40\u0a1c\u0a3c \u0a2e\u0a40\u0a28\u0a3e\u0a30", "name:pt": "Torre de H\u00e9rcules", "name:ru": "\u0411\u0430\u0448\u043d\u044f \u0413\u0435\u0440\u043a\u0443\u043b\u0435\u0441\u0430", "name:ta": "\u0bb9\u0bc6\u0bb0\u0bcd\u0b95\u0bc1\u0bb2\u0bb8\u0bcd \u0b95\u0bcb\u0baa\u0bc1\u0bb0\u0bae\u0bcd", "name:tr": "Herk\u00fcl Kulesi", "name:vi": "Th\u00e1p H\u00e9rcules", "name:zh": "\u5927\u529b\u58eb\u5854", "opening_hours": "Jun-Sep: Mo-Su 10:00-21:00; Oct-May: Mo-Su 10:00-18:00", "ref:whc": "1312", "tourism": "attraction", "website": "http://www.torredeherculesacoruna.com/", "whc:criteria": "(iii)", "whc:inscription_date": "2009", "wikidata": "Q245151", "wikipedia": "gl:Torre de H\u00e9rcules"}}, "geometry": {"type": "Point", "coordinates": [-8.4065241, 43.3859417]}}, {"type": "Feature", "properties": {"type": "way", "id": 261583338, "tags": {"alt_name": "Torre de Punta Prima", "building": "yes", "description": "Torre de Son Ganxo o Torre de Punta Prima. Construida por los espa\u00f1oles en 1787.", "heritage": "2", "heritage:operator": "mecd", "historic": "tower", "man_made": "tower", "name": "Torre de Son Ganxo", "protection_title": "Bien de Inter\u00e9s Cultural", "protection_title:category": "monumento", "ref:bic": "RI-51-0008584", "tower:type": "observation", "wikidata": "Q9088920", "wikipedia": "es:Torre de Punta Prima"}}, "geometry": {"type": "Point", "coordinates": [4.2758312, 39.8109874]}}, {"type": "Feature", "properties": {"type": "way", "id": 268213121, "tags": {"heritage": "2", "historic": "archaeological_site", "name": "Poblat ib\u00e8ric de Ca n'Oliver", "name:ca": "Poblat ib\u00e8ric de Ca n'Oliver", "wikidata": "Q4893916", "wikipedia": "ca:Poblat ib\u00e8ric de Ca n'Oliver"}}, "geometry": {"type": "Point", "coordinates": [2.1348163, 41.4806269]}}, {"type": "Feature", "properties": {"type": "way", "id": 270053411, "tags": {"boundary": "protected_area", "heritage": "1", "heritage:operator": "whc", "name:en": "Archaeological Site of Atapuerca", "name:es": "Yacimiento Arqueol\u00f3gico de Atapuerca", "protect_class": "98", "protection_title": "Boundary of the World Heritage property. Archaeological Site of Atapuerca (Spain)", "ref:whc": "989", "whc:criteria": "(iii)(v)", "whc:inscription_date": "2000"}}, "geometry": {"type": "Point", "coordinates": [-3.5151296, 42.3481269]}}, {"type": "Feature", "properties": {"type": "way", "id": 271498820, "tags": {"amenity": "place_of_worship", "building": "yes", "building:architecture": "mud\u00e9jar", "denomination": "catholic", "heritage": "2", "heritage:operator": "mecd", "heritage:type": "religious", "historic": "church", "name": "Iglesia de Santa Mar\u00eda la Mayor", "protection_title": "BIC", "protection_title:category": "Monumento", "protection_title:inscription_date": "01-02-2006", "ref:bic": "51 - 0011341 - 00000", "religion": "christian", "start_date": "C12", "wikidata": "Q5911938", "wikipedia": "es:Iglesia de Santa Mar\u00eda la Mayor (Ar\u00e9valo)"}}, "geometry": {"type": "Point", "coordinates": [-4.719886, 41.0662421]}}, {"type": "Feature", "properties": {"type": "way", "id": 281146962, "tags": {"addr:city": "Loja", "addr:country": "ES", "addr:street": "Cuesta de las Monjas", "amenity": "monastery", "denomination": "catholic", "heritage": "2", "historic": "yes", "image": "https://commons.wikimedia.org/wiki/File:Lojastaclara.JPG", "name": "Convento de Santa Clara", "nohousenumber": "yes", "operator": "Archidiosesis de Granada", "phone": "+34 958 32 39 49", "protect_class": "22", "protection_title": "Bien de Inter\u00e9s Cultural", "protection_title:category": "Arquitect\u00f3nica", "ref:iaph": "01181220007", "religion": "christian", "source": "http://www.andalucia.org/es/turismo-cultural/visitas/granada/otras-visitas/convento-de-santa-clara", "start_date": "1527", "wikidata": "Q43113972", "wikimedia_commons": "Category:Convento de Santa Clara, Loja"}}, "geometry": {"type": "Point", "coordinates": [-4.1462207, 37.1668182]}}, {"type": "Feature", "properties": {"type": "way", "id": 281150063, "tags": {"amenity": "place_of_worship", "building": "church", "denomination": "catholic", "heritage": "2", "historic": "monument", "image": "https://www.wikidata.org/wiki/Q43084576#/media/File:Lojig2.JPG", "name": "Iglesia de San Gabriel", "protect_class": "22", "protection_title": "Bien de Inter\u00e9s Cultural", "protection_title:category": "Arquitect\u00f3nica", "ref:bic": "RI-51-0000586", "ref:iaph": "01181220010", "religion": "christian", "source": "https://granadapedia.wikanda.es/wiki/Iglesia_de_San_Gabriel_(Loja)", "start_date": "1522", "wikidata": "Q43084576"}}, "geometry": {"type": "Point", "coordinates": [-4.1509149, 37.1682669]}}, {"type": "Feature", "properties": {"type": "way", "id": 284531604, "tags": {"alt_name": "El Convent\u00edn", "amenity": "place_of_worship", "building": "church", "building:architecture": "pre-romanesque", "denomination": "mozarabic", "heritage": "1", "heritage:operator": "whc", "heritage:website": "https://whc.unesco.org/en/tentativelists/6168", "historic": "heritage", "image": "File:SanSalvadorValdedios-1.jpg", "name": "Iglesia de San Salvador de Valdedi\u00f3s", "name:en": "Church of San Salvador de Valdedi\u00f3s", "name:es": "Iglesia de San Salvador de Valdedi\u00f3s", "ref:whc": "6168", "religion": "christian", "start_date": "893", "whc:criteria": "(i),(ii),(iv)", "whc:inscription_date": "2017-01-27", "wikidata": "Q1534305", "wikimedia_commons": "Category:Church of San Salvador de Valdedi\u00f3s", "wikipedia": "ast:San Salvador de Valdedi\u00f3s"}}, "geometry": {"type": "Point", "coordinates": [-5.506543, 43.4371058]}}, {"type": "Feature", "properties": {"type": "way", "id": 300582221, "tags": {"admin_level": "8", "capital": "8", "ele": "750", "heritage": "1", "heritage:operator": "whc", "landuse": "residential", "name": "\u00dabeda", "name:ar": "\u0623\u0628\u062f\u0629", "name:bg": "\u0423\u0431\u0435\u0434\u0430", "name:el": "\u039f\u03cd\u03b2\u03b5\u03b4\u03b1", "name:fa": "\u0627\u0648\u0628\u062f\u0627", "name:hi": "\u0909\u092c\u0947\u0926\u093e", "name:hy": "\u0548\u0582\u0562\u0565\u0564\u0561", "name:ja": "\u30a6\u30d9\u30c0", "name:ka": "\u10e3\u10d1\u10d4\u10d3\u10d0", "name:ko": "\uc6b0\ubca0\ub2e4", "name:pa": "\u0a09\u0a2c\u0a47\u0a26\u0a3e", "name:ru": "\u0423\u0431\u0435\u0434\u0430", "name:ur": "\u0627\u0628\u06cc\u0688\u0627", "name:zh": "\u4e4c\u97e6\u8fbe", "place": "town", "population": "34839", "population:date": "2009", "postal_code": "23400", "ref:ine": "23092000500", "ref:whc": "522-001", "source": "Instituto Geogr\u00e1fico Nacional", "source:date": "2011-06", "source:ele": "MDT5", "source:file": "http://centrodedescargas.cnig.es/CentroDescargas/equipamiento/BD_Municipios-Entidades.zip", "source:name": "Nomencl\u00e1tor Geogr\u00e1fico de Municipios y Entidades de Poblaci\u00f3n", "whc:criteria": "(ii)(iv)", "whc:inscription_date": "2003", "wikidata": "Q329984", "wikipedia": "es:\u00dabeda"}}, "geometry": {"type": "Point", "coordinates": [-3.3731673, 38.0150573]}}, {"type": "Feature", "properties": {"type": "way", "id": 301774821, "tags": {"heritage": "2", "heritage:operator": "mecd", "historic": "monument", "leisure": "stadium", "name": "Plaza de Toros de Melilla", "protection_title": "Bien de Inter\u00e9s Cultural", "protection_title:category": "Monumento", "start_date": "1947", "tourism": "attraction", "wikidata": "Q24023454", "wikipedia": "es:Plaza de toros de Melilla"}}, "geometry": {"type": "Point", "coordinates": [-2.942284, 35.2892204]}}, {"type": "Feature", "properties": {"type": "way", "id": 307905858, "tags": {"heritage": "1", "heritage:operator": "whc", "historic": "archaeological_site", "historic:civilization": "ancient_roman", "name": "Foro Romano", "ref:whc": "664-015", "whc:inscription_date": "1993", "wikidata": "Q7361967", "wikipedia": "es:Foro romano de M\u00e9rida"}}, "geometry": {"type": "Point", "coordinates": [-6.3430674, 38.9168681]}}, {"type": "Feature", "properties": {"type": "way", "id": 318732619, "tags": {"amenity": "place_of_worship", "bic:inscription_date": "1976-03-18", "building": "chapel", "denomination": "catholic", "heritage": "2", "heritage:operator": "mecd", "historic": "chapel", "name": "Santuario de Nuestra Se\u00f1ora de Loreto", "protection_title": "Bien de Inter\u00e9s Cultural", "protection_title:category": "Monumento", "ref:bic": "RI-51-0004222-00000", "religion": "christian", "start_date": "C12"}}, "geometry": {"type": "Point", "coordinates": [-0.4532387, 42.1316406]}}, {"type": "Feature", "properties": {"type": "way", "id": 334459172, "tags": {"building": "yes", "heritage": "2", "heritage:operator": "mecd", "historic": "tower", "image": "https://commons.wikimedia.org/wiki/File:Torre_d'Alcalfar_2011.jpg", "man_made": "tower", "name": "Torre de Alcalfar Vell", "protection_title": "Bien de Inter\u00e9s Cultural", "protection_title:category": "monumento", "ref:bic": "RI-51-0008583", "tower:type": "observation", "wikidata": "Q19758774", "wikimedia_commons": "File:Torre_d'Alcalfar_2011.jpg", "wikipedia": "es:Torre de Alcalfar"}}, "geometry": {"type": "Point", "coordinates": [4.2960721, 39.8251054]}}, {"type": "Feature", "properties": {"type": "way", "id": 351694977, "tags": {"barrier": "entrance", "building": "yes", "heritage": "2", "historic": "city_gate", "image": "https://commons.wikimedia.org/wiki/File:Puerta_de_Santa_Mar%C3%ADa_-_Hondarribia.jpg", "layer": "2", "name": "Puerta de Santa Mar\u00eda", "name:es": "Puerta de Santa Mar\u00eda", "name:eu": "Santa Maria atea", "wikidata": "Q12267000"}}, "geometry": {"type": "Point", "coordinates": [-1.7914671, 43.3618294]}}, {"type": "Feature", "properties": {"type": "way", "id": 351694978, "tags": {"barrier": "entrance", "building": "yes", "heritage": "2", "historic": "city_gate", "image": "https://commons.wikimedia.org/wiki/File:Puerta_de_San_Nicolas.jpg", "layer": "2", "name": "Puerta exterior de San Nicolas", "name:es": "Puerta exterior de San Nicolas", "name:eu": "Kanpoko San Nikolas atea"}}, "geometry": {"type": "Point", "coordinates": [-1.7934979, 43.3639786]}}, {"type": "Feature", "properties": {"type": "way", "id": 351694979, "tags": {"barrier": "city_wall", "building": "yes", "heritage": "2", "historic": "yes", "layer": "2", "name": "Baluarte de San Nicol\u00e1s"}}, "geometry": {"type": "Point", "coordinates": [-1.7933689, 43.3645015]}}, {"type": "Feature", "properties": {"type": "way", "id": 351694980, "tags": {"barrier": "city_wall", "building": "yes", "heritage": "2", "historic": "yes", "image": "https://commons.wikimedia.org/wiki/File:Baluarte_de_la_Reina.jpg", "layer": "2", "name": "Baluarte de la Reina"}}, "geometry": {"type": "Point", "coordinates": [-1.7936832, 43.3625356]}}, {"type": "Feature", "properties": {"type": "way", "id": 358219786, "tags": {"barrier": "city_wall", "building": "yes", "heritage": "2", "historic": "yes", "layer": "2"}}, "geometry": {"type": "Point", "coordinates": [-1.7923889, 43.3620942]}}, {"type": "Feature", "properties": {"type": "way", "id": 358219787, "tags": {"barrier": "city_wall", "building": "yes", "heritage": "2", "historic": "yes", "layer": "2"}}, "geometry": {"type": "Point", "coordinates": [-1.7935646, 43.3633699]}}, {"type": "Feature", "properties": {"type": "way", "id": 368880625, "tags": {"amenity": "place_of_worship", "building": "yes", "denomination": "catholic", "heritage": "2", "name": "Sant Sepulcre de Palera", "ref": "RI-51-0001623", "religion": "christian", "start_date": "1085", "wikidata": "Q9034501", "wikipedia": "ca:Monestir del Sant Sepulcre de Palera"}}, "geometry": {"type": "Point", "coordinates": [2.6987308, 42.2238957]}}, {"type": "Feature", "properties": {"type": "way", "id": 396181375, "tags": {"amenity": "place_of_worship", "building": "yes", "denomination": "catholic", "heritage": "1", "heritage:operator": "whc", "historic": "heritage", "name": "Santa Maria de Ta\u00fcll", "religion": "christian", "wikidata": "Q1278218", "wikipedia": "ca:Santa Maria de Ta\u00fcll"}}, "geometry": {"type": "Point", "coordinates": [0.8471544, 42.5202264]}}, {"type": "Feature", "properties": {"type": "way", "id": 396839336, "tags": {"amenity": "place_of_worship", "building": "yes", "denomination": "catholic", "heritage": "1", "heritage:operator": "whc", "historic": "heritage", "name": "Santa Maria de Cardet", "religion": "christian", "wikidata": "Q9007519", "wikipedia": "ca:Santa Maria de Cardet"}}, "geometry": {"type": "Point", "coordinates": [0.7860124, 42.4978229]}}, {"type": "Feature", "properties": {"type": "way", "id": 404636182, "tags": {"amenity": "marketplace", "bic:inscription_date": "1979-06-22", "email": "info@malagaturismo.com", "heritage": "2", "heritage:operator": "mecd", "heritage:website": "https://www.culturaydeporte.gob.es/cultura/patrimonio/bienes-culturales-protegidos.html", "historic": "building", "landuse": "retail", "name": "Mercado de Atarazanas", "phone": "+34 951 92 60 20", "protection_title": "Bien de Inter\u00e9s Cultural", "protection_title:category": "Monumento", "ref:bic": "RI-51-0004371", "start_date": "C14", "tourism": "attraction", "wheelchair": "yes", "wikidata": "Q10894370", "wikimedia_commons": "Category:Mercado de Atarazanas", "wikipedia": "es:Mercado de Atarazanas"}}, "geometry": {"type": "Point", "coordinates": [-4.424061, 36.7184297]}}, {"type": "Feature", "properties": {"type": "way", "id": 436795426, "tags": {"area": "yes", "heritage": "1", "heritage:operator": "whc", "historic": "archaeological_site", "name": "Alcazaba de M\u00e9rida", "ref:whc": "664-004", "ruins": "yes", "source": "local_knowledge", "whc:inscription_date": "1993", "wikipedia": "es:Alcazaba de M\u00e9rida"}}, "geometry": {"type": "Point", "coordinates": [-6.3467355, 38.9146531]}}, {"type": "Feature", "properties": {"type": "way", "id": 438037532, "tags": {"bic:inscription_date": "1997-06-23", "building": "yes", "heritage": "2", "heritage:operator": "mecd", "heritage:website": "https://www.culturaydeporte.gob.es/cultura/patrimonio/bienes-culturales-protegidos.html", "historic": "castle", "name": "Castillo de Corbera", "protection_title": "Bien de Inter\u00e9s Cultural", "protection_title:category": "Monumento", "ref:bic": "RI-51-0009956", "ruins": "yes", "wikidata": "Q28856261", "wikimedia_commons": "Category:Castell de Corbera (Valencia)", "wikipedia": "ca:Castell de Corbera (Ribera Baixa)"}}, "geometry": {"type": "Point", "coordinates": [-0.3528366, 39.1549704]}}, {"type": "Feature", "properties": {"type": "way", "id": 447221205, "tags": {"artwork_type": "building", "building": "yes", "heritage": "1", "heritage:operator": "whc", "heritage:operator_1": "Gobierno de Arag\u00f3n", "heritage_1": "3", "man_made": "tower", "name": "Torre de San Mart\u00edn", "tower:type": "bell_tower", "wikidata": "Q7826989", "wikipedia": "es:Torre de San Mart\u00edn"}}, "geometry": {"type": "Point", "coordinates": [-1.1092967, 40.34419]}}, {"type": "Feature", "properties": {"type": "way", "id": 449462589, "tags": {"access": "yes", "boundary": "protected_area", "heritage": "2", "heritage:operator": "medc", "historic": "ruins", "historic:civilization": "medieval", "name": "Monasterio y Hospital de Santa Cristina", "opening_hours": "24/7", "protect_class": "22", "protection_title": "Bien de Inter\u00e9s Cultural", "ref:bic": "Bien de Inter\u00e9s Cultural", "ruins": "church", "tourism": "ruins", "wikidata": "Q3572282", "wikipedia": "es:Hospital de Santa Cristina de Somport"}}, "geometry": {"type": "Point", "coordinates": [-0.5250889, 42.7895031]}}, {"type": "Feature", "properties": {"type": "way", "id": 449772466, "tags": {"amenity": "place_of_worship", "bic:criteria": "M", "bic:inscription_date": "1982-04-21", "building": "church", "denomination": "roman_catholic", "heritage": "2", "heritage:operator": "mecd", "heritage:website": "http://www.culturaydeporte.gob.es/cultura-mecd/areas-cultura/patrimonio/bienes-culturales-protegidos.html", "historic": "heritage", "name": "Iglesia de Santa Mar\u00eda de Vizbayo", "protection_title": "Bien de Inter\u00e9s Cultural", "protection_title:category": "monument", "ref:bic": "RI-51-0004601", "religion": "christian", "wikidata": "Q2884262", "wikipedia": "es:Iglesia de Santa Mar\u00eda de Vizbayo"}}, "geometry": {"type": "Point", "coordinates": [-6.5944292, 42.5373942]}}, {"type": "Feature", "properties": {"type": "way", "id": 482235483, "tags": {"alt_name": "Pazo do Casal", "bic:criteria": "M", "bic:inscription_date": "9 de febreiro do 2017", "building": "residential", "castle_type": "stately", "description": "Ben de Interese Cultural", "heritage": "2", "historic": "castle", "name": "Pazo de Quint\u00e1ns", "protection_title": "Ben de Interese Cultural", "wikidata": "Q43145380"}}, "geometry": {"type": "Point", "coordinates": [-8.8565947, 42.4341614]}}, {"type": "Feature", "properties": {"type": "way", "id": 489984144, "tags": {"heritage": "2", "historic": "yes", "man_made": "tower", "name": "la Torre", "ref": "Ri-51-006147", "start_date": "s.XII", "tower:type": "defense", "wikipedia": "ca:Torre de la Vall del Bac"}}, "geometry": {"type": "Point", "coordinates": [2.4533334, 42.2643508]}}, {"type": "Feature", "properties": {"type": "way", "id": 491807810, "tags": {"addr:city": "M\u00e1laga", "addr:country": "ES", "addr:housenumber": "38", "addr:postcode": "29016", "addr:street": "Calle de Ramos de Carri\u00f3n", "alt_name": "Castillo Y Murallas de Santa Catalina", "bic:inscription_date": "1989-12-19", "heritage": "2", "heritage:operator": "mecd", "heritage:website": "http://www.mecd.gob.es", "historic": "fort", "landuse": "commercial", "name": "Hotel Castillo de Santa Catalina", "protection_title": "Bien de Inter\u00e9s Cultural", "protection_title:category": "Monumento", "ref:bic": "RI-51-0005379", "tourism": "hotel", "wikipedia": "es:Castillo de Santa Catalina (M\u00e1laga)"}}, "geometry": {"type": "Point", "coordinates": [-4.3941061, 36.7249973]}}, {"type": "Feature", "properties": {"type": "way", "id": 492796095, "tags": {"bic:inscription_date": "2005-12-20", "height": "65", "heritage": "2", "heritage:operator": "mecd", "heritage:website": "http://www.mecd.gob.es/cultura-mecd/areas-cultura/patrimonio/bienes-culturales-protegidos.html", "historic": "chimney", "man_made": "chimney", "name": "Chimenea de la Central T\u00e9rmica de La Misericordia", "protection_title": "Bien de Inter\u00e9s Cultural", "protection_title:category": "Monumento", "ref:bic": "RI-51-0011227", "wikidata": "Q5766491", "wikipedia": "es:Chimenea de la central t\u00e9rmica de La Misericordia"}}, "geometry": {"type": "Point", "coordinates": [-4.4472315, 36.6834179]}}, {"type": "Feature", "properties": {"type": "way", "id": 492811016, "tags": {"alt_name": "Torre del Cantal", "bic:inscription_date": "1993-06-22", "building": "yes", "heritage": "2", "heritage:operator": "mecd", "heritage:website": "http://www.mecd.gob.es/cultura-mecd/areas-cultura/patrimonio/bienes-culturales-protegidos.html", "historic": "monument", "man_made": "tower", "name": "Torre Vig\u00eda El Cantal", "protection_title": "Bien de Inter\u00e9s Cultural", "protection_title:category": "Monumento", "ref:bic": "RI-51-0008076", "tower:type": "watchtower", "wikidata": "Q6150386", "wikipedia": "es:Torre del Cantal"}}, "geometry": {"type": "Point", "coordinates": [-4.2946286, 36.7141729]}}, {"type": "Feature", "properties": {"type": "way", "id": 503134835, "tags": {"building": "yes", "heritage": "1", "heritage:operator": "whc", "historic": "monument", "historic:civilization": "ancient_roman", "layer": "1", "name": "Acueducto de Segovia", "name:de": "Aqu\u00e4dukt von Segovia", "name:en": "Aqueduct of Segovia", "name:es": "Acueducto de Segovia", "name:ko": "\uc138\uace0\ube44\uc544 \uc218\ub85c(\uc218\ub3c4\uad50)", "name:lt": "Segovijos akvedukas", "name:pl": "Akwedukt w Segowii", "name:ru": "\u0410\u043a\u0432\u0435\u0434\u0443\u043a \u0432 \u0421\u0435\u0433\u043e\u0432\u0438\u0438", "name:uk": "\u0410\u043a\u0432\u0435\u0434\u0443\u043a \u0432 \u0421\u0435\u0433\u043e\u0432\u0456\u0457", "name:zh": "\u6c34\u9053\u6a4b", "tourism": "attraction", "wikidata": "Q244947", "wikipedia": "es:Acueducto de Segovia"}}, "geometry": {"type": "Point", "coordinates": [-4.1144918, 40.9466453]}}, {"type": "Feature", "properties": {"type": "way", "id": 509714146, "tags": {"heritage": "1", "heritage:operator": "whc", "historic": "archaeological_site", "name": "Bas\u00edlica Casa Herrera", "ref:whc": "664-008", "whc:inscription_date": "1993"}}, "geometry": {"type": "Point", "coordinates": [-6.294993, 38.9606352]}}, {"type": "Feature", "properties": {"type": "way", "id": 509714147, "tags": {"heritage": "1", "heritage:operator": "whc", "historic": "dam", "name": "Embalse de Proserpina", "ref:whc": "664-014", "waterway": "dam", "whc:inscription_date": "1993"}}, "geometry": {"type": "Point", "coordinates": [-6.3666962, 38.9696324]}}, {"type": "Feature", "properties": {"type": "way", "id": 509714148, "tags": {"alt_name": "Termas romanas", "heritage": "1", "heritage:operator": "whc", "historic": "archaeological_site", "name": "Pozos de Nieve", "ref:whc": "664-021", "whc:inscription_date": "1993"}}, "geometry": {"type": "Point", "coordinates": [-6.3394266, 38.9183042]}}, {"type": "Feature", "properties": {"type": "way", "id": 534289149, "tags": {"bic:inscription_date": "1994-10-13", "building": "yes", "heritage": "2", "heritage:operator": "mecd", "heritage:website": "http://www.culturaydeporte.gob.es/cultura-mecd/areas-cultura/patrimonio/bienes-culturales-protegidos.html", "name": "Palacio de D\u00edaz Iguanzo", "protection_title": "Bien de Inter\u00e9s Cultural", "protection_title:category": "Monumento", "ref:bic": "RI-51-0008995", "wikidata": "Q11697400", "wikimedia_commons": "Category:Palacio de D\u00edaz Inguanzo", "wikipedia": "es:Palacio de D\u00edaz Inguanzo"}}, "geometry": {"type": "Point", "coordinates": [-4.8773185, 43.3099265]}}, {"type": "Feature", "properties": {"type": "way", "id": 534289150, "tags": {"bic:inscription_date": "1994-12-05", "building": "yes", "heritage": "2", "heritage:operator": "mecd", "heritage:website": "http://www.culturaydeporte.gob.es/cultura-mecd/areas-cultura/patrimonio/bienes-culturales-protegidos.html", "name": "Palacio de Cernuda", "protection_title": "Bien de Inter\u00e9s Cultural", "protection_title:category": "Monumento", "ref:bic": "RI-51-0009011", "wikidata": "Q10974677", "wikimedia_commons": "Category:Casa de Cernuda", "wikipedia": "es:Palacio de Cernuda"}}, "geometry": {"type": "Point", "coordinates": [-4.8331083, 43.3066273]}}, {"type": "Feature", "properties": {"type": "way", "id": 543728317, "tags": {"area": "yes", "boundary": "protected_area", "heritage": "2", "protect_class": "22"}}, "geometry": {"type": "Point", "coordinates": [-8.5491787, 42.7598071]}}, {"type": "Feature", "properties": {"type": "way", "id": 564100243, "tags": {"bic:inscription_date": "1985-06-29", "building": "yes", "castle_type": "fortress", "ele": "789", "heritage": "2", "heritage:operator": "mecd", "heritage:website": "http://www.culturaydeporte.gob.es/cultura-mecd/areas-cultura/patrimonio/bienes-culturales-protegidos.html", "historic": "castle", "name": "Castell de Castro", "name:ca": "Castell de Castro", "name:es": "Castillo de Castro", "protection_title": "Bien de Inter\u00e9s Cultural", "protection_title:category": "Monumento", "ref:bic": "RI-51-0012108", "ruins": "yes", "wikidata": "Q8342250", "wikimedia_commons": "Category:Castell_de_Castro", "wikipedia": "es:Castillo de Castro"}}, "geometry": {"type": "Point", "coordinates": [-0.2796666, 39.8595418]}}, {"type": "Feature", "properties": {"type": "way", "id": 578911086, "tags": {"addr:city": "Vitoria-Gasteiz", "addr:country": "ES", "addr:housenumber": "24", "addr:postcode": "01001", "addr:province": "Araba/\u00c1lava", "addr:street": "Aiztogile kalea/Calle Cuchiller\u00eda", "bic:criteria": "M", "building": "civic", "heritage": "2", "heritage:operator": "mecd", "name": "Kordoi etxea/Casa del Cord\u00f3n", "name:es": "Casa del Cord\u00f3n", "name:eu": "Kordoi etxea", "protection_title": "Bien de Inter\u00e9s Cultural", "protection_title:category": "Monumento", "ref:bic": "RI-51-0005127", "tourism": "museum", "wikidata": "Q2940781"}}, "geometry": {"type": "Point", "coordinates": [-2.6705752, 42.8481836]}}, {"type": "Feature", "properties": {"type": "way", "id": 580231708, "tags": {"building:part": "yes", "heritage": "2", "heritage:operator": "mecd", "historic": "tower", "image": "https://commons.wikimedia.org/wiki/File:Binifadet_torre.jpg", "man_made": "tower", "name": "Torre de Binifadet", "protection_title": "Bien de Inter\u00e9s Cultural", "protection_title:category": "monumento", "ref:bic": "RI-51-0008585", "tower:type": "defensive", "wikidata": "Q9088870", "wikipedia": "es:Torre de Binifadet"}}, "geometry": {"type": "Point", "coordinates": [4.2571544, 39.8516951]}}, {"type": "Feature", "properties": {"type": "way", "id": 580234104, "tags": {"alt_name": "Torre de Sa Vigia", "building:levels": "3", "building:part": "yes", "heritage": "2", "heritage:operator": "mecd", "historic": "tower", "man_made": "tower", "name": "Torre de Torret de Sa Atalaia", "protection_title": "Bien de Inter\u00e9s Cultural", "protection_title:category": "monumento", "tower:type": "observation"}}, "geometry": {"type": "Point", "coordinates": [4.2517935, 39.8246284]}}, {"type": "Feature", "properties": {"type": "way", "id": 580234105, "tags": {"building:levels": "3", "building:part": "yes", "heritage": "2", "heritage:operator": "mecd", "historic": "tower", "man_made": "tower", "name": "Torre de Torret", "protection_title": "Bien de Inter\u00e9s Cultural", "protection_title:category": "monumento", "tower:type": "observation", "wikidata": "Q43142805"}}, "geometry": {"type": "Point", "coordinates": [4.2511303, 39.8247391]}}, {"type": "Feature", "properties": {"type": "way", "id": 580234107, "tags": {"building:levels": "3", "building:part": "yes", "heritage": "2", "heritage:operator": "mecd", "historic": "tower", "man_made": "tower", "name": "Torre de Binibeca Nou", "protection_title": "Bien de Inter\u00e9s Cultural", "protection_title:category": "monumento", "tower:type": "observation"}}, "geometry": {"type": "Point", "coordinates": [4.2423966, 39.8322653]}}, {"type": "Feature", "properties": {"type": "way", "id": 580234109, "tags": {"building:levels": "3", "building:part": "yes", "heritage": "2", "heritage:operator": "mecd", "historic": "tower", "man_made": "tower", "name": "Torre de Binibeca Vell", "protection_title": "Bien de Inter\u00e9s Cultural", "protection_title:category": "monumento", "tower:type": "observation"}}, "geometry": {"type": "Point", "coordinates": [4.2402001, 39.8380542]}}, {"type": "Feature", "properties": {"type": "way", "id": 580885061, "tags": {"alt_name": "Iglesia de San Fiz de Viso", "amenity": "place_of_worship", "bic:criteria": "M", "building": "church", "denomination": "roman_catholic", "heritage": "2", "historic": "church", "historic:civilization": "medieval_christianity", "name": "Iglesia de San Juan", "protection_title": "Bien de Inter\u00e9s Cultural", "protection_title:category": "monument", "ref:bic": "RI-51-0004668", "religion": "christian", "start_date": "~C13", "wikidata": "Q10661058", "wikipedia": "es:Iglesia de San Juan (Villafranca del Bierzo)"}}, "geometry": {"type": "Point", "coordinates": [-6.819404, 42.6019877]}}, {"type": "Feature", "properties": {"type": "way", "id": 584530404, "tags": {"building": "yes", "building:levels": "7", "heritage": "1", "heritage:operator": "whc", "man_made": "tower", "name": "Torre de la Catedral", "tower:type": "bell_tower"}}, "geometry": {"type": "Point", "coordinates": [-1.1076451, 40.3436914]}}, {"type": "Feature", "properties": {"type": "way", "id": 585985586, "tags": {"bic:criteria": "M", "building": "yes", "heritage": "2", "historic": "monument", "image": "File:Espinosa de los Monteros - Palacio de los Cuevas Velasco - DSC 5706 W.jpg", "name": "Palacio de los Marqueses Cuevas de Velasco", "protection_title:category": "Monumento", "ref": "22", "ref:bic": "RI-51-0005410", "tourism": "attraction", "wikidata": "Q6058397", "wikimedia_commons": "Category:Cuevas Velasco's Palace, Espinosa de los Monteros", "wikipedia": "es:Palacio de los Cuevas Velasco"}}, "geometry": {"type": "Point", "coordinates": [-3.5563011, 43.0792278]}}, {"type": "Feature", "properties": {"type": "way", "id": 607136381, "tags": {"area": "yes", "barrier": "city_wall", "heritage": "1", "heritage:operator": "whc", "historic": "citywalls", "name": "Dalt Vila", "tourism": "attraction"}}, "geometry": {"type": "Point", "coordinates": [1.4373249, 38.9066987]}}, {"type": "Feature", "properties": {"type": "way", "id": 645950339, "tags": {"alt_name": "Estelas de Barros", "bic:criteria": "ZA", "bic:inscription_date": "1985-03-14", "building": "civic", "heritage": "2", "heritage:operator": "mecd", "heritage:website": "http://www.culturaydeporte.gob.es/cultura-mecd/areas-cultura/patrimonio/bienes-culturales-protegidos.html", "historic": "heritage", "name": "Parque de Las Estelas de Barros", "protection_title": "Bien de Inter\u00e9s Cultural", "protection_title:category": "archaeological_site", "ref:bic": "RI-55-0000124-00000", "tourism": "attraction", "wikidata": "Q8843217", "wikipedia": "es:Estela de Barros"}}, "geometry": {"type": "Point", "coordinates": [-4.0776117, 43.2764274]}}, {"type": "Feature", "properties": {"type": "way", "id": 701730890, "tags": {"building": "yes", "building:levels": "4", "castle_type": "palace", "heritage": "2", "historic": "castle", "name": "Palau dels Comtes", "ref:BCIN": "1929-MH", "ref:BIC": "RI-51-0007299", "ref:IPAC": "10527", "start_date": "1530", "wikidata": "Q11939843", "wikipedia": "ca:Palau dels Comtes de Centelles"}}, "geometry": {"type": "Point", "coordinates": [2.2194389, 41.7974951]}}, {"type": "Feature", "properties": {"type": "way", "id": 701730904, "tags": {"building": "yes", "heritage": "2", "historic": "city_gate", "name": "el Portal", "ref:BIC": "RI-51-0005457", "ref:IPAC": "750"}}, "geometry": {"type": "Point", "coordinates": [2.2183228, 41.798064]}}, {"type": "Feature", "properties": {"type": "way", "id": 705237953, "tags": {"bic:inscription_date": "1985-06-29", "building": "yes", "heritage": "2", "heritage:operator": "mecd", "heritage:website": "http://www.culturaydeporte.gob.es/cultura-mecd/areas-cultura/patrimonio/bienes-culturales-protegidos.html", "historic": "archaeological_site", "loc_name": "Cuevas de la Ara\u00f1a", "name": "Yacimientos de la Ara\u00f1a", "operator": "Junta de Andaluc\u00eda;Ayuntamiento de M\u00e1laga;Asociaci\u00f3n Arqueol\u00f3gica Yacimientos de la Ara\u00f1a", "protection_title": "Bien de Inter\u00e9s Cultural", "protection_title:category": "Zona arqueol\u00f3gica", "reservation": "yes", "wikipedia": "es:Parque Prehist\u00f3rico de M\u00e1laga (Yacimiento Arqueol\u00f3gico de la Ara\u00f1a)"}}, "geometry": {"type": "Point", "coordinates": [-4.3195509, 36.7130839]}}, {"type": "Feature", "properties": {"type": "way", "id": 714695181, "tags": {"amenity": "place_of_worship", "architect": "Antonio Zabaleta", "bic:criteria": "M", "building": "church", "building:architecture": "eclectic", "building:levels": "1", "denomination": "catholic", "heritage": "2", "heritage:operator": "mecd", "heritage:website": "http://www.culturaydeporte.gob.es/cultura-mecd/areas-cultura/patrimonio/bienes-culturales-protegidos.html", "historic": "heritage", "name": "Iglesia de Santa Luc\u00eda", "postal_code": "39003", "protection_title": "Bien de Inter\u00e9s Cultural", "protection_title:category": "monument", "ref:bic": "RI-51-0005314", "religion": "christian", "start_date": "1854", "wikidata": "Q43120282", "wikimedia_commons": "Category:Church of Santa Luc\u00eda, Santander", "wikipedia": "es:Iglesia de Santa Luc\u00eda (Santander)"}}, "geometry": {"type": "Point", "coordinates": [-3.8023196, 43.4633187]}}, {"type": "Feature", "properties": {"type": "way", "id": 720268396, "tags": {"access": "yes", "designation": "Construcci\u00f3n siglo IX", "heritage": "1", "heritage:operator": "whc", "historic": "archaeological_site", "historic:civilization": "medieval", "image": "https://commons.wikimedia.org/wiki/File:Foncalada_3.JPG", "name": "Fuente de Foncalada", "ref:bic": "RI-51-0000787", "wikidata": "Q155414", "wikimedia_commons": "File:Foncalada_3.JPG", "wikipedia": "es:Foncalada"}}, "geometry": {"type": "Point", "coordinates": [-5.8459691, 43.3653015]}}, {"type": "Feature", "properties": {"type": "way", "id": 722942422, "tags": {"heritage": "2", "heritage:operator": "mecd", "heritage:type": "archaeology", "historic": "oppidum", "historic:civilization": "vettones", "name": "Castro de la Mesa de Miranda", "protection_title": "BIC", "protection_title:category": "Zona arqueol\u00f3gica", "protection_title:inscription_date": "24-11-1980", "ref:bic": "55 - 0000707 - 00000", "source": "Alvarez Sanchis, 2006 Gu\u00eda arqueol\u00f3gica de castros y verracos. Ruiz Zapatero y \u00c1lvarez Sanchis, 2004. Castros y Verracos", "source:date": "201011", "source:file": "http://centrodedescargas.cnig.es/CentroDescargas/equipamiento/NGBE_de_caracter_Provisional.zip", "source:name": "Nomenclator Geogr\u00e1fico B\u00e1sico de Espa\u00f1a", "start_date": "C5 BC", "wikipedia": "es:Castro de la Mesa de Miranda"}}, "geometry": {"type": "Point", "coordinates": [-4.9471518, 40.7244923]}}, {"type": "Feature", "properties": {"type": "way", "id": 725999354, "tags": {"area": "yes", "heritage": "2", "heritage:operator": "mecd", "heritage:type": "archaeology", "historic": "oppidum", "historic:civilization": "vettones", "name": "Castro de Las Cogotas", "protection_title": "BIC", "protection_title:category": "Monumento", "protection_title:inscription_date": "03-06-1931", "ref:bic": "51 - 0000383 - 00000", "start_date": "C6 BC", "wikidata": "Q2660473", "wikipedia": "es:Las Cogotas"}}, "geometry": {"type": "Point", "coordinates": [-4.7003069, 40.7269929]}}, {"type": "Feature", "properties": {"type": "way", "id": 726004013, "tags": {"building": "yes", "heritage": "2", "heritage:type": "civil", "historic": "tanneries", "name": "Tener\u00edas de San Segundo", "protection_title": "BIC", "protection_title:category": "sitio hist\u00f3rico", "protection_title:inscription_date": "24-06-2010", "ref:bic": "54 - 0000240 - 00000", "ruins": "yes", "wikidata": "Q29646901", "wikipedia": "es:Antiguas Tener\u00edas del Arrabal de San Segundo"}}, "geometry": {"type": "Point", "coordinates": [-4.7082248, 40.6578872]}}, {"type": "Feature", "properties": {"type": "way", "id": 727118294, "tags": {"access": "permissive", "bic:inscription_date": "1996-03-26", "boundary": "protected_area", "heritage": "2", "historic": "archaeological_site", "historic:civilization": "iberian;ancient_roman;western_roman;visigothic_kingdom;islamic_iberia", "historic:era": "neolithic", "historic:period": "cooper-age;bronze-age;iron-age", "name": "Pe\u00f1a de los Gitanos", "protection_title": "Bien de Inter\u00e9s Cultural", "protection_title:category": "Zona arqueol\u00f3gica", "ref:bic": "(R.I.) - 55 - 0000142 - 00000", "ref:iaph": "01181350016", "site_type": "settlement", "tourism": "attraction", "wikidata": "Q6074007", "wikipedia": "es:Pe\u00f1as de los Gitanos"}}, "geometry": {"type": "Point", "coordinates": [-3.9643349, 37.3389399]}}, {"type": "Feature", "properties": {"type": "way", "id": 729143466, "tags": {"building": "chapel", "description": "La construcci\u00f3n de la ermita se inici\u00f3 en 1605. Fue restaurada en los siglos XVII y XVIII. Actualmente se encuentra en ruinas.", "heritage": "2", "historic": "yes", "image": "https://guiadigital.iaph.es/imagenes-cache/85/88ffc671-5e37-4d4c-b4db-4d8edc95ed26--full.jpg", "name": "Ermita del Calvario", "ref:iaph": "01181220008", "ruins": "yes", "start_date": "1605", "wikidata": "Q97605588"}}, "geometry": {"type": "Point", "coordinates": [-4.1514979, 37.1752721]}}, {"type": "Feature", "properties": {"type": "way", "id": 730227393, "tags": {"bic:inscription_date": "1993-12-30", "building": "yes", "heritage": "2", "heritage:operator": "mecd", "heritage:website": "http://www.culturaydeporte.gob.es/cultura-mecd/areas-cultura/patrimonio/bienes-culturales-protegidos.html", "name": "Palacio del Mayorazgo", "protection_title": "Bien de Inter\u00e9s Cultural", "protection_title:category": "Monumento", "ref:bic": "RI-51-0008678", "wikidata": "Q9054723", "wikimedia_commons": "Category:Palacio del Mayorazgo", "wikipedia": "es:Palacio del Mayorazgo"}}, "geometry": {"type": "Point", "coordinates": [-4.8669733, 43.309262]}}, {"type": "Feature", "properties": {"type": "way", "id": 744487169, "tags": {"bic:inscription_date": "1985-06-25", "building": "yes", "ele": "148", "heritage": "2", "heritage:operator": "mecd", "heritage:website": "http://www.culturaydeporte.gob.es/cultura-mecd/areas-cultura/patrimonio/bienes-culturales-protegidos.html", "historic": "castle", "name": "Castillo de Tous", "protection_title": "Bien de Inter\u00e9s Cultural", "protection_title:category": "Monumento", "ref:bic": "RI-51-0010680", "ruins": "yes", "wikidata": "Q165434", "wikimedia_commons": "Category:Castell de Tous", "wikipedia": "ca:Castell de Tous"}}, "geometry": {"type": "Point", "coordinates": [-0.6662801, 39.1528851]}}, {"type": "Feature", "properties": {"type": "way", "id": 770843479, "tags": {"alt_name": "Puente del Albarregas", "heritage": "1", "heritage:operator": "whc", "layer": "1", "man_made": "bridge", "name": "Puente Romano de la Puerta", "ref:whc": "664-019", "whc:inscription_date": "1993", "wikidata": "Q4709426", "wikipedia": "es:Puente romano sobre el r\u00edo Albarregas"}}, "geometry": {"type": "Point", "coordinates": [-6.3491491, 38.9238138]}}, {"type": "Feature", "properties": {"type": "way", "id": 770843480, "tags": {"alt_name": "Puente del Guadiana", "heritage": "1", "heritage:operator": "whc", "historic": "heritage", "layer": "1", "man_made": "bridge", "name": "Puente Romano", "ref:whc": "664-004", "whc:inscription_date": "1993", "wikidata": "Q588535", "wikipedia": "es:Puente romano (M\u00e9rida)"}}, "geometry": {"type": "Point", "coordinates": [-6.3514649, 38.9128702]}}, {"type": "Feature", "properties": {"type": "way", "id": 790513019, "tags": {"bic:inscription_date": "1980-11-24", "heritage": "2", "heritage:operator": "mecd", "historic": "archaeological_site", "name": "Poblado romano de Corona de Quintanilla", "protection_title": "Bien de Inter\u00e9s Cultural", "protection_title:category": "Zona arqueol\u00f3gica"}}, "geometry": {"type": "Point", "coordinates": [-6.2787748, 42.3377832]}}, {"type": "Feature", "properties": {"type": "way", "id": 790513020, "tags": {"bic:inscription_date": "2013-06-13", "heritage": "2", "heritage:operator": "mecd", "historic": "archaeological_site", "name": "El Cerco", "protection_title": "Bien de Inter\u00e9s Cultural", "protection_title:category": "Zona arqueol\u00f3gica", "wikidata": "Q16559722"}}, "geometry": {"type": "Point", "coordinates": [-6.4725841, 41.7305499]}}, {"type": "Feature", "properties": {"type": "way", "id": 790513021, "tags": {"bic:inscription_date": "2009-07-02", "heritage": "2", "heritage:operator": "mecd", "historic": "archaeological_site", "name": "Castro de El Pedroso", "protection_title": "Bien de Inter\u00e9s Cultural", "protection_title:category": "Zona arqueol\u00f3gica"}}, "geometry": {"type": "Point", "coordinates": [-6.553455, 41.7476714]}}, {"type": "Feature", "properties": {"type": "way", "id": 790513022, "tags": {"bic:inscription_date": "2008-06-26", "heritage": "2", "heritage:operator": "mecd", "name": "El Pueblo", "protection_title": "Bien de Inter\u00e9s Cultural", "protection_title:category": "Conjunto hist\u00f3rico"}}, "geometry": {"type": "Point", "coordinates": [-6.5281655, 41.9398832]}}, {"type": "Feature", "properties": {"type": "way", "id": 790513023, "tags": {"bic:inscription_date": "2013-06-13", "heritage": "2", "heritage:operator": "mecd", "heritage:website": "https://www.culturaydeporte.gob.es/cultura/patrimonio/bienes-culturales-protegidos.html", "historic": "archaeological_site", "name": "Castro de Riomanzanas", "protection_title": "Bien de Inter\u00e9s Cultural", "protection_title:category": "Zona arqueol\u00f3gica"}}, "geometry": {"type": "Point", "coordinates": [-6.5384041, 41.9023476]}}, {"type": "Feature", "properties": {"type": "way", "id": 790513024, "tags": {"bic:inscription_date": "1994-03-11", "heritage": "2", "heritage:operator": "mecd", "historic": "site", "name": "La Villa", "protection_title": "Bien de Inter\u00e9s Cultural", "protection_title:category": "Conjunto hist\u00f3rico"}}, "geometry": {"type": "Point", "coordinates": [-6.6348254, 42.0538051]}}, {"type": "Feature", "properties": {"type": "way", "id": 790513025, "tags": {"heritage": "2", "heritage:operator": "mecd", "historic": "archaeological_site", "name": "Pe\u00f1a Caceta", "protection_title": "Bien de Inter\u00e9s Cultural", "protection_title:category": "Zona arqueol\u00f3gica"}}, "geometry": {"type": "Point", "coordinates": [-6.7333899, 42.0493726]}}, {"type": "Feature", "properties": {"type": "way", "id": 790513026, "tags": {"heritage": "2", "heritage:operator": "mecd", "heritage:website": "https://servicios.jcyl.es/pweb/datosGIS.do?tipo=inmueble&numero=261114", "historic": "archaeological_site", "name": "Pe\u00f1a Letrera", "protection_title": "Bien de Inter\u00e9s Cultural", "protection_title:category": "Zona arqueol\u00f3gica"}}, "geometry": {"type": "Point", "coordinates": [-6.7081273, 42.0994411]}}, {"type": "Feature", "properties": {"type": "way", "id": 814506234, "tags": {"area": "yes", "bic:inscription_date": "2020-02-06", "boundary": "protected_area", "heritage": "2", "name": "Parque do Pasatempo", "protect_class": "22", "protection_title": "Bien de Inter\u00e9s Cultural", "protection_title:category": "Jard\u00edn hist\u00f3rico"}}, "geometry": {"type": "Point", "coordinates": [-8.2204258, 43.2774924]}}, {"type": "Feature", "properties": {"type": "way", "id": 823765875, "tags": {"heritage": "2", "name": "Alto de las Cuevas", "protection_title": "Bien de Inter\u00e9s Cultural", "protection_title:category": "Zona arqueol\u00f3gica"}}, "geometry": {"type": "Point", "coordinates": [-3.8362492, 41.111232]}}, {"type": "Feature", "properties": {"type": "way", "id": 823765876, "tags": {"amenity": "place_of_worship", "bic:inscription_date": "1969-07-17", "building": "church", "denomination": "roman_catholic", "heritage": "2", "historic": "church", "name": "Iglesia de Nuestra Se\u00f1ora de las Vegas", "protection_title": "Bien de Inter\u00e9s Cultural", "protection_title:category": "Monumento", "ref:bic": "(R.I.) - 51 - 0003810 - 00000", "religion": "christian"}}, "geometry": {"type": "Point", "coordinates": [-3.8463677, 41.1160622]}}, {"type": "Feature", "properties": {"type": "way", "id": 823782311, "tags": {"amenity": "place_of_worship", "bic:inscription_date": "2005-03-03", "building": "church", "denomination": "roman_catholic", "heritage": "2", "historic": "monument", "name": "Iglesia Parroquial de San Bartolom\u00e9", "protection_title": "Bien de Inter\u00e9s Cultural", "protection_title:category": "Monumento", "religion": "christian"}}, "geometry": {"type": "Point", "coordinates": [-4.4142334, 40.9475001]}}, {"type": "Feature", "properties": {"type": "way", "id": 863505186, "tags": {"bic:inscription_date": "2007-09-10", "building": "yes", "heritage": "2", "heritage:operator": "Generalitat de Catalunya", "heritage:website": "http://invarquit.cultura.gencat.cat/cerca/Fitxa?index=0&consulta=&codi=37716", "name": "Pla\u00e7a de Braus de Figueres", "protection_title": "BCIL", "protection_title:category": "Monumento", "ref:bcil": "9267-I", "ref:ipac": "37716", "start_date": "03-05-1894", "wikidata": "Q19257238", "wikimedia_commons": "Category:Pla\u00e7a de Braus (Figueres)", "wikipedia": "ca:Pla\u00e7a de Braus de Figueres"}}, "geometry": {"type": "Point", "coordinates": [2.9711453, 42.2647467]}}, {"type": "Feature", "properties": {"type": "way", "id": 875070890, "tags": {"amenity": "place_of_worship", "denomination": "catholic", "heritage": "2", "heritage:operator": "Generalitat de Catalunya", "heritage:website": "http://invarquit.cultura.gencat.cat/Cerca/Fitxa?index=0&consulta=&codi=34743", "name": "Sant Sebasti\u00e0", "ref:ipac": "34743", "religion": "christian", "wikidata": "Q28466424", "wikimedia_commons": "Category:Sant Sebasti\u00e0 i Sant Isidre de Selvanera", "wikipedia": "ca:Sant Sebasti\u00e0 i Sant Isidre de Selvanera"}}, "geometry": {"type": "Point", "coordinates": [1.275936, 41.8321061]}}, {"type": "Feature", "properties": {"type": "way", "id": 888162153, "tags": {"amenity": "place_of_worship", "building": "church", "building:colour": "#E3CFC6", "denomination": "catholic", "heritage": "1", "heritage:operator": "whc", "name": "Bas\u00edlica de San Lorenzo de El Escorial", "religion": "christian", "wikipedia": "es:Bas\u00edlica de El Escorial"}}, "geometry": {"type": "Point", "coordinates": [-4.1474205, 40.588966]}}, {"type": "Feature", "properties": {"type": "way", "id": 895737811, "tags": {"bic:inscription_date": "2009-04-14", "description": "Restos del edificio de unas antiguas termas romanas de unos 3000 metros cuadrados, cuya cronolog\u00eda oscila entre los siglos I al III d. C.", "heritage": "2", "heritage:operator": "mecd", "heritage:website": "https://www.culturaydeporte.gob.es/cultura/patrimonio/bienes-culturales-protegidos.html", "historic": "archaeological_site", "historic:civilization": "ancient_roman", "name": "Termas Romanas de Alameda", "protection_title": "Bien de Inter\u00e9s Cultural", "protection_title:category": "Zona arqueol\u00f3gica", "ref:bic": "RI-55-0000188-00000", "url": "https://www.malaga.es/es/turismo/patrimonio/lis_cd-5280/termas-romanas-centro-tematico-termas-romanas", "website": "http://www.alameda.es/11812/termas-romanas", "wikidata": "Q97634205", "wikipedia": "es:Termas romanas de Alameda"}}, "geometry": {"type": "Point", "coordinates": [-4.660064, 37.2087939]}}, {"type": "Feature", "properties": {"type": "way", "id": 899603535, "tags": {"bic:inscription_date": "2001-09-12", "building": "yes", "ele": "184", "heritage": "2", "heritage:operator": "mecd", "heritage:website": "https://www.culturaydeporte.gob.es/cultura/patrimonio/bienes-culturales-protegidos.html", "historic": "castle", "name": "Castell de Sumac\u00e0rcer - Castell de Penya-roja", "name:ca": "Castell de Sumac\u00e0rcer - Castell de Penya-roja", "name:es": "Castillo de Sumac\u00e1rcel - Castillo de Pe\u00f1arroya", "protection_title": "Bien de Inter\u00e9s Cultural", "protection_title:category": "Monumento", "ref:bic": "RI-51-0010688", "ruins": "yes", "wikidata": "Q5757618", "wikimedia_commons": "Category:Castell de Sumac\u00e0rcer", "wikipedia": "ca:Castell de Sumac\u00e0rcer"}}, "geometry": {"type": "Point", "coordinates": [-0.6280849, 39.0881536]}}, {"type": "Feature", "properties": {"type": "relation", "id": 153968, "tags": {"denomination": "roman_catholic", "heritage": "1", "heritage:operator": "whc", "importance": "international", "name": "Camino de Santiago", "name:cs": "Svatojakubsk\u00e1 cesta", "name:da": "Jakobsvejen", "name:de": "Jakobsweg", "name:en": "Way of St. James", "name:es": "Camino de Santiago", "name:gl": "Cami\u00f1o de Santiago", "name:he": "\u05d3\u05e8\u05da \u05e1\u05e0\u05d8\u05d9\u05d0\u05d2\u05d5", "name:ja": "\u30b5\u30f3\u30c6\u30a3\u30a2\u30b4\u30fb\u30c7\u30fb\u30b3\u30f3\u30dd\u30b9\u30c6\u30fc\u30e9\u306e\u5de1\u793c\u8def", "name:ka": "\u10ec\u10db\u10d8\u10dc\u10d3\u10d0 \u10d8\u10d0\u10d9\u10dd\u10d1\u10d8\u10e1 \u10d2\u10d6\u10d0", "name:ko": "\uc0b0\ud2f0\uc544\uace0 \uac00\ub294 \uae38", "name:pl": "Droga \u015bw. Jakuba", "name:ru": "\u041f\u0443\u0442\u044c \u0421\u0432\u044f\u0442\u043e\u0433\u043e \u0418\u0430\u043a\u043e\u0432\u0430", "name:sk": "Sv\u00e4tojakubsk\u00e1 cesta", "name:uk": "\u0414\u043e\u0440\u043e\u0433\u0430 \u0421\u0432\u044f\u0442\u043e\u0433\u043e \u042f\u043a\u043e\u0432\u0430", "network": "iwn", "osmc:symbol": "blue:blue:shell_modern", "pilgrimage": "Camino de Santiago", "type": "network", "wikidata": "Q41150", "wikipedia": "es:Camino de Santiago"}}, "geometry": {"type": "Point", "coordinates": [-3.951319, 43.4029429]}}, {"type": "Feature", "properties": {"type": "relation", "id": 1225220, "tags": {"barrier": "city_wall", "building": "yes", "heritage": "1", "heritage:operator": "whc", "historic": "heritage", "historic:civilization": "ancient_roman", "name": "Muralla romana de Lugo", "name:es": "Muralla romana de Lugo", "name:gl": "Muralla romana de Lugo", "ref:whc": "987", "short_name": "Muralla de Lugo", "sorting_name": "Muralla romana de Lugo", "tourism": "attraction", "type": "multipolygon", "whc:criteria": "(iv)", "whc:inscription_date": "2000", "wikidata": "Q2733427", "wikipedia": "gl:Muralla de Lugo"}}, "geometry": {"type": "Point", "coordinates": [-7.557819, 43.0114521]}}, {"type": "Feature", "properties": {"type": "relation", "id": 1264135, "tags": {"building": "monastery", "building:colour": "#E3CFC6", "building:material": "stone", "denomination": "roman_catholic", "heritage": "1", "heritage:operator": "whc", "historic": "monastery", "name": "Real Monasterio de San Lorenzo de El Escorial", "name:de": "K\u00f6nigliches Kloster Sankt Laurentius", "name:pl": "Escorial", "name:ru": "\u042d\u0441\u043a\u043e\u0440\u0438\u0430\u043b", "name:uk": "\u0415\u0441\u043a\u043e\u0440\u0456\u0430\u043b", "religion": "christian", "roof:colour": "#68769A", "roof:material": "slate", "source:wheelchair": "https://entradas.patrimonionacional.es/es/informacion-recinto/1/san-lorenzo-del-escorial#otraInformacion", "tourism": "attraction", "type": "multipolygon", "website": "http://www.patrimonionacional.es/", "wheelchair": "limited", "wheelchair:description:en": "There is access for persons with disability (consult conditions in the Monument). Manual wheel chairs are available", "wheelchair:description:es": "Existe acceso para personas con discapacidad y se dispone de sillas de ruedas manuales", "wikidata": "Q28471", "wikipedia": "es:Monasterio de El Escorial"}}, "geometry": {"type": "Point", "coordinates": [-4.1477722, 40.5890624]}}, {"type": "Feature", "properties": {"type": "relation", "id": 2163558, "tags": {"denomination": "catholic", "distance": "750", "from": "Logro\u00f1o, Espa\u00f1a", "heritage": "1", "heritage:operator": "whc-UNESCO", "int_name": "Camino de Santiago - 03 Logro\u00f1o to Burgos", "name": "Camino Franc\u00e9s - 03 Logro\u00f1o a Burgos", "name:es": "Camino Franc\u00e9s - 03 Logro\u00f1o a Burgos", "name:eu": "Donejakue bidea (Frantses Bidea) - 03 Logro\u00f1o a Burgos", "name:fr": "Camino Franc\u00e9s - 03 Logro\u00f1o a Burgos", "network": "iwn", "note": "Be careful to not map the bicycle way here. See the wiki.", "osmc:symbol": "blue:blue:shell_modern", "pilgrimage": "Camino_de_Santiago", "ref": "GR 65", "religion": "christian", "route": "hiking", "section": "east (west)", "symbol": "NNN", "to": "Burgos, Espa\u00f1a", "type": "route", "wikipedia": "de:Camino Franc\u00e9s"}}, "geometry": {"type": "Point", "coordinates": [-3.0832422, 42.401095]}}, {"type": "Feature", "properties": {"type": "relation", "id": 2163559, "tags": {"denomination": "catholic", "distance": "750", "heritage": "1", "heritage:operator": "whc", "int_name": "Cami\u00f1o de Santiago", "name": "Cami\u00f1o Franc\u00e9s - 08 Palas de Rei a Compostela", "name:es": "Camino Franc\u00e9s - 08 Palas de Rei a Compostela", "name:eu": "Donejakue bidea (Frantses Bidea) - 08 Palas de Rei a Compostela", "name:gl": "Cami\u00f1o Franc\u00e9s - 08 Palas de Rei a Compostela", "network": "iwn", "note": "Be careful to not map the bicycle way here. See the wiki.", "osmc:symbol": "blue:blue:shell_modern", "pilgrimage": "Cami\u00f1o de Santiago", "religion": "christian", "route": "hiking", "section": "west (west)", "symbol": "NNN", "type": "route", "wikidata": "Q41150", "wikipedia": "gl:Cami\u00f1o Franc\u00e9s"}}, "geometry": {"type": "Point", "coordinates": [-8.2220264, 42.9016086]}}, {"type": "Feature", "properties": {"type": "relation", "id": 2163560, "tags": {"denomination": "catholic", "distance": "750", "heritage": "1", "heritage:operator": "whc-UNESCO", "int_name": "Camino de Santiago", "name": "Camino Franc\u00e9s - 04 Burgos a Le\u00f3n", "name:es": "Camino Franc\u00e9s - 04 Burgos a Le\u00f3n", "name:eu": "Donejakue bidea (Frantses Bidea) - 04 Burgos a Le\u00f3n", "name:fr": "Camino Franc\u00e9s - 04 Burgos a Le\u00f3n", "network": "iwn", "note": "Be careful to not map the bicycle way here. See the wiki.", "osmc:symbol": "blue:blue:shell_modern", "pilgrimage": "Camino_de_Santiago", "ref": "66261", "religion": "christian", "route": "hiking", "section": "middle (east)", "symbol": "NNN", "type": "route", "wikipedia": "es:Camino Franc\u00e9s"}}, "geometry": {"type": "Point", "coordinates": [-4.6124829, 42.4158034]}}, {"type": "Feature", "properties": {"type": "relation", "id": 2665923, "tags": {"building": "monastery", "denomination": "catholic", "heritage": "1", "heritage:operator": "whc", "name": "Monasterio San Mill\u00e1n de Yuso", "name:eu": "San Mill\u00e1n de Yusoko monasterioa", "note": "no more place_of_worship nore monastery, only achitecture", "religion": "christian", "tourism": "attraction", "type": "multipolygon", "wikidata": "Q1775925", "wikipedia": "es:Monasterio de San Mill\u00e1n de Yuso"}}, "geometry": {"type": "Point", "coordinates": [-2.8651224, 42.3259011]}}, {"type": "Feature", "properties": {"type": "relation", "id": 2875154, "tags": {"bic:inscription_date": "1931-06-03", "building": "yes", "building:levels": "2", "heritage": "2", "heritage:operator": "mecd", "historic": "building", "name": "Museo Arqueol\u00f3gico Provincial de Huesca", "note": "Antigua Universidad Sertoriana", "protection_title": "Bien de Inter\u00e9s Cultural", "protection_title:category": "Monumento", "ref:bic": "RI-51-0000644-00000", "roof:shape": "gabled", "start_date": "C12", "tourism": "museum", "type": "multipolygon", "wikidata": "Q6033131", "wikipedia": "es:Museo de Huesca"}}, "geometry": {"type": "Point", "coordinates": [-0.4090101, 42.1421613]}}, {"type": "Feature", "properties": {"type": "relation", "id": 2875178, "tags": {"amenity": "place_of_worship", "bic:inscription_date": "1972-11-08", "building": "church", "denomination": "catholic", "heritage": "2", "heritage:operator": "mecd", "historic": "church", "name": "Iglesia y Convento de San Miguel", "protection_title": "Bien de Inter\u00e9s Cultural", "protection_title:category": "Monumento", "ref:bic": "RI-51-0003894-00000", "religion": "christian", "start_date": "C12", "type": "multipolygon"}}, "geometry": {"type": "Point", "coordinates": [-0.4106373, 42.143964]}}, {"type": "Feature", "properties": {"type": "relation", "id": 2900419, "tags": {"heritage": "1", "heritage:operator": "whc", "historic": "heritage", "name": "Palmeral de Elche", "name:en": "Palmeral of Elche", "name:fr": "Palmeraie d\u2019Elche", "ref:whc": "930", "type": "collection", "whc:criteria": "(ii)(v)", "whc:inscription_date": "2000", "wikipedia": "es:Palmeral de Elche"}}, "geometry": {"type": "Point", "coordinates": [-0.6916762, 38.2632978]}}, {"type": "Feature", "properties": {"type": "relation", "id": 3285335, "tags": {"bic:inscription_date": "1962-03-01", "building": "public", "building:levels": "5", "building:levels:underground": "1", "heritage": "2", "heritage:operator": "mecd", "historic": "building", "name": "Palacio de la Aduana", "protection_title": "Bien de Inter\u00e9s Cultural", "protection_title:category": "Monumento", "ref:bic": "RI-51-0001386", "type": "multipolygon", "wikidata": "Q4155876", "wikimedia_commons": "Category:Palacio de la Aduana, M\u00e1laga", "wikipedia": "es:Palacio de la Aduana (M\u00e1laga)"}}, "geometry": {"type": "Point", "coordinates": [-4.4171575, 36.7199694]}}, {"type": "Feature", "properties": {"type": "relation", "id": 3323973, "tags": {"addr:city": "Hondarribia", "addr:country": "ES", "addr:housenumber": "14", "addr:postcode": "20280", "addr:street": "Arma Plaza", "alt_name": "Castillo de Carlos V", "b5m:id": "D_13884", "b5m:url": "http://b5m.gipuzkoa.net/b5map/r1/eu/mapa/lekutu/D_13884", "b5m:urlOrto": "http://b5m.gipuzkoa.net/url5000/index.php?id=D_13884&lengua=1&actu=0&categoria=VITO_FOTO", "building": "yes", "heritage": "2", "historic": "castle", "historic:civilization": "middle-ages", "image": "https://commons.wikimedia.org/wiki/File:Hondarribia_-_Parador.jpg", "name": "Parador De Turismo El Emperador", "source": "b5m", "tourism": "hotel", "type": "multipolygon", "wikidata": "Q1049154", "wikipedia": "eu:Hondarribiko gaztelua"}}, "geometry": {"type": "Point", "coordinates": [-1.7910367, 43.3635606]}}, {"type": "Feature", "properties": {"type": "relation", "id": 3332045, "tags": {"amenity": "place_of_worship", "bic:inscription_date": "1885-04-18", "building": "church", "denomination": "catholic", "heritage": "2", "heritage:operator": "mecd", "historic": "church", "name": "Iglesia de San Pedro el Viejo", "opening_hours": "Mo-Sa 10:00-13:30,16:00-18:00; Su 11:00-12:00", "protection_title": "Bien de Inter\u00e9s Cultural", "protection_title:category": "Monumento", "ref:bic": "RI-51-0000049-00000", "religion": "christian", "start_date": "C12", "type": "multipolygon", "wikidata": "Q2750400", "wikipedia": "es:Monasterio de San Pedro el Viejo (Huesca)"}}, "geometry": {"type": "Point", "coordinates": [-0.4073727, 42.1381959]}}, {"type": "Feature", "properties": {"type": "relation", "id": 3396158, "tags": {"addr:city": "Madrid", "addr:district": "Centro", "addr:housenumber": "1", "addr:postcode": "28005", "addr:province": "Madrid", "addr:street": "Calle de San Buenaventura", "addr:suburb": "Palacio", "alt_name": "iglesiaFranciscoElGrande", "amenity": "place_of_worship", "building": "church", "denomination": "catholic", "description": "Conjunto conventual que sustituy\u00f3 al monasterio franciscano medieval, construido por Francisco de las Cabezas entre 1761 y 1768 y que concluye Francisco Sabatini en 1784 donde se exponen colecciones de pinturas de los siglos XVII al XIX.", "heritage": "2", "heritage:operator": "bic", "name": "Bas\u00edlica de San Francisco el Grande", "opening_hours": "Tu-Fr 10:30-12:30,16:00-18:00; Sa 10:30-12:30,16:00-18:00 \"Si no se ofician actos religiosos\"; Jul, Aug, Sep Tu-Su 10:30-12:30,17:00-19:00", "religion": "christian", "source:addr": "Ayuntamiento de Madrid", "source:description": "Ayuntamiento de Madrid", "source:opening_hours": "Ayuntamiento de Madrid", "source:url": "Ayuntamiento de Madrid", "source:wheelchair": "Ayuntamiento de Madrid", "tourism": "attraction", "type": "multipolygon", "url": "http://www.madrid.es/vgn-ext-templating/v/index.jsp?vgnextchannel=9e4c43db40317010VgnVCM100000dc0ca8c0RCRD&vgnextoid=ef8d0713fb71c010VgnVCM1000000b205a0aRCRD", "wheelchair": "no", "wikidata": "Q2473884", "wikipedia": "es:Real bas\u00edlica de San Francisco el Grande"}}, "geometry": {"type": "Point", "coordinates": [-3.7145624, 40.4104314]}}, {"type": "Feature", "properties": {"type": "relation", "id": 3958235, "tags": {"heritage": "2", "heritage:operator": "mecd", "historic": "ruins", "name": "Acueducto de San Telmo", "protection_title": "Bien de Inter\u00e9s Cultural", "protection_title:category": "Sitio hist\u00f3rico", "ruins": "aqueduct", "start_date": "1782-1784", "type": "site", "wikidata": "Q5657061", "wikimedia_commons": "Category:Acueducto de San Telmo", "wikipedia": "es:Acueducto de San Telmo"}}, "geometry": {"type": "Point", "coordinates": [-4.4204407, 36.7508308]}}, {"type": "Feature", "properties": {"type": "relation", "id": 4040037, "tags": {"amenity": "place_of_worship", "building": "church", "denomination": "catholic", "heritage": "1", "heritage:operator": "whc", "name": "Bas\u00edlica de San Lorenzo de El Escorial", "religion": "christian", "source:wheelchair": "https://entradas.patrimonionacional.es/es/informacion-recinto/1/san-lorenzo-del-escorial#otraInformacion", "type": "building", "wheelchair": "limited", "wheelchair:description:en": "There is access for persons with disability (consult conditions in the Monument). Manual wheel chairs are available", "wheelchair:description:es": "Existe acceso para personas con discapacidad y se dispone de sillas de ruedas manuales", "wikipedia": "es:Bas\u00edlica de El Escorial"}}, "geometry": {"type": "Point", "coordinates": [-4.1474205, 40.588966]}}, {"type": "Feature", "properties": {"type": "relation", "id": 4829086, "tags": {"boundary": "protected_area", "heritage": "1", "heritage:operator": "whc", "leisure": "nature_reserve", "name": "Parque Nacional de Sierra Nevada", "name:ar": "\u0633\u064a\u064a\u0631\u0627 \u0646\u064a\u0641\u0627\u062f\u0627 \u0627\u0644\u0648\u0637\u0646\u064a\u0629 \u0628\u0627\u0631\u0643", "protect_class": "2", "type": "multipolygon", "wikidata": "Q1969050", "wikipedia": "es:Parque nacional de Sierra Nevada (Espa\u00f1a)"}}, "geometry": {"type": "Point", "coordinates": [-3.1056652, 37.0759385]}}, {"type": "Feature", "properties": {"type": "relation", "id": 5641600, "tags": {"amenity": "place_of_worship", "artwork_type": "architecture", "building": "cathedral", "building:colour": "#e4d3a6", "building:material": "sandstone", "denomination": "catholic", "email": "info@catedraldesevilla.es", "height": "49", "heritage": "1", "heritage:operator": "whc", "historic": "heritage", "image": "https://images.mapillary.com/_414Q_ks5jUIOU4U0u7l0g/thumb-2048.jpg", "mapillary": "https://www.mapillary.com/map/im/_414Q_ks5jUIOU4U0u7l0g", "name": "Catedral de Sevilla", "name:en": "Cathedral of Seville", "name:es": "Catedral de Sevilla", "name:fr": "Cath\u00e9drale de S\u00e9ville", "name:ko": "\uc138\ube44\uc57c \ub300\uc131\ub2f9", "official_name": "Catedral de Santa Mar\u00eda de la Sede", "opening_hours": "Mo 11:00-15:30, Tu-Sa 11:00-17:00, Su 14:30-18:00", "opening_hours:description:en": "Opening_hours are the times the cathedral is open for visitors", "phone": "+34 902099692", "religion": "christian", "roof:colour": "#e4d3a6", "tourism": "artwork", "type": "multipolygon", "url": "https://www.youtube.com/watch?v=wwZ5RNJoCcw", "wheelchair": "yes", "wikidata": "Q231606", "wikipedia": "es:Catedral de Santa Mar\u00eda de la Sede de Sevilla"}}, "geometry": {"type": "Point", "coordinates": [-5.9931271, 37.3859155]}}, {"type": "Feature", "properties": {"type": "relation", "id": 6231562, "tags": {"amenity": "place_of_worship", "building": "yes", "heritage": "1", "heritage:operator": "whc", "historic": "heritage", "name": "Real Monasterio de Guadalupe", "religion": "christian", "type": "multipolygon", "wikidata": "Q750248", "wikipedia": "es:Real Monasterio de Santa Mar\u00eda de Guadalupe"}}, "geometry": {"type": "Point", "coordinates": [-5.3274216, 39.4528986]}}, {"type": "Feature", "properties": {"type": "relation", "id": 6579652, "tags": {"amenity": "university", "building": "university", "heritage": "1", "heritage:operator": "whc", "historic": "heritage", "loc_name": "Universidad de Alcal\u00e1", "name": "Universidad de Alcal\u00e1 de Henares", "operator": "Universidad de Alcal\u00e1", "tourism": "attraction", "type": "multipolygon", "wikidata": "Q1243904", "wikipedia": "es:Universidad de Alcal\u00e1"}}, "geometry": {"type": "Point", "coordinates": [-3.3628883, 40.4823358]}}, {"type": "Feature", "properties": {"type": "relation", "id": 7074006, "tags": {"bic:inscription_date": "1971-06-24", "boundary": "protected_area", "heritage": "2", "heritage:operator": "mecd", "historic": "heritage", "name": "Conjunto Hist\u00f3rico Art\u00edstico Casco Antiguo de la Ciudad de Huesca", "protect_class": "22", "protection_title": "Bien de Inter\u00e9s Cultural", "protection_title:category": "Conjunto hist\u00f3rico", "ref:bic": "RI-53-0000127-00000", "type": "boundary"}}, "geometry": {"type": "Point", "coordinates": [-0.4082109, 42.140545]}}, {"type": "Feature", "properties": {"type": "relation", "id": 7414715, "tags": {"heritage": "1", "heritage:operator": "whc", "name:en": "Works of Antoni Gaud\u00ed", "name:fr": "\u0152uvres d\u2019Antoni Gaud\u00ed", "ref:whc": "320", "type": "site", "whc:criteria": "(i)(ii)(iv)", "whc:inscription_date": "1984"}}, "geometry": {"type": "Point", "coordinates": [2.1013377, 41.3901832]}}, {"type": "Feature", "properties": {"type": "relation", "id": 7414731, "tags": {"heritage": "1", "heritage:operator": "whc", "name": "Alhambra, Generalife y Albaic\u00edn de Granada", "name:en": "Alhambra, Generalife and Albayz\u00edn, Granada", "name:fr": "Alhambra, Generalife et Albaicin, Grenade", "ref:whc": "314", "source": "http://whc.unesco.org/en/list/314", "type": "site", "whc:criteria": "(i)(iii)(iv)", "whc:inscription_date": "1984"}}, "geometry": {"type": "Point", "coordinates": [-3.5893777, 37.1780107]}}, {"type": "Feature", "properties": {"type": "relation", "id": 7414891, "tags": {"heritage": "1", "heritage:operator": "whc", "name": "Conjunto arqueol\u00f3gico de M\u00e9rida", "name:en": "Archaeological Ensemble of M\u00e9rida", "name:fr": "Ensemble arch\u00e9ologique de M\u00e9rida", "ref:whc": "664", "type": "site", "whc:criteria": "(iii)(iv)", "whc:inscription_date": "1993"}}, "geometry": {"type": "Point", "coordinates": [-6.2789685, 38.9499891]}}, {"type": "Feature", "properties": {"type": "relation", "id": 7422813, "tags": {"amenity": "hospital", "healthcare": "hospital", "heritage": "1", "heritage:operator": "whc", "historic": "heritage", "name": "Hospital de la Santa Creu i Sant Pau", "name:ja": "\u30b5\u30f3\u30d1\u30a6\u75c5\u9662", "name:ko": "\uc0b0\ud30c\uc6b0 \ubcd1\uc6d0", "name:zh": "\u8056\u5341\u5b57\u548c\u8056\u4fdd\u7f85\u91ab\u9662", "tourism": "attraction", "type": "multipolygon", "wikidata": "Q507282", "wikipedia": "ca:Hospital de la Santa Creu i Sant Pau"}}, "geometry": {"type": "Point", "coordinates": [2.1742203, 41.413977]}}, {"type": "Feature", "properties": {"type": "relation", "id": 7432188, "tags": {"addr:city": "Barcelona", "addr:country": "ES", "addr:housename": "Casa Bloc", "addr:housenumber": "95-99", "addr:street": "Passeig de Torras i Bages", "architect": "Josep Llu\u00eds Sert; Josep Torres Clav\u00e9; Joan Baptista Subirana", "bcin:criteria": "MH", "bcin:inscription_date": "1992-12-14", "building": "apartments", "building:levels": "7", "building:levels:underground": "1", "heritage": "2", "heritage:operator": "Generalitat de Catalunya", "name": "Casa Bloc", "ref:bcin": "1879-MH", "start_date": "1936", "type": "multipolygon", "website": "http://ajuntament.barcelona.cat/museudeldisseny/ca/exposicio/pis-museu-de-la-casa-bloc-habitatge-111", "website:es": "http://ajuntament.barcelona.cat/museudeldisseny/es/exposicion/piso-museo-en-la-casa-bloc-vivienda-111", "wikidata": "Q2836969", "wikipedia": "ca:Casa Bloc"}}, "geometry": {"type": "Point", "coordinates": [2.1903953, 41.4407736]}}, {"type": "Feature", "properties": {"type": "relation", "id": 7892882, "tags": {"amenity": "place_of_worship", "building": "chapel", "denomination": "roman_catholic", "heritage": "2", "historic": "monument", "name": "Santuario de Nuestra Se\u00f1ora de Bel\u00e9n", "protection_title": "Bien de Inter\u00e9s Cultural", "religion": "christian", "type": "multipolygon"}}, "geometry": {"type": "Point", "coordinates": [-5.3238741, 38.7060312]}}, {"type": "Feature", "properties": {"type": "relation", "id": 8553083, "tags": {"amenity": "place_of_worship", "building": "church", "denomination": "catholic", "heritage": "1", "heritage:operator": "whc", "heritage:operator_1": "Gobierno de Arag\u00f3n", "heritage_1": "3", "name": "Iglesia de San Pedro", "religion": "christian", "type": "multipolygon", "wikidata": "Q5911123", "wikipedia": "es:Iglesia de San Pedro (Teruel)"}}, "geometry": {"type": "Point", "coordinates": [-1.1061458, 40.3425137]}}, {"type": "Feature", "properties": {"type": "relation", "id": 8974896, "tags": {"addr:city": "Barcelona", "addr:housename": "Casa Mil\u00e0", "addr:housenumber": "261-265", "addr:postcode": "08008", "addr:street": "Carrer de Proven\u00e7a", "alt_name": "la Pedrera", "architect": "Antoni Gaudi", "artwork_type": "architecture", "building": "public", "building:levels": "9", "building:levels:underground": "1", "height": "26", "heritage": "1", "heritage:operator": "whc", "historic": "heritage", "local_name": "La Pedrera", "name": "Casa Mil\u00e0", "name:ca": "La Pedrera - Casa Mil\u00e0", "name:de": "Casa Mil\u00e0", "name:el": "\u039a\u03ac\u03b6\u03b1 \u039c\u03b9\u03bb\u03ac", "name:en": "La Pedrera - Casa Mil\u00e0", "name:es": "La Pedrera - Casa Mil\u00e0", "name:he": "\u05e7\u05d0\u05d6\u05d4 \u05de\u05d9\u05dc\u05d4", "name:jp": "\u30ab\u30b5 \u30df\u30e9", "name:ko": "\uce74\uc0ac \ubc00\ub77c 12\uc704", "name:ru": "\u0414\u043e\u043c \u041c\u0438\u043b\u0430", "name:uk": "\u0411\u0443\u0434\u0438\u043d\u043e\u043a \u041c\u0456\u043b\u0430", "name:zh": "\u7c73\u5170\u4e4b\u5bb6", "opening_hours": "Mar 01-Nov 04 09:00-20:30,21:00-23:00; Nov 05-Feb 28 09:00-18:30,19:00-21:00", "ref:whc": "320-003", "tourism": "artwork", "type": "multipolygon", "website": "https://www.lapedrera.com/ca/home", "whc:inscription_date": "1984", "wheelchair": "yes", "wikidata": "Q207870", "wikipedia": "ca:Casa Mil\u00e0"}}, "geometry": {"type": "Point", "coordinates": [2.1618775, 41.3953994]}}, {"type": "Feature", "properties": {"type": "relation", "id": 9194723, "tags": {"addr:city": "Barcelona", "addr:housenumber": "401", "addr:street": "Carrer de Mallorca", "alt_name": "Sagrada Fam\u00edlia", "amenity": "place_of_worship", "architect": "Antoni Gaud\u00ed i Cornet", "architect:wikidata": "Q25328", "building": "basilica", "building:colour": "tan", "denomination": "catholic", "heritage": "1", "heritage:operator": "whc", "historic": "heritage", "importance": "international", "int_name": "Sagrada Familia", "name": "Bas\u00edlica de la Sagrada Fam\u00edlia", "name:be": "\u0417\u0431\u0430\u0432\u0456\u0446\u0435\u043b\u044c\u043d\u044b \u0445\u0440\u0430\u043c \u0421\u0432\u044f\u0442\u043e\u0439 \u0421\u044f\u043c'\u0456", "name:en": "Sagrada Fam\u00edlia", "name:es": "Bas\u00edlica de la Sagrada Familia", "name:fr": "Basilique de la Sagrada Fam\u00edlia", "name:he": "\u05e1\u05d2\u05e8\u05d3\u05d4 \u05e4\u05de\u05d9\u05dc\u05d9\u05d4", "name:hi": "\u0938\u0917\u094d\u0930\u093e\u0926\u093e \u092b\u0948\u092e\u093f\u0932\u093f\u092f\u093e", "name:hu": "Szent Csal\u00e1d-templom", "name:ja": "\u30b5\u30b0\u30e9\u30c0\u30fb\u30d5\u30a1\u30df\u30ea\u30a2", "name:ko": "\uc0ac\uadf8\ub77c\ub2e4 \ud30c\ubc00\ub9ac\uc544 \uc131\ub2f9", "name:nl": "Sagrada Familia", "name:pt": "Bas\u00edlica da Sagrada Fam\u00edlia", "name:ru": "\u0425\u0440\u0430\u043c \u0421\u0432\u044f\u0442\u043e\u0433\u043e \u0421\u0435\u043c\u0435\u0439\u0441\u0442\u0432\u0430", "name:zh": "\u5723\u5bb6\u5802", "official_name:hu": "A szent csal\u00e1d engesztel\u0151 temploma", "opening_hours": "Mo-Su 09:00-20:00", "ref:whc": "320-005", "religion": "christian", "roof:colour": "tan", "toilets:wheelchair": "yes", "tourism": "attraction", "type": "multipolygon", "url": "http://www.sagradafamilia.cat", "website": "http://www.sagradafamilia.org", "whc:inscription_date": "2005", "wheelchair": "yes", "wheelchair:description:de": "Nur die T\u00fcrme k\u00f6nnen nicht besichtigt werden", "wikidata": "Q48435", "wikipedia": "ca:Temple Expiatori de la Sagrada Fam\u00edlia"}}, "geometry": {"type": "Point", "coordinates": [2.1743678, 41.4034651]}}, {"type": "Feature", "properties": {"type": "relation", "id": 9427554, "tags": {"addr:city": "Barcelona", "addr:country": "ES", "addr:housenumber": "43", "addr:street": "Passeig de Gr\u00e0cia", "architect": "Antoni Gaudi", "artwork_type": "architecture", "building": "apartments", "building:levels": "7", "building:levels:underground": "1", "heritage": "1", "heritage:operator": "whc", "historic": "heritage", "name": "Casa Batll\u00f3", "name:en": "Casa Batll\u00f3", "name:he": "\u05e7\u05d0\u05d6\u05d4 \u05d1\u05d0\u05dc\u05d9\u05d5", "name:ko": "\uce74\uc0ac \ubc14\ud2b8\uc694", "name:ru": "\u0414\u043e\u043c \u0411\u0430\u043b\u044c\u043e", "name:zh": "\u5df4\u7279\u6d1b\u4e4b\u5bb6", "opening_hours": "Mo-Su 09:00-21:00", "ref:whc": "320-006", "source": "Ajuntament de Barcelona - CartoBCN (@2013-11-10)", "tourism": "artwork", "type": "multipolygon", "website": "https://www.casabatllo.es/", "whc:inscription_date": "2005", "wikidata": "Q461371", "wikipedia": "ca:Casa Batll\u00f3"}}, "geometry": {"type": "Point", "coordinates": [2.1647614, 41.3915411]}}, {"type": "Feature", "properties": {"type": "relation", "id": 10001408, "tags": {"boundary": "protected_area", "heritage": "1", "heritage:operator": "whc", "heritage_type": "ensemble", "historic": "town", "name": "Ciudad vieja de \u00c1vila e iglesias extramuros", "protect_class": "22", "protection_title": "world heritage", "protection_title:category": "cultural", "protection_title:inscription_date": "1985", "ref:whc": "348bis", "type": "boundary", "wikidata": "Q15839120", "wikipedia": "es:Ciudad vieja de \u00c1vila e iglesias extramuros"}}, "geometry": {"type": "Point", "coordinates": [-4.6974148, 40.6553325]}}, {"type": "Feature", "properties": {"type": "relation", "id": 10015496, "tags": {"bic:criteria": "M", "bic:inscription_date": "03-jun-1931", "heritage": "2", "heritage:operator": "mecd", "heritage:website": "https://www.culturaydeporte.gob.es/cultura-mecd/areas-cultura/patrimonio/bienes-culturales-protegidos.html", "historic": "site", "name": "Murallas de Le\u00f3n", "protection_title": "Bien de Inter\u00e9s Cultural", "protection_title:category": "Sitio hist\u00f3rico", "ref:bic": "RI-51-0000664", "type": "site", "wikidata": "Q6032913", "wikipedia": "es:Murallas de Le\u00f3n"}}, "geometry": {"type": "Point", "coordinates": [-5.5688967, 42.5983271]}}, {"type": "Feature", "properties": {"type": "relation", "id": 10036333, "tags": {"boundary": "national_park", "heritage": "1", "heritage:operator": "whc", "leisure": "nature_reserve", "name": "Parque Nacional del Teide", "name:ca": "Parc Nacional del Teide", "name:cs": "N\u00e1rodn\u00ed park Teide", "name:de": "Nationalpark El Teide", "name:en": "Teide National Park", "name:eu": "Teideko Parke Nazionala", "name:fr": "Parc national du Teide", "name:gl": "Parque Nacional do Teide", "name:lt": "Teid\u0117s nacionalinis parkas", "name:sv": "Teide nationalpark", "protect_class": "2", "protection_title": "Parque Nacional", "ref:whc": "1258", "type": "boundary", "website": "http://reddeparquesnacionales.mma.es/parques/teide/index.htm", "whc:criteria": "(vii)(viii)", "whc:inscription_date": "2007", "wikidata": "Q715124"}}, "geometry": {"type": "Point", "coordinates": [-16.6063751, 28.2687534]}}, {"type": "Feature", "properties": {"type": "relation", "id": 10036362, "tags": {"boundary": "national_park", "heritage": "1", "heritage:operator": "whc", "leisure": "nature_reserve", "name": "Parque nacional de Garajonay", "name:ca": "Parc Nacional de Garajonay", "name:de": "Nationalpark Garajonay", "name:en": "Garajonay National Park", "name:eu": "Garajonayko parke nazionala", "name:fr": "Parc national de Garajonay", "name:it": "Parco nazionale di Garajonay", "name:pt": "Parque Nacional de Garajonay", "protect_class": "2", "type": "boundary", "whc:criteria": "(vii)(ix)", "whc:inscription_date": "1986", "wikidata": "Q464942"}}, "geometry": {"type": "Point", "coordinates": [-17.2486994, 28.1290211]}}, {"type": "Feature", "properties": {"type": "relation", "id": 10045551, "tags": {"building": "church", "building:architecture": "renaissance", "heritage": "2", "heritage:operator": "mecd", "heritage:type": "religious", "historic": "monastery", "name": "Convento Agustino de Extramuros", "protection_title": "BIC", "protection_title:category": "Monumento", "protection_title:inscription_date": "22-02-2007", "ref:bic": "51 - 0011173 - 00000", "ruins": "yes", "start_date": "C14", "type": "multipolygon", "wikidata": "Q5785575", "wikipedia": "es:Convento Agustino de Extramuros (Madrigal de las Altas Torres)"}}, "geometry": {"type": "Point", "coordinates": [-5.003167, 41.0822948]}}, {"type": "Feature", "properties": {"type": "relation", "id": 10709126, "tags": {"building": "castle", "building:architecture": "gothic;mud\u00e9jar", "heritage": "2", "heritage:operator": "mecd", "heritage:type": "military", "historic": "castle", "name": "Castillo-Palacio de Castronuevo", "protection_title": "BIC", "protection_title:category": "Monumento", "protection_title:inscription_date": "22-04-1949", "start_date": "C15", "type": "multipolygon", "wikidata": "Q16544663", "wikipedia": "es:Castillo de Castronuevo"}}, "geometry": {"type": "Point", "coordinates": [-5.0138699, 40.8848287]}}, {"type": "Feature", "properties": {"type": "relation", "id": 10992940, "tags": {"building": "yes", "heritage": "2", "heritage:operator": "mecd", "historic": "manor", "name": "Alqueria de la Torre dels Pares", "protection_title": "Bien de Inter\u00e9s Cultural", "protection_title:category": "Monumento", "ref:bic": "17684", "type": "multipolygon", "wikidata": "Q5692294", "wikimedia_commons": "File:Alqueria fortificada de la torre dels Pares.JPG", "wikipedia": "es:Alquer\u00eda fortificada Torre dels Pares"}}, "geometry": {"type": "Point", "coordinates": [-0.1576915, 38.9594893]}}, {"type": "Feature", "properties": {"type": "relation", "id": 11107116, "tags": {"amenity": "place_of_worship", "building": "church", "denomination": "catholic", "heritage": "2", "heritage:operator": "mecd", "historic": "church", "name": "Iglesia de la Asunci\u00f3n", "protection_title": "Bien de Inter\u00e9s Cultural", "religion": "christian", "type": "multipolygon"}}, "geometry": {"type": "Point", "coordinates": [-1.1683828, 41.4037532]}}, {"type": "Feature", "properties": {"type": "relation", "id": 11279244, "tags": {"building": "yes", "heritage": "2", "historic": "monument", "name": "Palacio Coto de Riofr\u00edo", "protection_title": "Bien de Inter\u00e9s Cultural", "protection_title:category": "Monumento", "type": "multipolygon"}}, "geometry": {"type": "Point", "coordinates": [-4.1509801, 40.8736566]}}, {"type": "Feature", "properties": {"type": "relation", "id": 12074743, "tags": {"alt_name": "Catedral de Burgos", "amenity": "place_of_worship", "building": "cathedral", "building:architecture": "gothic", "building:colour": "#a99d92", "building:levels": "1", "building:material": "stone", "denomination": "roman_catholic", "heritage": "1", "heritage:operator": "whc", "historic": "heritage", "image": "File:Catedral de Burgos.jpg", "name": "Catedral de Santa Mar\u00eda", "name:de": "Kathedrale Santa Maria", "name:en": "Cathedral of Santa Maria", "name:es": "Catedral de Santa Mar\u00eda", "name:etymology": "Mar\u00eda de Nazareth", "name:etymology:wikidata": "Q345", "name:etymology:wikipedia": "es:Mar\u00eda (madre de Jes\u00fas)", "name:fr": "Cath\u00e9drale de Santa Maria", "ref:bic": "RI-51-0000048", "religion": "christian", "type": "multipolygon", "website": "http://www.catedraldeburgos.es/", "wikidata": "Q744420", "wikimedia_commons": "Category:Cathedral of Burgos", "wikipedia": "es:Catedral de Burgos"}}, "geometry": {"type": "Point", "coordinates": [-3.7043422, 42.3407328]}}, {"type": "Feature", "properties": {"type": "relation", "id": 12121786, "tags": {"bic:inscription_date": "28-12-1939", "building": "public", "building:architecture": "renaissance", "building:levels": "4", "heritage": "2", "heritage:operator": "mecd", "heritage:website": "https://www.culturaydeporte.gob.es/cultura/patrimonio/bienes-culturales-protegidos.html", "historic": "building", "loc_name": "Palacio de Buenavista", "name": "Palacio de los Condes de Buenavista", "protection_title": "Bien de Inter\u00e9s Cultural", "protection_title:category": "Monumento", "ref:bic": "RI-51-0001103", "start_date": "~1530s", "tourism": "attraction", "type": "multipolygon", "wheelchair": "yes", "wikidata": "Q969308", "wikimedia_commons": "Category:Palacio de los Condes de Buenavista, M\u00e1laga", "wikipedia": "es:Palacio de los Condes de Buenavista"}}, "geometry": {"type": "Point", "coordinates": [-4.4182724, 36.721559]}}, {"type": "Feature", "properties": {"type": "relation", "id": 12240931, "tags": {"bic:inscription_date": "1923-07-12", "building": "public", "building:levels": "4", "description": "Edificio del siglo XVIII de estilo barroco clasicista. Su nombre se debe a que durante un tiempo fue la sede del Consulado Mar\u00edtimo Terrestre. Desde 1856 es la sede de la Sociedad Econ\u00f3mica de Amigos del Pa\u00eds.", "description:en": "An 18th century building in Classicist Baroque style. Its name comes from the fact that for a time it was the headquarters of the Maritime Land Consulate. Since 1856 it has been the headquarters of the Economic Society of Friends of the Country.", "heritage": "2", "heritage:operator": "mecd", "historic": "building", "name": "Casa del Consulado", "protection_title": "Bien de Inter\u00e9s Cultural", "protection_title:category": "Monumento", "ref:bic": "RI-51-0000251", "start_date": "1785", "type": "multipolygon", "url": "http://www.malagaturismo.com/es/recursos-turisticos/detalle/casa-del-consulado.-sociedad-economica-de-amigos-del-pais/252", "wikidata": "Q5755438", "wikimedia_commons": "Category:Casa del Consulado", "wikipedia": "es:Casa del Consulado (M\u00e1laga)"}}, "geometry": {"type": "Point", "coordinates": [-4.4223107, 36.7214235]}}, {"type": "Feature", "properties": {"type": "relation", "id": 12275297, "tags": {"bic:inscription_date": "1995-06-13", "heritage": "2", "heritage:operator": "mecd", "heritage:website": "https://www.culturaydeporte.gob.es/cultura/patrimonio/bienes-culturales-protegidos.html", "historic": "ruins", "name": "Muralla Nazar\u00ed y Muro Portuario", "protection_title": "Bien de Inter\u00e9s Cultural", "protection_title:category": "Monumento", "ref:bic": "RI-51-0005438", "ruins": "citywalls", "ruins:barrier": "city_wall", "type": "multipolygon", "wikidata": "Q6032873", "wikimedia_commons": "Category:Muralla Nazar\u00ed y Muro Portuario", "wikipedia": "es:Muralla nazar\u00ed y muro portuario"}}, "geometry": {"type": "Point", "coordinates": [-4.4204727, 36.7183224]}}, {"type": "Feature", "properties": {"type": "relation", "id": 12349070, "tags": {"bic:inscription_date": "1979-04-27", "building": "yes", "building:architecture": "baroque", "building:levels": "4", "heritage": "2", "heritage:operator": "mecd", "historic": "building", "image": "https://d1cuyjsrcm0gby.cloudfront.net/XMeQQzAptewUdVva5AY-QQ/thumb-2048.jpg", "mapillary": "ppdT6_9sk99zzvkLDv2JQw", "name": "Palacio Episcopal de M\u00e1laga", "name:de": "Bischofspalast von M\u00e1laga", "protection_title": "Bien de Inter\u00e9s Cultural", "protection_title:category": "Monumento", "ref:bic": "RI-51-0004355", "start_date": "1762", "tourism": "attraction", "type": "multipolygon", "wikidata": "Q9054355", "wikimedia_commons": "Category:Palacio Episcopal de M\u00e1laga", "wikipedia": "es:Palacio Episcopal de M\u00e1laga"}}, "geometry": {"type": "Point", "coordinates": [-4.4205106, 36.7206113]}}]}