{"version": 0.6, "generator": "Overpass API 0.7.56.8 7d656e78", "osm3s": {"timestamp_osm_base": "2021-03-02T19:14:01Z", "timestamp_areas_base": "2021-03-02T18:08:27Z", "copyright": "The data included in this document is from www.openstreetmap.org. The data is made available under ODbL."}, "elements": [{"type": "way", "id": 203755793, "center": {"lat": 44.8682612, "lon": 13.8470155}, "nodes": [2580589414, 2137530206, 2137530204, 2137530203, 2580589414], "tags": {"heritage": "2", "heritage:operator": "uzkb", "historic": "monument", "loc_name": "Zlatna vrata", "name": "Slavoluk Sergijevaca", "name:de": "Sergierbogen", "name:en": "Arch of the Sergi", "name:es": "Arco de los Sergi", "name:hr": "Slavoluk Sergijevaca", "name:it": "Arco dei Sergi", "name:pl": "\u0141uk Sergiusza (Z\u0142ota Brama)", "ref:hr:uzkb": "N-33", "start_date": "1 BC", "wikidata": "Q952381", "wikipedia": "en:Arch of the Sergii"}}, {"type": "way", "id": 119102927, "center": {"lat": 44.8701843, "lon": 13.8418398}, "nodes": [1339077521, 1339077455, 1339077127, 1339077255, 1339077521], "tags": {"building": "yes", "dedicated:wikidata": "Q1405", "heritage": "2", "heritage:operator": "uzkb", "historic": "archaeological_site", "historic:civilization": "ancient_roman", "name": "Augustov Hram", "name:de": "Augustus-Tempel", "name:en": "Temple of Augustus", "name:es": "Templo de Augusto", "name:it": "Tempio di Augusto", "name:pl": "\u015awi\u0105tynia Oktawiana Augusta", "ref:hr:uzkb": "N-10", "wikidata": "Q770030", "wikipedia": "en:Temple of Augustus (Pula)"}}, {"type": "way", "id": 167293705, "center": {"lat": 44.8701691, "lon": 13.8468272}, "nodes": [1787011770, 1787011766, 1787011785, 1787011775, 1787011764, 1787011755, 1787011747, 1787011740, 1787011719, 1787011710, 1787011700, 1787011686, 1787011681, 1787011683, 1787011688, 1787011706, 1787011712, 925371529, 1787011770], "tags": {"building": "ruins", "heritage": "2", "heritage:operator": "uzkb", "historic": "archaeological_site", "name": "Malo rimsko kazali\u0161te", "name:hr": "Malo rimsko kazali\u0161te", "name:it": "Teatro romano minore", "name:pl": "Teatr rzymski (wykopaliska)", "ref:hr:uzkb": "N-11", "start_date": "1", "wikidata": "Q16112130", "wikimedia_commons": "File:Small_Roman_Theatre%2C_Pula.JPG", "wikipedia": "hr:Malo rimsko kazali\u0161te u Puli"}}, {"type": "way", "id": 203756081, "center": {"lat": 44.8708948, "lon": 13.8476747}, "nodes": [3921312759, 3921312760, 2137534150, 2137534156, 3921312759], "tags": {"barrier": "sa", "building": "yes", "heritage": "2", "heritage:operator": "uzkb", "historic": "city_gate", "name": "Dvojna vrata", "name:en": "Roman Twin gates", "name:it": "Porta Gemina", "name:la": "Porta Gemina", "name:pl": "Podw\u00f3jna Brama", "ref:hr:uzkb": "N-7", "wikidata": "Q12630293", "wikipedia": "it:Porta Gemina (Pola)"}}, {"type": "way", "id": 122654075, "center": {"lat": 43.9256984, "lon": 15.4052869}, "nodes": [1369924677, 1369924697, 1369924706, 1369924703, 1369924712, 1369924701, 1369924659, 1369924652, 1369924663, 1369924668, 1369924684, 1369924686, 1369924677], "tags": {"addr:housenumber": "7", "addr:street": "Put \u0106okovca", "alt_name": "Samostan svetog Kuzme i Damjana", "amenity": "monastery", "building": "monastery", "denomination": "catholic", "heritage": "2", "heritage:operator": "uzkb", "historic": "monastery", "name": "Samostan \u0106okovac", "ref:hr:uzkb": "N-37", "religion": "christian", "website": "https://samostan-cokovac.hr/", "wikidata": "Q3689461"}}, {"type": "way", "id": 162544749, "center": {"lat": 43.7356569, "lon": 15.8890991}, "nodes": [5531066803, 7849240204, 7849240203, 7840135166, 5620908152, 5531066798, 1744096842, 7840135162, 6708483885, 7840135163, 1744096846, 7840135167, 7840135164, 1744096835, 7848768227, 7848768229, 7848768231, 7840135154, 7848768230, 7848768228, 7849240206, 5531066803], "tags": {"amenity": "place_of_worship", "architect:wikidata": "Q510203", "building": "cathedral", "building:colour": "#cbcbcd", "building:material": "sandstone", "charge": "30 HRK", "denomination": "roman_catholic", "fee": "yes", "heritage": "1", "heritage:operator": "uzkb", "name": "Katedrala svetog Jakova", "name:cs": "Katedr\u00e1la svat\u00e9ho Jakuba", "opening_hours": "Mo-Su 09:30-19:30", "ref:hr:uzkb": "N-2", "ref:whc": "963", "religion": "christian", "roof:colour": "#93878b", "roof:material": "roof_tiles", "whc:criteria": "(i),(ii),(iv)", "whc:inscription_date": "2000", "wikidata": "Q391973", "wikipedia": "hr:Katedrala sv. Jakova u \u0160ibeniku"}}, {"type": "way", "id": 125389451, "center": {"lat": 43.9541148, "lon": 15.5488393}, "nodes": [1392837099, 1392837097, 1392837094, 1392837096, 1392837099], "tags": {"area": "yes", "barrier": "city_wall", "heritage": "2", "heritage:operator": "uzkb", "historic": "ruins", "name": "Ma\u0161kovi\u0107a han", "ref:hr:uzkb": "N-38", "tourism": "attraction"}}, {"type": "way", "id": 298882937, "center": {"lat": 44.0338694, "lon": 15.6097828}, "nodes": [3028486918, 3028495836, 3028495837, 3028495838, 3028487843, 3028487842, 3028495835, 3028487841, 3028495834, 3028487840, 3028495833, 3028508803, 3028487839, 3028487838, 3028487837, 3028486919, 3028514898, 3028486920, 3028486921, 3028486922, 3028486923, 3028487844, 3028486924, 3028487845, 3028486925, 3028486928, 3028486929, 3028495843, 3028495844, 3028486931, 3028486932, 3028495842, 3028487833, 3028495841, 3028495840, 3028487836, 3028487834, 3028495839, 3028487835, 3028486930, 3028486918], "tags": {"area": "yes", "heritage": "2", "heritage:operator": "uzkb", "historic": "castle", "name": "Ka\u0161tel Benkovac", "ref:hr:uzkb": "N-27"}}, {"type": "way", "id": 298882938, "center": {"lat": 44.0337533, "lon": 15.6099279}, "nodes": [3028486925, 3028489577, 3028489578, 3028486928, 3028486925], "tags": {"amenity": "place_of_worship", "building": "yes", "denomination": "catholic", "heritage": "2", "heritage:operator": "uzkb", "name": "crkva svetog Ante", "ref:hr:uzkb": "N-27", "religion": "christian"}}, {"type": "way", "id": 740799117, "center": {"lat": 43.516531, "lon": 16.2493218}, "nodes": [6935627831, 6935627832, 6935627833, 6935627834, 6935627850, 6935627849, 6935627835, 6935627836, 6935627837, 6935627848, 6935627846, 6935627845, 6935627844, 6935627843, 6935627842, 6935627838, 6935627841, 6935627840, 6935627839, 6935627831], "tags": {"area": "yes", "heritage": "2", "heritage:operator": "uzkb;whc", "name": "Povijesni grad Trogir", "name:de": "Altstadt von Trogir", "name:en": "Historic City of Trogir", "name:lt": "Istorinis Trogiro miestas", "ref:hr:uzkb": "N-5", "start_date": "1997", "tourism": "attraction", "wikidata": "Q17132483"}}, {"type": "way", "id": 124205148, "center": {"lat": 43.5083414, "lon": 16.440238}, "nodes": [1383035573, 1383035592, 1383035584, 1383035607, 1383035617, 1383035595, 1383035579, 1383035162, 1383035241, 1383035189, 1383035062, 1383035091, 1392437954, 1383033952, 1383033948, 1383033944, 1383033945, 1383033949, 5619727183, 1383033965, 1383033974, 1383033981, 1383033989, 1383034003, 1383034016, 1383034025, 1383034086, 1383034085, 1383060882, 1383035573], "tags": {"heritage": "1", "heritage:operator": "uzkb", "historic": "archaeological_site", "historic:civilization": "roman", "name": "Dioklecijanova pala\u010da", "name:cs": "Diokleci\u00e1n\u016fv pal\u00e1c", "name:en": "Diocletian's Palace", "name:fr": "Palais de Diocl\u00e9tien", "name:ko": "\ub514\uc624\ud074\ub808\ud2f0\uc544\ub204\uc2a4 \uad81\uc804", "ref:hr:uzkb": "N-3", "site_type": "city", "tourism": "attraction", "wikidata": "Q322287", "wikipedia": "hr:Dioklecijanova pala\u010da"}}, {"type": "way", "id": 229297699, "center": {"lat": 44.2427871, "lon": 15.184464}, "nodes": [2379170772, 5294540148, 5294540147, 5294540146, 2379170785, 5294540150, 5294540145, 2379170766, 5294540144, 5294540149, 5294540143, 5294540142, 5294540141, 2379170789, 2379170772], "tags": {"amenity": "place_of_worship", "building": "church", "denomination": "roman_catholic", "heritage": "2", "heritage:operator": "uzkb", "name": "Crkva svetog Kri\u017ea", "name:de": "Heilig-Kreuz-Kirche", "name:en": "Church of the Holy Cross", "ref:hr:uzkb": "N-34", "religion": "christian", "wikidata": "Q1140629", "wikipedia": "hr:Crkva sv. Kri\u017ea u Ninu"}}, {"type": "way", "id": 388957962, "center": {"lat": 44.2424684, "lon": 15.1836823}, "nodes": [3921296779, 3921296780, 3921296781, 3921296782, 3921296783, 3921296784, 3921296785, 3921296786, 3921296779], "tags": {"amenity": "place_of_worship", "building": "church", "denomination": "roman_catholic", "heritage": "2", "heritage:operator": "uzkb", "name": "\u017dupna crkva sv. Anselma", "name:de": "Pfarrkirche St. Anselmus", "ref:hr:uzkb": "N-35", "religion": "christian", "service_times": "Mo-Sa 08:30; Su 08:30,11:30"}}, {"type": "way", "id": 388957963, "center": {"lat": 44.2424424, "lon": 15.183456}, "nodes": [3921296787, 3921296788, 3921296789, 3921296790, 3921296787], "tags": {"building": "bell_tower", "heritage": "2", "heritage:operator": "uzkb", "man_made": "tower", "name": "Zvonik crkve Sv. Anselma", "ref:hr:uzkb": "N-35", "tower:type": "bell_tower"}}, {"type": "way", "id": 388956775, "center": {"lat": 44.2428378, "lon": 15.184508}, "nodes": [3921292056, 3921292257, 3921292258, 3921292259, 3921292260, 3921292261, 3921292262, 3921292056], "tags": {"heritage": "2", "heritage:operator": "uzkb", "historic": "archaeological_site", "ref:hr:uzkb": "N-34"}}, {"type": "way", "id": 298872724, "center": {"lat": 44.0593995, "lon": 15.5765638}, "nodes": [3028391841, 3028391842, 3028391843, 3028391844, 3028391845, 3028391841], "tags": {"amenity": "place_of_worship", "building": "church", "heritage": "2", "heritage:operator": "uzkb", "name": "crkva svetog Nikole", "ref:hr:uzkb": "N-8", "religion": "christian", "start_date": "1446"}}, {"type": "way", "id": 314127943, "center": {"lat": 44.1586726, "lon": 15.5680716}, "nodes": [3201755171, 3201755172, 3201755173, 3201755174, 3201755171], "tags": {"amenity": "place_of_worship", "building": "yes", "heritage": "2", "heritage:operator": "uzkb", "name": "crkva svetog Martina", "ref:hr:uzkb": "N-36", "religion": "christian", "start_date": "C6"}}, {"type": "way", "id": 181747080, "center": {"lat": 45.2565971, "lon": 13.9071355}, "nodes": [1921804291, 1921804293, 1921804292, 7637503777, 1921804290, 1921804291], "tags": {"amenity": "place_of_worship", "building": "church", "description": "Keys are kept in the village of Beram (Vermo), house no. 38. Please call the mobile phone number posted on signs in Beram. Access fee 20 HRK (2020).", "heritage": "2", "heritage:operator": "uzkb", "name": "crkva svete Marije na \u0160kriljinah", "name:de": "Maria in den Felsen", "name:hr": "Sv.Marija na \u0160kriljinah", "name:it": "Santa Maria delle Lastre", "ref:hr:uzkb": "N-6", "religion": "christian", "start_date": "C15", "wikidata": "Q1896482"}}, {"type": "way", "id": 351919589, "center": {"lat": 46.2603392, "lon": 15.9395205}, "nodes": [3577215429, 3577217016, 3577216963, 3577216686, 3577216929, 3577423207, 3577216750, 3577423246, 3577421267, 3577421255, 3577421291, 3577423198, 3577215483, 3577216771, 3577216664, 3577215472, 3577423264, 3577423205, 3577423196, 3577423214, 3577423237, 3577423284, 3577423212, 3577423249, 3577423274, 3577423240, 3577216922, 3577216680, 3577216725, 3577216587, 3577216604, 3577216683, 3577216571, 3577216615, 3577216950, 3577216613, 3577216740, 3577216926, 3577216894, 3577437956, 3577216987, 3577216737, 3577215438, 3577216736, 3577216905, 3577216927, 3577216530, 3577216497, 3577216657, 3577216899, 3577215426, 3577216787, 3577216702, 3577215479, 3577216673, 3577215441, 3577216695, 3577216681, 3577216731, 3577216706, 3577217009, 3577216500, 3577423276, 3577421265, 3577216942, 3577216671, 3577216629, 3577216757, 3577216655, 3577216914, 3577216743, 3577216915, 3577216682, 3577216780, 3577216590, 3577216535, 3577216638, 3577216512, 3577215429], "tags": {"boundary": "protected_area", "heritage": "2", "heritage:operator": "uzkb", "historic": "yes", "leisure": "park", "name": "Kulturno dobro dvorac Trako\u0161\u0107an", "name:de": "Kulturgut Schloss Trako\u0161\u0107an mit Parkanlage", "name:en": "The cultural monument of Trako\u0161\u0107an Castle with its park", "opening_hours": "Apr-Oct:9-18h; Nov-Mar:9-16h", "ref:hr:uzkb": "N-18"}}, {"type": "way", "id": 328324342, "center": {"lat": 46.2132548, "lon": 16.025678}, "nodes": [3351501770, 3351501771, 3351501772, 3351501773, 3351501774, 3351501775, 3351501776, 3351501777, 3351501778, 3351501779, 3351501780, 3351501770], "tags": {"amenity": "place_of_worship", "building": "church", "denomination": "catholic", "heritage": "2", "heritage:operator": "uzkb", "name": "kapelica Svetog Jurja", "ref:hr:uzkb": "N-13", "religion": "christian"}}, {"type": "way", "id": 318882306, "center": {"lat": 46.20928, "lon": 16.0398759}, "nodes": [3252763977, 3252763978, 3252763979, 3252763996, 3252763980, 3252767267, 3252763981, 3252763982, 3252763983, 3252763984, 3252763985, 3252763986, 3252763987, 3252763988, 3252763989, 3252763977], "tags": {"amenity": "place_of_worship", "building": "church", "heritage": "2", "heritage:operator": "uzkb", "name": "crkva Bezgre\u0161nog Za\u010de\u0107a Bla\u017eene Djevice Marije", "ref:hr:uzkb": "N-12", "religion": "christian"}}, {"type": "way", "id": 318882307, "center": {"lat": 46.2095241, "lon": 16.0399711}, "nodes": [3252763980, 3252763990, 3252763991, 3252763992, 3252763993, 3252763988, 3252763989, 3252763977, 3252763994, 3252763995, 3252763996, 3252763980], "tags": {"building": "yes", "heritage": "2", "heritage:operator": "uzkb", "historic": "monastery", "name": "Pavlinski Samostan", "ref:hr:uzkb": "N-12", "religion": "christian"}}, {"type": "way", "id": 276972695, "center": {"lat": 46.3077024, "lon": 16.3370591}, "nodes": [2815228825, 2815228836, 2815228828, 2377587235, 2815228819, 598915064, 2815228837, 2892597392, 2892597391, 2815228835, 2815228823, 2815228825], "tags": {"building": "yes", "heritage": "2", "heritage:operator": "uzkb", "name": "Pala\u010da Pata\u010di\u0107", "ref:hr:uzkb": "N-22", "wikidata": "Q12639212", "wikipedia": "hr:Pala\u010da Pata\u010di\u0107 u Vara\u017edinu"}}, {"type": "way", "id": 229153349, "center": {"lat": 46.307519, "lon": 16.3386434}, "nodes": [2377830834, 2377830806, 1683035087, 2377830845, 2892597384, 2892597380, 2377830808, 2377830846, 2377830827, 2377830815, 2377830781, 2377830821, 2377830834], "tags": {"alt_name": "Vara\u017edinska katedrala", "amenity": "place_of_worship", "building": "church", "denomination": "catholic", "heritage": "2", "heritage:operator": "uzkb", "int_name": "Cathedral of St. Mary to Heaven Ascended", "mapillary": "lgfYotwo28nHRI7zHax1bw", "name": "crkva Uznesenja Bla\u017eene Djevice Marije", "name:de": "Domkirche St.-Maria-Himmelsk\u00f6nigin-Kirche", "name:en": "Cathedral of St. Mary to Heaven Ascended", "name:fr": "Cath\u00e9drale de l'Assomption de la Bienheureuse Vierge Marie", "name:hu": "Sz\u00e9kesegyh\u00e1z", "ref:hr:uzkb": "N-19", "religion": "christian", "wikidata": "Q2585341", "wikipedia": "hr:Vara\u017edinska katedrala"}}, {"type": "way", "id": 380626098, "center": {"lat": 46.4998377, "lon": 16.2840207}, "nodes": [3839441092, 5841684515, 3839441094, 3839441095, 3839441096, 5841684513, 3839441097, 3839441098, 3839441099, 5841684514, 3839441100, 3839441101, 3839441102, 3839441092], "tags": {"amenity": "place_of_worship", "building": "church", "building:architecture": "baroque", "denomination": "roman_catholic", "heritage": "2", "heritage:operator": "uzkb", "name": "Crkva svetog Jeronima", "ref:hr:uzkb": "N-26", "religion": "christian", "source": "local knowledge", "start_date": "1738"}}, {"type": "way", "id": 163105777, "center": {"lat": 46.3889254, "lon": 16.4319736}, "nodes": [8176816778, 1185754312, 1748755620, 1748755617, 1748750786, 8176816778], "tags": {"addr:street": "Perivoj Zrinskih", "castle_type": "fortress", "heritage": "2", "heritage:operator": "uzkb", "historic": "castle", "name": "Stari grad Zrinskih", "name:en": "Zrinski Castle", "name:hu": "Zr\u00ednyi v\u00e1r", "ref:hr:uzkb": "N-23", "wikidata": "Q227176", "wikipedia": "hr:Stari grad \u010cakovec"}}, {"type": "way", "id": 377967284, "center": {"lat": 46.4041521, "lon": 16.4186149}, "nodes": [3813739252, 3813739253, 3813739254, 3813739255, 3813739256, 3813739257, 3813739252], "tags": {"amenity": "place_of_worship", "building": "chapel", "denomination": "roman_catholic", "heritage": "2", "heritage:operator": "uzkb", "name": "Kapela svete Jelene", "ref:hr:uzkb": "N-25", "religion": "christian"}}, {"type": "way", "id": 388955412, "center": {"lat": 45.2103688, "lon": 17.8139862}, "nodes": [3921283565, 3921283566, 3921283567, 3921283568, 3921283565], "tags": {"amenity": "place_of_worship", "building": "yes", "denomination": "catholic", "heritage": "2", "heritage:operator": "uzkb", "name": "crkva svetog Martina", "ref:hr:uzkb": "N-41", "religion": "christian", "start_date": "C13"}}, {"type": "way", "id": 380051108, "center": {"lat": 45.1558696, "lon": 18.0073482}, "nodes": [3833983669, 3833983670, 3833983671, 3833983672, 3833983674, 3833983675, 5075386126, 5075386127, 3834354073, 5075386128, 5075386129, 5075386130, 3833983682, 3833983683, 3833983684, 3833983685, 3833983686, 3833983687, 3833983688, 5075386139, 5075386140, 3834354074, 3833983691, 3833983692, 3833983693, 3833983694, 3833983695, 3833983696, 3833983697, 3833983698, 3833983699, 3833983700, 3833983669], "tags": {"heritage": "2", "heritage:operator": "uzkb", "historic": "fort", "name": "Tvr\u0111ava Brod", "name:de": "Festung Brod", "name:en": "Brod Fortress", "name:hu": "Br\u00f3di er\u0151d", "ref:hr:uzkb": "N-42", "tourism": "attraction", "wikidata": "Q1276499", "wikipedia": "hr:Tvr\u0111ava Brod"}}, {"type": "way", "id": 388949492, "center": {"lat": 45.2277531, "lon": 17.9450296}, "nodes": [3921238701, 3921238702, 3921238703, 3921238704, 3921238705, 3921238706, 3921238707, 3921238708, 3921238701], "tags": {"amenity": "place_of_worship", "building": "yes", "heritage": "2", "heritage:operator": "uzkb", "name": "crkva svetog Petra", "ref:hr:uzkb": "N-39", "religion": "christian", "start_date": "C15"}}, {"type": "way", "id": 388950890, "center": {"lat": 45.2252676, "lon": 17.9811021}, "nodes": [3921240166, 3921240167, 3921240168, 3921240169, 3921240170, 3921240171, 3921240172, 3921240173, 3921240166], "tags": {"amenity": "place_of_worship", "building": "yes", "heritage": "2", "heritage:operator": "uzkb", "name": "crkva svetog Stjepana", "ref:hr:uzkb": "N-40", "religion": "christian", "start_date": "C15"}}, {"type": "relation", "id": 3311608, "center": {"lat": 43.1825066, "lon": 16.6352463}, "members": [{"type": "way", "ref": 110522620, "role": "outer"}, {"type": "way", "ref": 100269191, "role": "inner"}], "tags": {"alt_name": "Starigradsko polje", "heritage": "1", "heritage:operator": "whc", "historic": "heritage", "int_name": "Stari Grad plain", "landuse": "farmland", "name": "Starogradsko polje", "name:de": "Ebene von Stari Grad", "name:en": "Stari Grad Plain", "name:es": "Llanura de Stari Grad", "name:fr": "Plaine de Stari Grad", "name:hu": "Stari Grad-s\u00edks\u00e1g", "name:lt": "Starigrado lyguma", "ref:whc": "1240", "type": "multipolygon", "whc:criteria": "2;3;4", "whc:inscription_date": "2008", "wikidata": "Q614212", "wikipedia": "hr:Starogradsko polje"}}, {"type": "relation", "id": 2294262, "center": {"lat": 42.6409568, "lon": 18.1088145}, "members": [{"type": "way", "ref": 653117906, "role": ""}, {"type": "way", "ref": 171260814, "role": ""}, {"type": "way", "ref": 668156263, "role": ""}, {"type": "way", "ref": 668156509, "role": ""}, {"type": "way", "ref": 668155584, "role": ""}, {"type": "way", "ref": 843280379, "role": ""}, {"type": "way", "ref": 668103697, "role": ""}, {"type": "way", "ref": 171260816, "role": ""}, {"type": "way", "ref": 843280377, "role": ""}, {"type": "way", "ref": 668149629, "role": ""}, {"type": "way", "ref": 653117571, "role": ""}, {"type": "way", "ref": 668283216, "role": ""}, {"type": "way", "ref": 668103698, "role": ""}, {"type": "way", "ref": 668103696, "role": ""}, {"type": "way", "ref": 171296971, "role": ""}, {"type": "way", "ref": 171283156, "role": ""}, {"type": "way", "ref": 171286080, "role": ""}, {"type": "way", "ref": 792929428, "role": ""}, {"type": "way", "ref": 171286081, "role": ""}, {"type": "way", "ref": 171290433, "role": ""}, {"type": "way", "ref": 171294838, "role": ""}, {"type": "way", "ref": 172454061, "role": ""}, {"type": "way", "ref": 172456340, "role": ""}, {"type": "way", "ref": 843280380, "role": ""}, {"type": "way", "ref": 165354386, "role": ""}, {"type": "way", "ref": 172461166, "role": ""}, {"type": "way", "ref": 37407537, "role": ""}], "tags": {"barrier": "city_wall", "heritage": "1", "heritage:operator": "uzkb", "name": "Dubrova\u010dke gradske zidine", "name:en": "Walls of Dubrovnik", "ref:hr:uzkb": "N-1", "tourism": "attraction", "type": "site", "wikidata": "Q931733", "wikipedia": "hr:Dubrova\u010dke gradske zidine"}}, {"type": "relation", "id": 9425201, "center": {"lat": 44.8732231, "lon": 13.8501587}, "members": [{"type": "way", "ref": 76174055, "role": "outer"}, {"type": "way", "ref": 678838314, "role": "inner"}], "tags": {"building": "yes", "height": "32", "heritage": "2", "heritage:operator": "uzkb", "historic": "archaeological_site", "historic:civilization": "ancient_roman", "loc_name": "Divi\u0107 grad", "name": "Arena Pula", "name:cs": "Amfiter\u00e1tr v Pule", "name:de": "Amphitheater Pula", "name:en": "Pula Amphitheatre", "name:it": "Arena di Pola", "name:pl": "Amfiteatr w Puli", "name:ru": "\u041a\u043e\u043b\u0438\u0437\u0435\u0439 \u0432 \u041f\u0443\u043b\u0435", "ref:hr:uzkb": "N-9", "site_type": "amphitheatre", "start_date": "79", "tourism": "attraction", "type": "multipolygon", "wikidata": "Q474998", "wikipedia": "hr:Amfiteatar u Puli"}}, {"type": "relation", "id": 1942812, "center": {"lat": 43.9364279, "lon": 15.3927325}, "members": [{"type": "way", "ref": 143421951, "role": "inner"}, {"type": "way", "ref": 143421734, "role": "inner"}, {"type": "way", "ref": 143421993, "role": "outer"}], "tags": {"amenity": "monastery", "building": "yes", "heritage": "2", "heritage:operator": "uzkb", "name": "Samostan svetog Duje", "ref:hr:uzkb": "N-28", "religion": "christian", "type": "multipolygon"}}, {"type": "relation", "id": 10047860, "center": {"lat": 44.8518946, "lon": 15.5830279}, "members": [{"type": "way", "ref": 126115697, "role": "outer"}], "tags": {"boundary": "national_park", "heritage": "1", "leisure": "nature_reserve", "name": "Nacionalni park Plitvi\u010dka jezera", "name:cs": "N\u00e1rodn\u00ed park Plitvick\u00e1 jezera", "name:en": "Plitvice Lakes National Park", "name:es": "Parque nacional de los Lagos de Plitvice", "name:it": "Parco nazionale dei laghi di Plitvice", "name:ko": "\ud50c\ub9ac\ud2b8\ube44\uccb4 \uad6d\ub9bd\uacf5\uc6d0", "name:sk": "N\u00e1rodn\u00fd park Plitvick\u00e9 jazer\u00e1", "name:sl": "Plitvi\u010dka jezera", "protect_class": "2", "start_date": "1949-04-08", "type": "boundary", "whc:criteria": "(vii),(viii),(ix)", "whc:inscription_date": "1979", "wikidata": "Q189849", "wikipedia": "hr:Nacionalni park Plitvi\u010dka jezera"}}, {"type": "relation", "id": 3971841, "center": {"lat": 45.2286, "lon": 13.5933934}, "members": [{"type": "way", "ref": 298139421, "role": ""}, {"type": "relation", "ref": 3964390, "role": ""}, {"type": "way", "ref": 298139428, "role": ""}, {"type": "way", "ref": 298139426, "role": ""}, {"type": "way", "ref": 298139417, "role": ""}, {"type": "way", "ref": 298139424, "role": ""}, {"type": "way", "ref": 298160639, "role": ""}, {"type": "way", "ref": 298160642, "role": ""}, {"type": "way", "ref": 298151192, "role": ""}], "tags": {"heritage": "1", "heritage:operator": "whc;uzkb", "name": "Kompleks Eufrazijeve bazilike", "ref:hr:uzkb": "N-4", "ref:whc": "809", "type": "site", "whc:criteria": "(ii),(iii),(iv)", "whc:inscription_date": "1997"}}, {"type": "relation", "id": 3247915, "center": {"lat": 46.3101681, "lon": 16.33422}, "members": [{"type": "way", "ref": 240731281, "role": "outer"}, {"type": "way", "ref": 240731282, "role": "inner"}], "tags": {"building": "yes", "heritage": "2", "heritage:operator": "uzkb", "historic": "castle", "mapillary": "Ib9FwldQ75HUX9DLjBXD5Q", "name": "Stari grad", "name:de": "Schloss Vara\u017edin", "name:en": "Vara\u017edin Old Castle", "name:fr": "Ch\u00e2teau de Vara\u017edin", "name:hu": "Varasdi v\u00e1r", "ref:hr:uzkb": "N-21", "tourism": "attraction", "type": "multipolygon", "wikidata": "Q1392307", "wikipedia": "hr:Stari grad Vara\u017edin"}}]}