{"version": 0.6, "generator": "Overpass API 0.7.56.7 b85c4387", "osm3s": {"timestamp_osm_base": "2021-03-03T09:08:27Z", "timestamp_areas_base": "2021-03-03T08:19:27Z", "copyright": "The data included in this document is from www.openstreetmap.org. The data is made available under ODbL."}, "elements": [{"type": "node", "id": 283610177, "lat": 39.7460477, "lon": 20.0199543, "tags": {"name": "Museum", "name:lt": "Butrintas", "tourism": "museum", "website": "http://www.butrint.org/explore_15_0.php"}}, {"type": "node", "id": 2435132707, "lat": 39.8741309, "lon": 20.009054, "tags": {"tourism": "museum"}}, {"type": "node", "id": 6870927299, "lat": 39.8740362, "lon": 20.0090665, "tags": {"name": "Muzeu I Tradits", "tourism": "museum"}}, {"type": "node", "id": 6870927701, "lat": 39.8742403, "lon": 20.0090817, "tags": {"name": "Muzeu Arkeologjik", "tourism": "museum"}}, {"type": "node", "id": 6863504198, "lat": 40.4725505, "lon": 19.4908761, "tags": {"name": "Monument Kulture Mbrohet nga shteti", "tourism": "museum"}}, {"type": "node", "id": 2318770631, "lat": 40.7204645, "lon": 19.4720316, "tags": {"name": "Archaeological Museum Apollonia", "name:ru": "\u0410\u043f\u043f\u043e\u043b\u043e\u043d\u0438\u044f \u0418\u0440\u0430\u043a\u043b\u0438\u0439\u0441\u043a\u0430\u044f", "tourism": "museum"}}, {"type": "node", "id": 4677135734, "lat": 40.9435621, "lon": 19.7058907, "tags": {"name": "Kinoteatri 'Vace zela'", "name:en": "Theatre 'Vace zela'", "tourism": "museum"}}, {"type": "node", "id": 2427372803, "lat": 40.7089742, "lon": 19.9452718, "tags": {"addr:city": "Berat", "addr:street": "Rruga Lagje Kala", "image": "https://commons.wikimedia.org/wiki/File:Onufri_Museum_(2).JPG", "int_name": "Onufri Museum", "name": "Muzeu Komb\u00ebtar Ikonografik Onufri", "name:en": "Onufri Museum", "name:fr": "Mus\u00e9e iconographique Onufri", "name:zh": "\u5965\u52aa\u592b\u91cc\u535a\u7269\u9986", "phone": "+355 32 232 224", "tourism": "museum", "website": "muzeumetberat.net", "wikidata": "Q16349422", "wikimedia_commons": "File:Onufri_Museum_(2).JPG", "wikipedia": "sq:Muzeu Ikonografik Onufri"}}, {"type": "node", "id": 3068462076, "lat": 40.7076757, "lon": 19.950423, "tags": {"addr:city": "Berat", "addr:street": "Lagjia 13 Shtatori", "name": "Muzeu Etnografik", "name:mk": "\u0415\u0442\u043d\u043e\u0433\u0440\u0430\u0444\u0441\u043a\u0438 \u043c\u0443\u0437\u0435\u0458", "name:zh": "\u4eba\u79cd\u5b66\u535a\u7269\u9986", "tourism": "museum"}}, {"type": "node", "id": 7810671586, "lat": 40.7065916, "lon": 19.9504373, "tags": {"name": "Muzeu Solomoni", "name:en": "Solomon museum", "operator": "Simon Vrusho", "tourism": "museum"}}, {"type": "node", "id": 5197045817, "lat": 40.7018636, "lon": 19.9580758, "tags": {"ADMINSTATE": "MUNICIPALITY", "Access_SDP": "Yes", "COMMUN_NAM": "Berat", "PREFECTURE": "BERAT", "PRE_ID": "1", "addr:district": "BASHKIA BERAT", "ele": "58", "heritage": "1", "heritage:operator": "whc", "name": "Berat", "name:al": "Berat", "name:be": "\u0411\u0435\u0440\u0430\u0442", "name:be-tarask": "\u0411\u044d\u0440\u0430\u0442", "name:bg": "\u0411\u0435\u0440\u0430\u0442", "name:de": "Berat", "name:el": "\u0392\u03b5\u03c1\u03ac\u03c4\u03b9", "name:en": "Berat", "name:fr": "Berat", "name:ja": "\u30d9\u30e9\u30c8", "name:lt": "Beratis", "name:mk": "\u0411\u0435\u043b\u0433\u0440\u0430\u0434", "name:ru": "\u0411\u0435\u0440\u0430\u0442", "name:sr": "\u0411\u0435\u0440\u0430\u0442", "name:sr-Latn": "Berat", "name:uk": "\u0411\u0435\u0440\u0430\u0442", "name:zh": "\u57f9\u62c9\u7279", "old_name": "Berati", "place": "city", "population": "65000", "postal_code": "5001", "website": "www.bashkiaberat.gov.al", "wikidata": "Q170244", "wikipedia": "en:Berat"}}, {"type": "node", "id": 2505409056, "lat": 41.3115169, "lon": 19.440179, "tags": {"name": "Muzeu Arkeologjik Durr\u00ebs", "opening_hours": "Mo-Su 09:00-19:30", "tourism": "museum", "wikidata": "Q5316767"}}, {"type": "node", "id": 5455185114, "lat": 41.3266534, "lon": 19.8163744, "tags": {"addr:street": "Rruga Ibrahim Rugova", "name": "Sht\u00ebpia e Gjetheve", "name:en": "House of Leaves", "tourism": "museum", "wikidata": "Q37858697"}}, {"type": "node", "id": 4512200081, "lat": 41.3270225, "lon": 19.8195506, "tags": {"addr:city": "Tirana", "addr:street": "Rruga Abdi Toptani", "name": "Bunk'Art 2", "opening_hours": "Mo-Su 10:00-19:00", "tourism": "museum", "website": "http://bunkart.al/2/home", "wheelchair": "no", "wikidata": "Q31666886"}}, {"type": "node", "id": 4530442371, "lat": 41.3276756, "lon": 19.8196899, "tags": {"addr:city": "Tiran\u00eb", "addr:postcode": "1000", "addr:street": "Rruga Abdi Toptani", "name": "Muzeu Etnografik i Tiran\u00ebs", "name:mk": "\u0415\u0442\u043d\u043e\u0433\u0440\u0430\u0444\u0441\u043a\u0438 \u043c\u0443\u0437\u0435\u0458 \u043d\u0430 \u0422\u0438\u0440\u0430\u043d\u0430", "tourism": "museum"}}, {"type": "node", "id": 4576891450, "lat": 41.3416995, "lon": 19.8382717, "tags": {"email": "aqfa@aaf.mil.al", "name": "Muzeu i Forcave t\u00eb Armatosura", "operator": "Ministria e Mbrojtjes", "tourism": "museum", "website": "http://www.mod.gov.al/arkiv/index.php?option=com_content&view=article&id=2433:muzeu-i-forcave-te-armatosura&catid=355:muzeu&Itemid=700"}}, {"type": "node", "id": 4306447779, "lat": 41.353644, "lon": 19.8621536, "tags": {"internet_access": "wlan", "name": "Bunk'Art", "tourism": "museum", "website": "http://bunkart.al/1/home", "wikidata": "Q31665506"}}, {"type": "node", "id": 5295260092, "lat": 41.6084296, "lon": 20.0161898, "tags": {"tourism": "museum"}}, {"type": "node", "id": 5846919085, "lat": 41.784207, "lon": 19.7846729, "tags": {"name": "Kulla e Rubikut", "tourism": "museum"}}, {"type": "node", "id": 4612827129, "lat": 41.770227, "lon": 19.875799, "tags": {"tourism": "museum"}}, {"type": "node", "id": 4157491759, "lat": 42.0619049, "lon": 19.5168395, "tags": {"addr:city": "Shkod\u00ebr", "addr:housenumber": "6", "addr:postcode": "4001", "addr:street": "Rruga Pashko Vasa", "name": "Pashko Vasa Museum", "opening_hours": "Mo-Fr 09:00-18:00", "operator": "Raimonda", "payment:coins": "yes", "payment:credit_cards": "no", "payment:cryptocurrencies": "no", "payment:debit_cards": "no", "payment:electronic_purses": "no", "payment:notes": "yes", "phone": "+355692564682", "source": "bing;survey;gps", "source_ref:url": "https://www.flickr.com/photos/134902422@N04/map?&fLat=41.9559&fLon=19.4337&zl=11&order_by=recent", "tourism": "museum", "wheelchair": "limited", "wikidata": "Q1280525", "wikipedia": "en:Vaso Pasha"}}, {"type": "node", "id": 7252656113, "lat": 42.0694545, "lon": 19.5091085, "tags": {"addr:city": "Shkod\u00ebr", "addr:country": "AL", "addr:postcode": "4001", "email": "kontakt@muzeuhistorikshkoder.com", "name": "Muzeu Historik i Shkodr\u00ebs", "name:en": "Historic Museum of Shkodra", "name:sq": "Muzeu Historik i Shkodr\u00ebs", "opening_hours": "Mo-Fr 08:00-15:00", "operator": "Fatmir Juka", "payment:coins": "yes", "payment:credit_cards": "no", "payment:cryptocurrencies": "no", "payment:debit_cards": "no", "payment:electronic_purses": "no", "payment:notes": "yes", "phone": "+355222400099", "smoking": "outside", "source": "bing;mapbox-satellite;survey;gps;knowledge;local-info", "source_ref:url": "https://www.flickr.com/photos/openstreetmap-albania", "tourism": "museum", "website": "http://muzeuhistorikshkoder.com/", "wheelchair": "limited", "wikipedia": "sq:Muzeu Historik i Shkodr\u00ebs"}}, {"type": "node", "id": 4756203113, "lat": 42.0650716, "lon": 19.5199679, "tags": {"addr:city": "Shkod\u00ebr", "addr:country": "AL", "addr:housenumber": "107", "addr:postcode": "4001", "addr:street": "Rruga Marin Be\u00e7ikemi", "email": "muzeudioqezansp@gmail.com", "name": "Muzeu Dioqezan", "opening_hours": "Mo-Fr 09:00-13:00; Sa 09:00-13:00", "phone": "355675552076", "source": "bing;mapbox-satellite;survey;gps;knowledge;local-info", "tourism": "museum", "website": "https://www.kishakatolikeshkoder.com/", "wheelchair": "limited"}}, {"type": "node", "id": 2441732517, "lat": 40.0757092, "lon": 20.1347218, "tags": {"name": "Muzeu Etnografic", "tourism": "museum"}}, {"type": "node", "id": 274323115, "lat": 40.0770871, "lon": 20.1393359, "tags": {"Access_SDP": "Yes", "COMMUN_NAM": "Gjirokast\u00ebr", "COM_ID": "6105", "DIS_ID": "61", "PRE_ID": "6", "district": "BASHKIA GJIROKAST\u00cbR", "ele": "300", "heritage": "1", "heritage:operator": "whc", "is_in": "Albania", "name": "Gjirokast\u00ebr", "name:al": "Gjirokast\u00ebr", "name:de": "Gjirokast\u00ebr", "name:el": "\u0391\u03c1\u03b3\u03c5\u03c1\u03cc\u03ba\u03b1\u03c3\u03c4\u03c1\u03bf", "name:en": "Gjirokastra", "name:fr": "Gjirokastra", "name:he": "\u05d3\u05d9\u05e8\u05d5\u05e7\u05e1\u05d8\u05e8\u05d4", "name:it": "Argirocastro", "name:ja": "\u30b8\u30ed\u30ab\u30b9\u30c8\u30e9", "name:ko": "\uc9c0\ub85c\uce74\uc2a4\ud130\ub974", "name:lt": "Girokasteris", "name:mk": "\u0403\u0438\u0440\u043e\u043a\u0430\u0441\u0442\u0440\u043e", "name:pl": "D\u017airokastra", "name:ro": "Gjirokastra", "name:ru": "\u0413\u0438\u0440\u043e\u043a\u0430\u0441\u0442\u0440\u0430", "name:rup": "Ljurocastru", "name:sr": "\u0402\u0438\u0440\u043e\u043a\u0430\u0441\u0442\u0440\u0430", "name:tr": "Ergiri", "name:zh": "\u5409\u8bfa\u5361\u65af\u7279", "old_name": "Gjirokast\u00ebr", "place": "city", "population": "34450", "postal_code": "6001 \u2013 6003", "prefecture": "Gjirokast\u00ebr", "type": "City_municipality", "wikidata": "Q173690", "wikipedia": "en:Gjirokast\u00ebr"}}, {"type": "node", "id": 2744919924, "lat": 40.3105691, "lon": 20.6520677, "tags": {"name": "Massaker von Borova (1943)", "note": "Museeum geschlossen", "tourism": "museum", "wikidata": "Q567311", "wikipedia": "de:Borova (Albanien)"}}, {"type": "node", "id": 6374051761, "lat": 40.6166511, "lon": 20.7792103, "tags": {"name": "Muzeu Gjon Mili", "name:en": "Gjon Mili Museum", "opening_hours": "Mo off; Tu-Su 09:00-14:00, 17:00-19:00", "tourism": "museum", "wheelchair": "designated"}}, {"type": "node", "id": 5215215970, "lat": 40.9006369, "lon": 20.6604545, "tags": {"addr:city": "Pogradec", "name": "Muzeu Pogradec", "name:mk": "\u041c\u0443\u0437\u0435\u0458 \u043d\u0430 \u041f\u043e\u0433\u0440\u0430\u0434\u0435\u0446", "tourism": "museum"}}, {"type": "node", "id": 5229049727, "lat": 41.1795159, "lon": 20.315589, "tags": {"name": "Muzeumi", "tourism": "museum"}}, {"type": "node", "id": 6128689787, "lat": 41.7319735, "lon": 20.2965617, "tags": {"name": "Arras Skanderbed Museum", "tourism": "museum"}}, {"type": "way", "id": 255806673, "center": {"lat": 40.4524083, "lon": 19.4848802}, "nodes": [2614985061, 2614985094, 2614985134, 2614985118, 2614985061], "tags": {"addr:city": "Vlor\u00eb", "addr:housenumber": "9401", "addr:street": "Bulevardi 'Skel\u00eb'", "building": "yes", "name": "Muzeu Komb\u00ebtar i Pavar\u00ebsis\u00eb", "tourism": "museum"}}, {"type": "way", "id": 704680102, "center": {"lat": 40.7245822, "lon": 19.5547458}, "nodes": [6617659598, 6617659597, 6617659596, 6617659595, 6617659594, 6617659593, 6617659592, 6617659591, 6617659590, 6617659589, 6617659598], "tags": {"building": "yes", "name": "Muzeu Historik i Fierit", "operator": "Bashkia Fier", "tourism": "museum", "wheelchair": "yes", "wikipedia": "sq:Muzeu Historik i Fierit"}}, {"type": "way", "id": 413126144, "center": {"lat": 40.9413016, "lon": 19.7066153}, "nodes": [4144577037, 4144577202, 4144577209, 4144577039, 4144577037], "tags": {"building": "yes", "name": "Muzeu Historik", "roof:shape": "flat", "tourism": "museum"}}, {"type": "way", "id": 242524574, "center": {"lat": 41.1121057, "lon": 20.0831113}, "nodes": [2499909841, 2499909838, 2499909830, 2499909825, 2499909834, 2499909827, 2499909822, 2479829869, 2479829777, 2479829654, 2479829833, 2479829688, 2479829780, 2479829891, 2479829863, 2479829845, 2479829853, 2479829771, 2479829769, 2479829858, 2479829735, 2479829697, 2499909841], "tags": {"addr:city": "Elbasan", "building": "yes", "contact:facebook": "https://www.facebook.com/muzeuetnografikelb/", "name": "Muzeu Etnografik", "operator": "Municipality of Elbasan", "phone": "+355 54 259 626", "tourism": "museum", "wheelchair": "no", "wikipedia:sq": "Muzeu_Etnografik_i_Elbasanit"}}, {"type": "way", "id": 264639242, "center": {"lat": 41.3107156, "lon": 19.4459737}, "nodes": [2702974476, 2702974477, 2702974478, 2702974479, 2702974480, 2702974481, 2702974482, 2702974483, 2702974476], "tags": {"addr:city": "Durr\u00ebs", "building": "yes", "description": "Sht\u00ebpia e Aleksand\u00ebr Moisiut\n\nDRRK - Durr\u00ebs\n\nMuzeu Etnografik i Durr\u00ebsit", "name": "Shtepia e Aleksander Moisiut", "tourism": "museum", "wikipedia": "sq:Muzeu Etnografik i Durr\u00ebsit"}}, {"type": "way", "id": 397225982, "center": {"lat": 41.3115503, "lon": 19.4402913}, "nodes": [4000426914, 4000426960, 4000427037, 4000427208, 7029073226, 7029073225, 4000426226, 4000426295, 4000426925, 4000426864, 4000426914], "tags": {"building": "yes", "tourism": "museum"}}, {"type": "way", "id": 421994514, "center": {"lat": 41.1804143, "lon": 19.5556234}, "nodes": [4217169869, 4217169870, 4217169871, 4217169872, 4217169869], "tags": {"addr:street": "Mehmet Babamusta", "building": "yes", "name": "Ethnographic Museum", "tourism": "museum"}}, {"type": "way", "id": 312390034, "center": {"lat": 41.2151936, "lon": 19.7006604}, "nodes": [3182499335, 3182499336, 3182499337, 3182499338, 3182499335], "tags": {"building": "yes", "name": "Museum Konferenz von Peza", "tourism": "museum", "website": "https://de.wikipedia.org/wiki/Konferenz_von_Peza"}}, {"type": "way", "id": 256162012, "center": {"lat": 41.3259864, "lon": 19.8230393}, "nodes": [4550017440, 2618516862, 2618516869, 2618516872, 2618516865, 2618516867, 2618516863, 2618516866, 2618516858, 2618516857, 2618516856, 2618516855, 2618516854, 2618516851, 2618516853, 4550017968, 4550017997, 4550017998, 4550017884, 2618516850, 2618516860, 4550017437, 4550017438, 4550017439, 4550017440], "tags": {"building": "office", "government": "parliament", "heritage": "2", "name": "Kuvendi i Shqip\u00ebris\u00eb", "name:de": "Versammlung Albaniens", "name:en": "Parliament of Albania", "name:es": "Parlamento de Albania", "name:fr": "Assembl\u00e9e d'Albanie", "name:it": "Assemblea di Albania", "name:pt": "Parlamento da Alb\u00e2nia", "office": "government", "wikidata": "Q1135960", "wikipedia": "en:Parliament of Albania"}}, {"type": "way", "id": 382263661, "center": {"lat": 41.3255212, "lon": 19.8345494}, "nodes": [3854576089, 3854576090, 3854576091, 5861307808, 5861307807, 5861307806, 3854576092, 3854576089], "tags": {"addr:city": "Tirane", "addr:street": "Rruga Petro Nini Luarasi", "building": "yes", "name": "Muzeu i Shkencave t\u00eb Natyr\u00ebs", "note": "To the new/remote mappers: please refer to the ground survey, local mappers, new mapillary photos 10/2019! Compare different imagery, please don't delete, improve it! Use with carefully the imagery \"Municipality of Tirana\". It have many errors!", "operator": "Fakulteti i Shkencave Natyrore, Universiteti i Tiran\u00ebs", "source": "bing;mapbox;digitalglobe-satellite", "source_ref:url": "https://www.flickr.com/photos/openstreetmap-albania/", "tourism": "museum", "website": "http://www.fshn.edu.al/qendra-kombeetare-e-florees-dhe-faunees-shqiptare/muzeu-i-shkencave-tee-natyrees", "wikidata": "Q6980610"}}, {"type": "way", "id": 226764512, "center": {"lat": 41.5066958, "lon": 19.7937225}, "nodes": [2355244193, 4956520838, 2355244131, 2355244114, 7041131440, 503689086, 2355244140, 2355244156, 4956520836, 4956520839, 4956520837, 4956520833, 2355244193], "tags": {"building": "house", "int_name": "National Ethnographic Museum", "name": "Muzeu Komb\u00ebtar Etnografic", "name:en": "National Ethnographic Museum", "name:fr": "Mus\u00e9e ethnographique national", "name:it": "Museo Etnografico", "opening_hours": "Mo-Su 09:00-17:00", "source:outline": "Bing Aerial Imagery", "tourism": "museum", "wikidata": "Q13043204", "wikipedia": "sq:Muzeu_Etnografik_n\u00eb_Kruj\u00eb"}}, {"type": "way", "id": 226764514, "center": {"lat": 41.5074594, "lon": 19.793987}, "nodes": [2355244446, 2355244440, 2355244437, 2355244438, 2355244443, 2355244447, 2355244452, 2355244460, 2355244468, 2355244478, 2355244482, 2355244487, 2355244490, 2355244497, 2355244500, 2355244502, 2355244498, 2355244511, 2355244505, 2355244512, 7302397571, 7302397567, 7302397570, 7302397568, 7302397566, 7302397569, 2355244552, 2355244567, 2355244540, 2355244534, 2355244506, 2355244501, 2355244503, 2355244488, 2355244494, 2355244485, 2355244473, 2355244474, 2355244459, 2355244463, 1484759534, 2355244444, 2355244427, 2355244428, 2355244450, 2355244451, 2355244430, 2355244431, 2355244455, 2355244456, 2355244441, 2355244442, 2355244457, 2355244458, 2355244453, 2355244461, 2355244477, 2355244480, 2355244462, 2355244448, 2355244446], "tags": {"architect": "Pirro Vaso;Spring Hoxha", "building": "yes", "int_name": "Skanderbeg Museum", "name": "Muzeu Historik Komb\u00ebtar \"Gjergj Kastriot Sk\u00ebnd\u00ebrbeu\"", "name:fr": "Mus\u00e9e national d\u2019histoire \u00ab\u00a0Gjergj Kastriot Skanderbeg\u00a0\u00bb", "name:it": "Museo Skanderbeg", "opening_hours": "Mo-Sa 09:00-14:00,16:00-19:00; Su 09:00-19:00", "start_date": "1982-11-01", "subject:wikidata": "Q160614", "subject:wikipedia": "sq:Sk\u00ebnderbeu", "tourism": "museum", "wikidata": "Q3303191", "wikipedia": "sq:Muzeu Komb\u00ebtar Gjergj Kastrioti Sk\u00ebnderbeu"}}, {"type": "way", "id": 310634693, "center": {"lat": 41.8996689, "lon": 19.5548873}, "nodes": [3940465274, 3940465272, 3160894976, 3160894970, 3160894962, 3160894971, 3160894969, 3160894984, 3940465273, 3160895001, 3160895005, 3160894992, 3940465274], "tags": {"building": "yes", "building:levels": "2", "name": "Kompleksi muzeal \"Ndre Mjeda\"", "source": "bing;survey;gps", "source_ref:url": "https://www.flickr.com/photos/134902422@N04/map?&fLat=41.9559&fLon=19.4337&zl=11&order_by=recent", "tourism": "museum", "wheelchair": "limited", "wikipedia": "sq:Ndre Mjeda"}}, {"type": "way", "id": 319889242, "center": {"lat": 42.0459136, "lon": 19.4927706}, "nodes": [3263703157, 3263702744, 3263702751, 3263703362, 3263703157], "tags": {"addr:city": "Shkod\u00ebr", "addr:country": "AL", "addr:housenumber": "3", "addr:postcode": "4001", "building": "yes", "name": "Historical Museum of the Castle", "opening_hours": "Mo-Su 08:00-20:00", "payment:coins": "yes", "payment:credit_cards": "no", "payment:cryptocurrencies": "no", "payment:debit_cards": "no", "payment:electronic_purses": "no", "payment:notes": "yes", "source": "bing;mapbox-satellite;digitalglobe;survey;knowledge;local-info", "source_ref:url": "https://www.flickr.com/photos/openstreetmap-albania", "tourism": "museum", "wheelchair": "limited"}}, {"type": "way", "id": 323844814, "center": {"lat": 42.0634551, "lon": 19.5167099}, "nodes": [3306149764, 5837631072, 5837631071, 3306149774, 5837696096, 3306149789, 5837696097, 3306149766, 3306149769, 3306149755, 3306149753, 3306149752, 3306149746, 3306149742, 3963305040, 3306149764], "tags": {"addr:city": "Shkod\u00ebr", "addr:country": "AL", "addr:housenumber": "3", "addr:postcode": "4001", "building": "yes", "building:levels": "2", "description": "N\u00eb k\u00ebt\u00eb sht\u00ebpi ka lindur dhe jetuar atdhetari Filip Pjet\u00ebr \u00c7eka. Nd\u00ebr an\u00ebtar\u00ebt m\u00eb aktiv\u00eb t\u00eb deg\u00ebs s\u00eb lidhjes shqiptare p\u00ebr Shkodren. 1878-1880", "historic": "monument", "name": "Monument Kulture - Familja \u00c7eka", "opening_hours": "Mo-Fr 09:00-18:00", "source": "bing;mapbox-satellite;digitalglobe;survey;knowledge;local-info", "source_ref:url": "https://www.flickr.com/photos/openstreetmap-albania", "tourism": "museum", "wheelchair": "limited", "wikipedia": "sq:\u00c7ekajt"}}, {"type": "way", "id": 199127976, "center": {"lat": 42.0692908, "lon": 19.5092334}, "nodes": [4752454878, 4752454877, 4752454876, 4752454914, 4752454895, 4752454894, 2091681725, 4752454893, 4752454892, 4752454913, 4752454912, 4752454911, 4752454910, 4752454909, 4752454908, 4752454891, 4752454890, 4752454889, 2091681713, 4752454888, 4752454887, 4752454907, 4752454904, 4752454886, 4752454885, 4752454906, 4752454884, 4752454883, 4752454905, 4752454902, 4752454882, 2091681660, 4752454881, 4752454880, 4752454903, 4752454901, 2091681684, 4752454879, 4752454900, 4752453182, 4752454899, 4752454898, 2091681699, 4752454897, 4752454896, 4752454915, 4752454875, 4752454878], "tags": {"addr:city": "Shkod\u00ebr", "addr:country": "AL", "addr:housenumber": "32", "addr:postcode": "4001", "addr:street": "Rruga Oso Kuka", "building": "yes", "building:levels": "2", "email": "kontakt@muzeuhistorikshkoder.com", "name": "Muzeu Historik i Shkodr\u00ebs", "name:en": "Historic Museum of Shkod\u00ebr", "name:sq": "Muzeu Historik i Shkodr\u00ebs", "opening_hours": "Mo-Fr 08:00-15:00", "operator": "Fatmir Juka", "payment:coins": "yes", "payment:credit_cards": "no", "payment:cryptocurrencies": "no", "payment:debit_cards": "no", "payment:electronic_purses": "no", "payment:notes": "yes", "phone": "+355222400099", "smoking": "outside", "source": "bing;mapbox-satellite;digitalglobe;survey;knowledge;local-info;gps", "source_ref:url": "https://www.flickr.com/photos/openstreetmap-albania", "tourism": "museum", "website": "http://muzeuhistorikshkoder.com/", "wheelchair": "limited", "wikidata": "Q1249790", "wikipedia": "sq:Muzeu Historik i Shkodr\u00ebs"}}, {"type": "way", "id": 323742416, "center": {"lat": 42.0651475, "lon": 19.5170348}, "nodes": [3946903460, 3305232530, 3305232544, 3305232554, 4751205223, 5928594442, 3305232592, 3305232574, 3305232551, 3946903461, 3946903458, 3946902156, 2091702643, 2091702631, 2091702651, 4751205239, 2091702659, 3946903457, 4751205221, 3946903459, 3946903460], "tags": {"addr:city": "Shkod\u00ebr", "addr:country": "AL", "addr:housenumber": "31", "addr:postcode": "4001", "addr:street": "Bulevardi Sk\u00ebnderbeu", "building": "yes", "building:levels": "1", "loc_name": "Muzeu i Komunizmit", "name": "Site of Witness and Memory", "name:old": "Ish Dega e Brendshme", "old_name": "Ish Dega e Brendshme", "payment:cash": "yes", "payment:credit_cards": "no", "payment:cryptocurrencies": "no", "payment:debit_cards": "no", "payment:electronic_purses": "no", "source": "bing;mapbox-satellite;digitalglobe;survey;knowledge;local-info", "source_ref:url": "https://www.flickr.com/photos/openstreetmap-albania", "tourism": "museum", "wheelchair": "limited"}}, {"type": "way", "id": 457654361, "center": {"lat": 42.0689968, "lon": 19.5245806}, "nodes": [4537641879, 4537641878, 4537641877, 4537641876, 4537641875, 4537641874, 4537641879], "tags": {"addr:city": "Shkod\u00ebr", "addr:country": "AL", "addr:housenumber": "97", "addr:postcode": "4001", "building": "yes", "building:levels": "2", "name": "Sht\u00ebpi Muze - Lazer & Simon Jubani", "source": "bing;mapbox-satellite;digitalglobe;survey;knowledge;local-info", "source_ref:url": "https://www.flickr.com/photos/openstreetmap-albania", "tourism": "museum"}}, {"type": "way", "id": 183771724, "center": {"lat": 42.3571909, "lon": 20.0728271}, "nodes": [1941796868, 1941796858, 1941796866, 1941796857, 1941796875, 1941796878, 1941796880, 1941796882, 1941796871, 1941796873, 1941796868], "tags": {"addr:country": "AL", "building": "yes", "name": "Muzeu Historik,Bajram Curri", "source": "bing;mapbox-satellite;survey;gps;knowledge;local-info", "source_ref:url": "https://www.flickr.com/photos/openstreetmap-albania", "tourism": "museum"}}, {"type": "way", "id": 241407493, "center": {"lat": 42.3873309, "lon": 19.7852276}, "nodes": [2490542098, 2490542095, 2490542087, 2490542091, 2490542098], "tags": {"addr:country": "AL", "addr:postcode": "4009", "building": "yes", "name": "Muzeu Etnografik i Dukagjinit", "name:en": "Ethnographic Museum of Dukagjin", "parking": "yes", "smoking": "outside", "source": "bing;mapbox-satellite;survey;gps;knowledge;local-info", "source_ref:url": "https://www.flickr.com/photos/openstreetmap-albania", "tourism": "museum", "wheelchair": "limited"}}, {"type": "way", "id": 236110436, "center": {"lat": 40.0751957, "lon": 20.1353572}, "nodes": [2441732584, 2441732580, 2441732583, 2441732586, 2441732585, 2441732588, 2441732591, 2441732593, 2441732587, 2441732589, 2441732584], "tags": {"building": "yes", "name": "Sk\u00ebnduli House", "tourism": "museum"}}, {"type": "way", "id": 468405007, "center": {"lat": 40.0731939, "lon": 20.1395312}, "nodes": [1007407159, 1007407074, 4629387346, 2363443777, 4629388855, 4629388854, 4629388524, 4629388525, 4629388526, 4629387350, 4629388523, 1007407159], "tags": {"building": "yes", "tourism": "museum"}}, {"type": "way", "id": 468405008, "center": {"lat": 40.0729912, "lon": 20.1398384}, "nodes": [4629388525, 4629388524, 4629388554, 4629388553, 4629388853, 4629388852, 4629388520, 4629388550, 4629388549, 4629388543, 4629388542, 4629388541, 4629388540, 4629388548, 4629388539, 4629388532, 4629388531, 4629388530, 4629388529, 4629388528, 4629387311, 4629388527, 4629388526, 4629388525], "tags": {"building": "yes", "fixme": "add second museum in castle", "tourism": "museum"}}, {"type": "way", "id": 468405010, "center": {"lat": 40.0730312, "lon": 20.1400202}, "nodes": [4629388851, 4629388552, 4629388551, 1007407104, 4629388545, 4629388544, 4629388543, 4629388549, 4629388550, 4629388520, 4629388851], "tags": {"building": "yes", "tourism": "museum"}}, {"type": "way", "id": 468405013, "center": {"lat": 40.0727291, "lon": 20.1394767}, "nodes": [1007407159, 4629388523, 4629387350, 4629388526, 4629388527, 4629388521, 4629388522, 4629388530, 4629388531, 1007407033, 4489582791, 4629388575, 4629388574, 4629388578, 4629388568, 4629388567, 4629388569, 4489582685, 4629388850, 4629388849, 4629388848, 4629388579, 1007407083, 1007407121, 2363443772, 4629388557, 4629388860, 1007407159], "tags": {"building": "yes", "name": "Muzeu Ushtarak", "name:de": "Milit\u00e4rmuseum", "name:en": "Military Museum", "tourism": "museum"}}, {"type": "way", "id": 183210723, "center": {"lat": 40.2315314, "lon": 20.3531647}, "nodes": [1935786150, 1935786152, 1935786151, 1935786149, 1935786150], "tags": {"building": "yes", "name": "Museu i rrethit t\u00eb P\u00ebrmetit", "source:outline": "Bing Aerial Imagery", "tourism": "museum"}}, {"type": "way", "id": 183211089, "center": {"lat": 40.2297628, "lon": 20.3582984}, "nodes": [1935789256, 1935789260, 1935789258, 1935789254, 1935789256], "tags": {"building": "yes", "name": "Kongresi i P\u00ebrmetit", "source:outline": "Bing Aerial Imagery", "tourism": "museum"}}, {"type": "way", "id": 194665981, "center": {"lat": 40.3659833, "lon": 20.4264538}, "nodes": [2051678062, 2051678066, 2051678063, 2051678068, 2051678064, 2051678059, 2051678061, 2051678060, 1478164493, 2051678062], "tags": {"tourism": "museum"}}, {"type": "way", "id": 232140938, "center": {"lat": 40.5026541, "lon": 20.2259084}, "nodes": [2405121145, 2405121121, 2405121102, 2551534084, 2551534054, 2551534081, 2551534104, 2405121132, 2405121145], "tags": {"building": "yes", "name": "Muzeu Historik", "source:outline": "Bing Aerial Imagery", "tourism": "museum"}}, {"type": "way", "id": 666441036, "center": {"lat": 40.3384623, "lon": 20.6813741}, "nodes": [6239522945, 6239522944, 6239522943, 6239522942, 6239522941, 6239522940, 6239522939, 6239522938, 6239522937, 6239522936, 6239522935, 6239522934, 6239522945], "tags": {"addr:postcode": "7401", "building": "yes", "name": "Muzeumi Ersek\u00eb", "toilets:wheelchair": "no", "tourism": "museum", "wheelchair": "limited"}}, {"type": "way", "id": 297047729, "center": {"lat": 40.5191913, "lon": 20.8272733}, "nodes": [3008862398, 3008862397, 3008862390, 4629780600, 3008862391, 3008862398], "tags": {"building": "yes", "name": "Muzeu Foto Historik", "tourism": "museum"}}, {"type": "way", "id": 612081022, "center": {"lat": 40.6126487, "lon": 20.7846596}, "nodes": [5794508191, 5794508185, 5794508187, 5794508188, 5794508190, 5794508193, 5794508180, 5794508183, 5794508186, 5794508181, 5794508191], "tags": {"building": "yes", "name": "Muzeu i Artit Oriental \"Bratko\"", "name:en": "Museum of Oriental Art \"Bratko\"", "name:sq": "Muzeu i Artit Oriental \"Bratko\"", "tourism": "museum", "wikidata": "Q4958051", "wikipedia": "sq:Muzeu Oriental \u201cBratko\u201d"}}, {"type": "way", "id": 681092970, "center": {"lat": 40.6123238, "lon": 20.7866723}, "nodes": [6377963705, 6377963704, 6771570104, 6377963703, 6377963702, 6377963705], "tags": {"building": "yes", "name": "Muzeu Komb\u00ebtar i Artit Mesjetar", "name:en": "National Museum of Medieval Art", "name:sq": "Muzeu Komb\u00ebtar i Artit Mesjetar", "opening_hours": "Mo-Su 09:00-19:30", "tourism": "museum", "website": "http://muzeumesjetar.gov.al/", "wikipedia": "sq:Muzeu Komb\u00ebtar i Artit mesjetar Kor\u00e7\u00eb"}}, {"type": "way", "id": 680733620, "center": {"lat": 40.6152884, "lon": 20.7814567}, "nodes": [6374266449, 6374266443, 6374266448, 6374266447, 6374266446, 6374266445, 6374266444, 6374266449], "tags": {"building": "yes", "name": "Muzeu Arkeologjik", "name:en": "Archaeological Musem", "opening_hours": "Mo off; Tu-Fr 09:00-14:00, 17:00-19:00; Sa-Su 09:00-12:00, 17:00-19:00", "tourism": "museum"}}, {"type": "way", "id": 461159519, "center": {"lat": 40.616669, "lon": 20.7798274}, "nodes": [4567020117, 4567020116, 4567020115, 6416423273, 4567020114, 4567020113, 4567020112, 4567020111, 4567020110, 4567020117], "tags": {"building": "yes", "building:levels": "2", "building:material": "stone", "name": "Muzeu Komb\u00ebtar i Arsimit", "name:en": "National Museum of Education", "name:sq": "Muzeu Komb\u00ebtar i Arsimit", "opening_hours": "Mo off; Tu-Su 09:00-14:00, 16:00-18:00", "tourism": "museum", "wikipedia": "sq:Muzeu Komb\u00ebtar i Arsimit"}}, {"type": "way", "id": 682524297, "center": {"lat": 40.8686451, "lon": 20.1836425}, "nodes": [6391849072, 6391849071, 6391849070, 6391849069, 6391849068, 6391849067, 6391849066, 6391849065, 6391849072], "tags": {"building": "public", "tourism": "museum"}}, {"type": "way", "id": 183603180, "center": {"lat": 41.6856609, "lon": 20.4289119}, "nodes": [1940100057, 1940100054, 1940100045, 1940100047, 1940100040, 1940100042, 1940100050, 1940100052, 1940100057], "tags": {"building": "yes", "name": "Muzeu i Dibr\u00ebs", "tourism": "museum"}}, {"type": "way", "id": 355460472, "center": {"lat": 42.0760254, "lon": 20.4168571}, "nodes": [3610651461, 3610651462, 3610651463, 3610651464, 3610651461], "tags": {"building": "yes", "name": "Kosovo Memorial Museum", "tourism": "museum"}}, {"type": "relation", "id": 9316413, "center": {"lat": 39.7458441, "lon": 20.0206274}, "members": [{"type": "way", "ref": 86819042, "role": "outer"}], "tags": {"fee": "yes", "heritage": "1", "heritage:operator": "whc", "historic": "archaeological_site", "name": "Butrint", "name:en": "Buthrotum", "name:it": "Butrintas", "name:sq": "Butrint", "name:zh": "\u5e03\u7279\u6797\u7279", "opening_hours": "Mo-Su 08:00-17:00", "tourism": "attraction", "type": "multipolygon", "website": "http://butrint.al/", "wikidata": "Q188694", "wikipedia": "en:Butrint"}}, {"type": "relation", "id": 2342359, "center": {"lat": 41.329419, "lon": 19.8171323}, "members": [{"type": "way", "ref": 175334415, "role": "outer"}, {"type": "way", "ref": 175334416, "role": "inner"}], "tags": {"addr:city": "Tirana", "addr:postcode": "1000", "addr:street": "Sheshi Sk\u00ebnderbej", "building": "museum", "building:levels": "4", "email": "muzeuhistorikkombetar@yahoo.com", "name": "Muzeu Historik Komb\u00ebtar", "name:de": "Historisches Nationalmuseum", "name:en": "National Historical Museum", "name:es": "Museo hist\u00f3rico nacional", "name:fr": "Mus\u00e9e national historique", "name:it": "Museo storico nazionale", "name:mk": "\u041d\u0430\u0446\u0438\u043e\u043d\u0430\u043b\u0435\u043d \u0438\u0441\u0442\u043e\u0440\u0438\u0441\u043a\u0438 \u043c\u0443\u0437\u0435\u0458", "name:sq": "Muzeu Historik Komb\u00ebtar", "note": "Ne vendodhjen qe sot ka Muzeu, ndodhej ndertesa e Bashkise se pare. Projekti u realizua nga Florestano Di Fausto nga 1928 dhe u nd\u00ebrtua n\u00eb 1931.", "phone": "+ 355 4 2223977", "roof:shape": "flat", "tourism": "museum", "type": "multipolygon", "website": "http://www.mhk.gov.al/", "wikidata": "Q1581154", "wikipedia": "en:National Historical Museum (Tirana)"}}]}