{"type": "FeatureCollection", "features": [{"type": "Feature", "properties": {"type": "node", "id": 282376812, "tags": {"name": "Dev\u00ednska Nov\u00e1 Ves", "name:de": "Theben Neudorf", "network": "\u017dSR", "operator": "\u017dSR", "public_transport": "stop_position", "railway": "stop", "train": "yes", "uic_name": "Devinska Nova Ves", "uic_ref": "5600193"}}, "geometry": {"type": "Point", "coordinates": [16.976429, 48.2190418]}}, {"type": "Feature", "properties": {"type": "node", "id": 3350963366, "tags": {"name": "Dev\u00ednska Nov\u00e1 Ves", "name:de": "Theben Neudorf", "network": "\u017dSR", "operator": "\u017dSR", "public_transport": "stop_position", "railway": "stop", "train": "yes", "uic_name": "Devinska Nova Ves", "uic_ref": "5600193"}}, "geometry": {"type": "Point", "coordinates": [16.9763098, 48.2190959]}}, {"type": "Feature", "properties": {"type": "node", "id": 3350963367, "tags": {"name": "Dev\u00ednska Nov\u00e1 Ves", "name:de": "Theben Neudorf", "network": "\u017dSR", "operator": "\u017dSR", "platforms": "4", "public_transport": "station", "railway": "station", "railway:ref:\u00d6BB": "Dnv", "train": "yes", "uic_name": "Devinska Nova Ves", "uic_ref": "5600193", "wikidata": "Q12781947"}}, "geometry": {"type": "Point", "coordinates": [16.9763686, 48.2190576]}}, {"type": "Feature", "properties": {"type": "node", "id": 1403114788, "tags": {"name": "Rusovce", "public_transport": "stop_position", "railway": "stop", "train": "yes"}}, "geometry": {"type": "Point", "coordinates": [17.1509727, 48.0466367]}}, {"type": "Feature", "properties": {"type": "node", "id": 5279185356, "tags": {"name": "Rusovce", "name:de": "Karlburg", "name:hr": "Rosvar", "name:hu": "Oroszv\u00e1r", "operator": "\u017dSR", "public_transport": "station", "railway": "station", "train": "yes", "wikidata": "Q9324128"}}, "geometry": {"type": "Point", "coordinates": [17.1508592, 48.0465716]}}, {"type": "Feature", "properties": {"type": "node", "id": 30073060, "tags": {"addr:city": "Bratislava", "addr:country": "SK", "addr:street": "Kop\u010dianska", "addr:suburb": "Petr\u017ealka", "comment": "schema a elektrifikacia vid. http://rail.sk/arp/slovakia/zst/145763.htm", "name": "Bratislava-Petr\u017ealka", "name:de": "Bratislava-Engerau", "operator": "\u017dSR", "phone": "+421 24 48 58 188", "public_transport": "station", "railway": "station", "railway:position": "17.9", "railway:position:exact": "17.898", "railway:ref:\u00d6BB": "Pta", "train": "yes", "uic_name": "Bratislava-Petrzalka", "uic_ref": "5600582", "website": "http://www.slovakrail.sk/", "wheelchair": "yes", "wikidata": "Q800563"}}, "geometry": {"type": "Point", "coordinates": [17.0995473, 48.1213238]}}, {"type": "Feature", "properties": {"type": "node", "id": 3360962315, "tags": {"name": "Bratislava-Petr\u017ealka", "name:de": "Bratislava-Engerau", "public_transport": "stop_position", "railway": "stop", "train": "yes"}}, "geometry": {"type": "Point", "coordinates": [17.0987535, 48.1212113]}}, {"type": "Feature", "properties": {"type": "node", "id": 5279185357, "tags": {"name": "Bratislava-Petr\u017ealka", "name:de": "Bratislava-Engerau", "public_transport": "stop_position", "railway": "stop", "railway:ref": "BP", "train": "yes"}}, "geometry": {"type": "Point", "coordinates": [17.099464, 48.1213504]}}, {"type": "Feature", "properties": {"type": "node", "id": 2285899922, "tags": {"alt_name": "\u017delezni\u010dn\u00e1 stanica \u00daNS", "name": "Bratislava - \u00dastredn\u00e1 n\u00e1kladn\u00e1 stanica", "public_transport": "station", "railway": "station", "train": "yes", "wikidata": "Q12781950", "wikipedia": "sk:\u017delezni\u010dn\u00e1 stanica Bratislava \u00daNS"}}, "geometry": {"type": "Point", "coordinates": [17.1726597, 48.1415966]}}, {"type": "Feature", "properties": {"type": "node", "id": 472564466, "tags": {"name": "Bratislava-Lama\u010d", "name:de": "Pressburg - Blumenau", "network": "\u017dSR", "operator": "\u017dSR", "public_transport": "stop_position", "railway": "stop", "train": "yes", "wheelchair": "no"}}, "geometry": {"type": "Point", "coordinates": [17.0505324, 48.1849603]}}, {"type": "Feature", "properties": {"type": "node", "id": 2865289027, "tags": {"name": "Bratislava-Lama\u010d", "name:de": "Pressburg - Blumenau", "network": "\u017dSR", "operator": "\u017dSR", "public_transport": "stop_position", "railway": "stop", "train": "yes"}}, "geometry": {"type": "Point", "coordinates": [17.0505812, 48.1849926]}}, {"type": "Feature", "properties": {"type": "node", "id": 2865289058, "tags": {"name": "Bratislava-Lama\u010d", "name:de": "Pressburg - Blumenau", "network": "\u017dSR", "operator": "\u017dSR", "public_transport": "stop_position", "railway": "stop", "train": "yes"}}, "geometry": {"type": "Point", "coordinates": [17.0504711, 48.1849306]}}, {"type": "Feature", "properties": {"type": "node", "id": 8223326625, "tags": {"name": "Bratislava-Lama\u010d", "name:de": "Pressburg - Blumenau", "network": "\u017dSR", "operator": "\u017dSR", "public_transport": "station", "railway": "station", "train": "yes", "uic_name": "Bratislava-Lamac", "uic_ref": "5600581", "wikidata": "Q4180549", "wikipedia": "sk:\u017delezni\u010dn\u00e1 stanica Bratislava-Lama\u010d"}}, "geometry": {"type": "Point", "coordinates": [17.0504339, 48.1849975]}}, {"type": "Feature", "properties": {"type": "node", "id": 55451234, "tags": {"name": "Bratislava-\u017delezn\u00e1 studienka", "name:de": "Pressburg-Eisenbr\u00fcnnl", "network": "\u017dSR", "operator": "\u017dSR", "public_transport": "stop_position", "railway": "stop", "train": "yes"}}, "geometry": {"type": "Point", "coordinates": [17.0727785, 48.1746117]}}, {"type": "Feature", "properties": {"type": "node", "id": 2865289032, "tags": {"name": "Bratislava-\u017delezn\u00e1 studienka", "name:de": "Pressburg-Eisenbr\u00fcnnl", "network": "\u017dSR", "operator": "\u017dSR", "public_transport": "stop_position", "railway": "stop", "train": "yes"}}, "geometry": {"type": "Point", "coordinates": [17.0727494, 48.1745834]}}, {"type": "Feature", "properties": {"type": "node", "id": 3350963364, "tags": {"name": "Bratislava-\u017delezn\u00e1 studienka", "network": "\u017dSR", "operator": "\u017dSR", "public_transport": "station", "railway": "station", "train": "yes", "wikidata": "Q4178862"}}, "geometry": {"type": "Point", "coordinates": [17.0727633, 48.1745972]}}, {"type": "Feature", "properties": {"type": "node", "id": 2470526487, "tags": {"name": "Bratislava hl.st.", "network": "\u017dSR", "operator": "\u017dSR", "public_transport": "stop_position", "railway": "stop", "ref": "1", "train": "yes"}}, "geometry": {"type": "Point", "coordinates": [17.1062985, 48.158865]}}, {"type": "Feature", "properties": {"type": "node", "id": 3350963358, "tags": {"name": "Bratislava hl.st.", "network": "\u017dSR", "operator": "\u017dSR", "public_transport": "stop_position", "railway": "stop", "railway:ref": "Ba", "ref": "2", "train": "yes"}}, "geometry": {"type": "Point", "coordinates": [17.1063591, 48.1589009]}}, {"type": "Feature", "properties": {"type": "node", "id": 3350963359, "tags": {"addr:city": "Bratislava", "addr:street": "N\u00e1mestie Franza Liszta", "internet_access": "wlan", "name": "Bratislava hlavn\u00e1 stanica", "name:de": "Bratislava Hauptbahnhof", "name:en": "Bratislava main station", "name:hu": "Pozsony f\u0151p\u00e1lyaudvar", "name:ru": "\u0411\u0440\u0430\u0442\u0438\u0441\u043b\u0430\u0432\u0430-\u0413\u043b\u0430\u0432\u043d\u0430\u044f", "public_transport": "station", "railway": "station", "train": "yes", "uic_name": "Bratislava hl.st.", "uic_ref": "5600207", "wheelchair": "yes", "wikidata": "Q899662", "wikipedia": "sk:Bratislava hlavn\u00e1 stanica"}}, "geometry": {"type": "Point", "coordinates": [17.1066995, 48.158933]}}, {"type": "Feature", "properties": {"type": "node", "id": 3350963360, "tags": {"name": "Bratislava hl.st.", "network": "\u017dSR", "operator": "\u017dSR", "public_transport": "stop_position", "railway": "stop", "ref": "4", "train": "yes"}}, "geometry": {"type": "Point", "coordinates": [17.1064087, 48.1589702]}}, {"type": "Feature", "properties": {"type": "node", "id": 3350963361, "tags": {"name": "Bratislava hl.st.", "network": "\u017dSR", "operator": "\u017dSR", "public_transport": "stop_position", "railway": "stop", "ref": "10", "train": "yes"}}, "geometry": {"type": "Point", "coordinates": [17.1065192, 48.1590802]}}, {"type": "Feature", "properties": {"type": "node", "id": 1375035164, "tags": {"name": "Bratislava hl.st.", "network": "\u017dSR", "operator": "\u017dSR", "public_transport": "stop_position", "railway": "stop", "ref": "14", "train": "yes"}}, "geometry": {"type": "Point", "coordinates": [17.1065857, 48.1591519]}}, {"type": "Feature", "properties": {"type": "node", "id": 1375035179, "tags": {"name": "Bratislava hl.st.", "network": "\u017dSR", "operator": "\u017dSR", "public_transport": "stop_position", "railway": "stop", "ref": "16", "train": "yes"}}, "geometry": {"type": "Point", "coordinates": [17.1066296, 48.1591903]}}, {"type": "Feature", "properties": {"type": "node", "id": 1375035208, "tags": {"name": "Bratislava hl.st.", "network": "\u017dSR", "operator": "\u017dSR", "public_transport": "stop_position", "railway": "stop", "ref": "18", "train": "yes"}}, "geometry": {"type": "Point", "coordinates": [17.106646, 48.1592803]}}, {"type": "Feature", "properties": {"type": "node", "id": 1375035221, "tags": {"name": "Bratislava hl.st.", "network": "\u017dSR", "operator": "\u017dSR", "public_transport": "stop_position", "railway": "stop", "ref": "20", "train": "yes"}}, "geometry": {"type": "Point", "coordinates": [17.1067215, 48.159301]}}, {"type": "Feature", "properties": {"type": "node", "id": 3350963362, "tags": {"name": "Bratislava hl.st.", "network": "\u017dSR", "operator": "\u017dSR", "public_transport": "stop_position", "railway": "stop", "ref": "22", "train": "yes"}}, "geometry": {"type": "Point", "coordinates": [17.1067968, 48.1593756]}}, {"type": "Feature", "properties": {"type": "node", "id": 668119151, "tags": {"name": "Bratislava predmestie", "public_transport": "station", "railway": "station", "train": "yes", "wikidata": "Q9179063", "wikipedia": "sk:\u017delezni\u010dn\u00e1 stanica Bratislava predmestie"}}, "geometry": {"type": "Point", "coordinates": [17.1345388, 48.1844545]}}, {"type": "Feature", "properties": {"type": "node", "id": 1881157374, "tags": {"name": "Bratislava predmestie", "network": "\u017dSR", "operator": "\u017dSR", "public_transport": "stop_position", "railway": "stop", "train": "yes"}}, "geometry": {"type": "Point", "coordinates": [17.1342658, 48.1841925]}}, {"type": "Feature", "properties": {"type": "node", "id": 5726026252, "tags": {"name": "Bratislava predmestie", "network": "\u017dSR", "operator": "\u017dSR", "public_transport": "stop_position", "railway": "stop", "train": "yes"}}, "geometry": {"type": "Point", "coordinates": [17.134418, 48.1841516]}}, {"type": "Feature", "properties": {"type": "node", "id": 2001930740, "tags": {"name": "Bratislava-Vinohrady", "network": "\u017dSR;IDS BK", "operator": "\u017dSR", "public_transport": "station", "railway": "station", "train": "yes", "wheelchair": "yes"}}, "geometry": {"type": "Point", "coordinates": [17.1332642, 48.1867327]}}, {"type": "Feature", "properties": {"type": "node", "id": 2384273572, "tags": {"name": "Bratislava-Vinohrady", "network": "\u017dSR;IDS BK", "operator": "\u017dSR", "public_transport": "stop_position", "railway": "stop", "train": "yes"}}, "geometry": {"type": "Point", "coordinates": [17.1327208, 48.1865108]}}, {"type": "Feature", "properties": {"type": "node", "id": 2384273580, "tags": {"name": "Bratislava-Vinohrady", "network": "\u017dSR;IDS BK", "operator": "\u017dSR", "public_transport": "stop_position", "railway": "stop", "train": "yes"}}, "geometry": {"type": "Point", "coordinates": [17.1331581, 48.1868726]}}, {"type": "Feature", "properties": {"type": "node", "id": 2384290011, "tags": {"name": "Bratislava-Vinohrady", "network": "\u017dSR;IDS BK", "operator": "\u017dSR", "public_transport": "stop_position", "railway": "stop", "train": "yes"}}, "geometry": {"type": "Point", "coordinates": [17.1336595, 48.1866463]}}, {"type": "Feature", "properties": {"type": "node", "id": 3355889030, "tags": {"name": "Bratislava-Vinohrady", "network": "\u017dSR;IDS BK", "operator": "\u017dSR", "public_transport": "stop_position", "railway": "stop", "train": "yes"}}, "geometry": {"type": "Point", "coordinates": [17.133183, 48.1868375]}}, {"type": "Feature", "properties": {"type": "node", "id": 3355889020, "tags": {"name": "Bratislava - Nov\u00e9 Mesto", "network": "\u017dSR;IDS BK", "operator": "\u017dSR", "public_transport": "stop_position", "train": "yes"}}, "geometry": {"type": "Point", "coordinates": [17.146557, 48.1717587]}}, {"type": "Feature", "properties": {"type": "node", "id": 3355889021, "tags": {"name": "Bratislava - Nov\u00e9 Mesto", "network": "\u017dSR;IDS BK", "operator": "\u017dSR", "public_transport": "stop_position", "train": "yes"}}, "geometry": {"type": "Point", "coordinates": [17.1466328, 48.1718293]}}, {"type": "Feature", "properties": {"type": "node", "id": 3355889022, "tags": {"name": "Bratislava - Nov\u00e9 Mesto", "network": "\u017dSR;IDS BK", "operator": "\u017dSR", "public_transport": "stop_position", "railway:ref": "BN", "train": "yes"}}, "geometry": {"type": "Point", "coordinates": [17.1466855, 48.1718998]}}, {"type": "Feature", "properties": {"type": "node", "id": 3355889023, "tags": {"name": "Bratislava - Nov\u00e9 Mesto", "network": "\u017dSR;IDS BK", "operator": "\u017dSR", "public_transport": "station", "railway": "station", "wheelchair": "yes"}}, "geometry": {"type": "Point", "coordinates": [17.1466543, 48.1719607]}}, {"type": "Feature", "properties": {"type": "node", "id": 3355889024, "tags": {"name": "Bratislava - Nov\u00e9 Mesto", "network": "\u017dSR;IDS BK", "operator": "\u017dSR", "public_transport": "stop_position", "train": "yes"}}, "geometry": {"type": "Point", "coordinates": [17.1467777, 48.1719716]}}, {"type": "Feature", "properties": {"type": "node", "id": 3355889025, "tags": {"name": "Bratislava - Nov\u00e9 Mesto", "network": "\u017dSR;IDS BK", "operator": "\u017dSR", "public_transport": "stop_position", "train": "yes"}}, "geometry": {"type": "Point", "coordinates": [17.1468533, 48.1720309]}}, {"type": "Feature", "properties": {"type": "node", "id": 2317692471, "tags": {"name": "Bratislava v\u00fdchod", "railway": "station", "source": "mike3", "wikidata": "Q12781945"}}, "geometry": {"type": "Point", "coordinates": [17.1731634, 48.1958668]}}, {"type": "Feature", "properties": {"type": "node", "id": 26202728, "tags": {"name": "Bratislava-Ra\u010da", "name:de": "Bratislava-Ratzersdorf", "network": "\u017dSR;IDS BK", "operator": "\u017dSR", "public_transport": "station", "railway": "station", "train": "yes"}}, "geometry": {"type": "Point", "coordinates": [17.1608573, 48.2089564]}}, {"type": "Feature", "properties": {"type": "node", "id": 3355889026, "tags": {"name": "Bratislava-Ra\u010da", "name:de": "Bratislava-Ratzersdorf", "network": "\u017dSR;IDS BK", "operator": "\u017dSR", "public_transport": "stop_position", "railway": "stop", "train": "yes"}}, "geometry": {"type": "Point", "coordinates": [17.1609344, 48.2089164]}}, {"type": "Feature", "properties": {"type": "node", "id": 3355889027, "tags": {"name": "Bratislava-Ra\u010da", "name:de": "Bratislava-Ratzersdorf", "network": "\u017dSR;IDS BK", "operator": "\u017dSR", "public_transport": "stop_position", "railway": "stop", "train": "yes"}}, "geometry": {"type": "Point", "coordinates": [17.160769, 48.2089853]}}, {"type": "Feature", "properties": {"type": "node", "id": 676246350, "tags": {"name": "Lehnice", "name:de": "Legendorf", "railway": "station"}}, "geometry": {"type": "Point", "coordinates": [17.4522799, 48.0317522]}}, {"type": "Feature", "properties": {"type": "node", "id": 676637642, "tags": {"name": "Orechov\u00e1 Pot\u00f4\u0148", "railway": "station"}}, "geometry": {"type": "Point", "coordinates": [17.5296135, 48.014486]}}, {"type": "Feature", "properties": {"type": "node", "id": 676637641, "tags": {"name": "Dunajsk\u00e1 Streda", "name:de": "Niedermarkt", "name:hu": "Dunaszerdahely", "railway": "station"}}, "geometry": {"type": "Point", "coordinates": [17.6079412, 47.9933451]}}, {"type": "Feature", "properties": {"type": "node", "id": 27349431, "tags": {"name": "Podunajsk\u00e9 Biskupice", "public_transport": "stop_position", "train": "yes"}}, "geometry": {"type": "Point", "coordinates": [17.2208934, 48.1312421]}}, {"type": "Feature", "properties": {"type": "node", "id": 8150247696, "tags": {"name": "Podunajsk\u00e9 Biskupice", "operator": "\u017dSR", "public_transport": "station", "railway": "station", "train": "yes", "wikidata": "Q13365739", "wikipedia": "sk:\u017delezni\u010dn\u00e1 stanica Podunajsk\u00e9 Biskupice"}}, "geometry": {"type": "Point", "coordinates": [17.2206858, 48.1312649]}}, {"type": "Feature", "properties": {"type": "node", "id": 920763152, "tags": {"name": "Rovinka", "public_transport": "stop_position", "railway": "stop", "train": "yes"}}, "geometry": {"type": "Point", "coordinates": [17.2551018, 48.1080658]}}, {"type": "Feature", "properties": {"type": "node", "id": 919435646, "tags": {"name": "Nov\u00e9 Ko\u0161arisk\u00e1", "public_transport": "stop_position", "railway": "stop", "train": "yes"}}, "geometry": {"type": "Point", "coordinates": [17.276739, 48.0999463]}}, {"type": "Feature", "properties": {"type": "node", "id": 279263509, "tags": {"name": "Kvetoslavov zast\u00e1vka", "public_transport": "stop_position", "railway": "stop", "train": "yes"}}, "geometry": {"type": "Point", "coordinates": [17.3413018, 48.060156]}}, {"type": "Feature", "properties": {"type": "node", "id": 918221720, "tags": {"name": "Miloslavov", "public_transport": "stop_position", "railway": "stop", "train": "yes"}}, "geometry": {"type": "Point", "coordinates": [17.3016709, 48.0855216]}}, {"type": "Feature", "properties": {"type": "node", "id": 279263336, "tags": {"name": "Kvetoslavov", "public_transport": "stop_position", "railway": "stop", "train": "yes"}}, "geometry": {"type": "Point", "coordinates": [17.3594539, 48.055636]}}, {"type": "Feature", "properties": {"type": "node", "id": 6384121353, "tags": {"name": "Kvetoslavov", "railway": "station"}}, "geometry": {"type": "Point", "coordinates": [17.3594794, 48.0556567]}}, {"type": "Feature", "properties": {"type": "node", "id": 4443345254, "tags": {"name": "Bratislava \u2013 Vraku\u0148a", "network": "\u017dSR", "operator": "\u017dSR", "public_transport": "stop_position", "railway": "stop", "train": "yes"}}, "geometry": {"type": "Point", "coordinates": [17.2101004, 48.1486337]}}, {"type": "Feature", "properties": {"type": "node", "id": 25497610, "tags": {"name": "Bratislava-Vajnory", "name:de": "Bratislava-Weinern", "network": "\u017dSR;IDS BK", "operator": "\u017dSR", "public_transport": "stop_position", "railway": "stop", "train": "yes"}}, "geometry": {"type": "Point", "coordinates": [17.206735, 48.1947929]}}, {"type": "Feature", "properties": {"type": "node", "id": 3355889028, "tags": {"name": "Bratislava-Vajnory", "name:de": "Bratislava-Weinern", "network": "\u017dSR;IDS BK", "operator": "\u017dSR", "public_transport": "stop_position", "railway": "stop", "train": "yes"}}, "geometry": {"type": "Point", "coordinates": [17.2067588, 48.1947006]}}, {"type": "Feature", "properties": {"type": "node", "id": 3355889029, "tags": {"name": "Bratislava-Vajnory", "name:de": "Bratislava-Weinern", "network": "\u017dSR;IDS BK", "operator": "\u017dSR", "public_transport": "station", "railway": "station", "train": "yes", "wikidata": "Q9179062"}}, "geometry": {"type": "Point", "coordinates": [17.2066981, 48.1948891]}}, {"type": "Feature", "properties": {"type": "node", "id": 25391942, "tags": {"name": "Ivanka pri Dunaji", "name:de": "Iwanka an der Donau", "name:hu": "Pozsonyiv\u00e1nka", "network": "\u017dSR;IDS BK", "operator": "\u017dSR", "public_transport": "stop_position", "train": "yes"}}, "geometry": {"type": "Point", "coordinates": [17.2595966, 48.1947834]}}, {"type": "Feature", "properties": {"type": "node", "id": 3844565534, "tags": {"name": "Ivanka pri Dunaji", "name:de": "Iwanka an der Donau", "name:hu": "Pozsonyiv\u00e1nka", "network": "\u017dSR;IDS BK", "operator": "\u017dSR", "public_transport": "stop_position", "train": "yes"}}, "geometry": {"type": "Point", "coordinates": [17.2596506, 48.194741]}}, {"type": "Feature", "properties": {"type": "node", "id": 3846992440, "tags": {"name": "Ivanka pri Dunaji", "network": "\u017dSR;IDS BK", "operator": "\u017dSR", "public_transport": "station", "railway": "station"}}, "geometry": {"type": "Point", "coordinates": [17.2596307, 48.1947599]}}, {"type": "Feature", "properties": {"type": "node", "id": 25904394, "tags": {"name": "Sv\u00e4t\u00fd Jur", "network": "\u017dSR;IDS BK", "operator": "\u017dSR", "public_transport": "stop_position", "train": "yes"}}, "geometry": {"type": "Point", "coordinates": [17.2177576, 48.2476277]}}, {"type": "Feature", "properties": {"type": "node", "id": 3846992456, "tags": {"name": "Sv\u00e4t\u00fd Jur", "network": "\u017dSR;IDS BK", "operator": "\u017dSR", "public_transport": "stop_position", "train": "yes"}}, "geometry": {"type": "Point", "coordinates": [17.2178031, 48.2475939]}}, {"type": "Feature", "properties": {"type": "node", "id": 3846993457, "tags": {"name": "Sv\u00e4t\u00fd Jur", "network": "\u017dSR;IDS BK", "operator": "\u017dSR", "public_transport": "station", "railway": "station"}}, "geometry": {"type": "Point", "coordinates": [17.217787, 48.2476147]}}, {"type": "Feature", "properties": {"type": "node", "id": 2972494939, "tags": {"name": "Bernol\u00e1kovo", "name:de": "Lansch\u00fctz", "name:hu": "Csekl\u00e9sz", "name:sk": "Bernol\u00e1kovo", "network": "\u017dSR;IDS BK", "operator": "\u017dSR", "public_transport": "stop_position", "train": "yes"}}, "geometry": {"type": "Point", "coordinates": [17.3060273, 48.1978899]}}, {"type": "Feature", "properties": {"type": "node", "id": 3844565680, "tags": {"name": "Bernol\u00e1kovo", "name:de": "Lansch\u00fctz", "name:hu": "Csekl\u00e9sz", "name:sk": "Bernol\u00e1kovo", "network": "\u017dSR;IDS BK", "operator": "\u017dSR", "public_transport": "stop_position", "train": "yes"}}, "geometry": {"type": "Point", "coordinates": [17.3060454, 48.1978428]}}, {"type": "Feature", "properties": {"type": "node", "id": 3846992434, "tags": {"name": "Bernol\u00e1kovo", "name:de": "Lansch\u00fctz", "name:hu": "Csekl\u00e9sz", "name:sk": "Bernol\u00e1kovo", "network": "\u017dSR;IDS BK", "operator": "\u017dSR", "public_transport": "station", "railway": "station"}}, "geometry": {"type": "Point", "coordinates": [17.306139, 48.1978803]}}, {"type": "Feature", "properties": {"type": "node", "id": 3370940052, "tags": {"name": "Ve\u013ek\u00fd Biel", "name:de": "Ungarisch-Biel", "name:hu": "Magyarb\u00e9l", "network": "\u017dSR;IDS BK", "operator": "\u017dSR", "public_transport": "stop_position", "train": "yes"}}, "geometry": {"type": "Point", "coordinates": [17.3619489, 48.2060423]}}, {"type": "Feature", "properties": {"type": "node", "id": 3846993458, "tags": {"name": "Ve\u013ek\u00fd Biel", "name:de": "Ungarisch-Biel", "name:hu": "Magyarb\u00e9l", "network": "\u017dSR;IDS BK", "operator": "\u017dSR", "public_transport": "station", "railway": "station"}}, "geometry": {"type": "Point", "coordinates": [17.3620236, 48.2060926]}}, {"type": "Feature", "properties": {"type": "node", "id": 4246023830, "tags": {"name": "Ve\u013ek\u00fd Biel", "name:de": "Ungarisch-Biel", "name:hu": "Magyarb\u00e9l", "network": "\u017dSR;IDS BK", "operator": "\u017dSR", "public_transport": "stop_position", "railway": "stop", "train": "yes"}}, "geometry": {"type": "Point", "coordinates": [17.3626852, 48.2061005]}}, {"type": "Feature", "properties": {"type": "node", "id": 25426361, "tags": {"name": "Senec", "name:de": "Wartberg", "network": "\u017dSR", "operator": "\u017dSR", "public_transport": "station", "railway": "station"}}, "geometry": {"type": "Point", "coordinates": [17.4142506, 48.2135899]}}, {"type": "Feature", "properties": {"type": "node", "id": 3370434913, "tags": {"name": "Senec", "network": "\u017dSR", "operator": "\u017dSR", "public_transport": "stop_position", "railway": "stop", "train": "yes"}}, "geometry": {"type": "Point", "coordinates": [17.4141147, 48.213597]}}, {"type": "Feature", "properties": {"type": "node", "id": 3846992452, "tags": {"name": "Senec", "network": "\u017dSR", "operator": "\u017dSR", "public_transport": "stop_position", "railway": "stop", "train": "yes"}}, "geometry": {"type": "Point", "coordinates": [17.4141269, 48.2135566]}}, {"type": "Feature", "properties": {"type": "node", "id": 2954298193, "tags": {"name": "Reca", "name:de": "Entenberg", "name:hu": "R\u00e9te", "network": "\u017dSR;IDS BK", "operator": "\u017dSR", "public_transport": "stop_position", "train": "yes"}}, "geometry": {"type": "Point", "coordinates": [17.4553368, 48.2193141]}}, {"type": "Feature", "properties": {"type": "node", "id": 3846992441, "tags": {"name": "Reca", "name:de": "Entenberg", "name:hu": "R\u00e9te", "network": "\u017dSR;IDS BK", "operator": "\u017dSR", "public_transport": "station", "railway": "station"}}, "geometry": {"type": "Point", "coordinates": [17.4553602, 48.2193712]}}, {"type": "Feature", "properties": {"type": "node", "id": 4246055206, "tags": {"name": "Reca", "name:de": "Entenberg", "name:hu": "R\u00e9te", "network": "\u017dSR;IDS BK", "operator": "\u017dSR", "public_transport": "stop_position", "train": "yes"}}, "geometry": {"type": "Point", "coordinates": [17.4554132, 48.2192686]}}, {"type": "Feature", "properties": {"type": "node", "id": 2953752808, "tags": {"name": "Pust\u00e9 \u00da\u013eany", "network": "\u017dSR;IDS BK", "operator": "\u017dSR", "public_transport": "stop_position", "train": "yes"}}, "geometry": {"type": "Point", "coordinates": [17.5434142, 48.2081407]}}, {"type": "Feature", "properties": {"type": "node", "id": 3846992451, "tags": {"name": "Pust\u00e9 \u00da\u013eany", "network": "\u017dSR;IDS BK", "operator": "\u017dSR", "public_transport": "station", "railway": "station"}}, "geometry": {"type": "Point", "coordinates": [17.5434677, 48.2081896]}}, {"type": "Feature", "properties": {"type": "node", "id": 6382586843, "tags": {"name": "Pust\u00e9 \u00da\u013eany", "network": "\u017dSR;IDS BK", "operator": "\u017dSR", "public_transport": "stop_position", "train": "yes"}}, "geometry": {"type": "Point", "coordinates": [17.5434035, 48.2081078]}}, {"type": "Feature", "properties": {"type": "node", "id": 30418842, "tags": {"name": "Zemianska Ol\u010da", "railway": "station"}}, "geometry": {"type": "Point", "coordinates": [17.8518516, 47.8080584]}}, {"type": "Feature", "properties": {"type": "node", "id": 2384672419, "tags": {"name": "Zlatn\u00e1 na ostrove", "public_transport": "stop_position", "railway": "stop", "train": "yes"}}, "geometry": {"type": "Point", "coordinates": [17.9769304, 47.7750681]}}, {"type": "Feature", "properties": {"type": "node", "id": 25582465, "tags": {"name": "Kom\u00e1rno", "public_transport": "stop_position", "railway": "stop", "train": "yes"}}, "geometry": {"type": "Point", "coordinates": [18.1255981, 47.7691699]}}, {"type": "Feature", "properties": {"type": "node", "id": 6795614368, "tags": {"name": "Kom\u00e1rno", "note": "This is not a duplicate with node with railway=stop, both should exist/Toto nie je duplicita s bodom railway=stop, maju existovat oba.", "railway": "station", "wikidata": "Q75006568"}}, "geometry": {"type": "Point", "coordinates": [18.1255437, 47.7692443]}}, {"type": "Feature", "properties": {"type": "node", "id": 7098468026, "tags": {"name": "Chot\u00edn", "railway": "station"}}, "geometry": {"type": "Point", "coordinates": [18.1900083, 47.8088431]}}, {"type": "Feature", "properties": {"type": "node", "id": 7201220627, "tags": {"name": "Chot\u00edn", "public_transport": "stop_position", "railway": "stop", "train": "yes"}}, "geometry": {"type": "Point", "coordinates": [18.1899134, 47.8088714]}}, {"type": "Feature", "properties": {"type": "node", "id": 3768748933, "tags": {"name": "Bodza, zast\u00e1vka", "name:hu": "Bogya", "operator": "RegioJet", "public_transport": "station", "railway": "station"}}, "geometry": {"type": "Point", "coordinates": [17.8208859, 47.8345275]}}, {"type": "Feature", "properties": {"type": "node", "id": 1382047578, "tags": {"name": "Ve\u013ek\u00fd Meder", "railway": "station"}}, "geometry": {"type": "Point", "coordinates": [17.7817295, 47.8615115]}}, {"type": "Feature", "properties": {"type": "node", "id": 3768748936, "tags": {"name": "Oko\u010d", "operator": "RegioJet", "railway": "station"}}, "geometry": {"type": "Point", "coordinates": [17.794836, 47.8959661]}}, {"type": "Feature", "properties": {"type": "node", "id": 3768748934, "tags": {"name": "Doln\u00fd Bar", "operator": "RegioJet", "public_transport": "station", "railway": "station"}}, "geometry": {"type": "Point", "coordinates": [17.6937433, 47.967303]}}, {"type": "Feature", "properties": {"type": "node", "id": 6771996817, "tags": {"name": "Doln\u00fd \u0160t\u00e1l", "name:hu": "Alist\u00e1l vas\u00fat\u00e1llom\u00e1s", "operator": "RegioJet", "public_transport": "station", "railway": "station", "train": "yes"}}, "geometry": {"type": "Point", "coordinates": [17.7434365, 47.9513481]}}, {"type": "Feature", "properties": {"type": "node", "id": 3654996179, "tags": {"name": "Sl\u00e1dkovi\u010dovo", "network": "\u017dSR;IDS BK", "operator": "\u017dSR", "public_transport": "stop_position", "train": "yes"}}, "geometry": {"type": "Point", "coordinates": [17.6296309, 48.1955661]}}, {"type": "Feature", "properties": {"type": "node", "id": 3654996181, "tags": {"name": "Sl\u00e1dkovi\u010dovo", "network": "\u017dSR;IDS BK", "operator": "\u017dSR", "public_transport": "stop_position", "train": "yes"}}, "geometry": {"type": "Point", "coordinates": [17.6296524, 48.1956464]}}, {"type": "Feature", "properties": {"type": "node", "id": 3846992454, "tags": {"name": "Sl\u00e1dkovi\u010dovo", "network": "\u017dSR;IDS BK", "operator": "\u017dSR", "public_transport": "stop_position", "train": "yes"}}, "geometry": {"type": "Point", "coordinates": [17.6296376, 48.1956027]}}, {"type": "Feature", "properties": {"type": "node", "id": 3846992455, "tags": {"name": "Sl\u00e1dkovi\u010dovo", "network": "\u017dSR;IDS BK", "operator": "\u017dSR", "public_transport": "station", "railway": "station"}}, "geometry": {"type": "Point", "coordinates": [17.6294897, 48.1956487]}}, {"type": "Feature", "properties": {"type": "node", "id": 26499120, "tags": {"name": "Galanta", "network": "\u017dSR", "operator": "\u017dSR", "public_transport": "stop_position", "railway": "stop", "train": "yes"}}, "geometry": {"type": "Point", "coordinates": [17.7233261, 48.1849788]}}, {"type": "Feature", "properties": {"type": "node", "id": 3846992439, "tags": {"name": "Galanta", "network": "\u017dSR;IDS BK", "operator": "\u017dSR", "public_transport": "station", "railway": "station", "railway:ref:DB": "XYG"}}, "geometry": {"type": "Point", "coordinates": [17.7233305, 48.185044]}}, {"type": "Feature", "properties": {"type": "node", "id": 4246062244, "tags": {"name": "Galanta", "network": "\u017dSR", "operator": "\u017dSR", "public_transport": "stop_position", "railway": "stop", "train": "yes"}}, "geometry": {"type": "Point", "coordinates": [17.7233188, 48.1849353]}}, {"type": "Feature", "properties": {"type": "node", "id": 6793945402, "tags": {"name": "Galanta", "network": "\u017dSR", "operator": "\u017dSR", "public_transport": "stop_position", "train": "yes"}}, "geometry": {"type": "Point", "coordinates": [17.7233309, 48.185019]}}, {"type": "Feature", "properties": {"type": "node", "id": 1384119715, "tags": {"name": "G\u00e1\u0148", "public_transport": "stop_position", "railway": "stop", "train": "yes"}}, "geometry": {"type": "Point", "coordinates": [17.7232801, 48.23371]}}, {"type": "Feature", "properties": {"type": "node", "id": 6793945401, "tags": {"name": "G\u00e1\u0148", "railway": "station"}}, "geometry": {"type": "Point", "coordinates": [17.7233007, 48.2336372]}}, {"type": "Feature", "properties": {"type": "node", "id": 27346876, "tags": {"name": "\u0160a\u013ea", "name:de": "Schala", "public_transport": "station", "railway": "station"}}, "geometry": {"type": "Point", "coordinates": [17.8623051, 48.1469669]}}, {"type": "Feature", "properties": {"type": "node", "id": 314964836, "tags": {"name": "Trnovec nad V\u00e1hom", "railway": "station"}}, "geometry": {"type": "Point", "coordinates": [17.9267384, 48.1530066]}}, {"type": "Feature", "properties": {"type": "node", "id": 4752647137, "tags": {"name": "Trnovec nad V\u00e1hom", "railway": "station"}}, "geometry": {"type": "Point", "coordinates": [17.9268396, 48.1529458]}}, {"type": "Feature", "properties": {"type": "node", "id": 25551787, "tags": {"name": "Hurbanovo", "railway": "station"}}, "geometry": {"type": "Point", "coordinates": [18.2035567, 47.8766912]}}, {"type": "Feature", "properties": {"type": "node", "id": 1063783348, "tags": {"name": "Baj\u010d", "name:hu": "Bajcs", "railway": "station"}}, "geometry": {"type": "Point", "coordinates": [18.2115406, 47.9264084]}}, {"type": "Feature", "properties": {"type": "node", "id": 27270617, "tags": {"name": "Nov\u00e9 Z\u00e1mky", "name:hu": "\u00c9rsek\u00fajv\u00e1r", "public_transport": "stop_position", "railway": "stop", "train": "yes"}}, "geometry": {"type": "Point", "coordinates": [18.1747829, 47.9946612]}}, {"type": "Feature", "properties": {"type": "node", "id": 3658062010, "tags": {"name": "Nov\u00e9 Z\u00e1mky", "name:hu": "\u00c9rsek\u00fajv\u00e1r", "public_transport": "station", "railway": "station"}}, "geometry": {"type": "Point", "coordinates": [18.1742229, 47.9951189]}}, {"type": "Feature", "properties": {"type": "node", "id": 5222951719, "tags": {"name": "Nov\u00e9 Z\u00e1mky", "public_transport": "stop_position", "railway": "stop", "train": "yes"}}, "geometry": {"type": "Point", "coordinates": [18.1734322, 47.9955414]}}, {"type": "Feature", "properties": {"type": "node", "id": 1260636603, "tags": {"name": "\u017delezni\u010dn\u00e1 zast\u00e1vka Strekov", "railway": "station"}}, "geometry": {"type": "Point", "coordinates": [18.3993676, 47.9000659]}}, {"type": "Feature", "properties": {"type": "node", "id": 26152964, "tags": {"name": "Dvory nad \u017ditavou", "railway": "station"}}, "geometry": {"type": "Point", "coordinates": [18.2512717, 47.9678064]}}, {"type": "Feature", "properties": {"type": "node", "id": 198156640, "tags": {"name": "Pal\u00e1rikovo", "railway": "station"}}, "geometry": {"type": "Point", "coordinates": [18.0818571, 48.0601421]}}, {"type": "Feature", "properties": {"type": "node", "id": 4752645706, "tags": {"name": "Pal\u00e1rikovo", "railway": "station"}}, "geometry": {"type": "Point", "coordinates": [18.0817899, 48.0601048]}}, {"type": "Feature", "properties": {"type": "node", "id": 3325142554, "tags": {"name": "B\u00e1nov", "name:hu": "B\u00e1nkeszi", "public_transport": "stop_position", "railway": "station", "train": "yes"}}, "geometry": {"type": "Point", "coordinates": [18.1675109, 48.0455403]}}, {"type": "Feature", "properties": {"type": "node", "id": 563299494, "tags": {"name": "\u0160urany", "public_transport": "stop_position", "railway": "station", "train": "yes"}}, "geometry": {"type": "Point", "coordinates": [18.172776, 48.0850742]}}, {"type": "Feature", "properties": {"type": "node", "id": 3325103352, "tags": {"name": "\u0160urany zast\u00e1vka", "public_transport": "stop_position", "railway": "halt", "train": "yes"}}, "geometry": {"type": "Point", "coordinates": [18.1962339, 48.0910091]}}, {"type": "Feature", "properties": {"type": "node", "id": 1002330321, "tags": {"name": "\u00da\u013eany nad \u017ditavou", "public_transport": "stop_position", "train": "yes"}}, "geometry": {"type": "Point", "coordinates": [18.2330234, 48.0978567]}}, {"type": "Feature", "properties": {"type": "node", "id": 27279256, "tags": {"is_in": "Ve\u013ek\u00fd K\u00fdr,Nov\u00e9 Z\u00e1mky,Nitriansky kraj,Z\u00e1padn\u00e9 Slovensko,Slovensko", "name": "Ve\u013ek\u00fd K\u00fdr", "railway": "station"}}, "geometry": {"type": "Point", "coordinates": [18.1507391, 48.1833731]}}, {"type": "Feature", "properties": {"type": "node", "id": 2222263884, "tags": {"name": "Hul", "public_transport": "station", "railway": "station"}}, "geometry": {"type": "Point", "coordinates": [18.265954, 48.0983222]}}, {"type": "Feature", "properties": {"type": "node", "id": 3325030475, "tags": {"name": "Mal\u00e1 Ma\u0148a", "public_transport": "stop_position", "railway": "halt", "train": "yes"}}, "geometry": {"type": "Point", "coordinates": [18.2581698, 48.1364596]}}, {"type": "Feature", "properties": {"type": "node", "id": 35234003, "tags": {"name": "Podh\u00e1jska", "railway": "station"}}, "geometry": {"type": "Point", "coordinates": [18.3448676, 48.1029081]}}, {"type": "Feature", "properties": {"type": "node", "id": 27303826, "tags": {"name": "Pozba", "railway": "station"}}, "geometry": {"type": "Point", "coordinates": [18.3881295, 48.1154631]}}, {"type": "Feature", "properties": {"type": "node", "id": 2094813181, "tags": {"name": "Be\u0161a", "railway": "station"}}, "geometry": {"type": "Point", "coordinates": [18.4021581, 48.1384102]}}, {"type": "Feature", "properties": {"type": "node", "id": 3325010668, "tags": {"name": "Ma\u0148a zast\u00e1vka", "public_transport": "stop_position", "train": "yes"}}, "geometry": {"type": "Point", "coordinates": [18.264149, 48.1464605]}}, {"type": "Feature", "properties": {"type": "node", "id": 3324968995, "tags": {"name": "Ma\u0148a", "public_transport": "stop_position", "railway": "station", "train": "yes"}}, "geometry": {"type": "Point", "coordinates": [18.270635, 48.1557992]}}, {"type": "Feature", "properties": {"type": "node", "id": 3324968992, "tags": {"name": "Kme\u0165ovo", "name:hu": "Gyarak", "public_transport": "stop_position", "railway": "halt", "train": "yes"}}, "geometry": {"type": "Point", "coordinates": [18.2766037, 48.168168]}}, {"type": "Feature", "properties": {"type": "node", "id": 3324968996, "tags": {"name": "Michal nad \u017ditavou", "name:hu": "Szentmih\u00e1ly\u00far", "public_transport": "stop_position", "railway": "halt", "train": "yes"}}, "geometry": {"type": "Point", "coordinates": [18.2818111, 48.1844415]}}, {"type": "Feature", "properties": {"type": "node", "id": 3324968994, "tags": {"name": "Martinov\u00e1", "name:hu": "Zsitvam\u00e1rtonfalva", "public_transport": "stop_position", "railway": "halt", "train": "yes"}}, "geometry": {"type": "Point", "coordinates": [18.2799639, 48.1987352]}}, {"type": "Feature", "properties": {"type": "node", "id": 3324968993, "tags": {"name": "L\u00fa\u010dnica nad \u017ditavou", "name:hu": "Vajkm\u00e1rtonfalva", "public_transport": "stop_position", "railway": "halt", "train": "yes"}}, "geometry": {"type": "Point", "coordinates": [18.2833187, 48.2174058]}}, {"type": "Feature", "properties": {"type": "node", "id": 3324968991, "tags": {"name": "Dy\u010dka", "name:hu": "Nemesdicske", "public_transport": "stop_position", "railway": "halt", "train": "yes"}}, "geometry": {"type": "Point", "coordinates": [18.287103, 48.2347866]}}, {"type": "Feature", "properties": {"type": "node", "id": 2094813192, "tags": {"name": "Horn\u00fd Pial", "railway": "station"}}, "geometry": {"type": "Point", "coordinates": [18.4497784, 48.1596043]}}, {"type": "Feature", "properties": {"type": "node", "id": 4764382668, "tags": {"name": "Mu\u017ela", "railway": "station"}}, "geometry": {"type": "Point", "coordinates": [18.5954648, 47.8129609]}}, {"type": "Feature", "properties": {"type": "node", "id": 5224951601, "tags": {"name": "Mu\u017ela", "railway": "station"}}, "geometry": {"type": "Point", "coordinates": [18.5958946, 47.8129023]}}, {"type": "Feature", "properties": {"type": "node", "id": 1078549756, "tags": {"loc_name": "Parkan,Parkany,P\u00e1rk\u00e1ny,Shturovo,Sturovo", "name": "\u0160t\u00farovo", "name:de": "Gockern", "name:hu": "P\u00e1rk\u00e1ny", "name:ru": "\u0428\u0442\u0443\u0440\u043e\u0432\u043e", "name:sk": "\u0160t\u00farovo", "old_name": "Parkan", "platforms": "3", "public_transport": "stop_position", "railway": "station", "train": "yes"}}, "geometry": {"type": "Point", "coordinates": [18.6798225, 47.8000777]}}, {"type": "Feature", "properties": {"type": "node", "id": 5066551511, "tags": {"loc_name": "Parkan,Parkany,P\u00e1rk\u00e1ny,Shturovo,Sturovo", "name": "\u0160t\u00farovo", "name:de": "Gockern", "name:hu": "P\u00e1rk\u00e1ny", "name:ru": "\u0428\u0442\u0443\u0440\u043e\u0432\u043e", "name:sk": "\u0160t\u00farovo", "old_name": "Parkan", "platforms": "3", "public_transport": "stop_position", "railway": "station", "train": "yes"}}, "geometry": {"type": "Point", "coordinates": [18.6797332, 47.8001951]}}, {"type": "Feature", "properties": {"type": "node", "id": 6382044532, "tags": {"name": "Chl'aba z\u00e1stavka", "name:hu": "Helemba vas\u00fat\u00e1llom\u00e1s", "public_transport": "stop_position", "railway": "stop", "train": "yes"}}, "geometry": {"type": "Point", "coordinates": [18.8283562, 47.8248287]}}, {"type": "Feature", "properties": {"type": "node", "id": 6382044533, "tags": {"name": "Chl'aba z\u00e1stavka", "name:hu": "Helemba vas\u00fat\u00e1llom\u00e1s", "public_transport": "stop_position", "railway": "stop", "train": "yes"}}, "geometry": {"type": "Point", "coordinates": [18.8283603, 47.8247953]}}, {"type": "Feature", "properties": {"type": "node", "id": 1910876352, "tags": {"name": "\u010cata", "railway": "station", "railway:position:exact": "20.083", "uic_ref": "5616326"}}, "geometry": {"type": "Point", "coordinates": [18.6486644, 47.9562049]}}, {"type": "Feature", "properties": {"type": "node", "id": 8286654536, "tags": {"name": "Pohronsk\u00fd Ruskov", "railway": "station", "railway:position:exact": "22.265", "uic_ref": "5616316"}}, "geometry": {"type": "Point", "coordinates": [18.6485109, 47.9753537]}}, {"type": "Feature", "properties": {"type": "node", "id": 1910832922, "tags": {"name": "Ipe\u013esk\u00fd Sokolec", "railway": "station", "railway:position:exact": "17.063", "uic_ref": "5616396"}}, "geometry": {"type": "Point", "coordinates": [18.8025238, 48.0237628]}}, {"type": "Feature", "properties": {"type": "node", "id": 749736264, "tags": {"name": "\u017deliezovce", "name:de": "Zelis", "name:hu": "Zseliz", "railway": "station", "railway:position:exact": "30.009", "uic_ref": "5616296"}}, "geometry": {"type": "Point", "coordinates": [18.6457275, 48.044224]}}, {"type": "Feature", "properties": {"type": "node", "id": 815607771, "tags": {"name": "Tekovsk\u00e9 Lu\u017eany", "railway": "station", "uic_ref": "5616286"}}, "geometry": {"type": "Point", "coordinates": [18.563469, 48.1003018]}}, {"type": "Feature", "properties": {"type": "node", "id": 3648631593, "tags": {"name": "Lok", "railway": "station"}}, "geometry": {"type": "Point", "coordinates": [18.4728667, 48.185423]}}, {"type": "Feature", "properties": {"type": "node", "id": 31147613, "tags": {"name": "Tekovsk\u00fd Hr\u00e1dok", "railway": "station", "railway:position:exact": "45.408", "uic_ref": "5616266"}}, "geometry": {"type": "Point", "coordinates": [18.5549302, 48.1588592]}}, {"type": "Feature", "properties": {"type": "node", "id": 27303888, "tags": {"name": "Kaln\u00e1 nad Hronom", "railway": "station", "wikidata": "Q98115940"}}, "geometry": {"type": "Point", "coordinates": [18.5178364, 48.2039535]}}, {"type": "Feature", "properties": {"type": "node", "id": 27303911, "tags": {"name": "Levice", "name:de": "Lewenz", "name:hu": "L\u00e9va", "name:ru": "\u041b\u0435\u0432\u0438\u0446\u0435", "railway": "station", "wheelchair": "yes", "wikidata": "Q30531413"}}, "geometry": {"type": "Point", "coordinates": [18.5927371, 48.2110472]}}, {"type": "Feature", "properties": {"type": "node", "id": 7683964612, "tags": {"name": "\u0160ahy", "name:hu": "Ipolys\u00e1g", "railway": "station", "railway:position:exact": "31.481", "uic_ref": "5615404"}}, "geometry": {"type": "Point", "coordinates": [18.9565112, 48.0592405]}}, {"type": "Feature", "properties": {"type": "node", "id": 1910789060, "tags": {"name": "Hontianske Tes\u00e1re", "railway": "station", "railway:position:exact": "19.992", "uic_ref": "5614643"}}, "geometry": {"type": "Point", "coordinates": [18.9330329, 48.2083179]}}, {"type": "Feature", "properties": {"type": "node", "id": 1913185904, "tags": {"name": "Mal\u00e9 Straciny", "railway": "station", "railway:position:exact": "12.386", "uic_ref": "5615103"}}, "geometry": {"type": "Point", "coordinates": [19.398589, 48.2065889]}}, {"type": "Feature", "properties": {"type": "node", "id": 27173733, "tags": {"name": "Hajn\u00e1\u010dka", "railway": "station", "railway:position:exact": "81.905", "uic_ref": "5613753"}}, "geometry": {"type": "Point", "coordinates": [19.9323063, 48.2350642]}}, {"type": "Feature", "properties": {"type": "node", "id": 3328567992, "tags": {"name": "Dev\u00ednske Jazero", "name:de": "Thebensee", "network": "\u017dSR", "operator": "\u017dSR", "public_transport": "stop_position", "railway": "stop", "train": "yes"}}, "geometry": {"type": "Point", "coordinates": [16.9609206, 48.2510312]}}, {"type": "Feature", "properties": {"type": "node", "id": 3328568393, "tags": {"name": "Dev\u00ednske Jazero", "name:de": "Thebensee", "network": "\u017dSR", "operator": "\u017dSR", "public_transport": "stop_position", "railway": "stop", "train": "yes"}}, "geometry": {"type": "Point", "coordinates": [16.9609817, 48.2510392]}}, {"type": "Feature", "properties": {"type": "node", "id": 1179318278, "tags": {"name": "Vysok\u00e1 pri Morave", "network": "\u017dSR", "operator": "\u017dSR", "public_transport": "stop_position", "railway": "stop", "train": "yes"}}, "geometry": {"type": "Point", "coordinates": [16.9138236, 48.3337233]}}, {"type": "Feature", "properties": {"type": "node", "id": 5943394565, "tags": {"name": "Vysok\u00e1 pri Morave", "network": "\u017dSR", "operator": "\u017dSR", "public_transport": "station", "railway": "station"}}, "geometry": {"type": "Point", "coordinates": [16.9138404, 48.3336964]}}, {"type": "Feature", "properties": {"type": "node", "id": 32321451, "tags": {"name": "L\u00e1bske jazero zast\u00e1vka", "network": "\u017dSR", "operator": "\u017dSR", "public_transport": "stop_position", "railway": "stop", "train": "yes"}}, "geometry": {"type": "Point", "coordinates": [16.9472959, 48.3342019]}}, {"type": "Feature", "properties": {"type": "node", "id": 1179318108, "tags": {"name": "Z\u00e1horsk\u00e1 Ves", "name:de": "Ungeraiden", "network": "\u017dSR", "operator": "\u017dSR", "public_transport": "stop_position", "railway": "stop", "train": "yes"}}, "geometry": {"type": "Point", "coordinates": [16.8445816, 48.3774898]}}, {"type": "Feature", "properties": {"type": "node", "id": 3329790894, "tags": {"name": "Z\u00e1horsk\u00e1 Ves", "name:de": "Ungeraiden", "network": "\u017dSR", "operator": "\u017dSR", "public_transport": "station", "railway": "station"}}, "geometry": {"type": "Point", "coordinates": [16.8445664, 48.3775169]}}, {"type": "Feature", "properties": {"type": "node", "id": 1179318157, "tags": {"name": "Vysok\u00e1 pri Morave zast\u00e1vka", "network": "\u017dSR", "operator": "\u017dSR", "public_transport": "stop_position", "train": "yes"}}, "geometry": {"type": "Point", "coordinates": [16.8850313, 48.3577889]}}, {"type": "Feature", "properties": {"type": "node", "id": 27275800, "tags": {"name": "Zohor", "name:de": "Sachern", "network": "\u017dSR", "operator": "\u017dSR", "public_transport": "stop_position", "railway": "stop", "train": "yes"}}, "geometry": {"type": "Point", "coordinates": [16.9913462, 48.3257344]}}, {"type": "Feature", "properties": {"type": "node", "id": 1179318138, "tags": {"name": "Zohor", "network": "\u017dSR", "operator": "\u017dSR", "public_transport": "stop_position", "railway": "stop", "train": "yes"}}, "geometry": {"type": "Point", "coordinates": [16.991204, 48.3257366]}}, {"type": "Feature", "properties": {"type": "node", "id": 1179318203, "tags": {"name": "Zohor", "name:de": "Sachern", "network": "IDS BK", "operator": "\u017dSR", "public_transport": "stop_position", "railway": "stop", "train": "yes"}}, "geometry": {"type": "Point", "coordinates": [16.9911618, 48.3257724]}}, {"type": "Feature", "properties": {"type": "node", "id": 2952631154, "tags": {"name": "Zohor", "name:de": "Sachern", "network": "\u017dSR", "operator": "\u017dSR", "public_transport": "stop_position", "railway": "stop", "train": "yes"}}, "geometry": {"type": "Point", "coordinates": [16.9914187, 48.3257301]}}, {"type": "Feature", "properties": {"type": "node", "id": 6627186902, "tags": {"name": "Zohor", "network": "\u017dSR", "operator": "\u017dSR", "public_transport": "stop_position", "railway": "stop", "train": "yes"}}, "geometry": {"type": "Point", "coordinates": [16.9912764, 48.3257309]}}, {"type": "Feature", "properties": {"type": "node", "id": 6646508753, "tags": {"name": "Zohor", "network": "\u017dSR", "operator": "\u017dSR", "public_transport": "station", "railway": "station", "train": "yes"}}, "geometry": {"type": "Point", "coordinates": [16.9912527, 48.3257702]}}, {"type": "Feature", "properties": {"type": "node", "id": 1918892380, "tags": {"name": "Lozorno", "network": "\u017dSR", "operator": "\u017dSR", "public_transport": "stop_position", "railway": "stop", "train": "yes"}}, "geometry": {"type": "Point", "coordinates": [17.0422534, 48.3372277]}}, {"type": "Feature", "properties": {"type": "node", "id": 6649247705, "tags": {"name": "Lozorno", "network": "\u017dSR", "operator": "\u017dSR", "public_transport": "stop_position", "railway": "stop", "train": "yes"}}, "geometry": {"type": "Point", "coordinates": [17.0422804, 48.3371918]}}, {"type": "Feature", "properties": {"type": "node", "id": 6649247706, "tags": {"name": "Lozorno", "network": "\u017dSR", "operator": "\u017dSR", "public_transport": "station", "railway": "station", "train": "yes"}}, "geometry": {"type": "Point", "coordinates": [17.0422747, 48.3372137]}}, {"type": "Feature", "properties": {"type": "node", "id": 7400854416, "tags": {"addr:city": "Jablonov\u00e9", "addr:housenumber": "385", "addr:place": "Jablonov\u00e9", "addr:postcode": "90054", "name": "Jablonov\u00e9", "name:de": "Apfelsbach", "public_transport": "station", "railway": "station"}}, "geometry": {"type": "Point", "coordinates": [17.0888166, 48.3533182]}}, {"type": "Feature", "properties": {"type": "node", "id": 282377194, "tags": {"alt_name:de": "Blasenstein-Zankendorf", "area": "yes", "name": "Plaveck\u00fd \u0160tvrtok", "name:de": "Zankendorf", "name:hu": "Detrek\u0151cs\u00fct\u00f6rt\u00f6k", "network": "\u017dSR", "operator": "\u017dSR", "public_transport": "station", "railway": "station", "wheelchair": "yes"}}, "geometry": {"type": "Point", "coordinates": [17.007729, 48.3729853]}}, {"type": "Feature", "properties": {"type": "node", "id": 2952631145, "tags": {"alt_name:de": "Blasenstein-Zankendorf", "name": "Plaveck\u00fd \u0160tvrtok", "name:de": "Zankendorf", "name:hu": "Detrek\u0151cs\u00fct\u00f6rt\u00f6k", "network": "\u017dSR", "operator": "\u017dSR", "public_transport": "stop_position", "railway": "stop", "train": "yes"}}, "geometry": {"type": "Point", "coordinates": [17.0077399, 48.3729296]}}, {"type": "Feature", "properties": {"type": "node", "id": 3334032452, "tags": {"alt_name:de": "Blasenstein-Zankendorf", "name": "Plaveck\u00fd \u0160tvrtok", "name:de": "Zankendorf", "name:hu": "Detrek\u0151cs\u00fct\u00f6rt\u00f6k", "network": "\u017dSR", "operator": "\u017dSR", "public_transport": "stop_position", "railway": "stop", "train": "yes"}}, "geometry": {"type": "Point", "coordinates": [17.0077066, 48.3729333]}}, {"type": "Feature", "properties": {"type": "node", "id": 3329784544, "tags": {"name": "Malacky", "name:de": "Malatzka", "network": "\u017dSR", "operator": "\u017dSR", "public_transport": "stop_position", "railway": "stop", "train": "yes"}}, "geometry": {"type": "Point", "coordinates": [17.0232539, 48.4329669]}}, {"type": "Feature", "properties": {"type": "node", "id": 3329784545, "tags": {"name": "Malacky", "name:de": "Malatzka", "network": "\u017dSR", "operator": "\u017dSR", "public_transport": "stop_position", "railway": "stop", "train": "yes"}}, "geometry": {"type": "Point", "coordinates": [17.0231894, 48.4329615]}}, {"type": "Feature", "properties": {"type": "node", "id": 3329784546, "tags": {"name": "Malacky", "name:de": "Malatzka", "network": "\u017dSR", "operator": "\u017dSR", "public_transport": "station", "railway": "station", "train": "yes", "wheelchair": "limited"}}, "geometry": {"type": "Point", "coordinates": [17.0232184, 48.4330165]}}, {"type": "Feature", "properties": {"type": "node", "id": 6627292829, "tags": {"name": "Malacky", "network": "\u017dSR", "operator": "\u017dSR", "public_transport": "stop_position", "railway": "stop", "train": "yes"}}, "geometry": {"type": "Point", "coordinates": [17.0231256, 48.432964]}}, {"type": "Feature", "properties": {"type": "node", "id": 6627292830, "tags": {"name": "Malacky", "network": "\u017dSR", "operator": "\u017dSR", "public_transport": "stop_position", "railway": "stop", "train": "yes"}}, "geometry": {"type": "Point", "coordinates": [17.0233101, 48.4329551]}}, {"type": "Feature", "properties": {"type": "node", "id": 243481283, "tags": {"name": "Pernek pri Zohore", "network": "\u017dSR", "operator": "\u017dSR", "public_transport": "stop_position", "railway": "stop", "train": "yes"}}, "geometry": {"type": "Point", "coordinates": [17.12246, 48.3797098]}}, {"type": "Feature", "properties": {"type": "node", "id": 278114771, "tags": {"name": "Kuchy\u0148a", "network": "\u017dSR", "operator": "\u017dSR", "public_transport": "stop_position", "railway": "stop", "train": "yes"}}, "geometry": {"type": "Point", "coordinates": [17.1370462, 48.4111423]}}, {"type": "Feature", "properties": {"type": "node", "id": 1918892382, "tags": {"name": "Roho\u017en\u00edk", "network": "\u017dSR", "operator": "\u017dSR", "public_transport": "stop_position", "railway": "stop", "train": "yes"}}, "geometry": {"type": "Point", "coordinates": [17.1707768, 48.4523798]}}, {"type": "Feature", "properties": {"type": "node", "id": 3328568418, "tags": {"name": "Ve\u013ek\u00e9 Lev\u00e1re", "network": "\u017dSR", "operator": "\u017dSR", "public_transport": "stop_position", "railway": "stop", "train": "yes"}}, "geometry": {"type": "Point", "coordinates": [17.0186092, 48.5092302]}}, {"type": "Feature", "properties": {"type": "node", "id": 3328568419, "tags": {"name": "Ve\u013ek\u00e9 Lev\u00e1re", "network": "\u017dSR", "operator": "\u017dSR", "public_transport": "stop_position", "railway": "stop", "train": "yes"}}, "geometry": {"type": "Point", "coordinates": [17.0186728, 48.5092572]}}, {"type": "Feature", "properties": {"type": "node", "id": 3334032453, "tags": {"name": "Ve\u013ek\u00e9 Lev\u00e1re", "network": "\u017dSR", "operator": "\u017dSR", "public_transport": "station", "railway": "station", "train": "yes"}}, "geometry": {"type": "Point", "coordinates": [17.0186066, 48.5092841]}}, {"type": "Feature", "properties": {"type": "node", "id": 6627429382, "tags": {"name": "Ve\u013ek\u00e9 Lev\u00e1re", "network": "\u017dSR", "operator": "\u017dSR", "public_transport": "stop_position", "railway": "stop", "train": "yes"}}, "geometry": {"type": "Point", "coordinates": [17.0185429, 48.5092209]}}, {"type": "Feature", "properties": {"type": "node", "id": 6627437401, "tags": {"name": "Ve\u013ek\u00e9 Lev\u00e1re", "network": "\u017dSR", "operator": "\u017dSR", "public_transport": "stop_position", "railway": "stop", "train": "yes"}}, "geometry": {"type": "Point", "coordinates": [17.0184818, 48.5092077]}}, {"type": "Feature", "properties": {"type": "node", "id": 282377197, "tags": {"name": "Z\u00e1vod", "network": "\u017dSR", "operator": "\u017dSR", "public_transport": "stop_position", "railway": "stop", "train": "yes"}}, "geometry": {"type": "Point", "coordinates": [17.0077458, 48.5390775]}}, {"type": "Feature", "properties": {"type": "node", "id": 3328568420, "tags": {"name": "Z\u00e1vod", "network": "\u017dSR", "operator": "\u017dSR", "public_transport": "stop_position", "railway": "stop", "train": "yes"}}, "geometry": {"type": "Point", "coordinates": [17.007708, 48.5390745]}}, {"type": "Feature", "properties": {"type": "node", "id": 3334032454, "tags": {"addr:city": "Z\u00e1vod", "addr:postcode": "90872", "addr:street": "Sokolsk\u00e1", "name": "Z\u00e1vod", "network": "\u017dSR", "operator": "\u017dSR", "public_transport": "station", "railway": "station", "train": "yes"}}, "geometry": {"type": "Point", "coordinates": [17.0076939, 48.5390284]}}, {"type": "Feature", "properties": {"type": "node", "id": 27275778, "tags": {"name": "Moravsk\u00fd Sv\u00e4t\u00fd J\u00e1n", "network": "\u017dSR", "operator": "\u017dSR", "public_transport": "stop_position", "railway": "stop", "train": "yes"}}, "geometry": {"type": "Point", "coordinates": [17.0086308, 48.5862432]}}, {"type": "Feature", "properties": {"type": "node", "id": 2893302325, "tags": {"name": "Moravsk\u00fd Sv\u00e4t\u00fd J\u00e1n", "name:de": "St. Johann an der March", "name:hu": "Morvaszentj\u00e1nos", "name:sk": "Moravsk\u00fd Sv\u00e4t\u00fd J\u00e1n", "network": "\u017dSR", "operator": "\u017dSR", "public_transport": "stop_position", "railway": "stop", "train": "yes"}}, "geometry": {"type": "Point", "coordinates": [17.0090637, 48.5873706]}}, {"type": "Feature", "properties": {"type": "node", "id": 3350963374, "tags": {"name": "Moravsk\u00fd Sv\u00e4t\u00fd J\u00e1n", "name:de": "St. Johann an der March", "name:hu": "Morvaszentj\u00e1nos", "name:sk": "Moravsk\u00fd Sv\u00e4t\u00fd J\u00e1n", "network": "\u017dSR", "operator": "\u017dSR", "public_transport": "station", "railway": "station", "train": "yes"}}, "geometry": {"type": "Point", "coordinates": [17.0089201, 48.587406]}}, {"type": "Feature", "properties": {"type": "node", "id": 282377198, "tags": {"name": "Sekule", "name:de": "Sekeln", "network": "\u017dSR", "operator": "\u017dSR", "public_transport": "station", "railway": "station", "train": "yes", "wikidata": "Q22807285"}}, "geometry": {"type": "Point", "coordinates": [17.0190459, 48.6077391]}}, {"type": "Feature", "properties": {"type": "node", "id": 3350963375, "tags": {"name": "Sekule", "name:de": "Sekeln", "network": "\u017dSR", "operator": "\u017dSR", "public_transport": "stop_position", "railway": "stop", "train": "yes"}}, "geometry": {"type": "Point", "coordinates": [17.0190292, 48.6076457]}}, {"type": "Feature", "properties": {"type": "node", "id": 3350963376, "tags": {"name": "Sekule", "name:de": "Sekeln", "network": "\u017dSR", "operator": "\u017dSR", "public_transport": "stop_position", "railway": "stop", "train": "yes"}}, "geometry": {"type": "Point", "coordinates": [17.0189661, 48.6076641]}}, {"type": "Feature", "properties": {"type": "node", "id": 6630756294, "tags": {"name": "Sekule", "network": "\u017dSR", "operator": "\u017dSR", "public_transport": "stop_position", "railway": "stop", "train": "yes"}}, "geometry": {"type": "Point", "coordinates": [17.0189192, 48.6076844]}}, {"type": "Feature", "properties": {"type": "node", "id": 281692870, "tags": {"name": "K\u00faty", "network": "\u017dSR", "operator": "\u017dSR", "public_transport": "stop_position", "railway": "stop", "train": "yes"}}, "geometry": {"type": "Point", "coordinates": [17.0475006, 48.6619086]}}, {"type": "Feature", "properties": {"type": "node", "id": 2794370379, "tags": {"name": "K\u00faty", "network": "\u017dSR", "operator": "\u017dSR", "public_transport": "stop_position", "railway": "stop", "train": "yes"}}, "geometry": {"type": "Point", "coordinates": [17.047445, 48.6619301]}}, {"type": "Feature", "properties": {"type": "node", "id": 3350963373, "tags": {"name": "K\u00faty", "network": "\u017dSR", "operator": "\u017dSR", "public_transport": "station", "railway": "station", "train": "yes", "wikidata": "Q4851"}}, "geometry": {"type": "Point", "coordinates": [17.0474958, 48.6619577]}}, {"type": "Feature", "properties": {"type": "node", "id": 3641581641, "tags": {"name": "K\u00faty", "network": "\u017dSR", "operator": "\u017dSR", "public_transport": "stop_position", "railway": "stop", "train": "yes"}}, "geometry": {"type": "Point", "coordinates": [17.0473865, 48.6619498]}}, {"type": "Feature", "properties": {"type": "node", "id": 3641774003, "tags": {"name": "K\u00faty", "network": "\u017dSR", "operator": "\u017dSR", "public_transport": "stop_position", "railway": "stop", "train": "yes"}}, "geometry": {"type": "Point", "coordinates": [17.0475655, 48.6618948]}}, {"type": "Feature", "properties": {"type": "node", "id": 3641795939, "tags": {"name": "K\u00faty", "network": "\u017dSR", "operator": "\u017dSR", "public_transport": "stop_position", "railway": "stop", "train": "yes"}}, "geometry": {"type": "Point", "coordinates": [17.0476129, 48.6618762]}}, {"type": "Feature", "properties": {"type": "node", "id": 387185143, "tags": {"name": "Kuklov", "public_transport": "stop_position", "railway": "halt", "train": "yes"}}, "geometry": {"type": "Point", "coordinates": [17.0696592, 48.6493944]}}, {"type": "Feature", "properties": {"type": "node", "id": 27026143, "tags": {"name": "\u0160a\u0161t\u00edn-Str\u00e1\u017ee", "public_transport": "station", "railway": "station", "train": "yes"}}, "geometry": {"type": "Point", "coordinates": [17.1421684, 48.6340166]}}, {"type": "Feature", "properties": {"type": "node", "id": 30615059, "tags": {"name": "Borsk\u00fd Mikul\u00e1\u0161", "public_transport": "stop_position", "railway": "halt", "train": "yes"}}, "geometry": {"type": "Point", "coordinates": [17.1917819, 48.6423709]}}, {"type": "Feature", "properties": {"type": "node", "id": 25904396, "tags": {"name": "Pezinok zast\u00e1vka", "network": "\u017dSR;IDS BK", "operator": "\u017dSR", "public_transport": "stop_position", "train": "yes"}}, "geometry": {"type": "Point", "coordinates": [17.2460911, 48.267058]}}, {"type": "Feature", "properties": {"type": "node", "id": 3846992449, "tags": {"name": "Pezinok zast\u00e1vka", "network": "\u017dSR;IDS BK", "operator": "\u017dSR", "public_transport": "stop_position", "train": "yes"}}, "geometry": {"type": "Point", "coordinates": [17.2461236, 48.2670393]}}, {"type": "Feature", "properties": {"type": "node", "id": 3846992450, "tags": {"name": "Pezinok zast\u00e1vka", "network": "\u017dSR;IDS BK", "operator": "\u017dSR", "public_transport": "station", "railway": "station"}}, "geometry": {"type": "Point", "coordinates": [17.2466263, 48.2673985]}}, {"type": "Feature", "properties": {"type": "node", "id": 26512206, "tags": {"fare_zone": "530", "name": "Pezinok", "name:de": "B\u00f6sing", "name:hu": "Bazin", "name:la": "Bazinium", "name:ru": "\u041f\u0435\u0437\u0438\u043d\u043e\u043a", "network": "\u017dSR;IDS BK", "operator": "\u017dSR", "public_transport": "stop_position", "train": "yes"}}, "geometry": {"type": "Point", "coordinates": [17.2707244, 48.2825826]}}, {"type": "Feature", "properties": {"type": "node", "id": 3846992448, "tags": {"fare_zone": "530", "name": "Pezinok", "network": "\u017dSR;IDS BK", "operator": "\u017dSR", "public_transport": "station", "railway": "station"}}, "geometry": {"type": "Point", "coordinates": [17.2705455, 48.2825299]}}, {"type": "Feature", "properties": {"type": "node", "id": 3852205979, "tags": {"fare_zone": "530", "name": "Pezinok", "name:de": "B\u00f6sing", "name:hu": "Bazin", "name:la": "Bazinium", "name:ru": "\u041f\u0435\u0437\u0438\u043d\u043e\u043a", "network": "\u017dSR;IDS BK", "operator": "\u017dSR", "public_transport": "stop_position", "train": "yes"}}, "geometry": {"type": "Point", "coordinates": [17.270758, 48.2825436]}}, {"type": "Feature", "properties": {"type": "node", "id": 6348160255, "tags": {"fare_zone": "530", "name": "Pezinok", "name:de": "B\u00f6sing", "name:hu": "Bazin", "name:la": "Bazinium", "name:ru": "\u041f\u0435\u0437\u0438\u043d\u043e\u043a", "network": "\u017dSR;IDS BK", "operator": "\u017dSR", "public_transport": "stop_position", "train": "yes"}}, "geometry": {"type": "Point", "coordinates": [17.2706929, 48.2826235]}}, {"type": "Feature", "properties": {"type": "node", "id": 26502204, "tags": {"name": "\u0160enkvice", "name:de": "Schenkwitz", "name:hu": "Senk\u0151c", "network": "\u017dSR;IDS BK", "operator": "\u017dSR", "public_transport": "stop_position", "train": "yes"}}, "geometry": {"type": "Point", "coordinates": [17.3458465, 48.301865]}}, {"type": "Feature", "properties": {"type": "node", "id": 3846993474, "tags": {"name": "\u0160enkvice", "name:de": "Schenkwitz", "name:hu": "Senk\u0151c", "network": "\u017dSR;IDS BK", "operator": "\u017dSR", "public_transport": "station", "railway": "station"}}, "geometry": {"type": "Point", "coordinates": [17.3458624, 48.3018886]}}, {"type": "Feature", "properties": {"type": "node", "id": 4937046458, "tags": {"name": "\u0160enkvice", "name:de": "Schenkwitz", "name:hu": "Senk\u0151c", "network": "\u017dSR;IDS BK", "operator": "\u017dSR", "public_transport": "stop_position", "train": "yes"}}, "geometry": {"type": "Point", "coordinates": [17.3457867, 48.301993]}}, {"type": "Feature", "properties": {"type": "node", "id": 4937046459, "tags": {"name": "\u0160enkvice", "name:de": "Schenkwitz", "name:hu": "Senk\u0151c", "network": "\u017dSR;IDS BK", "operator": "\u017dSR", "public_transport": "stop_position", "train": "yes"}}, "geometry": {"type": "Point", "coordinates": [17.3458458, 48.3018024]}}, {"type": "Feature", "properties": {"type": "node", "id": 26502191, "tags": {"name": "B\u00e1ho\u0148", "network": "\u017dSR;IDS BK", "operator": "\u017dSR", "public_transport": "stop_position", "train": "yes"}}, "geometry": {"type": "Point", "coordinates": [17.450061, 48.3054216]}}, {"type": "Feature", "properties": {"type": "node", "id": 3846992435, "tags": {"area": "yes", "name": "B\u00e1ho\u0148", "network": "\u017dSR;IDS BK", "operator": "\u017dSR", "public_transport": "station", "railway": "station"}}, "geometry": {"type": "Point", "coordinates": [17.4500505, 48.305491]}}, {"type": "Feature", "properties": {"type": "node", "id": 4177603405, "tags": {"name": "B\u00e1ho\u0148", "network": "\u017dSR;IDS BK", "operator": "\u017dSR", "public_transport": "stop_position", "train": "yes"}}, "geometry": {"type": "Point", "coordinates": [17.4495729, 48.3052469]}}, {"type": "Feature", "properties": {"type": "node", "id": 3846992436, "tags": {"name": "C\u00edfer", "network": "\u017dSR;IDS BK", "operator": "\u017dSR", "public_transport": "stop_position", "train": "yes"}}, "geometry": {"type": "Point", "coordinates": [17.4865681, 48.3228939]}}, {"type": "Feature", "properties": {"type": "node", "id": 3846992437, "tags": {"name": "C\u00edfer", "network": "\u017dSR;IDS BK", "operator": "\u017dSR", "public_transport": "station", "railway": "station", "wikidata": "Q50194208"}}, "geometry": {"type": "Point", "coordinates": [17.4865678, 48.3229688]}}, {"type": "Feature", "properties": {"type": "node", "id": 3846992438, "tags": {"name": "C\u00edfer", "network": "\u017dSR;IDS BK", "operator": "\u017dSR", "public_transport": "stop_position", "train": "yes"}}, "geometry": {"type": "Point", "coordinates": [17.4864561, 48.3229712]}}, {"type": "Feature", "properties": {"type": "node", "id": 432804211, "tags": {"name": "Trnava", "name:de": "Tyrnau", "name:hu": "Nagyszombat", "name:la": "Tyrnavia", "name:pl": "Trnawa", "name:ru": "\u0422\u0440\u043d\u0430\u0432\u0430", "name:sr": "\u0422\u0440\u043d\u0430\u0432\u0430", "railway": "station", "wheelchair": "limited", "wikidata": "Q15057869"}}, "geometry": {"type": "Point", "coordinates": [17.5851641, 48.3698052]}}, {"type": "Feature", "properties": {"type": "node", "id": 1437607660, "tags": {"name": "Trnava", "name:de": "Tyrnau", "name:hu": "Nagyszombat", "name:la": "Tyrnavia", "name:pl": "Trnawa", "name:ru": "\u0422\u0440\u043d\u0430\u0432\u0430", "name:sr": "\u0422\u0440\u043d\u0430\u0432\u0430", "network": "\u017dSR", "operator": "\u017dSR", "public_transport": "stop_position", "railway": "stop", "train": "yes"}}, "geometry": {"type": "Point", "coordinates": [17.5845889, 48.3697771]}}, {"type": "Feature", "properties": {"type": "node", "id": 2009623555, "tags": {"name": "Trnava", "name:de": "Tyrnau", "name:hu": "Nagyszombat", "name:la": "Tyrnavia", "name:pl": "Trnawa", "name:ru": "\u0422\u0440\u043d\u0430\u0432\u0430", "name:sr": "\u0422\u0440\u043d\u0430\u0432\u0430", "network": "\u017dSR", "operator": "\u017dSR", "public_transport": "stop_position", "railway": "stop", "train": "yes"}}, "geometry": {"type": "Point", "coordinates": [17.5851127, 48.3697096]}}, {"type": "Feature", "properties": {"type": "node", "id": 3641774043, "tags": {"name": "Trnava", "name:de": "Tyrnau", "name:hu": "Nagyszombat", "name:la": "Tyrnavia", "name:pl": "Trnawa", "name:ru": "\u0422\u0440\u043d\u0430\u0432\u0430", "name:sr": "\u0422\u0440\u043d\u0430\u0432\u0430", "network": "\u017dSR", "operator": "\u017dSR", "public_transport": "stop_position", "railway": "stop", "train": "yes"}}, "geometry": {"type": "Point", "coordinates": [17.5851683, 48.3696276]}}, {"type": "Feature", "properties": {"type": "node", "id": 3641774044, "tags": {"name": "Trnava", "name:de": "Tyrnau", "name:hu": "Nagyszombat", "name:la": "Tyrnavia", "name:pl": "Trnawa", "name:ru": "\u0422\u0440\u043d\u0430\u0432\u0430", "name:sr": "\u0422\u0440\u043d\u0430\u0432\u0430", "network": "\u017dSR", "operator": "\u017dSR", "public_transport": "stop_position", "railway": "stop", "train": "yes"}}, "geometry": {"type": "Point", "coordinates": [17.5846828, 48.36971]}}, {"type": "Feature", "properties": {"type": "node", "id": 3641774046, "tags": {"name": "Trnava", "name:de": "Tyrnau", "name:hu": "Nagyszombat", "name:la": "Tyrnavia", "name:pl": "Trnawa", "name:ru": "\u0422\u0440\u043d\u0430\u0432\u0430", "name:sr": "\u0422\u0440\u043d\u0430\u0432\u0430", "network": "\u017dSR", "operator": "\u017dSR", "public_transport": "stop_position", "railway": "stop", "train": "yes"}}, "geometry": {"type": "Point", "coordinates": [17.5841595, 48.3697745]}}, {"type": "Feature", "properties": {"type": "node", "id": 3641774047, "tags": {"name": "Trnava", "name:de": "Tyrnau", "name:hu": "Nagyszombat", "name:la": "Tyrnavia", "name:pl": "Trnawa", "name:ru": "\u0422\u0440\u043d\u0430\u0432\u0430", "name:sr": "\u0422\u0440\u043d\u0430\u0432\u0430", "network": "\u017dSR", "operator": "\u017dSR", "public_transport": "stop_position", "railway": "stop", "train": "yes"}}, "geometry": {"type": "Point", "coordinates": [17.5841297, 48.369818]}}, {"type": "Feature", "properties": {"type": "node", "id": 26502177, "tags": {"name": "Trnava predm.", "public_transport": "stop_position", "railway": "halt", "train": "yes"}}, "geometry": {"type": "Point", "coordinates": [17.566807, 48.3891625]}}, {"type": "Feature", "properties": {"type": "node", "id": 3015141129, "tags": {"name": "\u0160elpice", "public_transport": "stop_position", "railway": "station", "train": "yes"}}, "geometry": {"type": "Point", "coordinates": [17.5373413, 48.4280148]}}, {"type": "Feature", "properties": {"type": "node", "id": 30618579, "tags": {"name": "Kl\u010dovany", "public_transport": "stop_position", "railway": "halt", "train": "yes"}}, "geometry": {"type": "Point", "coordinates": [17.5120656, 48.4515759]}}, {"type": "Feature", "properties": {"type": "node", "id": 276599292, "tags": {"name": "Solo\u0161nica", "name:de": "Breitenbrunn", "name:hu": "Sz\u00e9lesk\u00fat", "network": "\u017dSR", "operator": "\u017dSR", "public_transport": "stop_position", "railway": "stop", "train": "yes"}}, "geometry": {"type": "Point", "coordinates": [17.2263311, 48.4711625]}}, {"type": "Feature", "properties": {"type": "node", "id": 242434963, "tags": {"name": "Plaveck\u00e9 Podhradie", "network": "\u017dSR", "operator": "\u017dSR", "public_transport": "stop_position", "railway": "stop", "train": "yes"}}, "geometry": {"type": "Point", "coordinates": [17.250828, 48.4829086]}}, {"type": "Feature", "properties": {"type": "node", "id": 1918892381, "tags": {"name": "Plaveck\u00fd Mikul\u00e1\u0161", "railway": "station"}}, "geometry": {"type": "Point", "coordinates": [17.2829753, 48.5190908]}}, {"type": "Feature", "properties": {"type": "node", "id": 569185322, "tags": {"name": "\u0160ajd\u00edkove Humence", "public_transport": "stop_position", "railway": "station", "train": "yes"}}, "geometry": {"type": "Point", "coordinates": [17.2625729, 48.6599328]}}, {"type": "Feature", "properties": {"type": "node", "id": 261126017, "tags": {"name": "Cerov\u00e1 - Lieskov\u00e9", "public_transport": "stop_position", "railway": "halt", "train": "yes"}}, "geometry": {"type": "Point", "coordinates": [17.4034907, 48.596695]}}, {"type": "Feature", "properties": {"type": "node", "id": 567538909, "tags": {"name": "Senica", "name:de": "Senitz", "name:hu": "Szenice", "old_name:hu": "Szenic", "railway": "station"}}, "geometry": {"type": "Point", "coordinates": [17.334246, 48.6659057]}}, {"type": "Feature", "properties": {"type": "node", "id": 3776215193, "tags": {"name": "Senica", "public_transport": "stop_position", "railway": "halt", "train": "yes"}}, "geometry": {"type": "Point", "coordinates": [17.3347199, 48.6655882]}}, {"type": "Feature", "properties": {"type": "node", "id": 1040818111, "tags": {"name": "Boler\u00e1z", "public_transport": "stop_position", "railway": "station", "train": "yes"}}, "geometry": {"type": "Point", "coordinates": [17.498476, 48.4702065]}}, {"type": "Feature", "properties": {"type": "node", "id": 1040815419, "tags": {"name": "B\u00ed\u0148ovce", "public_transport": "stop_position", "railway": "halt", "train": "yes"}}, "geometry": {"type": "Point", "coordinates": [17.4726516, 48.5012789]}}, {"type": "Feature", "properties": {"type": "node", "id": 30618602, "tags": {"name": "Smolenice", "railway": "station"}}, "geometry": {"type": "Point", "coordinates": [17.455451, 48.5203053]}}, {"type": "Feature", "properties": {"type": "node", "id": 3015310010, "tags": {"name": "Smolenice", "public_transport": "stop_position", "railway": "halt", "train": "yes"}}, "geometry": {"type": "Point", "coordinates": [17.4555123, 48.5202008]}}, {"type": "Feature", "properties": {"type": "node", "id": 3015310011, "tags": {"name": "Smolenice", "public_transport": "stop_position", "railway": "halt", "train": "yes"}}, "geometry": {"type": "Point", "coordinates": [17.4555529, 48.520208]}}, {"type": "Feature", "properties": {"type": "node", "id": 30618613, "tags": {"name": "Bukov\u00e1", "public_transport": "stop_position", "railway": "station", "train": "yes"}}, "geometry": {"type": "Point", "coordinates": [17.4509557, 48.5519376]}}, {"type": "Feature", "properties": {"type": "node", "id": 30618653, "tags": {"name": "Jablonica", "public_transport": "stop_position", "railway": "station", "train": "yes"}}, "geometry": {"type": "Point", "coordinates": [17.4096435, 48.6063062]}}, {"type": "Feature", "properties": {"type": "node", "id": 278622623, "tags": {"name": "Brezov\u00e1 pod Bradlom", "railway": "station"}}, "geometry": {"type": "Point", "coordinates": [17.5299761, 48.6517903]}}, {"type": "Feature", "properties": {"type": "node", "id": 281692869, "tags": {"name": "Brodsk\u00e9", "name:de": "Brodsko", "name:hu": "G\u00e1zl\u00f3s", "network": "\u017dSR", "operator": "\u017dSR", "public_transport": "stop_position", "train": "yes"}}, "geometry": {"type": "Point", "coordinates": [17.0230923, 48.6926623]}}, {"type": "Feature", "properties": {"type": "node", "id": 2794370439, "tags": {"name": "Brodsk\u00e9", "name:de": "Brodsko", "name:hu": "G\u00e1zl\u00f3s", "network": "\u017dSR", "operator": "\u017dSR", "public_transport": "stop_position", "train": "yes", "wikidata": "Q53256110"}}, "geometry": {"type": "Point", "coordinates": [17.0230483, 48.6926449]}}, {"type": "Feature", "properties": {"type": "node", "id": 3350963365, "tags": {"area": "yes", "name": "Brodsk\u00e9", "network": "\u017dSR", "operator": "\u017dSR", "public_transport": "station", "railway": "station"}}, "geometry": {"type": "Point", "coordinates": [17.0230683, 48.6926583]}}, {"type": "Feature", "properties": {"type": "node", "id": 2491929922, "tags": {"name": "Gbely zast\u00e1vka", "network": "\u017dSR", "operator": "\u017dSR", "public_transport": "stop_position", "railway": "stop", "train": "yes"}}, "geometry": {"type": "Point", "coordinates": [17.0828589, 48.7112492]}}, {"type": "Feature", "properties": {"type": "node", "id": 27135730, "tags": {"name": "Gbely", "network": "\u017dSR", "operator": "\u017dSR", "public_transport": "stop_position", "railway": "stop", "train": "yes"}}, "geometry": {"type": "Point", "coordinates": [17.0910988, 48.7235539]}}, {"type": "Feature", "properties": {"type": "node", "id": 3350963369, "tags": {"name": "Gbely", "name:de": "Egbell", "name:hu": "Egbell", "network": "\u017dSR", "operator": "\u017dSR", "platforms": "4", "public_transport": "station", "railway": "station", "train": "yes", "wikidata": "Q55594244"}}, "geometry": {"type": "Point", "coordinates": [17.0911835, 48.7235335]}}, {"type": "Feature", "properties": {"type": "node", "id": 3350963371, "tags": {"name": "Kop\u010dany", "network": "\u017dSR", "operator": "\u017dSR", "public_transport": "stop_position", "railway": "stop", "train": "yes"}}, "geometry": {"type": "Point", "coordinates": [17.1213137, 48.7716863]}}, {"type": "Feature", "properties": {"type": "node", "id": 1914465005, "tags": {"name": "Hol\u00ed\u010d nad Moravou", "network": "\u017dSR", "operator": "\u017dSR", "public_transport": "stop_position", "railway": "stop", "train": "yes"}}, "geometry": {"type": "Point", "coordinates": [17.149955, 48.8146894]}}, {"type": "Feature", "properties": {"type": "node", "id": 3350963370, "tags": {"name": "Hol\u00ed\u010d nad Moravou", "network": "\u017dSR", "operator": "\u017dSR", "public_transport": "stop_position", "railway": "stop", "train": "yes"}}, "geometry": {"type": "Point", "coordinates": [17.1500662, 48.8146553]}}, {"type": "Feature", "properties": {"type": "node", "id": 6388664864, "tags": {"disused": "station", "name": "Hol\u00ed\u010d nad Moravou", "network": "\u017dSR", "operator": "\u017dSR", "public_transport": "station", "railway": "station", "wikidata": "Q58806972"}}, "geometry": {"type": "Point", "coordinates": [17.1500756, 48.8147144]}}, {"type": "Feature", "properties": {"type": "node", "id": 2333182261, "tags": {"name": "K\u00e1tov", "network": "\u017dSR", "operator": "\u017dSR", "public_transport": "station", "railway": "station"}}, "geometry": {"type": "Point", "coordinates": [17.1776594, 48.8283348]}}, {"type": "Feature", "properties": {"type": "node", "id": 3350963372, "tags": {"name": "K\u00e1tov", "network": "\u017dSR", "operator": "\u017dSR", "public_transport": "stop_position", "railway": "stop", "train": "yes"}}, "geometry": {"type": "Point", "coordinates": [17.1776949, 48.8283812]}}, {"type": "Feature", "properties": {"type": "node", "id": 27135752, "tags": {"name": "Skalica na Slovensku", "name:de": "Skalitz", "name:hu": "Szakolca", "name:la": "Sakolcium", "name:ru": "\u0421\u043a\u0430\u043b\u0438\u0446\u0430", "network": "\u017dSR", "operator": "\u017dSR", "public_transport": "stop_position", "railway": "stop", "train": "yes"}}, "geometry": {"type": "Point", "coordinates": [17.2184068, 48.8500315]}}, {"type": "Feature", "properties": {"type": "node", "id": 3350963377, "tags": {"name": "Skalica na Slovensku", "network": "\u017dSR", "operator": "\u017dSR", "public_transport": "station", "railway": "station", "wikidata": "Q55443443"}}, "geometry": {"type": "Point", "coordinates": [17.2182848, 48.849886]}}, {"type": "Feature", "properties": {"type": "node", "id": 473481359, "tags": {"name": "Myjava", "railway": "station", "wikidata": "Q61748124"}}, "geometry": {"type": "Point", "coordinates": [17.5709962, 48.763663]}}, {"type": "Feature", "properties": {"type": "node", "id": 280568755, "tags": {"name": "Vrbovce", "railway": "station", "wikidata": "Q67320992"}}, "geometry": {"type": "Point", "coordinates": [17.5163501, 48.8244294]}}, {"type": "Feature", "properties": {"type": "node", "id": 473481526, "tags": {"name": "Poriadie", "railway": "station", "wikidata": "Q61748125"}}, "geometry": {"type": "Point", "coordinates": [17.6156971, 48.7760627]}}, {"type": "Feature", "properties": {"type": "node", "id": 1384263718, "tags": {"name": "Kri\u017eovany nad Dudv\u00e1hom", "public_transport": "stop_position", "railway": "stop", "train": "yes"}}, "geometry": {"type": "Point", "coordinates": [17.6612017, 48.3302412]}}, {"type": "Feature", "properties": {"type": "node", "id": 6793945399, "tags": {"name": "Kri\u017eovany nad Dudv\u00e1hom", "railway": "station"}}, "geometry": {"type": "Point", "coordinates": [17.6612164, 48.3302553]}}, {"type": "Feature", "properties": {"type": "node", "id": 26546890, "tags": {"name": "Sere\u010f", "name:de": "Sereth", "name:hu": "Szered", "name:pl": "Sere\u010f", "public_transport": "stop_position", "railway": "stop", "train": "yes"}}, "geometry": {"type": "Point", "coordinates": [17.7269749, 48.2901412]}}, {"type": "Feature", "properties": {"type": "node", "id": 6793945400, "tags": {"name": "Sere\u010f", "name:de": "Sereth", "name:hu": "Szered", "name:pl": "Sere\u010f", "railway": "station", "wikidata": "Q56102875"}}, "geometry": {"type": "Point", "coordinates": [17.7268782, 48.2901323]}}, {"type": "Feature", "properties": {"type": "node", "id": 325586407, "tags": {"name": "Brestovany", "railway": "station"}}, "geometry": {"type": "Point", "coordinates": [17.6912092, 48.3819976]}}, {"type": "Feature", "properties": {"type": "node", "id": 325586396, "tags": {"alt_name:de": "Leopoldstadt", "name": "Leopoldov", "name:de": "Leopold-Neustadtl", "public_transport": "stop_position", "railway": "station", "train": "yes", "wikidata": "Q15703303"}}, "geometry": {"type": "Point", "coordinates": [17.7585877, 48.4416698]}}, {"type": "Feature", "properties": {"type": "node", "id": 26823556, "tags": {"name": "Hlohovec", "railway": "station", "wheelchair": "no"}}, "geometry": {"type": "Point", "coordinates": [17.8070117, 48.4334385]}}, {"type": "Feature", "properties": {"type": "node", "id": 1174954327, "tags": {"name": "Lu\u017eianky", "public_transport": "stop_position", "railway": "stop", "train": "yes"}}, "geometry": {"type": "Point", "coordinates": [18.0238625, 48.3518038]}}, {"type": "Feature", "properties": {"type": "node", "id": 3667792819, "tags": {"name": "Lu\u017eianky", "public_transport": "station", "railway": "station"}}, "geometry": {"type": "Point", "coordinates": [18.0238998, 48.3517786]}}, {"type": "Feature", "properties": {"type": "node", "id": 482941326, "tags": {"is_in": "K\u013ea\u010dany", "name": "K\u013ea\u010dany", "railway": "station"}}, "geometry": {"type": "Point", "coordinates": [17.867914, 48.3869923]}}, {"type": "Feature", "properties": {"type": "node", "id": 321855210, "tags": {"name": "Ri\u0161\u0148ovce", "railway": "station"}}, "geometry": {"type": "Point", "coordinates": [17.8903491, 48.3731589]}}, {"type": "Feature", "properties": {"type": "node", "id": 321855493, "tags": {"is_in": "Alek\u0161ince", "name": "Alek\u0161ince", "railway": "station"}}, "geometry": {"type": "Point", "coordinates": [17.943598, 48.3636279]}}, {"type": "Feature", "properties": {"type": "node", "id": 1291779474, "tags": {"int_name": "Anda\u010d", "name": "Anda\u010d", "railway": "station"}}, "geometry": {"type": "Point", "coordinates": [17.9673296, 48.3810903]}}, {"type": "Feature", "properties": {"type": "node", "id": 1174954487, "tags": {"name": "Zbehy", "platforms": "3", "railway": "station"}}, "geometry": {"type": "Point", "coordinates": [17.9998896, 48.3821019]}}, {"type": "Feature", "properties": {"type": "node", "id": 1174953881, "tags": {"name": "\u010cab-Sila", "railway": "station"}}, "geometry": {"type": "Point", "coordinates": [17.9972448, 48.39287]}}, {"type": "Feature", "properties": {"type": "node", "id": 1174953923, "tags": {"name": "\u010cab-Sila zast\u00e1vka", "railway": "station"}}, "geometry": {"type": "Point", "coordinates": [17.9858073, 48.4053606]}}, {"type": "Feature", "properties": {"type": "node", "id": 1174954402, "tags": {"name": "Nov\u00e9 Sady", "railway": "station"}}, "geometry": {"type": "Point", "coordinates": [17.9799064, 48.414444]}}, {"type": "Feature", "properties": {"type": "node", "id": 1174953520, "tags": {"name": "Kapince", "railway": "station"}}, "geometry": {"type": "Point", "coordinates": [17.9813815, 48.4473969]}}, {"type": "Feature", "properties": {"type": "node", "id": 4759561100, "tags": {"alt_name:de": "Pistian", "name": "Pie\u0161\u0165any", "name:de": "Pistyan", "name:hu": "P\u00f6sty\u00e9n", "name:pl": "Pieszczany", "name:ru": "\u041f\u044c\u0435\u0448\u0442\u044f\u043d\u044b", "public_transport": "station", "railway": "station", "train": "yes", "wheelchair": "yes", "wikidata": "Q15631059", "wikipedia": "sk:\u017delezni\u010dn\u00e1 stanica Pie\u0161\u0165any"}}, "geometry": {"type": "Point", "coordinates": [17.8147647, 48.5962973]}}, {"type": "Feature", "properties": {"type": "node", "id": 7769771417, "tags": {"alt_name:de": "Pistian", "name": "Pie\u0161\u0165any", "name:de": "Pistyan", "name:hu": "P\u00f6sty\u00e9n", "name:pl": "Pieszczany", "name:ru": "\u041f\u044c\u0435\u0448\u0442\u044f\u043d\u044b", "public_transport": "stop_position", "railway": "stop", "train": "yes"}}, "geometry": {"type": "Point", "coordinates": [17.814858, 48.5962665]}}, {"type": "Feature", "properties": {"type": "node", "id": 8442489298, "tags": {"alt_name:de": "Pistian", "name": "Pie\u0161\u0165any", "name:de": "Pistyan", "name:hu": "P\u00f6sty\u00e9n", "name:pl": "Pieszczany", "name:ru": "\u041f\u044c\u0435\u0448\u0442\u044f\u043d\u044b", "public_transport": "stop_position", "railway": "stop", "train": "yes"}}, "geometry": {"type": "Point", "coordinates": [17.8147964, 48.596288]}}, {"type": "Feature", "properties": {"type": "node", "id": 205287986, "tags": {"name": "Ve\u013ek\u00e9 Rip\u0148any", "railway": "station"}}, "geometry": {"type": "Point", "coordinates": [17.9817451, 48.5000729]}}, {"type": "Feature", "properties": {"type": "node", "id": 1174954145, "tags": {"name": "Rado\u0161ina", "railway": "station", "wheelchair": "no"}}, "geometry": {"type": "Point", "coordinates": [17.9414819, 48.5465853]}}, {"type": "Feature", "properties": {"type": "node", "id": 395698852, "tags": {"name": "Horn\u00e1 Streda", "railway": "station"}}, "geometry": {"type": "Point", "coordinates": [17.8361762, 48.6514285]}}, {"type": "Feature", "properties": {"type": "node", "id": 4759561085, "tags": {"name": "Horn\u00e1 Streda", "railway": "station"}}, "geometry": {"type": "Point", "coordinates": [17.8362305, 48.6514191]}}, {"type": "Feature", "properties": {"type": "node", "id": 7066101885, "tags": {"name": "Nitra", "operator": "\u017dSR", "railway": "station"}}, "geometry": {"type": "Point", "coordinates": [18.0792408, 48.301489]}}, {"type": "Feature", "properties": {"type": "node", "id": 1678847922, "tags": {"name": "Nitra zast\u00e1vka", "railway": "station"}}, "geometry": {"type": "Point", "coordinates": [18.0567496, 48.3117817]}}, {"type": "Feature", "properties": {"type": "node", "id": 1814703888, "tags": {"name": "Mlyn\u00e1rce", "public_transport": "stop_position", "railway": "stop", "train": "yes"}}, "geometry": {"type": "Point", "coordinates": [18.0398281, 48.3251914]}}, {"type": "Feature", "properties": {"type": "node", "id": 481258301, "tags": {"name": "Dra\u017eovce", "railway": "station"}}, "geometry": {"type": "Point", "coordinates": [18.0547798, 48.3579943]}}, {"type": "Feature", "properties": {"type": "node", "id": 1174953686, "tags": {"name": "Jel\u0161ovce", "railway": "station"}}, "geometry": {"type": "Point", "coordinates": [18.052764, 48.3836715]}}, {"type": "Feature", "properties": {"type": "node", "id": 3324860220, "tags": {"name": "Podhorany", "public_transport": "stop_position", "train": "yes"}}, "geometry": {"type": "Point", "coordinates": [18.1159982, 48.3718443]}}, {"type": "Feature", "properties": {"type": "node", "id": 1828757731, "tags": {"name": "\u017dirany", "railway": "station"}}, "geometry": {"type": "Point", "coordinates": [18.1697348, 48.3826784]}}, {"type": "Feature", "properties": {"type": "node", "id": 441721022, "tags": {"name": "Jelenec", "railway": "station"}}, "geometry": {"type": "Point", "coordinates": [18.2383729, 48.3738744]}}, {"type": "Feature", "properties": {"type": "node", "id": 3324944468, "tags": {"name": "Vr\u00e1ble", "name:hu": "Vereb\u00e9ly", "public_transport": "stop_position", "railway": "station", "train": "yes"}}, "geometry": {"type": "Point", "coordinates": [18.3006927, 48.2545202]}}, {"type": "Feature", "properties": {"type": "node", "id": 3324904220, "tags": {"name": "Nov\u00e1 Ves nad \u017ditavou", "name:hu": "Zsitva\u00fajfalu", "public_transport": "stop_position", "railway": "halt", "train": "yes"}}, "geometry": {"type": "Point", "coordinates": [18.3210386, 48.2923508]}}, {"type": "Feature", "properties": {"type": "node", "id": 3324904221, "tags": {"name": "Slep\u010dany", "name:hu": "Szelepcs\u00e9ny", "public_transport": "stop_position", "railway": "halt", "train": "yes"}}, "geometry": {"type": "Point", "coordinates": [18.3414315, 48.3160898]}}, {"type": "Feature", "properties": {"type": "node", "id": 3324944467, "tags": {"name": "Tes\u00e1rske Mly\u0148any", "name:hu": "Tasz\u00e1rmalonya", "public_transport": "stop_position", "railway": "station", "train": "yes"}}, "geometry": {"type": "Point", "coordinates": [18.3594622, 48.3431264]}}, {"type": "Feature", "properties": {"type": "node", "id": 604236605, "tags": {"name": "Ladice", "railway": "station"}}, "geometry": {"type": "Point", "coordinates": [18.266616, 48.3796593]}}, {"type": "Feature", "properties": {"type": "node", "id": 1836978682, "tags": {"name": "Sla\u017eany", "railway": "station"}}, "geometry": {"type": "Point", "coordinates": [18.3119046, 48.3795861]}}, {"type": "Feature", "properties": {"type": "node", "id": 1828665125, "tags": {"name": "Zlat\u00e9 Moravce", "name:hu": "Aranyosmar\u00f3t", "public_transport": "stop_position", "railway": "station", "train": "yes"}}, "geometry": {"type": "Point", "coordinates": [18.3765291, 48.3860305]}}, {"type": "Feature", "properties": {"type": "node", "id": 1828665118, "tags": {"name": "Zlat\u00e9 Moravce - Pr\u00edlepy", "railway": "station"}}, "geometry": {"type": "Point", "coordinates": [18.4239576, 48.3625627]}}, {"type": "Feature", "properties": {"type": "node", "id": 1828665119, "tags": {"name": "Zlat\u00e9 Moravce z\u00e1vody", "railway": "station"}}, "geometry": {"type": "Point", "coordinates": [18.4026581, 48.3970246]}}, {"type": "Feature", "properties": {"type": "node", "id": 1768614983, "tags": {"name": "Topo\u013e\u010dianky", "railway": "station"}}, "geometry": {"type": "Point", "coordinates": [18.4069139, 48.4119803]}}, {"type": "Feature", "properties": {"type": "node", "id": 7767784188, "tags": {"name": "Ludanice", "public_transport": "station", "railway": "station"}}, "geometry": {"type": "Point", "coordinates": [18.1188421, 48.5042748]}}, {"type": "Feature", "properties": {"type": "node", "id": 5366254620, "tags": {"name": "Topo\u013e\u010dany", "public_transport": "station", "railway": "station", "train": "yes"}}, "geometry": {"type": "Point", "coordinates": [18.1695519, 48.5625616]}}, {"type": "Feature", "properties": {"type": "node", "id": 2694357126, "tags": {"name": "Bo\u0161any", "railway": "station"}}, "geometry": {"type": "Point", "coordinates": [18.241916, 48.592962]}}, {"type": "Feature", "properties": {"type": "node", "id": 702384342, "tags": {"name": "Chynorany", "railway": "station", "source": "kapor2"}}, "geometry": {"type": "Point", "coordinates": [18.2753171, 48.6080263]}}, {"type": "Feature", "properties": {"type": "node", "id": 2293679094, "tags": {"name": "\u017dabokreky nad Nitrou", "railway": "station"}}, "geometry": {"type": "Point", "coordinates": [18.2995486, 48.6174823]}}, {"type": "Feature", "properties": {"type": "node", "id": 5743856155, "tags": {"name": "Rybany", "public_transport": "station", "railway": "station", "train": "yes"}}, "geometry": {"type": "Point", "coordinates": [18.2612826, 48.6697759]}}, {"type": "Feature", "properties": {"type": "node", "id": 617993225, "tags": {"name": "Ve\u013ek\u00e9 Bielice", "public_transport": "station", "railway": "station", "wheelchair": "limited"}}, "geometry": {"type": "Point", "coordinates": [18.3496911, 48.6246862]}}, {"type": "Feature", "properties": {"type": "node", "id": 7371960355, "tags": {"name": "Ve\u013ek\u00e9 Uherce", "public_transport": "station", "railway": "station"}}, "geometry": {"type": "Point", "coordinates": [18.4246985, 48.6254252]}}, {"type": "Feature", "properties": {"type": "node", "id": 473481521, "tags": {"name": "Star\u00e1 Tur\u00e1", "railway": "station", "wikidata": "Q61728302"}}, "geometry": {"type": "Point", "coordinates": [17.7003709, 48.7731784]}}, {"type": "Feature", "properties": {"type": "node", "id": 1351232125, "tags": {"name": "\u010cachtice", "railway": "station", "wikidata": "Q61748127"}}, "geometry": {"type": "Point", "coordinates": [17.7988322, 48.7215125]}}, {"type": "Feature", "properties": {"type": "node", "id": 637319523, "tags": {"name": "Va\u010fovce", "railway": "station", "wikidata": "Q61951469"}}, "geometry": {"type": "Point", "coordinates": [17.7246684, 48.7310977]}}, {"type": "Feature", "properties": {"type": "node", "id": 473481467, "tags": {"name": "Paprad", "railway": "station"}}, "geometry": {"type": "Point", "coordinates": [17.6438356, 48.7806242]}}, {"type": "Feature", "properties": {"type": "node", "id": 26727211, "tags": {"name": "Nov\u00e9 Mesto nad V\u00e1hom", "name:de": "Neustadt an der Waag", "name:hu": "V\u00e1g\u00fajhely", "name:sk": "Nov\u00e9 Mesto nad V\u00e1hom", "public_transport": "stop_position", "railway": "station", "train": "yes", "wheelchair": "yes", "wikidata": "Q39772348"}}, "geometry": {"type": "Point", "coordinates": [17.8361, 48.751491]}}, {"type": "Feature", "properties": {"type": "node", "id": 26727213, "tags": {"name": "Tren\u010dianske Bohuslavice", "railway": "station"}}, "geometry": {"type": "Point", "coordinates": [17.8739792, 48.8017168]}}, {"type": "Feature", "properties": {"type": "node", "id": 4761786774, "tags": {"name": "Tren\u010dianske Bohuslavice", "railway": "station"}}, "geometry": {"type": "Point", "coordinates": [17.8739277, 48.8017429]}}, {"type": "Feature", "properties": {"type": "node", "id": 26727212, "tags": {"name": "Mel\u010dice", "railway": "station"}}, "geometry": {"type": "Point", "coordinates": [17.9194802, 48.8368812]}}, {"type": "Feature", "properties": {"type": "node", "id": 4761786766, "tags": {"name": "Mel\u010dice", "railway": "station"}}, "geometry": {"type": "Point", "coordinates": [17.919443, 48.836908]}}, {"type": "Feature", "properties": {"type": "node", "id": 3174663576, "tags": {"name": "Kostoln\u00e1-Z\u00e1rie\u010die", "railway": "station"}}, "geometry": {"type": "Point", "coordinates": [17.9760012, 48.8782479]}}, {"type": "Feature", "properties": {"type": "node", "id": 4761786737, "tags": {"name": "Kostoln\u00e1-Z\u00e1rie\u010die", "railway": "station"}}, "geometry": {"type": "Point", "coordinates": [17.9759544, 48.8782684]}}, {"type": "Feature", "properties": {"type": "node", "id": 1560167807, "tags": {"name": "Tren\u010dianska Turn\u00e1", "railway": "station"}}, "geometry": {"type": "Point", "coordinates": [18.0194668, 48.8588179]}}, {"type": "Feature", "properties": {"type": "node", "id": 26726672, "tags": {"name": "Tren\u010d\u00edn-Zlatovce", "railway": "station", "wikidata": "Q61951468"}}, "geometry": {"type": "Point", "coordinates": [18.0225144, 48.9006599]}}, {"type": "Feature", "properties": {"type": "node", "id": 1560203766, "tags": {"name": "Ruskovce", "railway": "station"}}, "geometry": {"type": "Point", "coordinates": [18.197508, 48.7480926]}}, {"type": "Feature", "properties": {"type": "node", "id": 1560203755, "tags": {"name": "Horn\u00e9 Ozorovce", "railway": "station"}}, "geometry": {"type": "Point", "coordinates": [18.2326062, 48.7371662]}}, {"type": "Feature", "properties": {"type": "node", "id": 1560203761, "tags": {"name": "Mn\u00edchova Lehota", "railway": "station"}}, "geometry": {"type": "Point", "coordinates": [18.0873611, 48.8132072]}}, {"type": "Feature", "properties": {"type": "node", "id": 614207657, "tags": {"name": "Tren\u010dianske Jastrabie", "public_transport": "station", "railway": "station", "train": "yes"}}, "geometry": {"type": "Point", "coordinates": [18.1190524, 48.8008589]}}, {"type": "Feature", "properties": {"type": "node", "id": 990186563, "tags": {"name": "Svinn\u00e1", "railway": "station"}}, "geometry": {"type": "Point", "coordinates": [18.1721582, 48.7810743]}}, {"type": "Feature", "properties": {"type": "node", "id": 1560217179, "tags": {"name": "Doln\u00e9 Na\u0161tice", "railway": "station"}}, "geometry": {"type": "Point", "coordinates": [18.2487126, 48.690449]}}, {"type": "Feature", "properties": {"type": "node", "id": 1560203739, "tags": {"name": "B\u00e1novce nad Bebravou", "name:de": "Banowitz", "name:hu": "B\u00e1n", "railway": "station"}}, "geometry": {"type": "Point", "coordinates": [18.251339, 48.7202061]}}, {"type": "Feature", "properties": {"type": "node", "id": 1911997558, "tags": {"name": "Tren\u010d\u00edn", "name:de": "Trentschin", "name:hu": "Trencs\u00e9n", "name:la": "Trentsinium;Laugaricio", "name:ru": "\u0422\u0440\u0435\u043d\u0447\u0438\u043d", "name:sr": "\u0422\u0440\u0435\u043d\u0447\u0438\u043d", "public_transport": "station", "railway": "station", "train": "yes", "wikidata": "Q9361479"}}, "geometry": {"type": "Point", "coordinates": [18.0517678, 48.896631]}}, {"type": "Feature", "properties": {"type": "node", "id": 8429075778, "tags": {"name": "Tren\u010d\u00edn", "name:de": "Trentschin", "name:hu": "Trencs\u00e9n", "name:la": "Trentsinium;Laugaricio", "name:ru": "\u0422\u0440\u0435\u043d\u0447\u0438\u043d", "name:sr": "\u0422\u0440\u0435\u043d\u0447\u0438\u043d", "public_transport": "stop_position", "railway": "stop", "train": "yes"}}, "geometry": {"type": "Point", "coordinates": [18.0517669, 48.8966078]}}, {"type": "Feature", "properties": {"type": "node", "id": 206244063, "tags": {"name": "Tren\u010dianska Tepl\u00e1", "platforms": "2", "public_transport": "stop_position", "railway": "station", "train": "yes", "wikidata": "Q15057882"}}, "geometry": {"type": "Point", "coordinates": [18.1135922, 48.9376155]}}, {"type": "Feature", "properties": {"type": "node", "id": 1560394861, "tags": {"name": "Nem\u0161ov\u00e1", "railway": "station"}}, "geometry": {"type": "Point", "coordinates": [18.121801, 48.9677329]}}, {"type": "Feature", "properties": {"type": "node", "id": 829506043, "tags": {"alt_name:de": "Trentschiner Bad", "name": "Tren\u010dianske Teplice", "name:de": "Trentschin-Teplitz", "name:hu": "Trencs\u00e9nteplic", "railway": "station"}}, "geometry": {"type": "Point", "coordinates": [18.1705817, 48.9101733]}}, {"type": "Feature", "properties": {"type": "node", "id": 431624808, "tags": {"name": "Dubnica nad V\u00e1hom", "railway": "station"}}, "geometry": {"type": "Point", "coordinates": [18.1676051, 48.966236]}}, {"type": "Feature", "properties": {"type": "node", "id": 431626390, "tags": {"name": "Ilava", "name:de": "Illau", "name:hu": "Illava", "railway": "station", "wikidata": "Q55443441"}}, "geometry": {"type": "Point", "coordinates": [18.2362025, 49.0020229]}}, {"type": "Feature", "properties": {"type": "node", "id": 442710420, "tags": {"name": "Ladce", "railway": "station"}}, "geometry": {"type": "Point", "coordinates": [18.2902995, 49.0341342]}}, {"type": "Feature", "properties": {"type": "node", "id": 1914720420, "tags": {"name": "Lednick\u00e9 Rovne", "railway": "station", "wikidata": "Q86257071"}}, "geometry": {"type": "Point", "coordinates": [18.2841199, 49.070457]}}, {"type": "Feature", "properties": {"type": "node", "id": 3057990394, "tags": {"name": "Belu\u0161a", "name:de": "Bellusch", "name:hu": "Bellus", "railway": "station"}}, "geometry": {"type": "Point", "coordinates": [18.3201541, 49.0633912]}}, {"type": "Feature", "properties": {"type": "node", "id": 2281250494, "tags": {"name": "L\u00faky pod Makytou", "railway": "station"}}, "geometry": {"type": "Point", "coordinates": [18.2278694, 49.1911853]}}, {"type": "Feature", "properties": {"type": "node", "id": 2281250492, "tags": {"name": "Lys\u00e1 pod Makytou", "railway": "station"}}, "geometry": {"type": "Point", "coordinates": [18.1961999, 49.1953443]}}, {"type": "Feature", "properties": {"type": "node", "id": 2281250497, "tags": {"name": "P\u00fachov z\u00e1vody", "network": "\u017dSR", "operator": "ZSSK", "public_transport": "station", "railway": "station"}}, "geometry": {"type": "Point", "coordinates": [18.3169694, 49.107434]}}, {"type": "Feature", "properties": {"type": "node", "id": 366036951, "tags": {"name": "P\u00fachov", "railway": "station", "wikidata": "Q15057870"}}, "geometry": {"type": "Point", "coordinates": [18.3272612, 49.1137422]}}, {"type": "Feature", "properties": {"type": "node", "id": 2277435526, "tags": {"name": "Doh\u0148any", "railway": "station"}}, "geometry": {"type": "Point", "coordinates": [18.2871954, 49.1456601]}}, {"type": "Feature", "properties": {"type": "node", "id": 2169181937, "tags": {"name": "Z\u00e1rie\u010die", "railway": "station"}}, "geometry": {"type": "Point", "coordinates": [18.2524167, 49.1771166]}}, {"type": "Feature", "properties": {"type": "node", "id": 7913371561, "tags": {"name": "Nosice", "public_transport": "stop_position", "railway": "stop", "ref": "2", "train": "yes"}}, "geometry": {"type": "Point", "coordinates": [18.3541952, 49.1332866]}}, {"type": "Feature", "properties": {"type": "node", "id": 7918122821, "tags": {"name": "Nosice", "public_transport": "stop_position", "railway": "stop", "ref": "1", "train": "yes"}}, "geometry": {"type": "Point", "coordinates": [18.354193, 49.1332245]}}, {"type": "Feature", "properties": {"type": "node", "id": 206244706, "tags": {"name": "Pova\u017esk\u00e1 Bystrica", "network": "\u017dSR", "operator": "ZSSK", "platforms": "2", "public_transport": "station", "railway": "station", "train": "yes"}}, "geometry": {"type": "Point", "coordinates": [18.4313705, 49.1228435]}}, {"type": "Feature", "properties": {"type": "node", "id": 563298344, "tags": {"name": "Tlma\u010de", "public_transport": "station", "railway": "station", "train": "yes"}}, "geometry": {"type": "Point", "coordinates": [18.5410864, 48.2898902]}}, {"type": "Feature", "properties": {"type": "node", "id": 1828665117, "tags": {"name": "Volkovce", "railway": "station"}}, "geometry": {"type": "Point", "coordinates": [18.4624005, 48.3468896]}}, {"type": "Feature", "properties": {"type": "node", "id": 563298349, "tags": {"name": "Koz\u00e1rovce", "railway": "station"}}, "geometry": {"type": "Point", "coordinates": [18.5362134, 48.310765]}}, {"type": "Feature", "properties": {"type": "node", "id": 27318508, "tags": {"name": "Nov\u00e1 Ba\u0148a", "railway": "station"}}, "geometry": {"type": "Point", "coordinates": [18.6486378, 48.4137872]}}, {"type": "Feature", "properties": {"type": "node", "id": 990183222, "tags": {"name": "Oslany", "railway": "station"}}, "geometry": {"type": "Point", "coordinates": [18.4642547, 48.6413684]}}, {"type": "Feature", "properties": {"type": "node", "id": 27318549, "tags": {"name": "\u017darnovica", "railway": "station", "wikidata": "Q66900037"}}, "geometry": {"type": "Point", "coordinates": [18.7281225, 48.4859197]}}, {"type": "Feature", "properties": {"type": "node", "id": 27318671, "tags": {"name": "\u017diar nad Hronom", "name:de": "Heiligenkreuz an der Gran", "railway": "station"}}, "geometry": {"type": "Point", "coordinates": [18.8708123, 48.5786846]}}, {"type": "Feature", "properties": {"type": "node", "id": 527380938, "tags": {"name": "Hontianske Nemce", "railway": "station", "railway:position:exact": "29.829", "uic_ref": "5614683"}}, "geometry": {"type": "Point", "coordinates": [18.9930286, 48.2800074]}}, {"type": "Feature", "properties": {"type": "node", "id": 6588759042, "tags": {"name": "Krupina", "public_transport": "stop_position", "railway": "station", "railway:position:exact": "33.792", "train": "yes", "uic_ref": "5614713"}}, "geometry": {"type": "Point", "coordinates": [19.0686515, 48.3464378]}}, {"type": "Feature", "properties": {"type": "node", "id": 561515926, "tags": {"alt_name:de": "Schebnitz", "name": "Bansk\u00e1 \u0160tiavnica", "name:de": "Schemnitz", "name:hu": "Selmecb\u00e1nya", "name:ru": "\u0411\u0430\u043d\u0441\u043a\u0430 \u0428\u0442\u044c\u044f\u0432\u043d\u0438\u0446\u0430", "railway": "station", "railway:position:exact": "19.731", "uic_ref": "5614623"}}, "geometry": {"type": "Point", "coordinates": [18.9155102, 48.4439923]}}, {"type": "Feature", "properties": {"type": "node", "id": 429296471, "tags": {"name": "S\u00e1sa-Plie\u0161ovce", "railway": "station", "railway:position:exact": "19.430", "uic_ref": "5614753", "wikidata": "Q97209277"}}, "geometry": {"type": "Point", "coordinates": [19.1369194, 48.4276025]}}, {"type": "Feature", "properties": {"type": "node", "id": 561516079, "tags": {"name": "Bansk\u00e1 Bel\u00e1", "railway": "station", "railway:position:exact": "15.154", "uic_ref": "5614603"}}, "geometry": {"type": "Point", "coordinates": [18.9478469, 48.4732668]}}, {"type": "Feature", "properties": {"type": "node", "id": 561516336, "tags": {"name": "Kozeln\u00edk", "railway": "station", "railway:position:exact": "7.866", "uic_ref": "5614613"}}, "geometry": {"type": "Point", "coordinates": [19.0048323, 48.5156728]}}, {"type": "Feature", "properties": {"type": "node", "id": 828149143, "tags": {"name": "Barto\u0161ova Leh\u00f4tka", "railway": "station", "railway:position:exact": "241.668", "uic_ref": "5613153"}}, "geometry": {"type": "Point", "coordinates": [18.9119107, 48.6372632]}}, {"type": "Feature", "properties": {"type": "node", "id": 246660165, "tags": {"name": "Hronsk\u00e1 D\u00fabrava", "railway": "station", "railway:position:exact": "226.877", "toilets:wheelchair": "no", "uic_ref": "5613183", "wheelchair": "no", "wikidata": "Q28597439"}}, "geometry": {"type": "Point", "coordinates": [18.9898495, 48.576314]}}, {"type": "Feature", "properties": {"type": "node", "id": 1403132243, "tags": {"name": "Dobr\u00e1 Niva", "railway": "station", "railway:position:exact": "12.224", "uic_ref": "5614773", "wikidata": "Q97209262"}}, "geometry": {"type": "Point", "coordinates": [19.1019966, 48.4807403]}}, {"type": "Feature", "properties": {"type": "node", "id": 84489835, "tags": {"name": "Zvolensk\u00e1 Slatina", "railway": "station"}}, "geometry": {"type": "Point", "coordinates": [19.2607777, 48.5588814]}}, {"type": "Feature", "properties": {"type": "node", "id": 2506859179, "tags": {"name": "V\u00edg\u013ea\u0161", "railway": "station"}}, "geometry": {"type": "Point", "coordinates": [19.2827727, 48.5541355]}}, {"type": "Feature", "properties": {"type": "node", "id": 4291282862, "tags": {"public_transport": "stop_position", "train": "yes"}}, "geometry": {"type": "Point", "coordinates": [19.1207712, 48.569517]}}, {"type": "Feature", "properties": {"type": "node", "id": 4291282863, "tags": {"public_transport": "stop_position", "train": "yes"}}, "geometry": {"type": "Point", "coordinates": [19.1206726, 48.5696011]}}, {"type": "Feature", "properties": {"type": "node", "id": 4291282864, "tags": {"public_transport": "stop_position", "train": "yes"}}, "geometry": {"type": "Point", "coordinates": [19.1208065, 48.5694874]}}, {"type": "Feature", "properties": {"type": "node", "id": 4291282865, "tags": {"public_transport": "stop_position", "train": "yes"}}, "geometry": {"type": "Point", "coordinates": [19.1209091, 48.56939]}}, {"type": "Feature", "properties": {"type": "node", "id": 4291282866, "tags": {"public_transport": "stop_position", "train": "yes"}}, "geometry": {"type": "Point", "coordinates": [19.1210244, 48.5692858]}}, {"type": "Feature", "properties": {"type": "node", "id": 4291282867, "tags": {"public_transport": "stop_position", "train": "yes"}}, "geometry": {"type": "Point", "coordinates": [19.1211346, 48.5691879]}}, {"type": "Feature", "properties": {"type": "node", "id": 8012721730, "tags": {"alt_name": "Zvolen - osobn\u00e1 stanica;Zvolen - os.st.", "loc_name": "Zolyom;Zwolen;Zwole\u0144", "name": "Zvolen osobn\u00e1 stanica", "name:de": "Altsohl", "name:hu": "Z\u00f3lyom", "name:la": "Veterosolium", "name:ru": "\u0417\u0432\u043e\u043b\u0435\u043d", "railway": "station", "railway:ref": "Zv", "wheelchair": "yes", "wikidata": "Q8075566"}}, "geometry": {"type": "Point", "coordinates": [19.1205706, 48.569687]}}, {"type": "Feature", "properties": {"type": "node", "id": 84491707, "tags": {"name": "Zvolen n\u00e1kladn\u00e1 stanica", "railway": "station"}}, "geometry": {"type": "Point", "coordinates": [19.1430938, 48.5727698]}}, {"type": "Feature", "properties": {"type": "node", "id": 84505747, "tags": {"name": "Slia\u010d-k\u00fapele", "railway": "station", "railway:position:exact": "5.885", "uic_ref": "5613443"}}, "geometry": {"type": "Point", "coordinates": [19.1495113, 48.6142013]}}, {"type": "Feature", "properties": {"type": "node", "id": 84505762, "tags": {"name": "Vlkanov\u00e1", "railway": "station", "railway:position:exact": "12.231", "uic_ref": "5613423"}}, "geometry": {"type": "Point", "coordinates": [19.1494081, 48.6694291]}}, {"type": "Feature", "properties": {"type": "node", "id": 446101163, "tags": {"is_in": "Zemianske Kosto\u013eany", "name": "Zemianske Kosto\u013eany", "railway": "station"}}, "geometry": {"type": "Point", "coordinates": [18.5192932, 48.6845272]}}, {"type": "Feature", "properties": {"type": "node", "id": 356178089, "tags": {"name": "Nov\u00e1ky", "railway": "station"}}, "geometry": {"type": "Point", "coordinates": [18.5363691, 48.7182834]}}, {"type": "Feature", "properties": {"type": "node", "id": 2384791118, "tags": {"name": "Ko\u0161", "railway": "station"}}, "geometry": {"type": "Point", "coordinates": [18.5739918, 48.7485967]}}, {"type": "Feature", "properties": {"type": "node", "id": 5878712864, "tags": {"name": "Prievidza", "name:de": "Priwitz", "railway": "station", "wikidata": "Q15631068"}}, "geometry": {"type": "Point", "coordinates": [18.6166112, 48.7746363]}}, {"type": "Feature", "properties": {"type": "node", "id": 447855974, "tags": {"name": "Nitrianske Pravno", "name:de": "Deutsch Proben", "name:hu": "N\u00e9metpr\u00f3na", "name:sk": "Nitrianske Pravno", "railway": "station", "wikidata": "Q15712554"}}, "geometry": {"type": "Point", "coordinates": [18.634473, 48.8641917]}}, {"type": "Feature", "properties": {"type": "node", "id": 307439585, "tags": {"name": "Handlov\u00e1", "name:de": "Krickerhau", "name:hu": "Nyitrab\u00e1nya", "railway": "station"}}, "geometry": {"type": "Point", "coordinates": [18.7541486, 48.7255283]}}, {"type": "Feature", "properties": {"type": "node", "id": 413111313, "tags": {"name": "Chrenovec", "railway": "station"}}, "geometry": {"type": "Point", "coordinates": [18.7122434, 48.7782002]}}, {"type": "Feature", "properties": {"type": "node", "id": 472955828, "tags": {"name": "Sklen\u00e9 pri Handlovej", "railway": "station"}}, "geometry": {"type": "Point", "coordinates": [18.8423365, 48.7827599]}}, {"type": "Feature", "properties": {"type": "node", "id": 455084858, "tags": {"name": "Diviaky", "railway": "station", "railway:position:exact": "283.029", "uic_ref": "5613053"}}, "geometry": {"type": "Point", "coordinates": [18.8504935, 48.8761146]}}, {"type": "Feature", "properties": {"type": "node", "id": 408541630, "tags": {"name": "Kremnica", "name:de": "Kremnitz", "railway": "station", "railway:position:exact": "253.068", "uic_ref": "5613123"}}, "geometry": {"type": "Point", "coordinates": [18.9240982, 48.6974277]}}, {"type": "Feature", "properties": {"type": "node", "id": 356610538, "tags": {"name": "Kremnick\u00e9 Bane", "railway": "station", "railway:position:exact": "262.499", "uic_ref": "5613133"}}, "geometry": {"type": "Point", "coordinates": [18.9027687, 48.7428973]}}, {"type": "Feature", "properties": {"type": "node", "id": 272487293, "tags": {"name": "Horn\u00e1 \u0160tub\u0148a", "railway": "station", "railway:position:exact": "273.112", "uic_ref": "5613093", "wikidata": "Q65782945"}}, "geometry": {"type": "Point", "coordinates": [18.881655, 48.7927827]}}, {"type": "Feature", "properties": {"type": "node", "id": 455085135, "tags": {"name": "\u010cremo\u0161n\u00e9", "railway": "station", "railway:position:exact": "32.965", "uic_ref": "5613283"}}, "geometry": {"type": "Point", "coordinates": [18.9510642, 48.8399422]}}, {"type": "Feature", "properties": {"type": "node", "id": 455085868, "tags": {"name": "Harmanec jasky\u0148a", "railway": "station", "railway:position:exact": "26.329", "uic_ref": "5613303"}}, "geometry": {"type": "Point", "coordinates": [19.0341282, 48.8227434]}}, {"type": "Feature", "properties": {"type": "node", "id": 27320254, "tags": {"alt_name:de": "Radwan", "name": "Radva\u0148", "name:de": "Burgst\u00e4dtl", "railway": "station", "railway:position:exact": "17.918", "uic_ref": "5613403", "wikidata": "Q62576950"}}, "geometry": {"type": "Point", "coordinates": [19.1407594, 48.7165483]}}, {"type": "Feature", "properties": {"type": "node", "id": 8012637130, "tags": {"name": "Bansk\u00e1 Bystrica", "name:de": "Neusohl", "name:hu": "Beszterceb\u00e1nya", "name:la": "Neosolium", "name:pl": "Ba\u0144ska Bystrzyca", "name:ru": "\u0411\u0430\u043d\u0441\u043a\u0430-\u0411\u0438\u0441\u0442\u0440\u0438\u0446\u0430", "name:sk": "Bansk\u00e1 Bystrica", "name:sr": "\u0411\u0430\u043d\u0441\u043a\u0430 \u0411\u0438\u0441\u0442\u0440\u0438\u0446\u0430", "old_name": "Ba\u0148sk\u00e1 Bystrica", "railway": "station", "railway:position:exact": "21.371", "railway:ref": "BB", "toilets:wheelchair": "yes", "uic_ref": "5613363", "wheelchair": "limited", "wikidata": "Q4857149"}}, "geometry": {"type": "Point", "coordinates": [19.1627072, 48.7347481]}}, {"type": "Feature", "properties": {"type": "node", "id": 277670185, "tags": {"name": "Kostiviarska", "railway": "station", "railway:position:exact": "5.384", "uic_ref": "5613353"}}, "geometry": {"type": "Point", "coordinates": [19.145086, 48.7573912]}}, {"type": "Feature", "properties": {"type": "node", "id": 85126542, "tags": {"name": "Slovensk\u00e1 \u013dup\u010da", "railway": "station", "wikidata": "Q65162894"}}, "geometry": {"type": "Point", "coordinates": [19.2765289, 48.7629419]}}, {"type": "Feature", "properties": {"type": "node", "id": 455085414, "tags": {"name": "U\u013eanka", "railway": "station", "railway:position:exact": "11.972", "uic_ref": "5613333"}}, "geometry": {"type": "Point", "coordinates": [19.0995824, 48.8015776]}}, {"type": "Feature", "properties": {"type": "node", "id": 30727710, "tags": {"name": "Pr\u00edbovce-Rakovo", "railway": "station", "railway:position:exact": "297.042", "uic_ref": "5613033"}}, "geometry": {"type": "Point", "coordinates": [18.8796452, 48.9937085]}}, {"type": "Feature", "properties": {"type": "node", "id": 455084798, "tags": {"name": "Martin", "railway": "station", "railway:position:exact": "305.490", "uic_ref": "5613013"}}, "geometry": {"type": "Point", "coordinates": [18.9154455, 49.0650274]}}, {"type": "Feature", "properties": {"type": "node", "id": 8294228024, "tags": {"name": "Lu\u010denec", "name:de": "Lizenz", "name:hu": "Losonc", "name:ru": "\u041b\u0443\u0447\u0435\u043d\u0435\u0446", "railway": "station", "railway:position:exact": "161.755", "uic_ref": "5613613", "wikidata": "Q31093504"}}, "geometry": {"type": "Point", "coordinates": [19.667624, 48.3359937]}}, {"type": "Feature", "properties": {"type": "node", "id": 83402482, "tags": {"name": "Podre\u010dany", "railway": "station"}}, "geometry": {"type": "Point", "coordinates": [19.5997786, 48.4053658]}}, {"type": "Feature", "properties": {"type": "node", "id": 8173618305, "tags": {"name": "Lovinoba\u0148a", "railway": "station"}}, "geometry": {"type": "Point", "coordinates": [19.5751154, 48.4447186]}}, {"type": "Feature", "properties": {"type": "node", "id": 27069282, "tags": {"created_by": "JOSM", "name": "Tom\u00e1\u0161ovce", "railway": "station"}}, "geometry": {"type": "Point", "coordinates": [19.6266908, 48.3694117]}}, {"type": "Feature", "properties": {"type": "node", "id": 27319280, "tags": {"name": "Pstru\u0161a", "railway": "station"}}, "geometry": {"type": "Point", "coordinates": [19.3127009, 48.553319]}}, {"type": "Feature", "properties": {"type": "node", "id": 7182818018, "tags": {"name": "Pstru\u0161a", "public_transport": "stop_position", "railway": "stop", "train": "yes", "wikidata": "Q34131589"}}, "geometry": {"type": "Point", "coordinates": [19.312453, 48.5533599]}}, {"type": "Feature", "properties": {"type": "node", "id": 83488878, "tags": {"name": "Sto\u017eok", "railway": "station", "wikidata": "Q34131707"}}, "geometry": {"type": "Point", "coordinates": [19.3585532, 48.5381669]}}, {"type": "Feature", "properties": {"type": "node", "id": 83456594, "tags": {"name": "Kriv\u00e1\u0148", "railway": "station", "toilets:wheelchair": "no", "wheelchair": "no"}}, "geometry": {"type": "Point", "coordinates": [19.4457419, 48.5285285]}}, {"type": "Feature", "properties": {"type": "node", "id": 27319328, "tags": {"name": "Podkriv\u00e1\u0148", "railway": "station"}}, "geometry": {"type": "Point", "coordinates": [19.4670049, 48.5163415]}}, {"type": "Feature", "properties": {"type": "node", "id": 83416785, "tags": {"name": "M\u00fdtna", "railway": "station"}}, "geometry": {"type": "Point", "coordinates": [19.5474331, 48.4658849]}}, {"type": "Feature", "properties": {"type": "node", "id": 73307006, "tags": {"name": "Pr\u0161a", "railway": "station", "railway:position:exact": "151.239", "uic_ref": "5613713"}}, "geometry": {"type": "Point", "coordinates": [19.7911713, 48.2970453]}}, {"type": "Feature", "properties": {"type": "node", "id": 384249646, "tags": {"loc_name": "Fulek,F\u00fclek", "name": "Fi\u013eakovo", "name:de": "Fileck", "name:hu": "F\u00fclek", "name:ru": "\u0424\u0438\u043b\u044f\u043a\u043e\u0432\u043e", "railway": "station", "railway:position:exact": "146.309", "uic_ref": "5613693"}}, "geometry": {"type": "Point", "coordinates": [19.8325227, 48.2662418]}}, {"type": "Feature", "properties": {"type": "node", "id": 59632354, "tags": {"name": "Brezni\u010dka", "railway": "station", "railway:position:exact": "13.048", "uic_ref": "5614833"}}, "geometry": {"type": "Point", "coordinates": [19.7398487, 48.4232067]}}, {"type": "Feature", "properties": {"type": "node", "id": 59642867, "tags": {"name": "Polt\u00e1r", "railway": "station", "railway:position:exact": "18.642", "uic_ref": "5614893"}}, "geometry": {"type": "Point", "coordinates": [19.7953758, 48.4286491]}}, {"type": "Feature", "properties": {"type": "node", "id": 62373883, "tags": {"name": "Blhovce", "railway": "station", "railway:position:exact": "75.422", "uic_ref": "5613783"}}, "geometry": {"type": "Point", "coordinates": [19.9551062, 48.2771625]}}, {"type": "Feature", "properties": {"type": "node", "id": 73396490, "tags": {"name": "Hodejov", "railway": "station", "railway:position:exact": "72.221", "uic_ref": "5613793"}}, "geometry": {"type": "Point", "coordinates": [19.9797821, 48.2963465]}}, {"type": "Feature", "properties": {"type": "node", "id": 73438863, "tags": {"name": "Jesensk\u00e9", "railway": "station", "railway:position:exact": "65.968", "uic_ref": "5613803", "wikidata": "Q35147117"}}, "geometry": {"type": "Point", "coordinates": [20.0619708, 48.299622]}}, {"type": "Feature", "properties": {"type": "node", "id": 73457415, "tags": {"name": "Rimavsk\u00e9 Janovce obec", "railway": "station"}}, "geometry": {"type": "Point", "coordinates": [20.0569362, 48.3370808]}}, {"type": "Feature", "properties": {"type": "node", "id": 81252701, "tags": {"name": "Ni\u017en\u00fd Sk\u00e1lnik", "railway": "station"}}, "geometry": {"type": "Point", "coordinates": [19.9675928, 48.4531185]}}, {"type": "Feature", "properties": {"type": "node", "id": 81252350, "tags": {"name": "\u010ceren\u010dany", "railway": "station"}}, "geometry": {"type": "Point", "coordinates": [19.9894665, 48.4129548]}}, {"type": "Feature", "properties": {"type": "node", "id": 73439138, "tags": {"name": "Rimavsk\u00e1 Sobota", "name:de": "Gro\u00dfsteffelsdorf", "name:hu": "Rimaszombat", "name:pl": "Rymawska Sobota", "name:ru": "\u0420\u0438\u043c\u0430\u0432\u0441\u043a\u0430 \u0421\u043e\u0431\u043e\u0442\u0430", "railway": "station", "toilets:wheelchair": "no", "wheelchair": "no"}}, "geometry": {"type": "Point", "coordinates": [20.0285976, 48.3851445]}}, {"type": "Feature", "properties": {"type": "node", "id": 59644676, "tags": {"name": "Zlatno", "railway": "station", "railway:position:exact": "28.486", "uic_ref": "5614953"}}, "geometry": {"type": "Point", "coordinates": [19.8167125, 48.5134812]}}, {"type": "Feature", "properties": {"type": "node", "id": 59645971, "tags": {"name": "Kokava nad Rimavicou", "railway": "station", "railway:position:exact": "35.726", "uic_ref": "5614943"}}, "geometry": {"type": "Point", "coordinates": [19.8415837, 48.5669189]}}, {"type": "Feature", "properties": {"type": "node", "id": 81252754, "tags": {"name": "Hrachovo", "railway": "station"}}, "geometry": {"type": "Point", "coordinates": [19.9602121, 48.4647977]}}, {"type": "Feature", "properties": {"type": "node", "id": 81260782, "tags": {"name": "Rimavsk\u00e9 Zalu\u017eany", "railway": "station"}}, "geometry": {"type": "Point", "coordinates": [19.940311, 48.4993592]}}, {"type": "Feature", "properties": {"type": "node", "id": 81260929, "tags": {"name": "Rimavsk\u00e1 Ba\u0148a", "railway": "station"}}, "geometry": {"type": "Point", "coordinates": [19.9445614, 48.5098948]}}, {"type": "Feature", "properties": {"type": "node", "id": 712578527, "tags": {"name": "Rimavsk\u00e9 Brezovo", "railway": "station"}}, "geometry": {"type": "Point", "coordinates": [19.9642764, 48.5398582]}}, {"type": "Feature", "properties": {"type": "node", "id": 81266612, "tags": {"name": "Likier", "railway": "station"}}, "geometry": {"type": "Point", "coordinates": [19.9630519, 48.5613917]}}, {"type": "Feature", "properties": {"type": "node", "id": 81266628, "tags": {"name": "Hn\u00fa\u0161\u0165a", "name:de": "Nusten", "name:hu": "Nyustya", "railway": "station"}}, "geometry": {"type": "Point", "coordinates": [19.9579209, 48.5769962]}}, {"type": "Feature", "properties": {"type": "node", "id": 81287610, "tags": {"name": "Rimavsk\u00e1 P\u00edla", "railway": "station"}}, "geometry": {"type": "Point", "coordinates": [19.9476251, 48.6503788]}}, {"type": "Feature", "properties": {"type": "node", "id": 85138870, "tags": {"name": "Medzibrod", "railway": "station"}}, "geometry": {"type": "Point", "coordinates": [19.3574858, 48.7913315]}}, {"type": "Feature", "properties": {"type": "node", "id": 85160192, "tags": {"name": "Dubov\u00e1", "railway": "station"}}, "geometry": {"type": "Point", "coordinates": [19.4395548, 48.8137099]}}, {"type": "Feature", "properties": {"type": "node", "id": 3042419898, "tags": {"name": "\u010cierny Balog, Vydrovo, Koryt\u00e1rske", "railway": "station"}}, "geometry": {"type": "Point", "coordinates": [19.6340649, 48.7290792]}}, {"type": "Feature", "properties": {"type": "node", "id": 455858526, "tags": {"name": "\u010cierny Balog - Vydrovo,skanzen", "railway": "station"}}, "geometry": {"type": "Point", "coordinates": [19.644165, 48.7338184]}}, {"type": "Feature", "properties": {"type": "node", "id": 455858525, "tags": {"name": "\u010cierny Balog", "name:de": "Schwarzwasser", "name:hu": "Feketebalog", "name:sk": "\u010cierny Balog", "railway": "station", "wikidata": "Q459204", "wikipedia": "sk:\u010ciernohronsk\u00e1 \u017eeleznica"}}, "geometry": {"type": "Point", "coordinates": [19.6574315, 48.7461115]}}, {"type": "Feature", "properties": {"type": "node", "id": 452398297, "tags": {"name": "Podbrezov\u00e1", "railway": "station"}}, "geometry": {"type": "Point", "coordinates": [19.5230257, 48.8102172]}}, {"type": "Feature", "properties": {"type": "node", "id": 475488768, "tags": {"name": "Hronec zlievare\u0148", "railway": "station"}}, "geometry": {"type": "Point", "coordinates": [19.5790814, 48.7988666]}}, {"type": "Feature", "properties": {"type": "node", "id": 475488833, "tags": {"name": "Chvatimech \u010cHZ", "railway": "station"}}, "geometry": {"type": "Point", "coordinates": [19.5588101, 48.8044279]}}, {"type": "Feature", "properties": {"type": "node", "id": 60462600, "tags": {"name": "Brezno", "railway": "station", "wikidata": "Q18327182"}}, "geometry": {"type": "Point", "coordinates": [19.6289405, 48.8015371]}}, {"type": "Feature", "properties": {"type": "node", "id": 60462487, "tags": {"name": "Rohozn\u00e1", "railway": "station"}}, "geometry": {"type": "Point", "coordinates": [19.7088237, 48.7948682]}}, {"type": "Feature", "properties": {"type": "node", "id": 736519398, "tags": {"name": "Brezno - Halny", "platforms": "2", "railway": "station"}}, "geometry": {"type": "Point", "coordinates": [19.6650078, 48.8177336]}}, {"type": "Feature", "properties": {"type": "node", "id": 736519769, "tags": {"name": "Brezno - Halny", "platforms": "2", "railway": "station"}}, "geometry": {"type": "Point", "coordinates": [19.6650651, 48.8176875]}}, {"type": "Feature", "properties": {"type": "node", "id": 5687924526, "tags": {"addr:city": "Ru\u017eomberok", "addr:postcode": "03401", "addr:street": "Unnamed Road", "facebook": "https://www.facebook.com/korytnicka.zeleznica/", "internet_access": "no", "name": "Ru\u017eomberok-Z\u00e1palk\u00e1re\u0148", "public_transport": "station", "railway": "station", "train": "yes", "website": "https://www.korytnickazeleznica.eu/"}}, "geometry": {"type": "Point", "coordinates": [19.3056963, 49.0583812]}}, {"type": "Feature", "properties": {"type": "node", "id": 5461793293, "tags": {"addr:city": "Ru\u017eomberok - Bani\u010dn\u00e9", "addr:housenumber": "224/3", "addr:postcode": "03401", "addr:street": "Sl\u00e1dkovi\u010dova", "internet_access": "no", "name": "Ru\u017eomberok - Mal\u00e9 N\u00e1dra\u017eie", "note": "V cudz\u00edch jazykoch:\nNem\u010dina - Rosenberg-Kleiner Bahnhof\nMa\u010far\u010dina - R\u00f3zsahegy-Kis \u00c1lomm\u00e1s\nAngli\u010dtina - Ruzomberok-Small Railway Station\nPo\u013e\u0161tina - Rozmberk-Maly Dvorzec Kolejowy\nRu\u0161tina - Ruzhomberok-Nebol\u00b4shoy vokzal (Pyxkom6epok-He6onbwo\u0148 Bok3an)", "public_transport": "station", "railway": "station", "train": "yes"}}, "geometry": {"type": "Point", "coordinates": [19.3058056, 49.0663263]}}, {"type": "Feature", "properties": {"type": "node", "id": 257790771, "tags": {"name": "Ru\u017eomberok", "name:de": "Rosenberg", "name:hu": "R\u00f3zsahegy", "name:pl": "Ru\u017comberk", "public_transport": "stop_position", "railway": "station", "train": "yes"}}, "geometry": {"type": "Point", "coordinates": [19.3091105, 49.0835449]}}, {"type": "Feature", "properties": {"type": "node", "id": 5236529182, "tags": {"name": "Ru\u017eomberok", "name:de": "Rosenberg", "name:hu": "R\u00f3zsahegy", "name:pl": "Ru\u017comberk", "public_transport": "stop_position", "railway": "station", "train": "yes"}}, "geometry": {"type": "Point", "coordinates": [19.3091038, 49.0836076]}}, {"type": "Feature", "properties": {"type": "node", "id": 5707475372, "tags": {"addr:city": "Liptovsk\u00fd Mikul\u00e1\u0161-Okoli\u010dn\u00e9", "addr:postcode": "03404", "addr:street": "Stani\u010dn\u00e1", "addr:unit": "76", "name": "Okoli\u010dn\u00e9", "public_transport": "station", "railway": "station", "train": "yes"}}, "geometry": {"type": "Point", "coordinates": [19.6516641, 49.0765394]}}, {"type": "Feature", "properties": {"type": "node", "id": 60460877, "tags": {"name": "Michalov\u00e1", "railway": "station"}}, "geometry": {"type": "Point", "coordinates": [19.7775002, 48.7654273]}}, {"type": "Feature", "properties": {"type": "node", "id": 60460270, "tags": {"name": "Pohronsk\u00e1 Polhora", "railway": "station"}}, "geometry": {"type": "Point", "coordinates": [19.7936448, 48.7583487]}}, {"type": "Feature", "properties": {"type": "node", "id": 60459265, "tags": {"name": "Tisovec-B\u00e1novo", "railway": "station"}}, "geometry": {"type": "Point", "coordinates": [19.8678803, 48.7156636]}}, {"type": "Feature", "properties": {"type": "node", "id": 844375491, "tags": {"name": "Zbojsk\u00e1", "railway": "station"}}, "geometry": {"type": "Point", "coordinates": [19.8410052, 48.7466181]}}, {"type": "Feature", "properties": {"type": "node", "id": 454663458, "tags": {"name": "Ga\u0161parovo", "platforms": "1", "railway": "station"}}, "geometry": {"type": "Point", "coordinates": [19.7456991, 48.8269181]}}, {"type": "Feature", "properties": {"type": "node", "id": 101172008, "tags": {"name": "Be\u0148u\u0161", "name:de": "Beneschau", "name:sk": "Be\u0148u\u0161", "railway": "station"}}, "geometry": {"type": "Point", "coordinates": [19.7614072, 48.8285223]}}, {"type": "Feature", "properties": {"type": "node", "id": 101185883, "tags": {"name": "Polomka", "railway": "station"}}, "geometry": {"type": "Point", "coordinates": [19.8537171, 48.8462984]}}, {"type": "Feature", "properties": {"type": "node", "id": 60458138, "tags": {"name": "Tisovec", "name:de": "Thei\u00dfholz", "name:hu": "Tiszolc", "name:la": "Taxovia", "railway": "station"}}, "geometry": {"type": "Point", "coordinates": [19.935005, 48.6913615]}}, {"type": "Feature", "properties": {"type": "node", "id": 1910383973, "tags": {"name": "Rev\u00faca", "name:de": "Gro\u00dfrauschenbach", "name:hu": "Nagyr\u0151ce", "name:pl": "Rev\u00faca", "name:ru": "\u0420\u0435\u0432\u0443\u0446\u0430", "railway": "station"}}, "geometry": {"type": "Point", "coordinates": [20.1146652, 48.6775103]}}, {"type": "Feature", "properties": {"type": "node", "id": 7084407482, "tags": {"railway": "stop"}}, "geometry": {"type": "Point", "coordinates": [20.1145761, 48.677456]}}, {"type": "Feature", "properties": {"type": "node", "id": 7084476809, "tags": {"railway": "stop"}}, "geometry": {"type": "Point", "coordinates": [20.114561, 48.6774134]}}, {"type": "Feature", "properties": {"type": "node", "id": 7084476838, "tags": {"railway": "stop"}}, "geometry": {"type": "Point", "coordinates": [20.1145904, 48.6774925]}}, {"type": "Feature", "properties": {"type": "node", "id": 1910383970, "tags": {"name": "Mur\u00e1\u0148", "railway": "station"}}, "geometry": {"type": "Point", "coordinates": [20.051882, 48.7404707]}}, {"type": "Feature", "properties": {"type": "node", "id": 101207612, "tags": {"is_in": "He\u013epa", "name": "He\u013epa", "name:de": "Helpach an der Gran", "name:hu": "Helpa", "name:sk": "He\u013epa", "railway": "station"}}, "geometry": {"type": "Point", "coordinates": [19.9594806, 48.8563308]}}, {"type": "Feature", "properties": {"type": "node", "id": 101235644, "tags": {"name": "\u010cerven\u00e1 Skala", "railway": "station", "wikidata": "Q65169350"}}, "geometry": {"type": "Point", "coordinates": [20.1315212, 48.823198]}}, {"type": "Feature", "properties": {"type": "node", "id": 848478071, "tags": {"name": "Kr\u00e1\u013eova Lehota", "railway": "station", "source": "survey"}}, "geometry": {"type": "Point", "coordinates": [19.7865475, 49.0255843]}}, {"type": "Feature", "properties": {"type": "node", "id": 27317525, "tags": {"name": "Liptovsk\u00fd Hr\u00e1dok", "railway": "station", "wheelchair": "no"}}, "geometry": {"type": "Point", "coordinates": [19.7213542, 49.0379895]}}, {"type": "Feature", "properties": {"type": "node", "id": 5236504031, "tags": {"name": "V\u00fdchodn\u00e1", "railway": "station"}}, "geometry": {"type": "Point", "coordinates": [19.9164061, 49.0502913]}}, {"type": "Feature", "properties": {"type": "node", "id": 1918925370, "tags": {"name": "\u0160trba", "name:hu": "Csorba", "public_transport": "stop_position", "railway": "station", "train": "yes"}}, "geometry": {"type": "Point", "coordinates": [20.065543, 49.0836684]}}, {"type": "Feature", "properties": {"type": "node", "id": 5370900311, "tags": {"name": "\u0160trba", "name:hu": "Csorba", "public_transport": "stop_position", "railway": "stop", "train": "yes"}}, "geometry": {"type": "Point", "coordinates": [20.0656827, 49.084082]}}, {"type": "Feature", "properties": {"type": "node", "id": 7857497108, "tags": {"name": "\u0160trba", "name:hu": "Csorba", "public_transport": "stop_position", "railway": "stop", "ref": "3", "train": "yes"}}, "geometry": {"type": "Point", "coordinates": [20.0660761, 49.0841113]}}, {"type": "Feature", "properties": {"type": "node", "id": 7857497109, "tags": {"name": "\u0160trba", "name:hu": "Csorba", "public_transport": "stop_position", "railway": "stop", "ref": "2", "train": "yes"}}, "geometry": {"type": "Point", "coordinates": [20.0657439, 49.0842139]}}, {"type": "Feature", "properties": {"type": "node", "id": 7857497110, "tags": {"name": "\u0160trba", "name:hu": "Csorba", "public_transport": "stop_position", "railway": "stop", "ref": "1", "train": "yes"}}, "geometry": {"type": "Point", "coordinates": [20.0657048, 49.0841365]}}, {"type": "Feature", "properties": {"type": "node", "id": 7857507390, "tags": {"name": "\u0160trba", "name:hu": "Csorba", "public_transport": "stop_position", "railway": "station", "train": "yes"}}, "geometry": {"type": "Point", "coordinates": [20.0654522, 49.0836017]}}, {"type": "Feature", "properties": {"type": "node", "id": 7857507418, "tags": {"name": "\u0160trba", "name:hu": "Csorba", "public_transport": "stop_position", "railway": "station", "train": "yes"}}, "geometry": {"type": "Point", "coordinates": [20.0652862, 49.0838219]}}, {"type": "Feature", "properties": {"type": "node", "id": 4077331698, "tags": {"name": "Plevn\u00edk-Drienov\u00e9", "operator": "\u017dSR", "public_transport": "station", "railway": "station"}}, "geometry": {"type": "Point", "coordinates": [18.4908623, 49.1712803]}}, {"type": "Feature", "properties": {"type": "node", "id": 1912829395, "tags": {"name": "Rajec", "name:de": "Rajetz", "name:hu": "Rajec", "railway": "station"}}, "geometry": {"type": "Point", "coordinates": [18.6439522, 49.090403]}}, {"type": "Feature", "properties": {"type": "node", "id": 206319051, "tags": {"name": "Predmier", "public_transport": "stop_position", "railway": "stop", "train": "yes"}}, "geometry": {"type": "Point", "coordinates": [18.5356471, 49.1973982]}}, {"type": "Feature", "properties": {"type": "node", "id": 4077331701, "tags": {"name": "Predmier", "operator": "\u017dSR", "public_transport": "station", "railway": "station"}}, "geometry": {"type": "Point", "coordinates": [18.5355844, 49.1974456]}}, {"type": "Feature", "properties": {"type": "node", "id": 502316252, "tags": {"name": "Byt\u010da", "public_transport": "stop_position", "railway": "stop", "train": "yes"}}, "geometry": {"type": "Point", "coordinates": [18.5533958, 49.2075882]}}, {"type": "Feature", "properties": {"type": "node", "id": 7555183810, "tags": {"name": "Byt\u010da", "public_transport": "station", "railway": "station", "train": "yes", "wikidata": "Q87702039"}}, "geometry": {"type": "Point", "coordinates": [18.5533472, 49.2074325]}}, {"type": "Feature", "properties": {"type": "node", "id": 2945412290, "tags": {"name": "Doln\u00fd Hri\u010dov", "public_transport": "station", "railway": "station", "train": "yes"}}, "geometry": {"type": "Point", "coordinates": [18.6431838, 49.2409336]}}, {"type": "Feature", "properties": {"type": "node", "id": 6592328265, "tags": {"name": "Doln\u00fd Hri\u010dov", "public_transport": "stop_position", "railway": "stop", "train": "yes"}}, "geometry": {"type": "Point", "coordinates": [18.6433123, 49.2407326]}}, {"type": "Feature", "properties": {"type": "node", "id": 6592328266, "tags": {"name": "Doln\u00fd Hri\u010dov", "public_transport": "stop_position", "railway": "stop", "train": "yes"}}, "geometry": {"type": "Point", "coordinates": [18.6433714, 49.2407138]}}, {"type": "Feature", "properties": {"type": "node", "id": 7999388391, "tags": {"name": "Konsk\u00e1 pri Rajci", "public_transport": "stop_position", "railway": "halt", "train": "yes"}}, "geometry": {"type": "Point", "coordinates": [18.6695552, 49.1239775]}}, {"type": "Feature", "properties": {"type": "node", "id": 1389422721, "tags": {"name": "Rajeck\u00e9 Teplice", "name:de": "Bad Rajetz", "name:hu": "Rajecf\u00fcrd\u0151", "railway": "station"}}, "geometry": {"type": "Point", "coordinates": [18.6787231, 49.129413]}}, {"type": "Feature", "properties": {"type": "node", "id": 852839822, "tags": {"name": "Poluvsie", "public_transport": "stop_position", "railway": "halt", "train": "yes"}}, "geometry": {"type": "Point", "coordinates": [18.7036552, 49.1331906]}}, {"type": "Feature", "properties": {"type": "node", "id": 2609961450, "tags": {"name": "Lietavsk\u00e1 L\u00fa\u010dka", "operator": "\u017dSR", "public_transport": "station", "railway": "station"}}, "geometry": {"type": "Point", "coordinates": [18.7187935, 49.1756856]}}, {"type": "Feature", "properties": {"type": "node", "id": 3851558100, "tags": {"name": "\u017dilina zria\u010fovacia stanica", "railway": "station"}}, "geometry": {"type": "Point", "coordinates": [18.7287575, 49.2310858]}}, {"type": "Feature", "properties": {"type": "node", "id": 6446509215, "tags": {"internet_access": "no", "name": "\u017dilina", "public_transport": "station", "railway": "station", "railway:ref": "Za", "toilets:wheelchair": "yes", "train": "yes", "uic_ref": "5600020", "wheelchair": "limited", "wikidata": "Q801697"}}, "geometry": {"type": "Point", "coordinates": [18.7468252, 49.2270928]}}, {"type": "Feature", "properties": {"type": "node", "id": 4757867666, "tags": {"name": "Brodno", "railway": "station"}}, "geometry": {"type": "Point", "coordinates": [18.7522756, 49.2666956]}}, {"type": "Feature", "properties": {"type": "node", "id": 3362122977, "tags": {"name": "Brodno", "railway": "station"}}, "geometry": {"type": "Point", "coordinates": [18.7523496, 49.2667152]}}, {"type": "Feature", "properties": {"type": "node", "id": 3362122983, "tags": {"name": "Rudina", "railway": "station"}}, "geometry": {"type": "Point", "coordinates": [18.7577665, 49.2805281]}}, {"type": "Feature", "properties": {"type": "node", "id": 4757867677, "tags": {"name": "Rudina", "railway": "station"}}, "geometry": {"type": "Point", "coordinates": [18.7577493, 49.2805356]}}, {"type": "Feature", "properties": {"type": "node", "id": 442710421, "tags": {"name": "Var\u00edn", "railway": "station", "wikidata": "Q49203967"}}, "geometry": {"type": "Point", "coordinates": [18.8466999, 49.2018933]}}, {"type": "Feature", "properties": {"type": "node", "id": 1910931307, "tags": {"name": "Makov", "name:pl": "Mak\u00f3w", "operator": "\u017dSR", "public_transport": "station", "railway": "station"}}, "geometry": {"type": "Point", "coordinates": [18.4845436, 49.3721591]}}, {"type": "Feature", "properties": {"type": "node", "id": 4460106422, "tags": {"name": "Vysok\u00e1 nad Kysucou", "operator": "\u017dSR", "public_transport": "station", "railway": "station"}}, "geometry": {"type": "Point", "coordinates": [18.5488555, 49.3795527]}}, {"type": "Feature", "properties": {"type": "node", "id": 4460093995, "tags": {"name": "Turzovka", "operator": "\u017dSR", "public_transport": "stop_position", "railway": "station", "train": "yes"}}, "geometry": {"type": "Point", "coordinates": [18.6281485, 49.4036294]}}, {"type": "Feature", "properties": {"type": "node", "id": 2185350611, "tags": {"name": "Kysuck\u00e9 Nov\u00e9 Mesto", "public_transport": "stop_position", "railway": "stop", "train": "yes"}}, "geometry": {"type": "Point", "coordinates": [18.7841587, 49.3061644]}}, {"type": "Feature", "properties": {"type": "node", "id": 4757867687, "tags": {"name": "Kysuck\u00e9 Nov\u00e9 Mesto", "public_transport": "stop_position", "railway": "stop", "train": "yes"}}, "geometry": {"type": "Point", "coordinates": [18.7841357, 49.3061743]}}, {"type": "Feature", "properties": {"type": "node", "id": 5872944798, "tags": {"name": "Kysuck\u00e9 Nov\u00e9 Mesto", "public_transport": "stop_position", "railway": "stop", "train": "yes"}}, "geometry": {"type": "Point", "coordinates": [18.7841012, 49.3061892]}}, {"type": "Feature", "properties": {"type": "node", "id": 5872944805, "tags": {"name": "Kysuck\u00e9 Nov\u00e9 Mesto", "public_transport": "stop_position", "railway": "stop", "train": "yes"}}, "geometry": {"type": "Point", "coordinates": [18.7841989, 49.3061471]}}, {"type": "Feature", "properties": {"type": "node", "id": 8001466679, "tags": {"name": "Kysuck\u00e9 Nov\u00e9 Mesto", "public_transport": "station", "railway": "station"}}, "geometry": {"type": "Point", "coordinates": [18.7843014, 49.3060939]}}, {"type": "Feature", "properties": {"type": "node", "id": 3362122978, "tags": {"name": "Ochodnica", "railway": "station"}}, "geometry": {"type": "Point", "coordinates": [18.8066448, 49.347594]}}, {"type": "Feature", "properties": {"type": "node", "id": 4757867702, "tags": {"name": "Ochodnica", "railway": "station"}}, "geometry": {"type": "Point", "coordinates": [18.8066241, 49.3475937]}}, {"type": "Feature", "properties": {"type": "node", "id": 1542214651, "tags": {"name": "Dunajov", "public_transport": "station", "railway": "station", "train": "yes"}}, "geometry": {"type": "Point", "coordinates": [18.8187424, 49.3599031]}}, {"type": "Feature", "properties": {"type": "node", "id": 4757867716, "tags": {"name": "Dunajov", "public_transport": "station", "railway": "station", "train": "yes"}}, "geometry": {"type": "Point", "coordinates": [18.8187344, 49.3599155]}}, {"type": "Feature", "properties": {"type": "node", "id": 3362134136, "tags": {"name": "Kr\u00e1sno nad Kysucou", "public_transport": "stop_position", "ref": "1", "train": "yes"}}, "geometry": {"type": "Point", "coordinates": [18.8358658, 49.3789038]}}, {"type": "Feature", "properties": {"type": "node", "id": 4757870134, "tags": {"name": "Kr\u00e1sno nad Kysucou", "public_transport": "stop_position", "ref": "2", "train": "yes"}}, "geometry": {"type": "Point", "coordinates": [18.8356403, 49.3788953]}}, {"type": "Feature", "properties": {"type": "node", "id": 7127945746, "tags": {"name": "Kr\u00e1sno nad Kysucou", "railway": "station"}}, "geometry": {"type": "Point", "coordinates": [18.8357554, 49.3789006]}}, {"type": "Feature", "properties": {"type": "node", "id": 2383547615, "tags": {"name": "Sta\u0161kov", "operator": "\u017dSR", "public_transport": "station", "railway": "station"}}, "geometry": {"type": "Point", "coordinates": [18.6901777, 49.4236091]}}, {"type": "Feature", "properties": {"type": "node", "id": 1986280996, "tags": {"name": "Rakov\u00e1", "operator": "\u017dSR", "public_transport": "station", "railway": "station"}}, "geometry": {"type": "Point", "coordinates": [18.7371503, 49.4469393]}}, {"type": "Feature", "properties": {"type": "node", "id": 1933038925, "tags": {"name": "\u010cadca (makovsk\u00e9 n\u00e1stupi\u0161te)", "railway": "station"}}, "geometry": {"type": "Point", "coordinates": [18.7877292, 49.4432019]}}, {"type": "Feature", "properties": {"type": "node", "id": 339411873, "tags": {"loc_name": "Cadca,Chadca,Csaca,Csacza,Czaca,\u010cadca", "name": "\u010cadca", "name:de": "Tschadsa", "name:hu": "Csaca", "name:pl": "Czadca", "old_name": "\u010caca", "railway": "station", "wikidata": "Q3037886"}}, "geometry": {"type": "Point", "coordinates": [18.7868372, 49.445252]}}, {"type": "Feature", "properties": {"type": "node", "id": 243516196, "tags": {"name": "O\u0161\u010dadnica", "public_transport": "stop_position", "railway": "stop", "ref": "2", "train": "yes"}}, "geometry": {"type": "Point", "coordinates": [18.8325163, 49.4155281]}}, {"type": "Feature", "properties": {"type": "node", "id": 7128814274, "tags": {"name": "O\u0161\u010dadnica", "public_transport": "stop_position", "railway": "stop", "ref": "1", "train": "yes"}}, "geometry": {"type": "Point", "coordinates": [18.8325005, 49.415525]}}, {"type": "Feature", "properties": {"type": "node", "id": 351925371, "tags": {"name": "Vr\u00fatky", "public_transport": "stop_position", "railway": "stop", "train": "yes"}}, "geometry": {"type": "Point", "coordinates": [18.9247578, 49.1149151]}}, {"type": "Feature", "properties": {"type": "node", "id": 8398119353, "tags": {"name": "Vr\u00fatky", "public_transport": "station", "railway": "station", "train": "yes", "wikidata": "Q15631062"}}, "geometry": {"type": "Point", "coordinates": [18.9242834, 49.1148759]}}, {"type": "Feature", "properties": {"type": "node", "id": 5715256323, "tags": {"name": "Vr\u00fatky n\u00e1kladn\u00e1 stanica", "public_transport": "station", "railway": "station", "train": "yes"}}, "geometry": {"type": "Point", "coordinates": [18.946774, 49.1090948]}}, {"type": "Feature", "properties": {"type": "node", "id": 2092887112, "tags": {"railway": "station"}}, "geometry": {"type": "Point", "coordinates": [18.9882936, 49.1035771]}}, {"type": "Feature", "properties": {"type": "node", "id": 206328649, "tags": {"name": "Turany", "railway": "station"}}, "geometry": {"type": "Point", "coordinates": [19.0383784, 49.1097712]}}, {"type": "Feature", "properties": {"type": "node", "id": 8264864729, "tags": {"name": "Turany", "railway": "station"}}, "geometry": {"type": "Point", "coordinates": [19.038372, 49.1097791]}}, {"type": "Feature", "properties": {"type": "node", "id": 442710422, "tags": {"name": "\u013duboch\u0148a", "railway": "station"}}, "geometry": {"type": "Point", "coordinates": [19.1721032, 49.1269601]}}, {"type": "Feature", "properties": {"type": "node", "id": 5236529666, "tags": {"name": "\u013duboch\u0148a", "railway": "station"}}, "geometry": {"type": "Point", "coordinates": [19.1721652, 49.126958]}}, {"type": "Feature", "properties": {"type": "node", "id": 260551946, "tags": {"name": "Kra\u013eovany", "public_transport": "stop_position", "railway": "station", "train": "yes"}}, "geometry": {"type": "Point", "coordinates": [19.1302384, 49.1530021]}}, {"type": "Feature", "properties": {"type": "node", "id": 5233214122, "tags": {"name": "Kra\u013eovany", "public_transport": "stop_position", "railway": "station", "train": "yes"}}, "geometry": {"type": "Point", "coordinates": [19.1302293, 49.1530445]}}, {"type": "Feature", "properties": {"type": "node", "id": 330036456, "tags": {"name": "P\u00e1rnica", "railway": "station", "railway:position:exact": "8.434", "uic_ref": "5617635", "wikidata": "Q55443442"}}, "geometry": {"type": "Point", "coordinates": [19.197041, 49.1929866]}}, {"type": "Feature", "properties": {"type": "node", "id": 329044004, "tags": {"name": "Istebn\u00e9", "railway": "station", "railway:position:exact": "11.086", "uic_ref": "5617645"}}, "geometry": {"type": "Point", "coordinates": [19.2278952, 49.2013122]}}, {"type": "Feature", "properties": {"type": "node", "id": 1914581014, "tags": {"name": "Skalit\u00e9", "railway": "station", "wikidata": "Q9337543"}}, "geometry": {"type": "Point", "coordinates": [18.8917518, 49.4982113]}}, {"type": "Feature", "properties": {"type": "node", "id": 1943049305, "tags": {"name": "Chm\u00fara", "railway": "station", "wheelchair": "yes"}}, "geometry": {"type": "Point", "coordinates": [19.1072205, 49.3858264]}}, {"type": "Feature", "properties": {"type": "node", "id": 1943049312, "tags": {"name": "Tane\u010dn\u00edk", "railway": "station", "wheelchair": "yes"}}, "geometry": {"type": "Point", "coordinates": [19.1611796, 49.3853973]}}, {"type": "Feature", "properties": {"type": "node", "id": 257764898, "tags": {"name": "Liptovsk\u00e1 Tepl\u00e1", "railway": "station"}}, "geometry": {"type": "Point", "coordinates": [19.4166685, 49.0997309]}}, {"type": "Feature", "properties": {"type": "node", "id": 5236529160, "tags": {"name": "Liptovsk\u00e1 Tepl\u00e1", "railway": "station"}}, "geometry": {"type": "Point", "coordinates": [19.416651, 49.0997739]}}, {"type": "Feature", "properties": {"type": "node", "id": 1766156327, "tags": {"public_transport": "stop_position", "train": "yes"}}, "geometry": {"type": "Point", "coordinates": [19.2969819, 49.2167925]}}, {"type": "Feature", "properties": {"type": "node", "id": 1766156334, "tags": {"name": "Doln\u00fd Kub\u00edn", "name:de": "Unterkubin", "public_transport": "stop_position", "railway": "station", "railway:position:exact": "17.275", "train": "yes", "uic_ref": "5617425"}}, "geometry": {"type": "Point", "coordinates": [19.2969275, 49.216935]}}, {"type": "Feature", "properties": {"type": "node", "id": 1838287858, "tags": {"name": "Medzibrodie nad Oravou", "railway": "station", "railway:position:exact": "23.547", "uic_ref": "5617625"}}, "geometry": {"type": "Point", "coordinates": [19.3458555, 49.2339172]}}, {"type": "Feature", "properties": {"type": "node", "id": 668011731, "tags": {"name": "Oravsk\u00fd Podz\u00e1mok", "railway": "station", "railway:position:exact": "27.491", "uic_ref": "5617585", "wikidata": "Q55618629"}}, "geometry": {"type": "Point", "coordinates": [19.3638488, 49.2610973]}}, {"type": "Feature", "properties": {"type": "node", "id": 254474748, "tags": {"name": "Liptovsk\u00fd Mikul\u00e1\u0161", "public_transport": "stop_position", "railway": "stop", "train": "yes"}}, "geometry": {"type": "Point", "coordinates": [19.606297, 49.0919998]}}, {"type": "Feature", "properties": {"type": "node", "id": 5236504160, "tags": {"name": "Liptovsk\u00fd Mikul\u00e1\u0161", "public_transport": "stop_position", "railway": "stop", "train": "yes"}}, "geometry": {"type": "Point", "coordinates": [19.606264, 49.0919592]}}, {"type": "Feature", "properties": {"type": "node", "id": 8441919177, "tags": {"name": "Liptovsk\u00fd Mikul\u00e1\u0161", "public_transport": "station", "railway": "station"}}, "geometry": {"type": "Point", "coordinates": [19.6058844, 49.0921098]}}, {"type": "Feature", "properties": {"type": "node", "id": 1458536328, "tags": {"public_transport": "stop_position", "railway": "stop", "train": "yes"}}, "geometry": {"type": "Point", "coordinates": [19.5287374, 49.3102712]}}, {"type": "Feature", "properties": {"type": "node", "id": 1460939034, "tags": {"public_transport": "stop_position", "railway": "stop", "train": "yes"}}, "geometry": {"type": "Point", "coordinates": [19.5283117, 49.3101746]}}, {"type": "Feature", "properties": {"type": "node", "id": 1767486313, "tags": {"name": "Ni\u017en\u00e1", "name:be": "\u041d\u0456\u0436\u043d\u0430", "name:ru": "\u041d\u0438\u0436\u043d\u0430", "operator": "\u017dSR", "public_transport": "station", "railway": "station", "railway:position:exact": "46.415", "train": "yes", "uic_ref": "5617685"}}, "geometry": {"type": "Point", "coordinates": [19.5286582, 49.3100208]}}, {"type": "Feature", "properties": {"type": "node", "id": 1014792695, "tags": {"public_transport": "stop_position", "train": "yes"}}, "geometry": {"type": "Point", "coordinates": [19.56296, 49.3370198]}}, {"type": "Feature", "properties": {"type": "node", "id": 1496652212, "tags": {"public_transport": "stop_position", "train": "yes"}}, "geometry": {"type": "Point", "coordinates": [19.5629178, 49.3370483]}}, {"type": "Feature", "properties": {"type": "node", "id": 1888446452, "tags": {"name": "Tvrdo\u0161\u00edn", "name:de": "Turdoschin", "name:hu": "Turdossin", "name:pl": "Twardoszyn", "public_transport": "station", "railway": "station", "railway:position:exact": "51.188", "uic_ref": "5617845", "wikidata": "Q55618721"}}, "geometry": {"type": "Point", "coordinates": [19.5628044, 49.3371712]}}, {"type": "Feature", "properties": {"type": "node", "id": 1846554199, "tags": {"name": "Trsten\u00e1", "railway": "station", "railway:position:exact": "56.450", "uic_ref": "5617795"}}, "geometry": {"type": "Point", "coordinates": [19.6192675, 49.3608431]}}, {"type": "Feature", "properties": {"type": "node", "id": 306593337, "tags": {"name": "Tatransk\u00fd Lieskovec", "name:hu": "Mogyor\u00f3s", "public_transport": "stop_position", "railway": "stop", "train": "yes"}}, "geometry": {"type": "Point", "coordinates": [20.0674377, 49.0927807]}}, {"type": "Feature", "properties": {"type": "node", "id": 306074298, "tags": {"name": "\u0160trbsk\u00e9 Pleso", "name:de": "Tschirmer See", "name:hu": "Csorbat\u00f3", "name:pl": "Szczyrbskie Jezioro", "network": "TE\u017d", "public_transport": "station", "railway": "station", "train": "yes", "wikidata": "Q8082892"}}, "geometry": {"type": "Point", "coordinates": [20.0634161, 49.1182006]}}, {"type": "Feature", "properties": {"type": "node", "id": 306074401, "tags": {"name": "\u0160trbsk\u00e9 Pleso", "name:de": "Tschirmer See", "name:hu": "Csorbat\u00f3", "name:pl": "Szczyrbskie Jezioro", "public_transport": "stop_position", "railway": "stop", "train": "yes"}}, "geometry": {"type": "Point", "coordinates": [20.0636877, 49.1181605]}}, {"type": "Feature", "properties": {"type": "node", "id": 6797512183, "tags": {"name": "Vy\u0161n\u00e9 H\u00e1gy", "name:hu": "Fels\u0151h\u00e1gi", "railway": "station", "wikidata": "Q104657805"}}, "geometry": {"type": "Point", "coordinates": [20.1232131, 49.1188223]}}, {"type": "Feature", "properties": {"type": "node", "id": 27173642, "tags": {"name": "Rimavsk\u00e1 Se\u010d", "railway": "station", "railway:position:exact": "53.672", "uic_ref": "5613833"}}, "geometry": {"type": "Point", "coordinates": [20.2270969, 48.3069036]}}, {"type": "Feature", "properties": {"type": "node", "id": 27137421, "tags": {"name": "Lenartovce", "name:hu": "Saj\u00f3l\u00e9n\u00e1rtfalva", "railway": "station"}}, "geometry": {"type": "Point", "coordinates": [20.327202, 48.3026319]}}, {"type": "Feature", "properties": {"type": "node", "id": 27137447, "tags": {"name": "\u0160trkovec", "railway": "station"}}, "geometry": {"type": "Point", "coordinates": [20.3282349, 48.3549209]}}, {"type": "Feature", "properties": {"type": "node", "id": 73617362, "tags": {"name": "Torna\u013ea", "name:hu": "Tornalja vas\u00fat\u00e1llom\u00e1s", "railway": "station", "toilets:wheelchair": "no", "wheelchair": "limited", "wikidata": "Q50103485"}}, "geometry": {"type": "Point", "coordinates": [20.3309239, 48.4226816]}}, {"type": "Feature", "properties": {"type": "node", "id": 1910252502, "tags": {"name": "Huc\u00edn", "railway": "station"}}, "geometry": {"type": "Point", "coordinates": [20.2954179, 48.5641548]}}, {"type": "Feature", "properties": {"type": "node", "id": 1910399754, "tags": {"name": "Luben\u00edk", "railway": "station"}}, "geometry": {"type": "Point", "coordinates": [20.1955039, 48.652511]}}, {"type": "Feature", "properties": {"type": "node", "id": 1910252519, "tags": {"name": "Jel\u0161ava", "name:de": "Eltsch", "name:hu": "Jolsva", "name:la": "Alnovia", "railway": "station"}}, "geometry": {"type": "Point", "coordinates": [20.2421792, 48.6232793]}}, {"type": "Feature", "properties": {"type": "node", "id": 1837793580, "tags": {"name": "Gemersk\u00e1 H\u00f4rka", "railway": "station"}}, "geometry": {"type": "Point", "coordinates": [20.3850156, 48.5358736]}}, {"type": "Feature", "properties": {"type": "node", "id": 1314175093, "tags": {"name": "Ple\u0161ivec", "operator": "\u017dSR", "public_transport": "station", "railway": "station", "toilets:wheelchair": "no", "wheelchair": "limited", "wikidata": "Q56389114"}}, "geometry": {"type": "Point", "coordinates": [20.4127957, 48.55332]}}, {"type": "Feature", "properties": {"type": "node", "id": 1314169395, "tags": {"name": "Kunova Teplica", "railway": "station"}}, "geometry": {"type": "Point", "coordinates": [20.3847493, 48.6080251]}}, {"type": "Feature", "properties": {"type": "node", "id": 1837769168, "tags": {"name": "\u0160t\u00edtnik", "railway": "station"}}, "geometry": {"type": "Point", "coordinates": [20.3626941, 48.6688814]}}, {"type": "Feature", "properties": {"type": "node", "id": 1837768662, "tags": {"name": "Slavec jasky\u0148a", "railway": "station"}}, "geometry": {"type": "Point", "coordinates": [20.4678971, 48.5823093]}}, {"type": "Feature", "properties": {"type": "node", "id": 356429966, "tags": {"name": "Ro\u017e\u0148ava", "railway": "station", "toilets:wheelchair": "no", "uic_ref": "5600184", "wheelchair": "limited", "wikidata": "Q41556842"}}, "geometry": {"type": "Point", "coordinates": [20.5140594, 48.6353158]}}, {"type": "Feature", "properties": {"type": "node", "id": 1833129811, "tags": {"name": "Lipovn\u00edk", "railway": "station"}}, "geometry": {"type": "Point", "coordinates": [20.6029985, 48.6322711]}}, {"type": "Feature", "properties": {"type": "node", "id": 1332187407, "tags": {"name": "Jablonov nad Tur\u0148ou", "railway": "station"}}, "geometry": {"type": "Point", "coordinates": [20.6905856, 48.5994911]}}, {"type": "Feature", "properties": {"type": "node", "id": 1833094066, "tags": {"name": "Hrhov", "railway": "station"}}, "geometry": {"type": "Point", "coordinates": [20.7692823, 48.6067764]}}, {"type": "Feature", "properties": {"type": "node", "id": 705471340, "tags": {"name": "Tur\u0148a nad Bodvou", "name:de": "Tornau", "railway": "station"}}, "geometry": {"type": "Point", "coordinates": [20.8897566, 48.5977968]}}, {"type": "Feature", "properties": {"type": "node", "id": 1314175060, "tags": {"name": "Slavo\u0161ovce", "railway": "station"}}, "geometry": {"type": "Point", "coordinates": [20.2699952, 48.7193664]}}, {"type": "Feature", "properties": {"type": "node", "id": 678178920, "tags": {"name": "Ochtin\u00e1", "railway": "station"}}, "geometry": {"type": "Point", "coordinates": [20.3304237, 48.6857595]}}, {"type": "Feature", "properties": {"type": "node", "id": 642953300, "tags": {"is_in": "Telg\u00e1rt", "name": "Telg\u00e1rt", "name:de": "Thiergarten", "name:hu": "Garamf\u0151", "name:sk": "Telg\u00e1rt", "railway": "station"}}, "geometry": {"type": "Point", "coordinates": [20.1865446, 48.8398706]}}, {"type": "Feature", "properties": {"type": "node", "id": 478168128, "tags": {"name": "Telg\u00e1rt penzi\u00f3n", "railway": "station"}}, "geometry": {"type": "Point", "coordinates": [20.1994773, 48.8516855]}}, {"type": "Feature", "properties": {"type": "node", "id": 118733117, "tags": {"name": "Dob\u0161insk\u00e1 \u013eadov\u00e1 jasky\u0148a", "name:de": "Dobschauer Eish\u00f6hle", "railway": "station"}}, "geometry": {"type": "Point", "coordinates": [20.2963475, 48.8763029]}}, {"type": "Feature", "properties": {"type": "node", "id": 1833208817, "tags": {"name": "Ni\u017en\u00e1 Slan\u00e1", "railway": "station"}}, "geometry": {"type": "Point", "coordinates": [20.4185336, 48.7362534]}}, {"type": "Feature", "properties": {"type": "node", "id": 1833175132, "tags": {"name": "Betliar", "railway": "station"}}, "geometry": {"type": "Point", "coordinates": [20.5003275, 48.699413]}}, {"type": "Feature", "properties": {"type": "node", "id": 1833208820, "tags": {"name": "Vlachovo", "railway": "station"}}, "geometry": {"type": "Point", "coordinates": [20.3912533, 48.7948069]}}, {"type": "Feature", "properties": {"type": "node", "id": 1833208797, "tags": {"name": "Dob\u0161in\u00e1", "name:de": "Dobschau", "name:hu": "Dobsina", "name:la": "Dobsinium", "railway": "station"}}, "geometry": {"type": "Point", "coordinates": [20.3842288, 48.8133423]}}, {"type": "Feature", "properties": {"type": "node", "id": 454329897, "tags": {"name": "Mlynky", "railway": "station"}}, "geometry": {"type": "Point", "coordinates": [20.4072732, 48.8544826]}}, {"type": "Feature", "properties": {"type": "node", "id": 118760330, "tags": {"name": "Hnilec", "railway": "station"}}, "geometry": {"type": "Point", "coordinates": [20.5009525, 48.8303828]}}, {"type": "Feature", "properties": {"type": "node", "id": 88063538, "tags": {"name": "Svit", "operator": "\u017dSR", "platforms": "2", "public_transport": "station", "railway": "station", "source": "local knowledge", "wikidata": "Q53254826"}}, "geometry": {"type": "Point", "coordinates": [20.1981246, 49.060889]}}, {"type": "Feature", "properties": {"type": "node", "id": 30949773, "tags": {"name": "Poprad-Tatry", "name:hu": "Popr\u00e1d-Felka", "public_transport": "stop_position", "railway": "stop", "toilets:wheelchair": "yes", "train": "yes", "wheelchair": "yes"}}, "geometry": {"type": "Point", "coordinates": [20.2948753, 49.0599552]}}, {"type": "Feature", "properties": {"type": "node", "id": 306466098, "tags": {"name": "Poprad-Tatry", "name:hu": "Popr\u00e1d-Felka", "public_transport": "stop_position", "railway": "stop", "toilets:wheelchair": "yes", "train": "yes", "wheelchair": "yes"}}, "geometry": {"type": "Point", "coordinates": [20.2948821, 49.0600022]}}, {"type": "Feature", "properties": {"type": "node", "id": 6017744526, "tags": {"name": "Poprad-Tatry", "name:hu": "Popr\u00e1d-Felka", "public_transport": "stop_position", "railway": "stop", "train": "yes"}}, "geometry": {"type": "Point", "coordinates": [20.2949293, 49.0601727]}}, {"type": "Feature", "properties": {"type": "node", "id": 6017744527, "tags": {"name": "Poprad-Tatry", "name:hu": "Popr\u00e1d-Felka", "public_transport": "stop_position", "railway": "stop", "train": "yes"}}, "geometry": {"type": "Point", "coordinates": [20.2949321, 49.0602548]}}, {"type": "Feature", "properties": {"type": "node", "id": 6017744528, "tags": {"name": "Poprad-Tatry", "name:hu": "Popr\u00e1d-Felka", "public_transport": "stop_position", "railway": "stop", "train": "yes"}}, "geometry": {"type": "Point", "coordinates": [20.2958789, 49.0602695]}}, {"type": "Feature", "properties": {"type": "node", "id": 6017744529, "tags": {"name": "Poprad-Tatry", "name:hu": "Popr\u00e1d-Felka", "public_transport": "stop_position", "railway": "stop", "train": "yes"}}, "geometry": {"type": "Point", "coordinates": [20.2941918, 49.0604025]}}, {"type": "Feature", "properties": {"type": "node", "id": 7782082481, "tags": {"name": "Poprad-Tatry", "name:hu": "Popr\u00e1d-Felka", "public_transport": "stop_position", "railway": "stop", "toilets:wheelchair": "yes", "train": "yes", "wheelchair": "yes"}}, "geometry": {"type": "Point", "coordinates": [20.29489, 49.060046]}}, {"type": "Feature", "properties": {"type": "node", "id": 388038640, "tags": {"name": "Matejovce pri Poprade", "railway": "station", "wheelchair": "no"}}, "geometry": {"type": "Point", "coordinates": [20.3340479, 49.0815092]}}, {"type": "Feature", "properties": {"type": "node", "id": 3480082385, "tags": {"name": "Vydrn\u00edk", "operator": "\u017delezni\u010dn\u00e1 spolo\u010dnos\u0165 Slovensko, a.s. (ZSSK)", "railway": "station", "website": "http://www.slovakrail.sk"}}, "geometry": {"type": "Point", "coordinates": [20.4080922, 48.9946197]}}, {"type": "Feature", "properties": {"type": "node", "id": 454328984, "tags": {"name": "N\u00e1lepkovo", "railway": "station"}}, "geometry": {"type": "Point", "coordinates": [20.6301327, 48.8383647]}}, {"type": "Feature", "properties": {"type": "node", "id": 454329042, "tags": {"name": "Star\u00e1 Voda", "railway": "station"}}, "geometry": {"type": "Point", "coordinates": [20.6715112, 48.8119209]}}, {"type": "Feature", "properties": {"type": "node", "id": 454329120, "tags": {"name": "\u0160vedl\u00e1r", "railway": "station"}}, "geometry": {"type": "Point", "coordinates": [20.7232256, 48.8055054]}}, {"type": "Feature", "properties": {"type": "node", "id": 1182896404, "tags": {"name": "Medzev", "name:de": "Metzenseifen", "name:hu": "Meczenz\u00e9f", "note": "Osobn\u00fd vlak u\u017e neprem\u00e1va.", "railway": "station", "railway:position:exact": "15.358", "uic_ref": "5615700"}}, "geometry": {"type": "Point", "coordinates": [20.903938, 48.6981296]}}, {"type": "Feature", "properties": {"type": "node", "id": 1182896119, "tags": {"name": "Po\u010dkaj", "note": "Osobn\u00fd vlak u\u017e neprem\u00e1va.", "railway": "station", "railway:position:exact": "12.760", "uic_ref": "5615680"}}, "geometry": {"type": "Point", "coordinates": [20.9387007, 48.6939867]}}, {"type": "Feature", "properties": {"type": "node", "id": 454329278, "tags": {"name": "Mn\u00ed\u0161ek nad Hnilcom", "name:de": "Einsiedel an der G\u00f6llnitz", "name:hu": "Szepesremete", "old_name:hu": "Remete", "railway": "station"}}, "geometry": {"type": "Point", "coordinates": [20.8150796, 48.8116631]}}, {"type": "Feature", "properties": {"type": "node", "id": 454329417, "tags": {"loc_name": "Prakendorf", "name": "Prakovce", "name:de": "Prakendorf", "name:hu": "Prakfalva", "old_name:hu": "Prakfalu", "railway": "station"}}, "geometry": {"type": "Point", "coordinates": [20.8857737, 48.8201829]}}, {"type": "Feature", "properties": {"type": "node", "id": 454329645, "tags": {"name": "Gelnica", "name:de": "G\u00f6llnitz", "name:hu": "G\u00f6lnicb\u00e1nya", "railway": "station"}}, "geometry": {"type": "Point", "coordinates": [20.947446, 48.8583949]}}, {"type": "Feature", "properties": {"type": "node", "id": 1180839304, "tags": {"name": "Marku\u0161ovce", "railway": "station"}}, "geometry": {"type": "Point", "coordinates": [20.6343015, 48.910331]}}, {"type": "Feature", "properties": {"type": "node", "id": 5235211258, "tags": {"name": "Marku\u0161ovce", "railway": "station"}}, "geometry": {"type": "Point", "coordinates": [20.6342688, 48.9102952]}}, {"type": "Feature", "properties": {"type": "node", "id": 206175234, "tags": {"name": "Spi\u0161sk\u00e1 Nov\u00e1 Ves", "public_transport": "stop_position", "railway": "station"}}, "geometry": {"type": "Point", "coordinates": [20.5615161, 48.9503643]}}, {"type": "Feature", "properties": {"type": "node", "id": 5235211300, "tags": {"name": "Spi\u0161sk\u00e1 Nov\u00e1 Ves", "railway": "station"}}, "geometry": {"type": "Point", "coordinates": [20.5615132, 48.9503206]}}, {"type": "Feature", "properties": {"type": "node", "id": 1913228854, "tags": {"name": "Levo\u010da", "name:de": "Leutschau", "name:hu": "L\u0151cse", "name:la": "Leutsovia", "name:pl": "Lewocza", "railway": "station", "wikidata": "Q56174276"}}, "geometry": {"type": "Point", "coordinates": [20.5886964, 49.0175415]}}, {"type": "Feature", "properties": {"type": "node", "id": 503380110, "tags": {"name": "Spi\u0161sk\u00e9 Podhradie", "name:de": "Kirchdrauf", "name:hu": "Szepesv\u00e1ralja", "name:pl": "Spiskie Podgrodzie", "old_name:de": "Kirchdorf", "railway": "station"}}, "geometry": {"type": "Point", "coordinates": [20.7560876, 48.995762]}}, {"type": "Feature", "properties": {"type": "node", "id": 509686839, "tags": {"name": "Spi\u0161sk\u00e9 Vlachy", "railway": "station", "source": "survey"}}, "geometry": {"type": "Point", "coordinates": [20.8037807, 48.9355083]}}, {"type": "Feature", "properties": {"type": "node", "id": 388481077, "tags": {"name": "Krompachy", "name:de": "Krompach", "name:hu": "Korompa", "railway": "station", "wikidata": "Q86667074"}}, "geometry": {"type": "Point", "coordinates": [20.886479, 48.921679]}}, {"type": "Feature", "properties": {"type": "node", "id": 705471383, "tags": {"name": "Moldava nad Bodvou", "name:de": "Moldau an der Bodwa", "name:hu": "Szepsi", "railway": "station", "railway:position:exact": "27.055", "uic_ref": "5615170"}}, "geometry": {"type": "Point", "coordinates": [21.0027774, 48.6013182]}}, {"type": "Feature", "properties": {"type": "node", "id": 705471405, "tags": {"name": "\u010ce\u010dejovce", "railway": "station", "railway:position:exact": "21.533", "uic_ref": "5615200", "wikidata": "Q56389852"}}, "geometry": {"type": "Point", "coordinates": [21.0685784, 48.5864673]}}, {"type": "Feature", "properties": {"type": "node", "id": 705471310, "tags": {"name": "Ve\u013ek\u00e1 Ida", "railway": "station"}}, "geometry": {"type": "Point", "coordinates": [21.1719554, 48.5912282]}}, {"type": "Feature", "properties": {"type": "node", "id": 619336549, "tags": {"name": "Haniska pri Ko\u0161iciach", "railway": "station"}}, "geometry": {"type": "Point", "coordinates": [21.2484656, 48.6313626]}}, {"type": "Feature", "properties": {"type": "node", "id": 272305921, "tags": {"name": "\u010ca\u0148a", "public_transport": "station", "railway": "station", "train": "yes"}}, "geometry": {"type": "Point", "coordinates": [21.3096194, 48.6096724]}}, {"type": "Feature", "properties": {"type": "node", "id": 616361629, "tags": {"internet_access": "no", "name": "Kr\u00e1sna nad Horn\u00e1dom", "operator": "\u017dSR", "public_transport": "station", "railway": "station", "train": "yes", "wikidata": "Q16507970", "wikipedia": "fr:Gare de Kr\u00e1sna nad Horn\u00e1dom"}}, "geometry": {"type": "Point", "coordinates": [21.2958796, 48.6700375]}}, {"type": "Feature", "properties": {"type": "node", "id": 379606785, "tags": {"name": "Ni\u017en\u00e1 My\u0161\u013ea", "railway": "station"}}, "geometry": {"type": "Point", "coordinates": [21.3717982, 48.6292621]}}, {"type": "Feature", "properties": {"type": "node", "id": 1829806702, "tags": {"name": "Horn\u00e1d \u0160RT", "railway": "station"}}, "geometry": {"type": "Point", "coordinates": [21.3542676, 48.6505209]}}, {"type": "Feature", "properties": {"type": "node", "id": 4084211603, "tags": {"name": "Slovensk\u00e9 Nov\u00e9 Mesto", "name:hu": "\u00dajhely", "railway": "station"}}, "geometry": {"type": "Point", "coordinates": [21.6673833, 48.4030538]}}, {"type": "Feature", "properties": {"type": "node", "id": 1385112152, "tags": {"name": "Streda nad Bodrogom", "railway": "station"}}, "geometry": {"type": "Point", "coordinates": [21.7577196, 48.3903615]}}, {"type": "Feature", "properties": {"type": "node", "id": 379590190, "tags": {"name": "Slanec", "railway": "station"}}, "geometry": {"type": "Point", "coordinates": [21.4888967, 48.6436345]}}, {"type": "Feature", "properties": {"type": "node", "id": 1829740524, "tags": {"name": "Slan\u010d\u00edk \u0160RT", "railway": "station"}}, "geometry": {"type": "Point", "coordinates": [21.475281, 48.6667634]}}, {"type": "Feature", "properties": {"type": "node", "id": 401864265, "tags": {"name": "Kuzmice", "railway": "station"}}, "geometry": {"type": "Point", "coordinates": [21.5793778, 48.5816663]}}, {"type": "Feature", "properties": {"type": "node", "id": 1829807582, "tags": {"name": "Slivn\u00edk \u0160RT", "railway": "station"}}, "geometry": {"type": "Point", "coordinates": [21.5736586, 48.6006831]}}, {"type": "Feature", "properties": {"type": "node", "id": 1829807583, "tags": {"name": "Slivn\u00edk", "railway": "station"}}, "geometry": {"type": "Point", "coordinates": [21.5733835, 48.6006145]}}, {"type": "Feature", "properties": {"type": "node", "id": 572502547, "tags": {"name": "Micha\u013eany", "name:hu": "Als\u00f3mih\u00e1lyi", "name:sk": "Micha\u013eany", "railway": "station"}}, "geometry": {"type": "Point", "coordinates": [21.626557, 48.5213351]}}, {"type": "Feature", "properties": {"type": "node", "id": 1832457351, "tags": {"name": "\u010ce\u013eovce", "railway": "station"}}, "geometry": {"type": "Point", "coordinates": [21.6307729, 48.6124104]}}, {"type": "Feature", "properties": {"type": "node", "id": 1831162904, "tags": {"name": "\u00dapor", "name:hu": "Upor", "name:sk": "\u00dapor", "railway": "station"}}, "geometry": {"type": "Point", "coordinates": [21.6716963, 48.5770976]}}, {"type": "Feature", "properties": {"type": "node", "id": 27133417, "tags": {"name": "Trebi\u0161ov", "name:de": "Trebischau", "name:hu": "T\u0151keterebes", "name:pl": "Trzebisz\u00f3w", "name:ru": "\u0422\u0440\u0435\u0431\u0438\u0448\u043e\u0432", "railway": "station", "railway:ref": "Tv", "wikidata": "Q55698474"}}, "geometry": {"type": "Point", "coordinates": [21.7119332, 48.6330245]}}, {"type": "Feature", "properties": {"type": "node", "id": 1829912872, "tags": {"name": "Trebi\u0161ov \u0160RT", "railway": "station"}}, "geometry": {"type": "Point", "coordinates": [21.7292435, 48.6405429]}}, {"type": "Feature", "properties": {"type": "node", "id": 1831154548, "tags": {"name": "Hrini\u0161te", "railway": "station"}}, "geometry": {"type": "Point", "coordinates": [21.7757877, 48.652282]}}, {"type": "Feature", "properties": {"type": "node", "id": 719650900, "tags": {"name": "Ru\u017e\u00edn", "public_transport": "stop_position", "railway": "stop", "train": "yes"}}, "geometry": {"type": "Point", "coordinates": [21.1092873, 48.8749752]}}, {"type": "Feature", "properties": {"type": "node", "id": 5234632565, "tags": {"name": "Ru\u017e\u00edn", "public_transport": "stop_position", "railway": "stop", "train": "yes"}}, "geometry": {"type": "Point", "coordinates": [21.1093408, 48.8749217]}}, {"type": "Feature", "properties": {"type": "node", "id": 719650894, "tags": {"name": "Mal\u00e1 Lodina", "railway": "station"}}, "geometry": {"type": "Point", "coordinates": [21.1340369, 48.87394]}}, {"type": "Feature", "properties": {"type": "node", "id": 1786317295, "tags": {"internet_access": "no", "is_in": "Ko\u0161ice IV, Ko\u0161ick\u00fd kraj, V\u00fdchodn\u00e9 Slovensko, Slovensko", "name": "Barca", "operator": "\u017dSR", "public_transport": "station", "railway": "station", "train": "yes", "wikidata": "Q55810038", "wikipedia": "hu:B\u00e1rca meg\u00e1ll\u00f3hely"}}, "geometry": {"type": "Point", "coordinates": [21.276268, 48.6792415]}}, {"type": "Feature", "properties": {"type": "node", "id": 479821907, "tags": {"internet_access": "no", "name": "Alpinka", "public_transport": "station", "railway": "station", "toilets:wheelchair": "no", "train": "yes", "wheelchair": "no", "wikimedia_commons": "File:Alpinka Train Station.jpg"}}, "geometry": {"type": "Point", "coordinates": [21.1834661, 48.7598349]}}, {"type": "Feature", "properties": {"type": "node", "id": 479821836, "tags": {"internet_access": "no", "internet_access:fee": "no", "name": "\u010cerme\u013e", "operator": "Ko\u0161ick\u00e1 detsk\u00e1 historick\u00e1 \u017eeleznica", "public_transport": "station", "railway": "station", "toilets:wheelchair": "no", "train": "yes", "wheelchair": "no"}}, "geometry": {"type": "Point", "coordinates": [21.2277602, 48.749965]}}, {"type": "Feature", "properties": {"type": "node", "id": 1797176760, "tags": {"name": "Ko\u0161ice", "name:cs": "Ko\u0161ice", "name:de": "Kaschau", "name:he": "\u05e7\u05d5\u05e9\u05d9\u05e6\u05d4", "name:hu": "Kassa", "name:ja": "\u30b3\u30b7\u30c4\u30a7", "name:la": "Cassovia", "name:lt": "Ko\u0161ic\u0117", "name:pl": "Koszyce", "name:ro": "Ca\u015fovia", "name:ru": "\u041a\u043e\u0448\u0438\u0446\u0435", "name:sr": "\u041a\u043e\u0448\u0438\u0446\u0435", "name:tr": "Cana", "name:uk": "\u041a\u043e\u0448\u0438\u0446\u0456", "old_name": "Kassa", "old_name:fr": "Cassovie", "operator": "\u017dSR", "public_transport": "stop_position", "railway": "stop", "railway:ref": "Ks", "ref": "136002", "train": "yes"}}, "geometry": {"type": "Point", "coordinates": [21.2687462, 48.722871]}}, {"type": "Feature", "properties": {"type": "node", "id": 7316507989, "tags": {"air_conditioning": "yes", "internet_access": "wlan", "internet_access:fee": "no", "name": "Ko\u0161ice", "name:cs": "Ko\u0161ice", "name:de": "Kaschau", "name:he": "\u05e7\u05d5\u05e9\u05d9\u05e6\u05d4", "name:hu": "Kassa", "name:ja": "\u30b3\u30b7\u30c4\u30a7", "name:la": "Cassovia", "name:lt": "Ko\u0161ic\u0117", "name:pl": "Koszyce", "name:ro": "Ca\u015fovia", "name:ru": "\u041a\u043e\u0448\u0438\u0446\u0435", "name:sr": "\u041a\u043e\u0448\u0438\u0446\u0435", "name:tr": "Cana", "name:uk": "\u041a\u043e\u0448\u0438\u0446\u0456", "old_name": "Kassa", "old_name:fr": "Cassovie", "public_transport": "station", "railway": "station", "toilets:wheelchair": "yes", "train": "yes", "website": "https://stanicakosice.sk/", "wheelchair": "limited", "wikidata": "Q801037", "wikipedia": "sk:\u017delezni\u010dn\u00e1 stanica Ko\u0161ice"}}, "geometry": {"type": "Point", "coordinates": [21.2686703, 48.7228349]}}, {"type": "Feature", "properties": {"type": "node", "id": 27177012, "tags": {"name": "Kosto\u013eany nad Horn\u00e1dom", "railway": "station", "wheelchair": "limited", "wikidata": "Q65767125"}}, "geometry": {"type": "Point", "coordinates": [21.2460667, 48.7957656]}}, {"type": "Feature", "properties": {"type": "node", "id": 206175238, "tags": {"name": "Kysak", "public_transport": "stop_position", "railway": "station", "toilets:wheelchair": "yes", "train": "yes", "wheelchair": "limited", "wikidata": "Q801043"}}, "geometry": {"type": "Point", "coordinates": [21.2239458, 48.8528786]}}, {"type": "Feature", "properties": {"type": "node", "id": 410288702, "tags": {"name": "Li\u010dartovce", "railway": "station"}}, "geometry": {"type": "Point", "coordinates": [21.2410643, 48.873339]}}, {"type": "Feature", "properties": {"type": "node", "id": 202875162, "tags": {"alt_name:de": "Margetzan", "name": "Margecany", "name:de": "Margareten", "name:hu": "Margitfalva", "old_name:hu": "Margitfalu", "railway": "station", "train": "yes"}}, "geometry": {"type": "Point", "coordinates": [21.0133336, 48.8947491]}}, {"type": "Feature", "properties": {"type": "node", "id": 5234632585, "tags": {"alt_name:de": "Margetzan", "name": "Margecany", "name:de": "Margareten", "name:hu": "Margitfalva", "old_name:hu": "Margitfalu", "railway": "station", "train": "yes"}}, "geometry": {"type": "Point", "coordinates": [21.0133237, 48.8947009]}}, {"type": "Feature", "properties": {"type": "node", "id": 683508646, "tags": {"name": "Drienovsk\u00e1 Nov\u00e1 Ves", "railway": "station"}}, "geometry": {"type": "Point", "coordinates": [21.2452428, 48.9114833]}}, {"type": "Feature", "properties": {"type": "node", "id": 346420319, "tags": {"name": "Pre\u0161ov", "name:lt": "Pre\u0161ovas", "name:sk": "Pre\u0161ov", "name:uk": "\u041f\u0440\u044f\u0448\u0456\u0432", "railway": "station", "railway:ref": "Pr", "toilets:wheelchair": "yes", "wheelchair": "yes", "wikidata": "Q54328697"}}, "geometry": {"type": "Point", "coordinates": [21.2489735, 48.9834031]}}, {"type": "Feature", "properties": {"type": "node", "id": 384621924, "tags": {"name": "\u0160ari\u0161sk\u00e9 L\u00faky", "railway": "station", "wikidata": "Q67480510"}}, "geometry": {"type": "Point", "coordinates": [21.2671349, 49.0165822]}}, {"type": "Feature", "properties": {"type": "node", "id": 1180654829, "tags": {"name": "Ve\u013ek\u00fd \u0160ari\u0161", "name:de": "Gro\u00df-Scharosch", "name:hu": "Nagys\u00e1ros", "railway": "station", "wheelchair": "limited"}}, "geometry": {"type": "Point", "coordinates": [21.2029805, 49.0447455]}}, {"type": "Feature", "properties": {"type": "node", "id": 330448175, "tags": {"name": "Kapu\u0161any pri Pre\u0161ove", "name:pl": "Kapuszany", "railway": "station"}}, "geometry": {"type": "Point", "coordinates": [21.3204493, 49.0438601]}}, {"type": "Feature", "properties": {"type": "node", "id": 379606797, "tags": {"name": "Ruskov", "railway": "station"}}, "geometry": {"type": "Point", "coordinates": [21.4288757, 48.673092]}}, {"type": "Feature", "properties": {"type": "node", "id": 1839989866, "tags": {"name": "Se\u010dovce", "railway": "station"}}, "geometry": {"type": "Point", "coordinates": [21.6660477, 48.7041083]}}, {"type": "Feature", "properties": {"type": "node", "id": 243980648, "tags": {"name": "Ni\u017en\u00fd Hrabovec", "railway": "station"}}, "geometry": {"type": "Point", "coordinates": [21.7518708, 48.8570439]}}, {"type": "Feature", "properties": {"type": "node", "id": 1839989868, "tags": {"name": "So\u013e", "railway": "station"}}, "geometry": {"type": "Point", "coordinates": [21.6005078, 48.9319741]}}, {"type": "Feature", "properties": {"type": "node", "id": 330448113, "tags": {"name": "Lipn\u00edky", "railway": "station"}}, "geometry": {"type": "Point", "coordinates": [21.405471, 49.0490395]}}, {"type": "Feature", "properties": {"type": "node", "id": 1839989858, "tags": {"name": "Hanu\u0161ovce nad Top\u013eou", "railway": "station"}}, "geometry": {"type": "Point", "coordinates": [21.5198709, 49.0188359]}}, {"type": "Feature", "properties": {"type": "node", "id": 330447992, "tags": {"name": "\u010cierne nad Top\u013eou", "railway": "station"}}, "geometry": {"type": "Point", "coordinates": [21.5693403, 48.9899459]}}, {"type": "Feature", "properties": {"type": "node", "id": 990162289, "tags": {"is_in": "Vranov nad Top\u013eou", "name": "Vranov nad Top\u013eou", "railway": "station", "wikidata": "Q55281187"}}, "geometry": {"type": "Point", "coordinates": [21.6732538, 48.8905713]}}, {"type": "Feature", "properties": {"type": "node", "id": 306329102, "tags": {"name": "Tatransk\u00e1 Lomnica", "name:de": "Tatralomnitz", "name:hu": "T\u00e1tralomnic", "name:pl": "Tatrza\u0144ska \u0141omnica", "public_transport": "stop_position", "railway": "stop", "train": "yes"}}, "geometry": {"type": "Point", "coordinates": [20.2793955, 49.1646533]}}, {"type": "Feature", "properties": {"type": "node", "id": 7745619336, "tags": {"name": "Studen\u00fd Potok", "railway": "station"}}, "geometry": {"type": "Point", "coordinates": [20.3545975, 49.1090346]}}, {"type": "Feature", "properties": {"type": "node", "id": 388032842, "tags": {"name": "Ke\u017emarok", "railway": "station", "toilets:wheelchair": "no", "wheelchair": "no", "wikidata": "Q15119683"}}, "geometry": {"type": "Point", "coordinates": [20.4236433, 49.1395262]}}, {"type": "Feature", "properties": {"type": "node", "id": 430238973, "tags": {"name": "Ke\u017emarok zast\u00e1vka", "railway": "station", "wheelchair": "no"}}, "geometry": {"type": "Point", "coordinates": [20.429751, 49.15007]}}, {"type": "Feature", "properties": {"type": "node", "id": 6276760385, "tags": {"name": "Spi\u0161sk\u00e1 Bel\u00e1 n.", "railway": "station"}}, "geometry": {"type": "Point", "coordinates": [20.4514478, 49.1867222]}}, {"type": "Feature", "properties": {"type": "node", "id": 428910960, "tags": {"name": "Spi\u0161sk\u00e1 Bel\u00e1 zast\u00e1vka", "railway": "station"}}, "geometry": {"type": "Point", "coordinates": [20.4716857, 49.1845554]}}, {"type": "Feature", "properties": {"type": "node", "id": 430244441, "tags": {"name": "Bu\u0161ovce", "railway": "station"}}, "geometry": {"type": "Point", "coordinates": [20.4934972, 49.218669]}}, {"type": "Feature", "properties": {"type": "node", "id": 430092164, "tags": {"name": "Podhorany pri Ke\u017emarku", "railway": "station"}}, "geometry": {"type": "Point", "coordinates": [20.4912498, 49.2314119]}}, {"type": "Feature", "properties": {"type": "node", "id": 430255458, "tags": {"name": "Podol\u00ednec", "railway": "station", "wheelchair": "no"}}, "geometry": {"type": "Point", "coordinates": [20.5265277, 49.2552587]}}, {"type": "Feature", "properties": {"type": "node", "id": 1180654096, "tags": {"name": "Lipany", "name:de": "Siebenlinden", "name:hu": "H\u00e9th\u00e1rs", "name:la": "Septemtiliae", "railway": "station", "wikidata": "Q56692158"}}, "geometry": {"type": "Point", "coordinates": [20.9599934, 49.1520021]}}, {"type": "Feature", "properties": {"type": "node", "id": 430268045, "tags": {"name": "Plavnica", "railway": "station"}}, "geometry": {"type": "Point", "coordinates": [20.7792794, 49.2878631]}}, {"type": "Feature", "properties": {"type": "node", "id": 430097959, "tags": {"name": "Plave\u010d", "railway": "station", "railway:ref": "Pb", "wikidata": "Q11819505"}}, "geometry": {"type": "Point", "coordinates": [20.8511481, 49.2694014]}}, {"type": "Feature", "properties": {"type": "node", "id": 972900338, "tags": {"name": "Pust\u00e9 Pole", "public_transport": "station", "railway": "station"}}, "geometry": {"type": "Point", "coordinates": [20.9147721, 49.213722]}}, {"type": "Feature", "properties": {"type": "node", "id": 430092097, "tags": {"name": "Star\u00e1 \u013dubov\u0148a", "name:pl": "Stara Lubowla", "railway": "station"}}, "geometry": {"type": "Point", "coordinates": [20.6802338, 49.3083368]}}, {"type": "Feature", "properties": {"type": "node", "id": 991023310, "tags": {"name": "Sabinov", "name:de": "Zeben", "name:hu": "Kisszeben", "name:la": "Cibinium", "railway": "station", "wheelchair": "limited", "wikidata": "Q9332590"}}, "geometry": {"type": "Point", "coordinates": [21.0887052, 49.1032031]}}, {"type": "Feature", "properties": {"type": "node", "id": 677212740, "tags": {"name": "Raslavice", "railway": "station"}}, "geometry": {"type": "Point", "coordinates": [21.3141515, 49.1494382]}}, {"type": "Feature", "properties": {"type": "node", "id": 677212818, "tags": {"name": "Bardejov", "name:de": "Bartfeld", "name:hu": "B\u00e1rtfa", "name:pl": "Bardej\u00f3w", "name:sk": "Bardejov", "railway": "station", "wikidata": "Q9165770"}}, "geometry": {"type": "Point", "coordinates": [21.2831228, 49.2965559]}}, {"type": "Feature", "properties": {"type": "node", "id": 1829806705, "tags": {"name": "Ve\u013ek\u00fd Hore\u0161", "railway": "station"}}, "geometry": {"type": "Point", "coordinates": [21.91384, 48.3903152]}}, {"type": "Feature", "properties": {"type": "node", "id": 1399075734, "tags": {"name": "Priben\u00edk", "railway": "station", "source": "survey"}}, "geometry": {"type": "Point", "coordinates": [21.9992718, 48.3994309]}}, {"type": "Feature", "properties": {"type": "node", "id": 1829822678, "tags": {"name": "Dobr\u00e1", "railway": "station"}}, "geometry": {"type": "Point", "coordinates": [22.0248591, 48.4070564]}}, {"type": "Feature", "properties": {"type": "node", "id": 27175020, "tags": {"name": "\u010cierna nad Tisou", "name:pl": "Czerna nad Cis\u0105", "railway": "station", "toilets:wheelchair": "yes", "wheelchair": "limited", "wikidata": "Q8079774"}}, "geometry": {"type": "Point", "coordinates": [22.0870669, 48.4199981]}}, {"type": "Feature", "properties": {"type": "node", "id": 1829892179, "tags": {"name": "Hatalov", "railway": "station"}}, "geometry": {"type": "Point", "coordinates": [21.8700378, 48.6518103]}}, {"type": "Feature", "properties": {"type": "node", "id": 1829892199, "tags": {"name": "Vojany", "railway": "station"}}, "geometry": {"type": "Point", "coordinates": [21.9977354, 48.5715876]}}, {"type": "Feature", "properties": {"type": "node", "id": 1829892172, "tags": {"name": "Drah\u0148ov", "railway": "station"}}, "geometry": {"type": "Point", "coordinates": [21.9717472, 48.597282]}}, {"type": "Feature", "properties": {"type": "node", "id": 1829892167, "tags": {"name": "Budkovce \u0160RT", "railway": "station"}}, "geometry": {"type": "Point", "coordinates": [21.9288605, 48.6281127]}}, {"type": "Feature", "properties": {"type": "node", "id": 1829892169, "tags": {"name": "Budkovce", "railway": "station"}}, "geometry": {"type": "Point", "coordinates": [21.9238398, 48.6320187]}}, {"type": "Feature", "properties": {"type": "node", "id": 1829892186, "tags": {"name": "Vojany \u0160RT", "railway": "station"}}, "geometry": {"type": "Point", "coordinates": [22.0255099, 48.5601915]}}, {"type": "Feature", "properties": {"type": "node", "id": 1830876562, "tags": {"name": "Ve\u013ek\u00e9 Kapu\u0161any", "name:pl": "Wielkie Kapuszany", "railway": "station"}}, "geometry": {"type": "Point", "coordinates": [22.085644, 48.5547492]}}, {"type": "Feature", "properties": {"type": "node", "id": 1830876561, "tags": {"name": "Ma\u0165ovce", "railway": "station"}}, "geometry": {"type": "Point", "coordinates": [22.1216898, 48.5565741]}}, {"type": "Feature", "properties": {"type": "node", "id": 1830876557, "tags": {"name": "Ma\u0165ovce \u0160RT", "railway": "station"}}, "geometry": {"type": "Point", "coordinates": [22.1296882, 48.5592121]}}, {"type": "Feature", "properties": {"type": "node", "id": 1829927002, "tags": {"name": "B\u00e1novce nad Ondavou", "railway": "station", "railway:ref": "Bu", "wikidata": "Q84177757"}}, "geometry": {"type": "Point", "coordinates": [21.8346089, 48.6791239]}}, {"type": "Feature", "properties": {"type": "node", "id": 1831154617, "tags": {"name": "Michalovce", "public_transport": "stop_position", "railway": "stop", "railway:ref": "Me", "train": "yes"}}, "geometry": {"type": "Point", "coordinates": [21.8986086, 48.7507193]}}, {"type": "Feature", "properties": {"type": "node", "id": 7419981499, "tags": {"name": "Michalovce", "railway": "station"}}, "geometry": {"type": "Point", "coordinates": [21.8984945, 48.7507218]}}, {"type": "Feature", "properties": {"type": "node", "id": 1831154647, "tags": {"name": "Petrovce nad Laborcom", "railway": "station"}}, "geometry": {"type": "Point", "coordinates": [21.8601024, 48.7978072]}}, {"type": "Feature", "properties": {"type": "node", "id": 1780131104, "tags": {"name": "Str\u00e1\u017eske", "name:de": "Straschke", "name:hu": "\u0150rmez\u0151", "old_name": "Stra\u017esk\u00e9", "public_transport": "station", "railway": "station"}}, "geometry": {"type": "Point", "coordinates": [21.8248599, 48.8676501]}}, {"type": "Feature", "properties": {"type": "node", "id": 413527698, "tags": {"name": "Humenn\u00e9", "name:de": "Homenau", "name:hu": "Homonna", "name:ru": "\u0413\u0443\u043c\u0435\u043d\u043d\u0435", "public_transport": "station", "railway": "station", "railway:ref": "Hu", "wikidata": "Q56072239"}}, "geometry": {"type": "Point", "coordinates": [21.901208, 48.9301374]}}, {"type": "Feature", "properties": {"type": "node", "id": 1601010060, "tags": {"name": "Udavsk\u00e9", "railway": "station"}}, "geometry": {"type": "Point", "coordinates": [21.9470976, 48.9657183]}}, {"type": "Feature", "properties": {"type": "node", "id": 1168629570, "tags": {"name": "Kamenica nad Cirochou", "railway": "station"}}, "geometry": {"type": "Point", "coordinates": [21.9902987, 48.9339042]}}, {"type": "Feature", "properties": {"type": "node", "id": 1831154552, "tags": {"name": "Ko\u0161kovce", "railway": "station"}}, "geometry": {"type": "Point", "coordinates": [21.9546678, 49.0514475]}}, {"type": "Feature", "properties": {"type": "node", "id": 1168629737, "tags": {"name": "Dlh\u00e9 nad Cirochou", "railway": "station"}}, "geometry": {"type": "Point", "coordinates": [22.0551926, 48.9548919]}}, {"type": "Feature", "properties": {"type": "node", "id": 197533061, "tags": {"name": "Snina", "railway": "station"}}, "geometry": {"type": "Point", "coordinates": [22.1731084, 48.9837784]}}, {"type": "Feature", "properties": {"type": "node", "id": 190123331, "tags": {"name": "Snina mesto", "public_transport": "station", "railway": "station", "train": "yes"}}, "geometry": {"type": "Point", "coordinates": [22.1566295, 48.9898956]}}, {"type": "Feature", "properties": {"type": "node", "id": 245549197, "tags": {"name": "Stak\u010d\u00edn", "railway": "station"}}, "geometry": {"type": "Point", "coordinates": [22.2178804, 48.9960503]}}, {"type": "Feature", "properties": {"type": "node", "id": 1831154676, "tags": {"name": "Radva\u0148 nad Laborcom", "railway": "station"}}, "geometry": {"type": "Point", "coordinates": [21.9219725, 49.1348383]}}, {"type": "Feature", "properties": {"type": "node", "id": 1831154613, "tags": {"name": "Medzilaborce", "name:pl": "Medzilaborce", "railway": "station"}}, "geometry": {"type": "Point", "coordinates": [21.9050661, 49.2618533]}}]}