{"type": "FeatureCollection", "features": [{"type": "Feature", "properties": {"type": "node", "id": 1358345535, "tags": {"country": "Pyrgos municipality,Ilia prefecture,Dytiki Ellada,Greece", "int_name": "Katakolo", "name": "\u039a\u03b1\u03c4\u03ac\u03ba\u03bf\u03bb\u03bf", "name:de": "Katakolon", "name:el": "\u039a\u03b1\u03c4\u03ac\u03ba\u03bf\u03bb\u03bf", "name:en": "Katakolo", "name:fr": "Katakolo", "name:ru": "\u041a\u0430\u0442\u0430\u043a\u043e\u043b\u043e", "population": "595", "public_transport": "station", "railway": "station"}}, "geometry": {"type": "Point", "coordinates": [21.3166396, 37.6485781]}}, {"type": "Feature", "properties": {"type": "node", "id": 1345223145, "tags": {"int_name": "Alfios", "name": "\u0391\u03bb\u03c6\u03b5\u03b9\u03cc\u03c2", "name:el": "\u0391\u03bb\u03c6\u03b5\u03b9\u03cc\u03c2", "name:en": "Alfeios", "name:ru": "\u0410\u043b\u0444\u0435\u0439\u043e\u0441", "railway": "station"}}, "geometry": {"type": "Point", "coordinates": [21.5045896, 37.6534732]}}, {"type": "Feature", "properties": {"type": "node", "id": 2623773495, "tags": {"int_name": "Salmoni", "name": "\u03a3\u03b1\u03bb\u03bc\u03ce\u03bd\u03b7", "name:el": "\u03a3\u03b1\u03bb\u03bc\u03ce\u03bd\u03b7", "name:en": "Salmoni", "name:ru": "\u0421\u0430\u043b\u043c\u043e\u043d\u0438", "railway": "station"}}, "geometry": {"type": "Point", "coordinates": [21.5398292, 37.6535441]}}, {"type": "Feature", "properties": {"type": "node", "id": 2623755188, "tags": {"int_name": "Strefi", "name": "\u03a3\u03c4\u03c1\u03ad\u03c6\u03b9", "name:el": "\u03a3\u03c4\u03c1\u03ad\u03c6\u03b9", "name:en": "Strefi", "name:ru": "\u0421\u0442\u0440\u0435\u0444\u0438", "railway": "station"}}, "geometry": {"type": "Point", "coordinates": [21.5574533, 37.6585316]}}, {"type": "Feature", "properties": {"type": "node", "id": 296331195, "tags": {"name": "\u03a0\u03cd\u03c1\u03b3\u03bf\u03c2", "name:de": "Pyrgos", "name:el": "\u03a0\u03cd\u03c1\u03b3\u03bf\u03c2", "name:en": "Pyrgos", "name:fr": "Pyrgos", "name:ru": "\u041f\u0438\u0440\u0433\u043e\u0441", "public_transport": "station", "railway": "station"}}, "geometry": {"type": "Point", "coordinates": [21.4352884, 37.6761406]}}, {"type": "Feature", "properties": {"type": "node", "id": 296343143, "tags": {"int_name": "Archea Olympia", "name": "\u0391\u03c1\u03c7\u03b1\u03af\u03b1 \u039f\u03bb\u03c5\u03bc\u03c0\u03af\u03b1", "name:en": "Ancient Olympia", "name:fr": "Ancienne-Olympie", "name:ru": "\u0410\u0440\u0445\u0435\u044f \u041e\u043b\u0438\u043c\u043f\u0438\u044f", "railway": "station"}}, "geometry": {"type": "Point", "coordinates": [21.6266964, 37.6455478]}}, {"type": "Feature", "properties": {"type": "node", "id": 1367379130, "tags": {"disused:railway": "station", "name": "\u0391\u03c3\u03c0\u03c1\u03cc\u03c7\u03c9\u03bc\u03b1", "network": "\u039f.\u03a3.\u0395.", "operator": "\u039f.\u03a3.\u0395.", "public_transport": "stop_position", "railway": "stop", "train": "yes"}}, "geometry": {"type": "Point", "coordinates": [22.0638604, 37.0576482]}}, {"type": "Feature", "properties": {"type": "node", "id": 7262345968, "tags": {"public_transport": "stop_position", "source": "Maxar Premium Imagery (2020-03-04)", "train": "yes"}}, "geometry": {"type": "Point", "coordinates": [22.3214393, 37.4723083]}}, {"type": "Feature", "properties": {"type": "node", "id": 7262345977, "tags": {"public_transport": "stop_position", "source": "Maxar Premium Imagery (2020-03-04)", "train": "yes"}}, "geometry": {"type": "Point", "coordinates": [22.3225693, 37.47284]}}, {"type": "Feature", "properties": {"type": "node", "id": 4370299161, "tags": {"ele": "712", "name": "\u039a\u03b1\u03bb\u03ac\u03b2\u03c1\u03c5\u03c4\u03b1", "name:de": "Kalavryta", "name:el": "\u039a\u03b1\u03bb\u03ac\u03b2\u03c1\u03c5\u03c4\u03b1", "name:en": "Kalavryta", "operator": "OSE", "railway": "station"}}, "geometry": {"type": "Point", "coordinates": [22.1099367, 38.0335406]}}, {"type": "Feature", "properties": {"type": "node", "id": 2228587103, "tags": {"ele": "692", "name": "\u039a\u03b5\u03c1\u03c0\u03af\u03bd\u03b7", "name:de": "Kerpini", "railway": "stop"}}, "geometry": {"type": "Point", "coordinates": [22.1445194, 38.052793]}}, {"type": "Feature", "properties": {"type": "node", "id": 2329909929, "tags": {"ele": "625", "name": "\u0396\u03b1\u03c7\u03bb\u03c9\u03c1\u03bf\u03cd-\u039c\u03ad\u03b3\u03b1 \u03a3\u03c0\u03ae\u03bb\u03b1\u03b9\u03bf", "name:de": "Zachlorou-Megaspil\u00e4on", "railway": "stop"}}, "geometry": {"type": "Point", "coordinates": [22.1646042, 38.0941667]}}, {"type": "Feature", "properties": {"type": "node", "id": 3921854635, "tags": {"name": "Portes", "public_transport": "stop_position", "railway": "halt", "train": "yes"}}, "geometry": {"type": "Point", "coordinates": [22.1602551, 38.1087006]}}, {"type": "Feature", "properties": {"type": "node", "id": 2228500809, "tags": {"ele": "518", "name": "\u03a4\u03c1\u03af\u03ba\u03bb\u03b9\u03b1", "name:de": "Triklia", "railway": "stop"}}, "geometry": {"type": "Point", "coordinates": [22.166943, 38.1309641]}}, {"type": "Feature", "properties": {"type": "node", "id": 3707251889, "tags": {"ele": "518", "name": "\u03a3.\u03a3. \u03a4\u03c1\u03af\u03ba\u03bb\u03b9\u03b1", "name:de": "Triklia", "railway": "station"}}, "geometry": {"type": "Point", "coordinates": [22.1670479, 38.1309488]}}, {"type": "Feature", "properties": {"type": "node", "id": 4370294339, "tags": {"ele": "125", "name": "\u039d\u03b9\u03ac\u03bc\u03b1\u03c4\u03b1;\u03a3.\u03a3. \u039d\u03b9\u03ac\u03bc\u03b1\u03c4\u03b1", "name:de": "Niamata", "railway": "station"}}, "geometry": {"type": "Point", "coordinates": [22.1763004, 38.154829]}}, {"type": "Feature", "properties": {"type": "node", "id": 8042807433, "tags": {"public_transport": "stop_position", "railway": "stop", "train": "yes"}}, "geometry": {"type": "Point", "coordinates": [22.3450655, 38.1540449]}}, {"type": "Feature", "properties": {"type": "node", "id": 8042807434, "tags": {"public_transport": "stop_position", "railway": "stop", "train": "yes"}}, "geometry": {"type": "Point", "coordinates": [22.3449576, 38.1539727]}}, {"type": "Feature", "properties": {"type": "node", "id": 6412700590, "tags": {"name": "\u039b\u03c5\u03ba\u03bf\u03c0\u03bf\u03c1\u03b9\u03ac", "name:fr": "Lykoporia", "public_transport": "stop_position", "source": "Bing (2019-04-17)", "train": "yes"}}, "geometry": {"type": "Point", "coordinates": [22.5066631, 38.1246064]}}, {"type": "Feature", "properties": {"type": "node", "id": 6412700591, "tags": {"name": "\u039b\u03c5\u03ba\u03bf\u03c0\u03bf\u03c1\u03b9\u03ac", "name:fr": "Lykoporia", "public_transport": "stop_position", "source": "Bing (2019-04-17)", "train": "yes"}}, "geometry": {"type": "Point", "coordinates": [22.5066954, 38.1246318]}}, {"type": "Feature", "properties": {"type": "node", "id": 3043415977, "tags": {"name": "\u0396\u03b5\u03c5\u03b3\u03bf\u03bb\u03b1\u03c4\u03b9\u03cc", "railway": "station"}}, "geometry": {"type": "Point", "coordinates": [22.805621, 37.9259619]}}, {"type": "Feature", "properties": {"type": "node", "id": 3155138146, "tags": {"name": "\u0396\u03b5\u03c5\u03b3\u03bf\u03bb\u03b1\u03c4\u03b9\u03cc", "name:fr": "Zevgolateio", "public_transport": "stop_position", "railway": "stop", "train": "yes"}}, "geometry": {"type": "Point", "coordinates": [22.8046182, 37.9263374]}}, {"type": "Feature", "properties": {"type": "node", "id": 1407488629, "tags": {"name": "\u0396\u03b5\u03c5\u03b3\u03bf\u03bb\u03b1\u03c4\u03b9\u03cc", "name:fr": "Zevgolateio", "public_transport": "stop_position", "train": "yes"}}, "geometry": {"type": "Point", "coordinates": [22.8066551, 37.92553]}}, {"type": "Feature", "properties": {"type": "node", "id": 354052660, "tags": {"name": "\u039a\u03cc\u03c1\u03b9\u03bd\u03b8\u03bf\u03c2", "name:de": "Korinth", "name:el": "\u039a\u03cc\u03c1\u03b9\u03bd\u03b8\u03bf\u03c2", "name:en": "Corinth", "name:es": "Corinto", "name:et": "K\u00f3rinthos", "name:fi": "Korintti", "name:fr": "Corinthe", "name:it": "Corinto", "name:ku": "Kor\u00eent", "name:mi": "Koriniti", "name:mk": "\u041a\u043e\u0440\u0438\u043d\u0442", "name:nl": "Korinthe", "name:ru": "\u041a\u043e\u0440\u0438\u043d\u0444", "public_transport": "stop_position", "railway": "stop", "train": "yes"}}, "geometry": {"type": "Point", "coordinates": [22.9324047, 37.9209312]}}, {"type": "Feature", "properties": {"type": "node", "id": 835489926, "tags": {"name": "\u039a\u03cc\u03c1\u03b9\u03bd\u03b8\u03bf\u03c2", "name:de": "Korinth", "name:el": "\u039a\u03cc\u03c1\u03b9\u03bd\u03b8\u03bf\u03c2", "name:en": "Corinth", "name:es": "Corinto", "name:et": "K\u00f3rinthos", "name:fi": "Korintti", "name:fr": "Corinthe", "name:it": "Corinto", "name:ku": "Kor\u00eent", "name:mi": "Koriniti", "name:mk": "\u041a\u043e\u0440\u0438\u043d\u0442", "name:nl": "Korinthe", "name:ru": "\u041a\u043e\u0440\u0438\u043d\u0444", "public_transport": "stop_position", "railway": "stop", "train": "yes"}}, "geometry": {"type": "Point", "coordinates": [22.932396, 37.920968]}}, {"type": "Feature", "properties": {"type": "node", "id": 835490014, "tags": {"int_name": "Corinth", "name": "\u039a\u03cc\u03c1\u03b9\u03bd\u03b8\u03bf\u03c2", "name:de": "Korinth", "name:el": "\u039a\u03cc\u03c1\u03b9\u03bd\u03b8\u03bf\u03c2", "name:en": "Corinth", "name:es": "Corinto", "name:et": "K\u00f3rinthos", "name:fi": "Korintti", "name:fr": "Corinthe", "name:it": "Corinto", "name:ku": "Kor\u00eent", "name:mi": "Koriniti", "name:mk": "\u041a\u043e\u0440\u0438\u043d\u0442", "name:nl": "Korinthe", "name:ru": "\u041a\u043e\u0440\u0438\u043d\u0444", "public_transport": "stop_position", "railway": "stop", "train": "yes"}}, "geometry": {"type": "Point", "coordinates": [22.9323694, 37.9210815]}}, {"type": "Feature", "properties": {"type": "node", "id": 7792751598, "tags": {"int_name": "Corinth", "name": "\u039a\u03cc\u03c1\u03b9\u03bd\u03b8\u03bf\u03c2", "name:de": "Korinth", "name:el": "\u039a\u03cc\u03c1\u03b9\u03bd\u03b8\u03bf\u03c2", "name:en": "Corinth", "name:es": "Corinto", "name:et": "K\u00f3rinthos", "name:fi": "Korintti", "name:fr": "Corinthe", "name:it": "Corinto", "name:ku": "Kor\u00eent", "name:mi": "Koriniti", "name:mk": "\u041a\u043e\u0440\u0438\u043d\u0442", "name:nl": "Korinthe", "name:ru": "\u041a\u043e\u0440\u0438\u043d\u0444", "public_transport": "station", "railway": "station"}}, "geometry": {"type": "Point", "coordinates": [22.932332, 37.9214056]}}, {"type": "Feature", "properties": {"type": "node", "id": 309957342, "tags": {"name": "\u039a\u03b9\u03ac\u03c4\u03bf", "name:fr": "Kiato", "public_transport": "stop_position", "railway": "stop", "train": "yes"}}, "geometry": {"type": "Point", "coordinates": [22.7348102, 38.0139838]}}, {"type": "Feature", "properties": {"type": "node", "id": 2661766284, "tags": {"name": "\u039a\u03b9\u03ac\u03c4\u03bf", "name:fr": "Kiato", "public_transport": "stop_position", "railway": "stop", "train": "yes"}}, "geometry": {"type": "Point", "coordinates": [22.7346807, 38.0139191]}}, {"type": "Feature", "properties": {"type": "node", "id": 7785744802, "tags": {"name": "\u039a\u03b9\u03ac\u03c4\u03bf", "name:fr": "Kiato", "public_transport": "station", "railway": "station", "train": "yes"}}, "geometry": {"type": "Point", "coordinates": [22.7349625, 38.0140056]}}, {"type": "Feature", "properties": {"type": "node", "id": 6409735388, "tags": {"name": "\u0394\u03b9\u03bc\u03b7\u03bd\u03b9\u03cc", "name:fr": "Diminio", "operator": "\u039f\u03a3\u0395", "public_transport": "station", "railway": "station", "source": "Bing (2019-04-16)", "train": "yes"}}, "geometry": {"type": "Point", "coordinates": [22.7151815, 38.0355096]}}, {"type": "Feature", "properties": {"type": "node", "id": 6409735389, "tags": {"name": "\u0394\u03b9\u03bc\u03b7\u03bd\u03b9\u03cc", "name:fr": "Diminio", "public_transport": "stop_position", "source": "Bing (2019-04-16)", "train": "yes"}}, "geometry": {"type": "Point", "coordinates": [22.7151683, 38.0354968]}}, {"type": "Feature", "properties": {"type": "node", "id": 6409735390, "tags": {"name": "\u0394\u03b9\u03bc\u03b7\u03bd\u03b9\u03cc", "name:fr": "Diminio", "public_transport": "stop_position", "source": "Bing (2019-04-16)", "train": "yes"}}, "geometry": {"type": "Point", "coordinates": [22.7151947, 38.0355225]}}, {"type": "Feature", "properties": {"type": "node", "id": 835280792, "tags": {"int_name": "Agii Theodori", "name": "\u0386\u03b3\u03b9\u03bf\u03b9 \u0398\u03b5\u03bf\u03b4\u03ce\u03c1\u03bf\u03b9", "name:el": "\u0386\u03b3\u03b9\u03bf\u03b9 \u0398\u03b5\u03bf\u03b4\u03ce\u03c1\u03bf\u03b9", "public_transport": "station", "railway": "station"}}, "geometry": {"type": "Point", "coordinates": [23.1370307, 37.9331977]}}, {"type": "Feature", "properties": {"type": "node", "id": 835280795, "tags": {"int_name": "Agii Theodori", "name": "\u0386\u03b3\u03b9\u03bf\u03b9 \u0398\u03b5\u03bf\u03b4\u03ce\u03c1\u03bf\u03b9", "name:fr": "Agii Theodori", "public_transport": "stop_position", "railway": "stop", "train": "yes"}}, "geometry": {"type": "Point", "coordinates": [23.1369814, 37.9332426]}}, {"type": "Feature", "properties": {"type": "node", "id": 835280817, "tags": {"int_name": "Agii Theodori", "name": "\u0386\u03b3\u03b9\u03bf\u03b9 \u0398\u03b5\u03bf\u03b4\u03ce\u03c1\u03bf\u03b9", "name:fr": "Agii Theodori", "public_transport": "stop_position", "railway": "stop", "train": "yes"}}, "geometry": {"type": "Point", "coordinates": [23.1370772, 37.9331432]}}, {"type": "Feature", "properties": {"type": "node", "id": 795867270, "tags": {"name": "\u039a\u03b9\u03bd\u03ad\u03c4\u03b1", "name:fr": "Kineta", "public_transport": "stop_position", "railway": "stop", "train": "yes"}}, "geometry": {"type": "Point", "coordinates": [23.2013336, 37.9655417]}}, {"type": "Feature", "properties": {"type": "node", "id": 833771430, "tags": {"int_name": "Kineta", "name": "\u039a\u03b9\u03bd\u03ad\u03c4\u03b1", "name:el": "\u039a\u03b9\u03bd\u03ad\u03c4\u03b1", "public_transport": "station", "railway": "station", "wheelchair": "yes"}}, "geometry": {"type": "Point", "coordinates": [23.201055, 37.9654267]}}, {"type": "Feature", "properties": {"type": "node", "id": 5777574608, "tags": {"name": "\u039a\u03b9\u03bd\u03ad\u03c4\u03b1", "name:fr": "Kineta", "public_transport": "stop_position", "railway": "stop", "train": "yes"}}, "geometry": {"type": "Point", "coordinates": [23.200821, 37.9652916]}}, {"type": "Feature", "properties": {"type": "node", "id": 833385855, "tags": {"int_name": "Megara", "name": "\u039c\u03ad\u03b3\u03b1\u03c1\u03b1", "name:el": "\u039c\u03ad\u03b3\u03b1\u03c1\u03b1", "name:lt": "Megara", "public_transport": "station", "railway": "station"}}, "geometry": {"type": "Point", "coordinates": [23.3610689, 37.9909531]}}, {"type": "Feature", "properties": {"type": "node", "id": 836837794, "tags": {"name": "\u039c\u03ad\u03b3\u03b1\u03c1\u03b1", "name:fr": "M\u00e9gare", "public_transport": "stop_position", "railway": "stop", "train": "yes"}}, "geometry": {"type": "Point", "coordinates": [23.361019, 37.9910006]}}, {"type": "Feature", "properties": {"type": "node", "id": 836837808, "tags": {"name": "\u039c\u03ad\u03b3\u03b1\u03c1\u03b1", "name:fr": "M\u00e9gare", "public_transport": "stop_position", "train": "yes"}}, "geometry": {"type": "Point", "coordinates": [23.3611209, 37.9909037]}}, {"type": "Feature", "properties": {"type": "node", "id": 4919885662, "tags": {"name": "\u039d\u03ad\u03b1 \u03a0\u03ad\u03c1\u03b1\u03bc\u03bf\u03c2", "name:fr": "Nea Peramos", "public_transport": "stop_position", "railway": "stop", "train": "yes"}}, "geometry": {"type": "Point", "coordinates": [23.4157545, 38.0138939]}}, {"type": "Feature", "properties": {"type": "node", "id": 4919885663, "tags": {"name": "\u039d\u03ad\u03b1 \u03a0\u03ad\u03c1\u03b1\u03bc\u03bf\u03c2", "name:fr": "Nea Peramos", "public_transport": "stop_position", "railway": "stop", "train": "yes"}}, "geometry": {"type": "Point", "coordinates": [23.4132616, 38.0127986]}}, {"type": "Feature", "properties": {"type": "node", "id": 5461368243, "tags": {"internet_access": "no", "name": "\u03a3\u03c4\u03b1\u03bc\u03bd\u03ac", "network": "\u039a\u03c1\u03c5\u03bf\u03bd\u03b5\u03c1\u03af\u03bf\u03c5 - \u0391\u03b3\u03c1\u03b9\u03bd\u03af\u03bf\u03c5", "operator": "\u039f.\u03a3.\u0395.", "public_transport": "station", "railway": "station", "train": "yes"}}, "geometry": {"type": "Point", "coordinates": [21.2985615, 38.5122543]}}, {"type": "Feature", "properties": {"type": "node", "id": 5461390157, "tags": {"internet_access": "no", "name": "\u039a\u03c1\u03c5\u03bf\u03bd\u03ad\u03c1\u03b9", "network": "\u039a\u03c1\u03c5\u03bf\u03bd\u03b5\u03c1\u03af\u03bf\u03c5 - \u0391\u03b3\u03c1\u03b9\u03bd\u03af\u03bf\u03c5", "operator": "\u039f.\u03a3.\u0395.", "public_transport": "station", "railway": "station", "train": "yes"}}, "geometry": {"type": "Point", "coordinates": [21.5882262, 38.3457796]}}, {"type": "Feature", "properties": {"type": "node", "id": 5461391594, "tags": {"internet_access": "no", "name": "\u039a\u03c1\u03c5\u03bf\u03bd\u03ad\u03c1\u03b9 \u039b\u03b9\u03bc\u03ae\u03bd", "network": "\u039a\u03c1\u03c5\u03bf\u03bd\u03b5\u03c1\u03af\u03bf\u03c5 - \u0391\u03b3\u03c1\u03b9\u03bd\u03af\u03bf\u03c5", "operator": "\u039f.\u03a3.\u0395.", "public_transport": "station", "railway": "station", "train": "yes"}}, "geometry": {"type": "Point", "coordinates": [21.5940372, 38.3447191]}}, {"type": "Feature", "properties": {"type": "node", "id": 457129115, "tags": {"name": "\u03a0\u03ac\u03c4\u03c1\u03b1", "name:ar": "\u0628\u0627\u062a\u0631\u0627\u0633", "name:en": "Patras", "name:it": "Patrasso", "operator": "\u039f\u03a3\u0395", "public_transport": "station", "railway": "station", "train": "yes"}}, "geometry": {"type": "Point", "coordinates": [21.7350176, 38.2499135]}}, {"type": "Feature", "properties": {"type": "node", "id": 63116844, "tags": {"int_name": "Rio", "name": "\u03a1\u03af\u03bf", "name:de": "Rio", "name:el": "\u03a1\u03af\u03bf", "name:en": "Rio", "name:fr": "Rio", "public_transport": "station", "railway": "station", "train": "yes"}}, "geometry": {"type": "Point", "coordinates": [21.7775486, 38.2981797]}}, {"type": "Feature", "properties": {"type": "node", "id": 1318774862, "tags": {"addr:city": "\u03a4\u03c1\u03af\u03ba\u03b1\u03bb\u03b1", "addr:country": "GR", "name": "\u03a4\u03c1\u03af\u03ba\u03b1\u03bb\u03b1", "name:de": "Trikala", "name:el": "\u03a4\u03c1\u03af\u03ba\u03b1\u03bb\u03b1", "name:en": "Trikala", "name:fr": "Trikala", "railway": "station"}}, "geometry": {"type": "Point", "coordinates": [21.7633215, 39.5460258]}}, {"type": "Feature", "properties": {"type": "node", "id": 287450434, "tags": {"country": "Kalambaka municipality,Trikala prefecture,Thessalia,Greece", "int_name": "Kalambaka", "name": "Kalambaka", "name:de": "Kalambaka", "name:el": "\u039a\u03b1\u03bb\u03b1\u03bc\u03c0\u03ac\u03ba\u03b1", "name:en": "Kalambaka", "name:fr": "Kalambaka", "public_transport": "station", "railway": "station", "train": "yes"}}, "geometry": {"type": "Point", "coordinates": [21.6254549, 39.7027916]}}, {"type": "Feature", "properties": {"type": "node", "id": 6409103932, "tags": {"name": "\u0391\u03af\u03b3\u03b9\u03bf", "name:fr": "Aigion", "public_transport": "stop_position", "source": "DigitalGlobe Standard (2019-04-16)", "train": "yes"}}, "geometry": {"type": "Point", "coordinates": [22.1034199, 38.2395952]}}, {"type": "Feature", "properties": {"type": "node", "id": 6409104296, "tags": {"name": "\u0391\u03af\u03b3\u03b9\u03bf", "name:fr": "Aigion", "public_transport": "stop_position", "source": "DigitalGlobe Standard (2019-04-16)", "train": "yes"}}, "geometry": {"type": "Point", "coordinates": [22.1035475, 38.2398368]}}, {"type": "Feature", "properties": {"type": "node", "id": 6409104297, "tags": {"name": "\u0391\u03af\u03b3\u03b9\u03bf", "name:fr": "Aigion", "public_transport": "stop_position", "source": "DigitalGlobe Standard (2019-04-16)", "train": "yes"}}, "geometry": {"type": "Point", "coordinates": [22.1035261, 38.2397962]}}, {"type": "Feature", "properties": {"type": "node", "id": 6409104299, "tags": {"name": "\u0391\u03af\u03b3\u03b9\u03bf", "name:fr": "Aigion", "operator": "\u039f\u03a3\u0395", "public_transport": "station", "railway": "station", "source": "DigitalGlobe Standard (2019-04-16)", "train": "yes"}}, "geometry": {"type": "Point", "coordinates": [22.1035047, 38.2397557]}}, {"type": "Feature", "properties": {"type": "node", "id": 6409104301, "tags": {"name": "\u0391\u03af\u03b3\u03b9\u03bf", "name:fr": "Aigion", "public_transport": "stop_position", "source": "DigitalGlobe Standard (2019-04-16)", "train": "yes"}}, "geometry": {"type": "Point", "coordinates": [22.1034815, 38.2397118]}}, {"type": "Feature", "properties": {"type": "node", "id": 6409104302, "tags": {"name": "\u0391\u03af\u03b3\u03b9\u03bf", "name:fr": "Aigion", "public_transport": "stop_position", "source": "DigitalGlobe Standard (2019-04-16)", "train": "yes"}}, "geometry": {"type": "Point", "coordinates": [22.1034636, 38.239678]}}, {"type": "Feature", "properties": {"type": "node", "id": 6408258416, "tags": {"name": "\u0395\u03bb\u03af\u03ba\u03b7", "public_transport": "stop_position", "source": "DigitalGlobe-Standard", "train": "yes"}}, "geometry": {"type": "Point", "coordinates": [22.1414961, 38.2158432]}}, {"type": "Feature", "properties": {"type": "node", "id": 6408258423, "tags": {"name": "\u0395\u03bb\u03af\u03ba\u03b7", "public_transport": "stop_position", "source": "DigitalGlobe-Standard", "train": "yes"}}, "geometry": {"type": "Point", "coordinates": [22.1414725, 38.2158141]}}, {"type": "Feature", "properties": {"type": "node", "id": 6408258441, "tags": {"name": "\u0395\u03bb\u03af\u03ba\u03b7", "public_transport": "station", "railway": "station", "source": "DigitalGlobe-Standard", "train": "yes"}}, "geometry": {"type": "Point", "coordinates": [22.1414858, 38.2158296]}}, {"type": "Feature", "properties": {"type": "node", "id": 461152213, "tags": {"name": "\u0394\u03b9\u03b1\u03ba\u03bf\u03c0\u03c4\u03cc", "name:de": "Diakopto", "name:el": "\u0394\u03b9\u03b1\u03ba\u03bf\u03c0\u03c4\u03cc", "name:en": "Diakopto", "operator": "OSE", "railway": "station"}}, "geometry": {"type": "Point", "coordinates": [22.1977184, 38.1918659]}}, {"type": "Feature", "properties": {"type": "node", "id": 3921855836, "tags": {"public_transport": "stop_position", "train": "yes"}}, "geometry": {"type": "Point", "coordinates": [22.1975148, 38.1918914]}}, {"type": "Feature", "properties": {"type": "node", "id": 4942009785, "tags": {"name": "\u039c\u03c0\u03c1\u03ac\u03bb\u03bf\u03c2", "name:de": "Bralos", "name:el": "\u039c\u03c0\u03c1\u03ac\u03bb\u03bf\u03c2", "name:en": "Bralos", "name:fr": "Bralos", "public_transport": "station", "railway": "station", "train": "yes"}}, "geometry": {"type": "Point", "coordinates": [22.4578303, 38.7019951]}}, {"type": "Feature", "properties": {"type": "node", "id": 4942135705, "tags": {"disused:railway": "station", "name": "\u039b\u03b9\u03bb\u03b1\u03af\u03b1", "name:de": "Lilea", "name:el": "\u039b\u03b9\u03bb\u03b1\u03af\u03b1", "name:en": "Lilea", "name:fr": "Lilea", "public_transport": "station", "railway": "station", "train": "yes"}}, "geometry": {"type": "Point", "coordinates": [22.5446387, 38.6698576]}}, {"type": "Feature", "properties": {"type": "node", "id": 4942009787, "tags": {"disused:railway": "station", "name": "\u0391\u03bc\u03c6\u03af\u03ba\u03bb\u03b5\u03b9\u03b1", "name:de": "Amfiklia", "name:el": "\u0391\u03bc\u03c6\u03af\u03ba\u03bb\u03b5\u03b9\u03b1", "name:en": "Amfiklia", "name:fr": "Amfiklia", "public_transport": "station", "railway": "station", "train": "yes"}}, "geometry": {"type": "Point", "coordinates": [22.5947678, 38.6584164]}}, {"type": "Feature", "properties": {"type": "node", "id": 990028736, "tags": {"name": "\u039b\u03b5\u03b9\u03b1\u03bd\u03bf\u03ba\u03bb\u03ac\u03b4\u03b9", "public_transport": "stop_position", "train": "yes"}}, "geometry": {"type": "Point", "coordinates": [22.3720839, 38.8910819]}}, {"type": "Feature", "properties": {"type": "node", "id": 990034428, "tags": {"name": "\u039b\u03b5\u03b9\u03b1\u03bd\u03bf\u03ba\u03bb\u03ac\u03b4\u03b9", "name:de": "Lianokladi", "name:el": "\u039b\u03b5\u03b9\u03b1\u03bd\u03bf\u03ba\u03bb\u03ac\u03b4\u03b9", "name:en": "Lianokladi", "name:fr": "Lianokladi", "railway": "station"}}, "geometry": {"type": "Point", "coordinates": [22.3731627, 38.8905948]}}, {"type": "Feature", "properties": {"type": "node", "id": 990034452, "tags": {"name": "\u039b\u03b5\u03b9\u03b1\u03bd\u03bf\u03ba\u03bb\u03ac\u03b4\u03b9", "public_transport": "stop_position", "train": "yes"}}, "geometry": {"type": "Point", "coordinates": [22.3735636, 38.8903864]}}, {"type": "Feature", "properties": {"type": "node", "id": 990034460, "tags": {"name": "\u039b\u03b5\u03b9\u03b1\u03bd\u03bf\u03ba\u03bb\u03ac\u03b4\u03b9", "public_transport": "stop_position", "train": "yes"}}, "geometry": {"type": "Point", "coordinates": [22.3736711, 38.890417]}}, {"type": "Feature", "properties": {"type": "node", "id": 989463931, "tags": {"int_name": "Lamia", "name": "\u039b\u03b1\u03bc\u03af\u03b1", "name:de": "Lamia", "name:el": "\u039b\u03b1\u03bc\u03af\u03b1", "name:en": "Lamia", "name:es": "Lam\u00eda", "name:fi": "Lamia", "name:fr": "Lam\u00eda", "name:ru": "\u041b\u0430\u043c\u0438\u044f", "old_name": "Boudonitza", "railway": "station", "train": "yes"}}, "geometry": {"type": "Point", "coordinates": [22.4347094, 38.8960375]}}, {"type": "Feature", "properties": {"type": "node", "id": 2291053726, "tags": {"name": "\u03a3\u03c4\u03c5\u03bb\u03af\u03b4\u03b1", "name:el": "\u03a3\u03c4\u03c5\u03bb\u03af\u03b4\u03b1", "name:en": "Stylida", "railway": "station"}}, "geometry": {"type": "Point", "coordinates": [22.6144319, 38.9133743]}}, {"type": "Feature", "properties": {"type": "node", "id": 135767475, "tags": {"country": "Sterea Ellada,Greece", "name": "\u0394\u03b1\u03cd\u03bb\u03b5\u03b9\u03b1", "name:de": "Davlia", "name:el": "\u0394\u03b1\u03cd\u03bb\u03b5\u03b9\u03b1", "name:en": "Davlia", "name:fr": "Davlia", "railway": "station", "wikidata": "Q12884431", "wikipedia": "el:\u03a3\u03b9\u03b4\u03b7\u03c1\u03bf\u03b4\u03c1\u03bf\u03bc\u03b9\u03ba\u03cc\u03c2 \u03a3\u03c4\u03b1\u03b8\u03bc\u03cc\u03c2 \u0394\u03b1\u03cd\u03bb\u03b5\u03b9\u03b1\u03c2"}}, "geometry": {"type": "Point", "coordinates": [22.811179, 38.5351052]}}, {"type": "Feature", "properties": {"type": "node", "id": 4602673471, "tags": {"country": "Sterea Ellada,Greece", "name": "\u0394\u03b1\u03cd\u03bb\u03b5\u03b9\u03b1", "name:de": "Davlia", "name:el": "\u0394\u03b1\u03cd\u03bb\u03b5\u03b9\u03b1", "name:en": "Davlia", "name:fr": "Davlia", "railway": "station", "wikidata": "Q12884431", "wikipedia": "el:\u03a3\u03b9\u03b4\u03b7\u03c1\u03bf\u03b4\u03c1\u03bf\u03bc\u03b9\u03ba\u03cc\u03c2 \u03a3\u03c4\u03b1\u03b8\u03bc\u03cc\u03c2 \u0394\u03b1\u03cd\u03bb\u03b5\u03b9\u03b1\u03c2"}}, "geometry": {"type": "Point", "coordinates": [22.8112086, 38.5351368]}}, {"type": "Feature", "properties": {"type": "node", "id": 283667283, "tags": {"name": "\u039b\u03b9\u03b2\u03b1\u03b4\u03b5\u03b9\u03ac", "name:de": "Livadia", "name:el": "\u039b\u03b9\u03b2\u03b1\u03b4\u03b5\u03b9\u03ac", "name:en": "Livadia", "name:fr": "Livadia", "railway": "station", "wikidata": "Q12884448", "wikipedia": "el:\u03a3\u03b9\u03b4\u03b7\u03c1\u03bf\u03b4\u03c1\u03bf\u03bc\u03b9\u03ba\u03cc\u03c2 \u03a3\u03c4\u03b1\u03b8\u03bc\u03cc\u03c2 \u039b\u03b9\u03b2\u03b1\u03b4\u03b5\u03b9\u03ac\u03c2"}}, "geometry": {"type": "Point", "coordinates": [22.9269558, 38.4710093]}}, {"type": "Feature", "properties": {"type": "node", "id": 4942009798, "tags": {"name": "\u039b\u03b9\u03b2\u03b1\u03b4\u03b5\u03b9\u03ac", "public_transport": "stop_position", "train": "yes"}}, "geometry": {"type": "Point", "coordinates": [22.9269143, 38.4711908]}}, {"type": "Feature", "properties": {"type": "node", "id": 4942141028, "tags": {"name": "\u039b\u03b9\u03b2\u03b1\u03b4\u03b5\u03b9\u03ac", "public_transport": "stop_position", "train": "yes"}}, "geometry": {"type": "Point", "coordinates": [22.9271312, 38.47069]}}, {"type": "Feature", "properties": {"type": "node", "id": 4942009783, "tags": {"name": "\u0391\u03bb\u03af\u03b1\u03c1\u03c4\u03bf\u03c2", "public_transport": "stop_position", "train": "yes"}}, "geometry": {"type": "Point", "coordinates": [23.1126627, 38.3793271]}}, {"type": "Feature", "properties": {"type": "node", "id": 4942009784, "tags": {"name": "\u0391\u03bb\u03af\u03b1\u03c1\u03c4\u03bf\u03c2", "public_transport": "stop_position", "train": "yes"}}, "geometry": {"type": "Point", "coordinates": [23.1100663, 38.3796268]}}, {"type": "Feature", "properties": {"type": "node", "id": 5581522118, "tags": {"name": "\u0391\u03bb\u03af\u03b1\u03c1\u03c4\u03bf\u03c2", "public_transport": "stop_position", "train": "yes"}}, "geometry": {"type": "Point", "coordinates": [23.1126719, 38.3793608]}}, {"type": "Feature", "properties": {"type": "node", "id": 5581522119, "tags": {"name": "\u0391\u03bb\u03af\u03b1\u03c1\u03c4\u03bf\u03c2", "name:ru": "\u0410\u043b\u0438\u0430\u0440\u0442\u043e\u0441", "railway": "station"}}, "geometry": {"type": "Point", "coordinates": [23.1117972, 38.3792962]}}, {"type": "Feature", "properties": {"type": "node", "id": 287731815, "tags": {"name": "\u0398\u03ae\u03b2\u03b1", "name:de": "Thiva", "name:el": "\u0398\u03ae\u03b2\u03b1", "name:en": "Thiva (Thebes)", "name:fr": "Thiva (Thebes)", "public_transport": "station", "railway": "station"}}, "geometry": {"type": "Point", "coordinates": [23.3183126, 38.3296472]}}, {"type": "Feature", "properties": {"type": "node", "id": 4942009799, "tags": {"name": "\u0398\u03ae\u03b2\u03b1", "public_transport": "stop_position", "railway": "stop", "train": "yes"}}, "geometry": {"type": "Point", "coordinates": [23.318637, 38.3297015]}}, {"type": "Feature", "properties": {"type": "node", "id": 4942009800, "tags": {"name": "\u0398\u03ae\u03b2\u03b1", "public_transport": "stop_position", "railway": "stop", "train": "yes"}}, "geometry": {"type": "Point", "coordinates": [23.3180186, 38.3296286]}}, {"type": "Feature", "properties": {"type": "node", "id": 287731943, "tags": {"name": "\u038e\u03c0\u03b1\u03c4\u03bf", "name:de": "Ypato", "name:el": "\u038e\u03c0\u03b1\u03c4\u03bf", "name:en": "Ypato", "name:fr": "Ypato", "railway": "station"}}, "geometry": {"type": "Point", "coordinates": [23.383581, 38.36797]}}, {"type": "Feature", "properties": {"type": "node", "id": 4602671580, "tags": {"name": "\u038e\u03c0\u03b1\u03c4\u03bf", "name:de": "Ypato", "name:el": "\u038e\u03c0\u03b1\u03c4\u03bf", "name:en": "Ypato", "name:fr": "Ypato", "railway": "station"}}, "geometry": {"type": "Point", "coordinates": [23.3835593, 38.3679924]}}, {"type": "Feature", "properties": {"type": "node", "id": 360625719, "tags": {"name": "\u0395\u03bb\u03b5\u03ce\u03bd\u03b1\u03c2", "name:de": "Eleonas", "name:el": "\u0395\u03bb\u03b5\u03ce\u03bd\u03b1\u03c2", "name:en": "Eleonas", "name:fr": "Eleonas", "railway": "station"}}, "geometry": {"type": "Point", "coordinates": [23.4711704, 38.3726045]}}, {"type": "Feature", "properties": {"type": "node", "id": 4602671548, "tags": {"name": "\u0395\u03bb\u03b5\u03ce\u03bd\u03b1\u03c2", "name:de": "Eleonas", "name:el": "\u0395\u03bb\u03b5\u03ce\u03bd\u03b1\u03c2", "name:en": "Eleonas", "name:fr": "Eleonas", "railway": "station"}}, "geometry": {"type": "Point", "coordinates": [23.4711862, 38.3726353]}}, {"type": "Feature", "properties": {"type": "node", "id": 287711353, "tags": {"name": "\u03a4\u03b9\u03b8\u03bf\u03c1\u03ad\u03b1", "name:de": "Tithorea", "name:el": "\u03a4\u03b9\u03b8\u03bf\u03c1\u03ad\u03b1", "name:fr": "Tithorea", "railway": "station"}}, "geometry": {"type": "Point", "coordinates": [22.7169454, 38.6090187]}}, {"type": "Feature", "properties": {"type": "node", "id": 4602673531, "tags": {"name": "\u03a4\u03b9\u03b8\u03bf\u03c1\u03ad\u03b1", "name:de": "Tithorea", "name:el": "\u03a4\u03b9\u03b8\u03bf\u03c1\u03ad\u03b1", "name:fr": "Tithorea", "railway": "station"}}, "geometry": {"type": "Point", "coordinates": [22.7169714, 38.6090444]}}, {"type": "Feature", "properties": {"type": "node", "id": 4942135703, "tags": {"name": "\u03a4\u03b9\u03b8\u03bf\u03c1\u03ad\u03b1", "public_transport": "stop_position", "train": "yes"}}, "geometry": {"type": "Point", "coordinates": [22.7166305, 38.6093193]}}, {"type": "Feature", "properties": {"type": "node", "id": 4942135704, "tags": {"name": "\u03a4\u03b9\u03b8\u03bf\u03c1\u03ad\u03b1", "public_transport": "stop_position", "train": "yes"}}, "geometry": {"type": "Point", "coordinates": [22.7177059, 38.6084056]}}, {"type": "Feature", "properties": {"type": "node", "id": 5347384506, "tags": {"name": "\u039c\u03ce\u03bb\u03bf\u03c2", "name:fr": "Molos", "operator": "OSE", "public_transport": "stop_position", "train": "yes"}}, "geometry": {"type": "Point", "coordinates": [22.6559195, 38.8128125]}}, {"type": "Feature", "properties": {"type": "node", "id": 5347384509, "tags": {"name": "\u039c\u03ce\u03bb\u03bf\u03c2", "name:fr": "Molos", "operator": "OSE", "public_transport": "stop_position", "train": "yes"}}, "geometry": {"type": "Point", "coordinates": [22.6591271, 38.8118322]}}, {"type": "Feature", "properties": {"type": "node", "id": 2482382406, "tags": {"name": "\u0386\u03b3\u03b9\u03bf\u03c2 \u03a3\u03c4\u03ad\u03c6\u03b1\u03bd\u03bf\u03c2", "public_transport": "station", "railway": "station"}}, "geometry": {"type": "Point", "coordinates": [22.2276662, 39.0513001]}}, {"type": "Feature", "properties": {"type": "node", "id": 4602453982, "tags": {"name": "\u0386\u03b3\u03b9\u03bf\u03c2 \u03a3\u03c4\u03ad\u03c6\u03b1\u03bd\u03bf\u03c2", "public_transport": "station", "railway": "station"}}, "geometry": {"type": "Point", "coordinates": [22.2277045, 39.0513149]}}, {"type": "Feature", "properties": {"type": "node", "id": 1281643047, "tags": {"int_name": "Angeies", "name": "\u0391\u03b3\u03b3\u03b5\u03af\u03b5\u03c2", "name:de": "Angies", "name:el": "\u0391\u03b3\u03b3\u03b5\u03af\u03b5\u03c2", "name:en": "Aggeie", "name:fr": "Aggeie", "old_name": "\u0391\u03b3\u03b3\u03b5\u03af\u03b1\u03b9", "public_transport": "station", "railway": "station"}}, "geometry": {"type": "Point", "coordinates": [22.1914123, 39.0906353]}}, {"type": "Feature", "properties": {"type": "node", "id": 419624336, "tags": {"name": "\u039a\u03b1\u03c1\u03b4\u03af\u03c4\u03c3\u03b1", "name:de": "Karditsa", "name:el": "\u039a\u03b1\u03c1\u03b4\u03af\u03c4\u03c3\u03b1", "name:en": "Karditsa", "name:fr": "Karditsa", "railway": "station"}}, "geometry": {"type": "Point", "coordinates": [21.9147319, 39.3539774]}}, {"type": "Feature", "properties": {"type": "node", "id": 3914596674, "tags": {"name": "\u039f\u03c1\u03c6\u03b1\u03bd\u03ac", "public_transport": "stop_position", "train": "yes"}}, "geometry": {"type": "Point", "coordinates": [22.2278511, 39.4019162]}}, {"type": "Feature", "properties": {"type": "node", "id": 4598783265, "tags": {"name": "\u039f\u03c1\u03c6\u03b1\u03bd\u03ac", "public_transport": "stop_position", "train": "yes"}}, "geometry": {"type": "Point", "coordinates": [22.2282393, 39.4033161]}}, {"type": "Feature", "properties": {"type": "node", "id": 6326277737, "tags": {"int_name": "Tavmako", "name": "\u0398\u03b1\u03c5\u03bc\u03b1\u03ba\u03cc", "public_transport": "station", "railway": "station", "train": "yes"}}, "geometry": {"type": "Point", "coordinates": [22.2835354, 39.156926]}}, {"type": "Feature", "properties": {"type": "node", "id": 303447372, "tags": {"name": "\u0394\u03bf\u03bc\u03bf\u03ba\u03cc\u03c2", "name:de": "Domokos", "name:el": "\u0394\u03bf\u03bc\u03bf\u03ba\u03cc\u03c2", "name:en": "Domokos", "name:fr": "Domokos", "railway": "station"}}, "geometry": {"type": "Point", "coordinates": [22.2864581, 39.1800273]}}, {"type": "Feature", "properties": {"type": "node", "id": 4892579777, "tags": {"name": "\u0394\u03bf\u03bc\u03bf\u03ba\u03cc\u03c2", "public_transport": "stop_position", "train": "yes"}}, "geometry": {"type": "Point", "coordinates": [22.2866898, 39.1797198]}}, {"type": "Feature", "properties": {"type": "node", "id": 4942009793, "tags": {"name": "\u0394\u03bf\u03bc\u03bf\u03ba\u03cc\u03c2", "public_transport": "stop_position", "train": "yes"}}, "geometry": {"type": "Point", "coordinates": [22.286479, 39.1805321]}}, {"type": "Feature", "properties": {"type": "node", "id": 4942009792, "tags": {"name": "\u03a0\u03b1\u03bb\u03b1\u03b9\u03bf\u03c6\u03ac\u03c1\u03c3\u03b1\u03bb\u03bf\u03c2", "public_transport": "stop_position", "railway": "stop", "train": "yes"}}, "geometry": {"type": "Point", "coordinates": [22.2435594, 39.3137807]}}, {"type": "Feature", "properties": {"type": "node", "id": 4942040545, "tags": {"name": "\u03a0\u03b1\u03bb\u03b1\u03b9\u03bf\u03c6\u03ac\u03c1\u03c3\u03b1\u03bb\u03bf\u03c2", "public_transport": "stop_position", "railway": "stop", "train": "yes"}}, "geometry": {"type": "Point", "coordinates": [22.2439667, 39.3123682]}}, {"type": "Feature", "properties": {"type": "node", "id": 287554537, "tags": {"addr:city": "\u039b\u03ac\u03c1\u03b9\u03c3\u03b1", "addr:country": "GR", "addr:housenumber": "37", "addr:postcode": "41223", "addr:street": "\u03a0\u03b1\u03bb\u03b1\u03b9\u03bf\u03bb\u03cc\u03b3\u03bf\u03c5", "name": "\u03a3. \u03a3. \u039b\u03ac\u03c1\u03b9\u03c3\u03b1\u03c2", "name:de": "Bahnhof Larisa", "name:el": "\u03a3. \u03a3. \u039b\u03ac\u03c1\u03b9\u03c3\u03b1\u03c2", "name:el:en": "Sidirodromikos Stathmos Larisas", "name:en": "Larisa Railway Station", "name:ru": "\u041b\u0430\u0440\u0438\u0441\u0430", "railway": "station", "train": "yes"}}, "geometry": {"type": "Point", "coordinates": [22.4227592, 39.6295962]}}, {"type": "Feature", "properties": {"type": "node", "id": 4942009794, "tags": {"name": "\u039b\u03ac\u03c1\u03b9\u03c3\u03b1", "name:de": "Larisa", "name:el": "\u039b\u03ac\u03c1\u03b9\u03c3\u03b1", "public_transport": "stop_position", "train": "yes"}}, "geometry": {"type": "Point", "coordinates": [22.4222115, 39.6293038]}}, {"type": "Feature", "properties": {"type": "node", "id": 4942009795, "tags": {"name": "\u039b\u03ac\u03c1\u03b9\u03c3\u03b1", "public_transport": "stop_position", "train": "yes"}}, "geometry": {"type": "Point", "coordinates": [22.4241473, 39.6298122]}}, {"type": "Feature", "properties": {"type": "node", "id": 4723533695, "tags": {"int_name": "Chalki", "name": "\u03a7\u03ac\u03bb\u03ba\u03b7", "railway": "station"}}, "geometry": {"type": "Point", "coordinates": [22.5361467, 39.59178]}}, {"type": "Feature", "properties": {"type": "node", "id": 4670789007, "tags": {"public_transport": "stop_position", "train": "yes"}}, "geometry": {"type": "Point", "coordinates": [22.4430151, 39.6527837]}}, {"type": "Feature", "properties": {"type": "node", "id": 303442716, "tags": {"name": "\u0393\u03c5\u03c1\u03c4\u03ce\u03bd\u03b7", "name:de": "Gyrtoni", "name:el": "Gyrtoni", "name:en": "Gyrtoni", "name:fr": "Gyrtoni", "public_transport": "stop_position", "train": "yes"}}, "geometry": {"type": "Point", "coordinates": [22.4818404, 39.7642567]}}, {"type": "Feature", "properties": {"type": "node", "id": 540411705, "tags": {"email": "grafeio.volou@trainose.gr", "name": "\u0386\u03bd\u03c9 \u039b\u03b5\u03c7\u03ce\u03bd\u03b9\u03b1", "name:en": "Ano Lechonia", "network": "\u0392\u03cc\u03bb\u03bf\u03c2 - \u039c\u03b7\u03bb\u03b9\u03ad\u03c2", "operator": "\u039f.\u03a3.\u0395.", "payment:cash": "yes", "payment:credit_cards": "yes", "payment:debit_cards": "yes", "phone": "+30 2421039723", "railway": "station", "tourism": "attraction", "website": "http://www.trainose.gr/\u03c4\u03bf\u03c5\u03c1\u03b9\u03c3\u03bc\u03cc\u03c2-\u03c0\u03bf\u03bb\u03b9\u03c4\u03b9\u03c3\u03bc\u03cc\u03c2/\u03c4\u03c1\u03ad\u03bd\u03bf-\u03ba\u03b1\u03b9-\u03b1\u03bd\u03b1\u03c8\u03c5\u03c7\u03ae/\u03b8\u03b5\u03bc\u03b1\u03c4\u03b9\u03ba\u03cc-\u03c4\u03c1\u03ad\u03bd\u03bf-\u03c0\u03b7\u03bb\u03af\u03bf\u03c5/", "wikidata": "Q471828", "wikipedia": "el:\u03a4\u03c1\u03b5\u03bd\u03ac\u03ba\u03b9 \u03a0\u03b7\u03bb\u03af\u03bf\u03c5"}}, "geometry": {"type": "Point", "coordinates": [23.0538159, 39.3254037]}}, {"type": "Feature", "properties": {"type": "node", "id": 2291049466, "tags": {"name": "\u039c\u03b5\u03bb\u03b9\u03c3\u03c3\u03ac\u03c4\u03b9\u03ba\u03b1", "name:en": "Melissatika", "railway": "station", "wheelchair": "limited"}}, "geometry": {"type": "Point", "coordinates": [22.9110004, 39.3861843]}}, {"type": "Feature", "properties": {"type": "node", "id": 5985323352, "tags": {"name": "\u0392\u03cc\u03bb\u03bf\u03c5", "railway": "station", "wheelchair": "yes"}}, "geometry": {"type": "Point", "coordinates": [22.9368266, 39.3642669]}}, {"type": "Feature", "properties": {"type": "node", "id": 3308286101, "tags": {"disused:railway": "station", "name": "\u03a3\u03b9\u03b4\u03b7\u03c1\u03bf\u03b4\u03c1\u03bf\u03bc\u03b9\u03ba\u03cc\u03c2 \u03a3\u03c4\u03b1\u03b8\u03bc\u03cc\u03c2 \u0391\u03b3\u03c1\u03b9\u03ac\u03c2", "public_transport": "station", "railway": "station", "train": "yes"}}, "geometry": {"type": "Point", "coordinates": [23.0137715, 39.3389126]}}, {"type": "Feature", "properties": {"type": "node", "id": 434845521, "tags": {"name": "\u0386\u03bd\u03c9 \u0393\u03b1\u03c4\u03b6\u03ad\u03b1", "name:en": "Ano Gatzea", "railway": "station"}}, "geometry": {"type": "Point", "coordinates": [23.0940377, 39.3220972]}}, {"type": "Feature", "properties": {"type": "node", "id": 6715198826, "tags": {"name": "\u03a0\u03b9\u03bd\u03b1\u03ba\u03ac\u03c4\u03b5\u03c2", "name:en": "Pinakates", "railway": "station"}}, "geometry": {"type": "Point", "coordinates": [23.1247079, 39.3157357]}}, {"type": "Feature", "properties": {"type": "node", "id": 5399991617, "tags": {"name": "\u03a3\u03b9\u03b4\u03b7\u03c1\u03bf\u03b4\u03c1\u03bf\u03bc\u03b9\u03ba\u03cc\u03c2 \u03a3\u03c4\u03b1\u03b8\u03bc\u03cc\u03c2 \u039c\u03b7\u03bb\u03b9\u03ce\u03bd \u03a0\u03b7\u03bb\u03af\u03bf\u03c5", "operator": "\u039f.\u03a3.\u0395.", "railway": "station", "wikidata": "Q471828", "wikipedia": "el:\u03a4\u03c1\u03b5\u03bd\u03ac\u03ba\u03b9 \u03a0\u03b7\u03bb\u03af\u03bf\u03c5"}}, "geometry": {"type": "Point", "coordinates": [23.1435614, 39.3276726]}}, {"type": "Feature", "properties": {"type": "node", "id": 358248977, "tags": {"name": "\u0391\u03c1\u03bc\u03ad\u03bd\u03b9\u03bf", "name:de": "Armenio", "name:el": "\u0391\u03c1\u03bc\u03ad\u03bd\u03b9\u03bf", "name:en": "Armenio", "name:fr": "Armenio", "railway": "station"}}, "geometry": {"type": "Point", "coordinates": [22.6938814, 39.4853567]}}, {"type": "Feature", "properties": {"type": "node", "id": 2137213000, "tags": {"public_transport": "stop_position", "railway": "stop", "train": "yes"}}, "geometry": {"type": "Point", "coordinates": [23.6434147, 37.9489756]}}, {"type": "Feature", "properties": {"type": "node", "id": 2137213028, "tags": {"int_name": "Piraeus", "name": "\u03a0\u03b5\u03b9\u03c1\u03b1\u03b9\u03ac", "name:en": "Piraeus", "public_transport": "stop_position", "railway": "stop", "train": "yes"}}, "geometry": {"type": "Point", "coordinates": [23.6434156, 37.9490666]}}, {"type": "Feature", "properties": {"type": "node", "id": 2137213049, "tags": {"int_name": "Piraeus", "name": "\u03a0\u03b5\u03b9\u03c1\u03b1\u03b9\u03ac", "name:en": "Piraeus", "public_transport": "stop_position", "railway": "stop", "train": "yes"}}, "geometry": {"type": "Point", "coordinates": [23.6434169, 37.9490942]}}, {"type": "Feature", "properties": {"type": "node", "id": 2137213094, "tags": {"public_transport": "stop_position", "railway": "stop", "train": "yes"}}, "geometry": {"type": "Point", "coordinates": [23.6434149, 37.9491761]}}, {"type": "Feature", "properties": {"type": "node", "id": 6245569445, "tags": {"addr:city": "\u03a0\u03b5\u03b9\u03c1\u03b1\u03b9\u03ac\u03c2", "addr:country": "GR", "addr:street": "\u039c\u03b1\u03c5\u03c1\u03bf\u03bc\u03b9\u03c7\u03ac\u03bb\u03b7 \u039a\u03c5\u03c1\u03b9\u03ac\u03ba\u03bf\u03c5", "name": "\u03a0\u03b5\u03b9\u03c1\u03b1\u03b9\u03ac\u03c2", "name:en": "Piraeus", "network": "\u03a0\u03c1\u03bf\u03b1\u03c3\u03c4\u03b9\u03b1\u03ba\u03cc\u03c2", "operator": "\u039f\u03a3\u0395", "public_transport": "station", "railway": "station"}}, "geometry": {"type": "Point", "coordinates": [23.64372, 37.9491311]}}, {"type": "Feature", "properties": {"type": "node", "id": 988439553, "tags": {"int_name": "Lefka", "name": "\u039b\u03b5\u03cd\u03ba\u03b1", "public_transport": "stop_position", "railway": "stop", "service": "Lefka", "train": "yes"}}, "geometry": {"type": "Point", "coordinates": [23.6537054, 37.9551275]}}, {"type": "Feature", "properties": {"type": "node", "id": 2144975797, "tags": {"int_name": "Lefka", "name": "\u039b\u03b5\u03cd\u03ba\u03b1", "public_transport": "stop_position", "railway": "stop", "service": "Lefka", "train": "yes"}}, "geometry": {"type": "Point", "coordinates": [23.6540813, 37.955593]}}, {"type": "Feature", "properties": {"type": "node", "id": 988420951, "tags": {"int_name": "Rentis", "name": "\u03a1\u03ad\u03bd\u03c4\u03b7\u03c2", "name:en": "Rentis", "official_name": "\u0386\u03b3\u03b9\u03bf\u03c2 \u0399\u03c9\u03ac\u03bd\u03bd\u03b7\u03c2 \u03a1\u03ad\u03bd\u03c4\u03b7\u03c2", "official_name:fr": "Saint Jean Rentis", "public_transport": "stop_position", "railway": "stop", "train": "yes"}}, "geometry": {"type": "Point", "coordinates": [23.6682798, 37.9623809]}}, {"type": "Feature", "properties": {"type": "node", "id": 2148259068, "tags": {"int_name": "Rentis", "name": "\u03a1\u03ad\u03bd\u03c4\u03b7\u03c2", "name:en": "Rentis", "official_name": "\u0386\u03b3\u03b9\u03bf\u03c2 \u0399\u03c9\u03ac\u03bd\u03bd\u03b7\u03c2 \u03a1\u03ad\u03bd\u03c4\u03b7\u03c2", "official_name:fr": "Saint Jean Rentis", "public_transport": "stop_position", "railway": "stop", "train": "yes"}}, "geometry": {"type": "Point", "coordinates": [23.6683076, 37.9622619]}}, {"type": "Feature", "properties": {"type": "node", "id": 2148259149, "tags": {"int_name": "Rentis", "name": "\u03a1\u03ad\u03bd\u03c4\u03b7\u03c2", "name:en": "Rentis", "network": "\u03a0\u03c1\u03bf\u03b1\u03c3\u03c4\u03b9\u03b1\u03ba\u03cc\u03c2 \u0391\u03b8\u03ae\u03bd\u03b1\u03c2", "operator": "\u039f\u03a3\u0395", "public_transport": "station", "railway": "station"}}, "geometry": {"type": "Point", "coordinates": [23.668454, 37.9623421]}}, {"type": "Feature", "properties": {"type": "node", "id": 2148380439, "tags": {"int_name": "Tavros", "name": "\u03a4\u03b1\u03cd\u03c1\u03bf\u03c2", "name:en": "Tavros", "public_transport": "stop_position", "railway": "stop", "train": "yes"}}, "geometry": {"type": "Point", "coordinates": [23.6926743, 37.9686411]}}, {"type": "Feature", "properties": {"type": "node", "id": 2148380495, "tags": {"int_name": "Tavros", "name": "\u03a4\u03b1\u03cd\u03c1\u03bf\u03c2", "name:en": "Tavros", "public_transport": "stop_position", "railway": "stop", "train": "yes"}}, "geometry": {"type": "Point", "coordinates": [23.6942248, 37.9689397]}}, {"type": "Feature", "properties": {"type": "node", "id": 2148380652, "tags": {"int_name": "Tavros", "name": "\u03a4\u03b1\u03cd\u03c1\u03bf\u03c2", "name:en": "Tavros", "network": "\u03a0\u03c1\u03bf\u03b1\u03c3\u03c4\u03b9\u03b1\u03ba\u03cc\u03c2 \u0391\u03b8\u03ae\u03bd\u03b1\u03c2", "operator": "\u039f\u03a3\u0395", "public_transport": "station", "railway": "station"}}, "geometry": {"type": "Point", "coordinates": [23.6934298, 37.9687965]}}, {"type": "Feature", "properties": {"type": "node", "id": 987485685, "tags": {"int_name": "Rouf", "name": "\u03a1\u03bf\u03c5\u03c6", "name:en": "Rouf", "network": "\u03a0\u03c1\u03bf\u03b1\u03c3\u03c4\u03b9\u03b1\u03ba\u03cc\u03c2 \u0391\u03b8\u03ae\u03bd\u03b1\u03c2", "operator": "\u039f\u03a3\u0395", "public_transport": "station", "railway": "station"}}, "geometry": {"type": "Point", "coordinates": [23.704064, 37.9737356]}}, {"type": "Feature", "properties": {"type": "node", "id": 2148529035, "tags": {"int_name": "Rouf", "name": "\u03a1\u03bf\u03c5\u03c6", "name:en": "Rouf", "network": "\u03a0\u03c1\u03bf\u03b1\u03c3\u03c4\u03b9\u03b1\u03ba\u03cc\u03c2 \u0391\u03b8\u03ae\u03bd\u03b1\u03c2", "operator": "\u039f\u03a3\u0395", "public_transport": "stop_position", "railway": "stop", "train": "yes"}}, "geometry": {"type": "Point", "coordinates": [23.7041009, 37.9736976]}}, {"type": "Feature", "properties": {"type": "node", "id": 2148529036, "tags": {"int_name": "Rouf", "name": "\u03a1\u03bf\u03c5\u03c6", "name:en": "Rouf", "network": "\u03a0\u03c1\u03bf\u03b1\u03c3\u03c4\u03b9\u03b1\u03ba\u03cc\u03c2 \u0391\u03b8\u03ae\u03bd\u03b1\u03c2", "operator": "\u039f\u03a3\u0395", "public_transport": "stop_position", "railway": "stop", "train": "yes"}}, "geometry": {"type": "Point", "coordinates": [23.704011, 37.9737634]}}, {"type": "Feature", "properties": {"type": "node", "id": 832802993, "tags": {"name": "\u039c\u03b1\u03b3\u03bf\u03cd\u03bb\u03b1", "name:fr": "Magoula", "public_transport": "stop_position", "railway": "stop", "train": "yes"}}, "geometry": {"type": "Point", "coordinates": [23.5291665, 38.0730827]}}, {"type": "Feature", "properties": {"type": "node", "id": 361470406, "tags": {"name": "\u039c\u03b1\u03b3\u03bf\u03cd\u03bb\u03b1", "name:fr": "Magoula", "public_transport": "stop_position", "railway": "stop", "train": "yes"}}, "geometry": {"type": "Point", "coordinates": [23.5298844, 38.0740597]}}, {"type": "Feature", "properties": {"type": "node", "id": 833386358, "tags": {"int_name": "Aspropyrgos", "name": "\u0391\u03c3\u03c0\u03c1\u03cc\u03c0\u03c5\u03c1\u03b3\u03bf\u03c2", "name:el": "\u0391\u03c3\u03c0\u03c1\u03cc\u03c0\u03c5\u03c1\u03b3\u03bf\u03c2", "name:fr": "Aspropyrgos", "network": "\u03a0\u03c1\u03bf\u03b1\u03c3\u03c4\u03b9\u03b1\u03ba\u03cc\u03c2 \u0391\u03b8\u03ae\u03bd\u03b1\u03c2", "operator": "\u039f\u03a3\u0395", "railway": "station"}}, "geometry": {"type": "Point", "coordinates": [23.6044292, 38.080976]}}, {"type": "Feature", "properties": {"type": "node", "id": 5777574609, "tags": {"name": "\u0391\u03c3\u03c0\u03c1\u03cc\u03c0\u03c5\u03c1\u03b3\u03bf\u03c2", "name:fr": "Aspropyrgos", "public_transport": "stop_position", "railway": "stop", "train": "yes"}}, "geometry": {"type": "Point", "coordinates": [23.604418, 38.0809569]}}, {"type": "Feature", "properties": {"type": "node", "id": 5777574610, "tags": {"name": "\u0391\u03c3\u03c0\u03c1\u03cc\u03c0\u03c5\u03c1\u03b3\u03bf\u03c2", "name:fr": "Aspropyrgos", "public_transport": "stop_position", "railway": "stop", "train": "yes"}}, "geometry": {"type": "Point", "coordinates": [23.6044484, 38.0809896]}}, {"type": "Feature", "properties": {"type": "node", "id": 2872124552, "tags": {"int_name": "Athens", "name": "\u0391\u03b8\u03ae\u03bd\u03b1", "name:en": "Athens", "public_transport": "stop_position", "railway": "stop", "ref": "7", "train": "yes"}}, "geometry": {"type": "Point", "coordinates": [23.7202839, 37.9931275]}}, {"type": "Feature", "properties": {"type": "node", "id": 2872124553, "tags": {"int_name": "Athens", "name": "\u0391\u03b8\u03ae\u03bd\u03b1", "name:en": "Athens", "public_transport": "stop_position", "railway": "stop", "ref": "8", "train": "yes"}}, "geometry": {"type": "Point", "coordinates": [23.7202365, 37.9931353]}}, {"type": "Feature", "properties": {"type": "node", "id": 2872124554, "tags": {"int_name": "Athens", "name": "\u0391\u03b8\u03ae\u03bd\u03b1", "name:en": "Athens", "public_transport": "stop_position", "railway": "stop", "ref": "9", "train": "yes"}}, "geometry": {"type": "Point", "coordinates": [23.7200887, 37.9931596]}}, {"type": "Feature", "properties": {"type": "node", "id": 2872124555, "tags": {"int_name": "Athens", "name": "\u0391\u03b8\u03ae\u03bd\u03b1", "name:en": "Athens", "public_transport": "stop_position", "railway": "stop", "ref": "10", "train": "yes"}}, "geometry": {"type": "Point", "coordinates": [23.7200412, 37.9931674]}}, {"type": "Feature", "properties": {"type": "node", "id": 1292319344, "tags": {"int_name": "Agii Anargyri", "name": "\u0386\u03b3\u03b9\u03bf\u03b9 \u0391\u03bd\u03ac\u03c1\u03b3\u03c5\u03c1\u03bf\u03b9", "name:en": "Agii Anargyri", "public_transport": "stop_position", "railway": "stop", "train": "yes"}}, "geometry": {"type": "Point", "coordinates": [23.71838, 38.0211401]}}, {"type": "Feature", "properties": {"type": "node", "id": 2354629543, "tags": {"int_name": "Agii Anargyri", "name": "\u0386\u03b3\u03b9\u03bf\u03b9 \u0391\u03bd\u03ac\u03c1\u03b3\u03c5\u03c1\u03bf\u03b9", "name:en": "Agii Anargyri", "public_transport": "stop_position", "railway": "stop", "train": "yes"}}, "geometry": {"type": "Point", "coordinates": [23.7186452, 38.0224583]}}, {"type": "Feature", "properties": {"type": "node", "id": 6245547243, "tags": {"int_name": "Agii Anargyri", "name": "\u0386\u03b3\u03b9\u03bf\u03b9 \u0391\u03bd\u03ac\u03c1\u03b3\u03c5\u03c1\u03bf\u03b9", "name:en": "Agii Anargyri", "network": "\u03a0\u03c1\u03bf\u03b1\u03c3\u03c4\u03b9\u03b1\u03ba\u03cc\u03c2 \u0391\u03b8\u03ae\u03bd\u03b1\u03c2", "operator": "\u039f\u03a3\u0395", "public_transport": "station", "railway": "station", "train": "yes"}}, "geometry": {"type": "Point", "coordinates": [23.7184204, 38.0218581]}}, {"type": "Feature", "properties": {"type": "node", "id": 2343647510, "tags": {"int_name": "Pyrgos Vasilissis", "name": "\u03a0\u03cd\u03c1\u03b3\u03bf\u03c2 \u0392\u03b1\u03c3\u03b9\u03bb\u03af\u03c3\u03c3\u03b7\u03c2", "name:en": "Pyrgos Vasilissis", "public_transport": "stop_position", "railway": "stop", "train": "yes"}}, "geometry": {"type": "Point", "coordinates": [23.7276759, 38.0400365]}}, {"type": "Feature", "properties": {"type": "node", "id": 2343649802, "tags": {"int_name": "Pyrgos Vasilissis", "name": "\u03a0\u03cd\u03c1\u03b3\u03bf\u03c2 \u0392\u03b1\u03c3\u03b9\u03bb\u03af\u03c3\u03c3\u03b7\u03c2", "name:en": "Pyrgos Vasilissis", "public_transport": "stop_position", "railway": "stop", "train": "yes"}}, "geometry": {"type": "Point", "coordinates": [23.7271365, 38.0390975]}}, {"type": "Feature", "properties": {"type": "node", "id": 6245525848, "tags": {"int_name": "Pirgos Vasilisis", "name": "\u03a0\u03cd\u03c1\u03b3\u03bf\u03c2 \u0392\u03b1\u03c3\u03b9\u03bb\u03af\u03c3\u03c3\u03b7\u03c2", "name:en": "Pirgos Vasilisis", "network": "\u03a0\u03c1\u03bf\u03b1\u03c3\u03c4\u03b9\u03b1\u03ba\u03cc\u03c2 \u0391\u03b8\u03ae\u03bd\u03b1\u03c2", "operator": "\u039f\u03a3\u0395", "public_transport": "station", "railway": "station", "train": "yes"}}, "geometry": {"type": "Point", "coordinates": [23.727456, 38.0397137]}}, {"type": "Feature", "properties": {"type": "node", "id": 936622796, "tags": {"int_name": "Ano Liosia", "name": "\u0386\u03bd\u03c9 \u039b\u03b9\u03cc\u03c3\u03b9\u03b1", "name:en": "Ano Liosia", "network": "\u03a0\u03c1\u03bf\u03b1\u03c3\u03c4\u03b9\u03b1\u03ba\u03cc\u03c2 \u0391\u03b8\u03ae\u03bd\u03b1\u03c2", "operator": "\u039f\u03a3\u0395", "public_transport": "station", "railway": "station"}}, "geometry": {"type": "Point", "coordinates": [23.7098471, 38.0707654]}}, {"type": "Feature", "properties": {"type": "node", "id": 936622962, "tags": {"int_name": "Ano Liosia", "name": "\u0386\u03bd\u03c9 \u039b\u03b9\u03cc\u03c3\u03b9\u03b1", "name:en": "Ano Liosia", "public_transport": "stop_position", "railway": "stop", "train": "yes"}}, "geometry": {"type": "Point", "coordinates": [23.7099901, 38.0706893]}}, {"type": "Feature", "properties": {"type": "node", "id": 5777457451, "tags": {"int_name": "Ano Liosia", "name": "\u0386\u03bd\u03c9 \u039b\u03b9\u03cc\u03c3\u03b9\u03b1", "name:en": "Ano Liosia", "public_transport": "stop_position", "railway": "stop", "train": "yes"}}, "geometry": {"type": "Point", "coordinates": [23.7100051, 38.0707953]}}, {"type": "Feature", "properties": {"type": "node", "id": 3979025748, "tags": {"int_name": "Zefiri", "name": "\u0396\u03b5\u03c6\u03cd\u03c1\u03b9", "name:en": "Zefiri", "operator": "\u039f\u03a3\u0395", "public_transport": "stop_position", "train": "yes"}}, "geometry": {"type": "Point", "coordinates": [23.7163427, 38.0699579]}}, {"type": "Feature", "properties": {"type": "node", "id": 6222934811, "tags": {"int_name": "Zefiri", "name": "\u0396\u03b5\u03c6\u03cd\u03c1\u03b9", "name:en": "Zefiri", "operator": "\u039f\u03a3\u0395", "public_transport": "station", "railway": "station", "train": "yes"}}, "geometry": {"type": "Point", "coordinates": [23.7168389, 38.0698218]}}, {"type": "Feature", "properties": {"type": "node", "id": 3979025726, "tags": {"int_name": "Zefiri", "name": "\u0396\u03b5\u03c6\u03cd\u03c1\u03b9", "name:en": "Zefiri", "operator": "\u039f\u03a3\u0395", "public_transport": "stop_position", "train": "yes"}}, "geometry": {"type": "Point", "coordinates": [23.717562, 38.0696643]}}, {"type": "Feature", "properties": {"type": "node", "id": 2343670486, "tags": {"int_name": "Kato Acharnai", "name": "\u039a\u03ac\u03c4\u03c9 \u0391\u03c7\u03b1\u03c1\u03bd\u03b1\u03af", "name:en": "Kato Acharnai", "public_transport": "stop_position", "railway": "stop", "train": "yes"}}, "geometry": {"type": "Point", "coordinates": [23.732438, 38.0535159]}}, {"type": "Feature", "properties": {"type": "node", "id": 2343670500, "tags": {"int_name": "Kato Acharnai", "name": "\u039a\u03ac\u03c4\u03c9 \u0391\u03c7\u03b1\u03c1\u03bd\u03b1\u03af", "name:en": "Kato Acharnai", "public_transport": "stop_position", "railway": "stop", "train": "yes"}}, "geometry": {"type": "Point", "coordinates": [23.7328066, 38.0547251]}}, {"type": "Feature", "properties": {"type": "node", "id": 6245525849, "tags": {"int_name": "Kato Acharnai", "name": "\u039a\u03ac\u03c4\u03c9 \u0391\u03c7\u03b1\u03c1\u03bd\u03b1\u03af", "name:en": "Kato Acharnai", "network": "\u03a0\u03c1\u03bf\u03b1\u03c3\u03c4\u03b9\u03b1\u03ba\u03cc\u03c2 \u0391\u03b8\u03ae\u03bd\u03b1\u03c2", "operator": "\u039f\u03a3\u0395", "public_transport": "station", "railway": "station", "train": "yes"}}, "geometry": {"type": "Point", "coordinates": [23.7326454, 38.054188]}}, {"type": "Feature", "properties": {"type": "node", "id": 2354656162, "tags": {"int_name": "Acharnes Railway Center (SKA) Airport Line", "name": "\u03a3\u03b9\u03b4\u03b7\u03c1\u03bf\u03b4\u03c1\u03bf\u03bc\u03b9\u03ba\u03cc \u039a\u03ad\u03bd\u03c4\u03c1\u03bf \u0391\u03c7\u03b1\u03c1\u03bd\u03ce\u03bd (\u03a3\u039a\u0391) \u03b3\u03c1\u03b1\u03bc\u03bc\u03ae \u0391\u0395\u03a1", "name:en": "Acharnes Railway Center (SKA) Airport Line", "network": "\u03a0\u03c1\u03bf\u03b1\u03c3\u03c4\u03b9\u03b1\u03ba\u03cc\u03c2 \u0391\u03b8\u03ae\u03bd\u03b1\u03c2", "operator": "\u039f\u03a3\u0395", "public_transport": "stop_position", "railway": "stop", "train": "yes"}}, "geometry": {"type": "Point", "coordinates": [23.7376508, 38.0656438]}}, {"type": "Feature", "properties": {"type": "node", "id": 6268675384, "tags": {"int_name": "Acharnes Railway Center (SKA) Airport Line", "name": "\u03a3\u03b9\u03b4\u03b7\u03c1\u03bf\u03b4\u03c1\u03bf\u03bc\u03b9\u03ba\u03cc \u039a\u03ad\u03bd\u03c4\u03c1\u03bf \u0391\u03c7\u03b1\u03c1\u03bd\u03ce\u03bd (\u03a3\u039a\u0391) \u03b3\u03c1\u03b1\u03bc\u03bc\u03ae \u0391\u0395\u03a1", "name:en": "Acharnes Railway Center (SKA) Airport Line", "network": "\u03a0\u03c1\u03bf\u03b1\u03c3\u03c4\u03b9\u03b1\u03ba\u03cc\u03c2 \u0391\u03b8\u03ae\u03bd\u03b1\u03c2", "operator": "\u039f\u03a3\u0395", "public_transport": "station", "railway": "station", "train": "yes"}}, "geometry": {"type": "Point", "coordinates": [23.7377663, 38.0656513]}}, {"type": "Feature", "properties": {"type": "node", "id": 95700669, "tags": {"name": "\u03a3\u03b9\u03b4\u03b7\u03c1\u03bf\u03b4\u03c1\u03bf\u03bc\u03b9\u03ba\u03cc \u039a\u03ad\u03bd\u03c4\u03c1\u03bf \u0391\u03c7\u03b1\u03c1\u03bd\u03ce\u03bd (\u03a3\u039a\u0391)", "name:en": "Acharnes Railway Center (SKA)", "network": "\u03a0\u03c1\u03bf\u03b1\u03c3\u03c4\u03b9\u03b1\u03ba\u03cc\u03c2 \u0391\u03b8\u03ae\u03bd\u03b1\u03c2", "operator": "\u039f\u03a3\u0395", "public_transport": "stop_position", "railway": "stop", "train": "yes"}}, "geometry": {"type": "Point", "coordinates": [23.7377207, 38.0674989]}}, {"type": "Feature", "properties": {"type": "node", "id": 1030023833, "tags": {"name": "\u03a3\u03b9\u03b4\u03b7\u03c1\u03bf\u03b4\u03c1\u03bf\u03bc\u03b9\u03ba\u03cc \u039a\u03ad\u03bd\u03c4\u03c1\u03bf \u0391\u03c7\u03b1\u03c1\u03bd\u03ce\u03bd (\u03a3\u039a\u0391)", "name:en": "Acharnes Railway Center (SKA)", "network": "\u03a0\u03c1\u03bf\u03b1\u03c3\u03c4\u03b9\u03b1\u03ba\u03cc\u03c2 \u0391\u03b8\u03ae\u03bd\u03b1\u03c2", "operator": "\u039f\u03a3\u0395", "public_transport": "stop_position", "railway": "stop", "train": "yes"}}, "geometry": {"type": "Point", "coordinates": [23.7376759, 38.067505]}}, {"type": "Feature", "properties": {"type": "node", "id": 2354641739, "tags": {"name": "\u03a3\u039a\u0391 (\u03a3\u03b9\u03b4\u03b7\u03c1\u03bf\u03b4\u03c1\u03bf\u03bc\u03b9\u03ba\u03cc \u039a\u03ad\u03bd\u03c4\u03c1\u03bf \u0391\u03c7\u03b1\u03c1\u03bd\u03ce\u03bd)", "name:en": "SKA (Acharnes Railway Center)", "network": "Athens - Thessaloniki", "operator": "\u039f\u03a3\u0395", "public_transport": "stop_position", "railway": "stop", "train": "yes"}}, "geometry": {"type": "Point", "coordinates": [23.737821, 38.0686445]}}, {"type": "Feature", "properties": {"type": "node", "id": 936804443, "tags": {"name": "\u039d\u03b5\u03c1\u03b1\u03c4\u03b6\u03b9\u03ce\u03c4\u03b9\u03c3\u03c3\u03b1", "name:fr": "Neratziotissa", "public_transport": "stop_position", "railway": "stop", "train": "yes"}}, "geometry": {"type": "Point", "coordinates": [23.7941064, 38.0447682]}}, {"type": "Feature", "properties": {"type": "node", "id": 2541985709, "tags": {"name": "\u039d\u03b5\u03c1\u03b1\u03c4\u03b6\u03b9\u03ce\u03c4\u03b9\u03c3\u03c3\u03b1", "name:fr": "Neratziotissa", "public_transport": "stop_position", "railway": "stop", "train": "yes"}}, "geometry": {"type": "Point", "coordinates": [23.7922588, 38.0454313]}}, {"type": "Feature", "properties": {"type": "node", "id": 360017697, "tags": {"name": "\u039c\u03b5\u03c4\u03b1\u03bc\u03cc\u03c1\u03c6\u03c9\u03c3\u03b7", "name:fr": "Metamorfosi", "public_transport": "stop_position", "railway": "stop", "train": "yes"}}, "geometry": {"type": "Point", "coordinates": [23.7562064, 38.0600674]}}, {"type": "Feature", "properties": {"type": "node", "id": 936668220, "tags": {"name": "\u039c\u03b5\u03c4\u03b1\u03bc\u03cc\u03c1\u03c6\u03c9\u03c3\u03b7", "name:fr": "Metamorfosi", "public_transport": "stop_position", "railway": "stop", "train": "yes"}}, "geometry": {"type": "Point", "coordinates": [23.7549222, 38.0603471]}}, {"type": "Feature", "properties": {"type": "node", "id": 936804085, "tags": {"name": "\u0397\u03c1\u03b1\u03ba\u03bb\u03b5\u03af\u03bf\u03c5", "name:fr": "H\u00e9raklion", "public_transport": "stop_position", "railway": "stop", "train": "yes"}}, "geometry": {"type": "Point", "coordinates": [23.772153, 38.0567867]}}, {"type": "Feature", "properties": {"type": "node", "id": 936804332, "tags": {"name": "\u0397\u03c1\u03ac\u03ba\u03bb\u03b5\u03b9\u03bf", "name:de": "Iraklio", "name:el": "\u0397\u03c1\u03ac\u03ba\u03bb\u03b5\u03b9\u03bf", "name:en": "Iraklio", "name:fr": "Iraklio", "network": "\u03a0\u03c1\u03bf\u03b1\u03c3\u03c4\u03b9\u03b1\u03ba\u03cc\u03c2 \u0391\u03b8\u03ae\u03bd\u03b1\u03c2", "operator": "\u039f\u03a3\u0395", "public_transport": "station", "railway": "station"}}, "geometry": {"type": "Point", "coordinates": [23.7713656, 38.0572045]}}, {"type": "Feature", "properties": {"type": "node", "id": 936804379, "tags": {"name": "\u0397\u03c1\u03b1\u03ba\u03bb\u03b5\u03af\u03bf\u03c5", "name:fr": "H\u00e9raklion", "public_transport": "stop_position", "railway": "stop", "train": "yes"}}, "geometry": {"type": "Point", "coordinates": [23.7706872, 38.0575311]}}, {"type": "Feature", "properties": {"type": "node", "id": 936882777, "tags": {"int_name": "Doukissis Plakentias", "name": "\u0394\u03bf\u03c5\u03ba\u03af\u03c3\u03c3\u03b7\u03c2 \u03a0\u03bb\u03b1\u03ba\u03b5\u03bd\u03c4\u03af\u03b1\u03c2", "name:en": "Doukissis Plakentias", "public_transport": "stop_position", "railway": "stop", "train": "yes"}}, "geometry": {"type": "Point", "coordinates": [23.8339306, 38.0248014]}}, {"type": "Feature", "properties": {"type": "node", "id": 2142437054, "tags": {"int_name": "Doukissis Plakentias", "name": "\u0394\u03bf\u03c5\u03ba\u03af\u03c3\u03c3\u03b7\u03c2 \u03a0\u03bb\u03b1\u03ba\u03b5\u03bd\u03c4\u03af\u03b1\u03c2", "name:en": "Doukissis Plakentias", "public_transport": "stop_position", "railway": "stop", "train": "yes"}}, "geometry": {"type": "Point", "coordinates": [23.8338693, 38.0247026]}}, {"type": "Feature", "properties": {"type": "node", "id": 2786690723, "tags": {"name": "\u0394\u03bf\u03c5\u03ba\u03af\u03c3\u03c3\u03b7\u03c2 \u03a0\u03bb\u03b1\u03ba\u03b5\u03bd\u03c4\u03af\u03b1\u03c2", "name:el": "\u0394\u03bf\u03c5\u03ba\u03af\u03c3\u03c3\u03b7\u03c2 \u03a0\u03bb\u03b1\u03ba\u03b5\u03bd\u03c4\u03af\u03b1\u03c2", "name:en": "Doukissis Plakentias", "public_transport": "station", "railway": "station", "train": "yes"}}, "geometry": {"type": "Point", "coordinates": [23.8342692, 38.0246124]}}, {"type": "Feature", "properties": {"type": "node", "id": 3781391905, "tags": {"int_name": "Pentelis", "name": "\u03a0\u03b5\u03bd\u03c4\u03ad\u03bb\u03b7\u03c2", "name:fr": "Pendeli", "public_transport": "stop_position", "railway": "stop", "train": "yes"}}, "geometry": {"type": "Point", "coordinates": [23.8225838, 38.0328796]}}, {"type": "Feature", "properties": {"type": "node", "id": 2786688268, "tags": {"int_name": "Pentelis", "name": "\u03a0\u03b5\u03bd\u03c4\u03ad\u03bb\u03b7\u03c2", "name:fr": "Pendeli", "public_transport": "stop_position", "railway": "stop", "train": "yes"}}, "geometry": {"type": "Point", "coordinates": [23.8215345, 38.0339566]}}, {"type": "Feature", "properties": {"type": "node", "id": 936804010, "tags": {"name": "\u039a\u03b7\u03c6\u03b9\u03c3\u03af\u03b1\u03c2", "name:fr": "Kephissia", "public_transport": "stop_position", "railway": "stop", "train": "yes"}}, "geometry": {"type": "Point", "coordinates": [23.8040729, 38.041921]}}, {"type": "Feature", "properties": {"type": "node", "id": 936804329, "tags": {"name": "\u039a\u03b7\u03c6\u03b9\u03c3\u03af\u03b1\u03c2", "name:fr": "Kephissia", "public_transport": "stop_position", "railway": "stop", "train": "yes"}}, "geometry": {"type": "Point", "coordinates": [23.8030044, 38.042363]}}, {"type": "Feature", "properties": {"type": "node", "id": 2320883269, "tags": {"name": "\u039a\u03b7\u03c6\u03b9\u03c3\u03af\u03b1\u03c2", "name:de": "Kifisias", "name:el": "\u039a\u03b7\u03c6\u03b9\u03c3\u03af\u03b1\u03c2", "name:en": "Kifisias", "name:fr": "Kifisias", "network": "\u03a0\u03c1\u03bf\u03b1\u03c3\u03c4\u03b9\u03b1\u03ba\u03cc\u03c2 \u0391\u03b8\u03ae\u03bd\u03b1\u03c2", "operator": "\u039f\u03a3\u0395", "public_transport": "station", "railway": "station", "wheelchair": "limited", "wikidata": "Q6405881", "wikipedia": "el:\u03a3\u03b9\u03b4\u03b7\u03c1\u03bf\u03b4\u03c1\u03bf\u03bc\u03b9\u03ba\u03cc\u03c2 \u03a3\u03c4\u03b1\u03b8\u03bc\u03cc\u03c2 \u039b\u03b5\u03c9\u03c6\u03cc\u03c1\u03bf\u03c5 \u039a\u03b7\u03c6\u03b9\u03c3\u03af\u03b1\u03c2"}}, "geometry": {"type": "Point", "coordinates": [23.8035281, 38.0421425]}}, {"type": "Feature", "properties": {"type": "node", "id": 969213440, "tags": {"name": "\u0391\u03c7\u03b1\u03c1\u03bd\u03b1\u03af", "name:fr": "Acharnes", "public_transport": "stop_position", "railway": "stop", "train": "yes"}}, "geometry": {"type": "Point", "coordinates": [23.7428912, 38.0802938]}}, {"type": "Feature", "properties": {"type": "node", "id": 2798912795, "tags": {"name": "\u0391\u03c7\u03b1\u03c1\u03bd\u03b1\u03af", "name:fr": "Acharnes", "public_transport": "stop_position", "railway": "stop", "train": "yes"}}, "geometry": {"type": "Point", "coordinates": [23.744082, 38.0802827]}}, {"type": "Feature", "properties": {"type": "node", "id": 966702938, "tags": {"name": "\u0394\u03b5\u03ba\u03ad\u03bb\u03b5\u03b9\u03b1", "name:en": "Decelea", "name:fr": "D\u00e9c\u00e9lie", "public_transport": "stop_position", "railway": "stop", "ref": "\u0398\u03b5\u03c3\u03c3\u03b1\u03bb\u03bf\u03bd\u03af\u03ba\u03b7-\u03a7\u03b1\u03bb\u03ba\u03af\u03b4\u03b1", "train": "yes", "wheelchair": "yes"}}, "geometry": {"type": "Point", "coordinates": [23.780116, 38.0997502]}}, {"type": "Feature", "properties": {"type": "node", "id": 5745155682, "tags": {"name": "\u0394\u03b5\u03ba\u03ad\u03bb\u03b5\u03b9\u03b1", "name:en": "Decelea", "name:fr": "D\u00e9c\u00e9lie", "public_transport": "stop_position", "railway": "stop", "ref": "\u0391\u03b8\u03ae\u03bd\u03b1", "train": "yes", "wheelchair": "yes"}}, "geometry": {"type": "Point", "coordinates": [23.7800725, 38.0997889]}}, {"type": "Feature", "properties": {"type": "node", "id": 5985426212, "tags": {"name": "\u0394\u03b5\u03ba\u03ad\u03bb\u03b5\u03b9\u03b1", "network": "\u03a0\u03c1\u03bf\u03b1\u03c3\u03c4\u03b9\u03b1\u03ba\u03cc\u03c2 \u0391\u03b8\u03ae\u03bd\u03b1\u03c2", "operator": "\u039f\u03a3\u0395", "railway": "station"}}, "geometry": {"type": "Point", "coordinates": [23.7801051, 38.0997582]}}, {"type": "Feature", "properties": {"type": "node", "id": 364329621, "tags": {"name": "\u0386\u03b3\u03b9\u03bf\u03c2 \u03a3\u03c4\u03ad\u03c6\u03b1\u03bd\u03bf\u03c2", "name:fr": "Agios Stefanos", "public_transport": "stop_position", "railway": "stop", "train": "yes"}}, "geometry": {"type": "Point", "coordinates": [23.8591705, 38.1403673]}}, {"type": "Feature", "properties": {"type": "node", "id": 4077571119, "tags": {"ele": "350.4", "name": "\u0386\u03b3\u03b9\u03bf\u03c2 \u03a3\u03c4\u03ad\u03c6\u03b1\u03bd\u03bf\u03c2", "network": "\u03a0\u03c1\u03bf\u03b1\u03c3\u03c4\u03b9\u03b1\u03ba\u03cc\u03c2 \u0391\u03b8\u03ae\u03bd\u03b1\u03c2", "operator": "\u039f\u03a3\u0395", "public_transport": "station", "railway": "station", "railway:position": "33.5"}}, "geometry": {"type": "Point", "coordinates": [23.8592367, 38.1402756]}}, {"type": "Feature", "properties": {"type": "node", "id": 4602583144, "tags": {"name": "\u0386\u03b3\u03b9\u03bf\u03c2 \u03a3\u03c4\u03ad\u03c6\u03b1\u03bd\u03bf\u03c2", "name:fr": "Agios Stefanos", "public_transport": "stop_position", "railway": "stop", "train": "yes"}}, "geometry": {"type": "Point", "coordinates": [23.8591367, 38.140392]}}, {"type": "Feature", "properties": {"type": "node", "id": 368164861, "tags": {"name": "\u0391\u03c5\u03bb\u03ce\u03bd\u03b1\u03c2", "name:de": "Avlona", "name:el": "\u0391\u03c5\u03bb\u03ce\u03bd\u03b1\u03c2", "name:en": "Avlona", "name:fr": "Avlona", "public_transport": "stop_position", "railway": "stop", "train": "yes"}}, "geometry": {"type": "Point", "coordinates": [23.6956698, 38.2505382]}}, {"type": "Feature", "properties": {"type": "node", "id": 4602473593, "tags": {"name": "\u0391\u03c5\u03bb\u03ce\u03bd\u03b1\u03c2", "name:de": "Avlona", "name:el": "\u0391\u03c5\u03bb\u03ce\u03bd\u03b1\u03c2", "name:en": "Avlona", "name:fr": "Avlona", "name:ru": "\u0410\u0432\u043b\u043e\u043d", "public_transport": "stop_position", "railway": "stop", "train": "yes"}}, "geometry": {"type": "Point", "coordinates": [23.6955981, 38.2505129]}}, {"type": "Feature", "properties": {"type": "node", "id": 7785756627, "tags": {"name": "\u0391\u03c5\u03bb\u03ce\u03bd\u03b1\u03c2", "name:de": "Avlona", "name:el": "\u0391\u03c5\u03bb\u03ce\u03bd\u03b1\u03c2", "name:en": "Avlona", "name:fr": "Avlona", "public_transport": "station", "railway": "station", "train": "yes"}}, "geometry": {"type": "Point", "coordinates": [23.6956085, 38.2505529]}}, {"type": "Feature", "properties": {"type": "node", "id": 2291068164, "tags": {"name": "\u0391\u03b3. \u0398\u03c9\u03bc\u03ac\u03c2", "name:en": "Ag. Tomas", "name:fr": "Saint Thomas", "public_transport": "stop_position", "railway": "stop", "train": "yes"}}, "geometry": {"type": "Point", "coordinates": [23.667227, 38.281677]}}, {"type": "Feature", "properties": {"type": "node", "id": 4602473662, "tags": {"name": "\u0391\u03b3. \u0398\u03c9\u03bc\u03ac\u03c2", "name:en": "Ag. Tomas", "name:fr": "Saint Thomas", "public_transport": "stop_position", "railway": "stop", "train": "yes"}}, "geometry": {"type": "Point", "coordinates": [23.6671755, 38.2816588]}}, {"type": "Feature", "properties": {"type": "node", "id": 155927732, "tags": {"name": "\u039f\u03b9\u03bd\u03cc\u03c6\u03c5\u03c4\u03b1", "name:en": "Inofyta", "name:fr": "Inofyta", "public_transport": "stop_position", "railway": "stop", "train": "yes"}}, "geometry": {"type": "Point", "coordinates": [23.6338955, 38.3069654]}}, {"type": "Feature", "properties": {"type": "node", "id": 4602473731, "tags": {"name": "\u039f\u03b9\u03bd\u03cc\u03c6\u03c5\u03c4\u03b1", "name:en": "Inofyta", "name:fr": "Inofyta", "public_transport": "stop_position", "railway": "stop", "train": "yes"}}, "geometry": {"type": "Point", "coordinates": [23.6338252, 38.3069488]}}, {"type": "Feature", "properties": {"type": "node", "id": 155927790, "tags": {"int_name": "Inoi", "name": "\u039f\u03b9\u03bd\u03cc\u03b7", "public_transport": "stop_position", "railway": "stop", "train": "yes"}}, "geometry": {"type": "Point", "coordinates": [23.6098045, 38.321712]}}, {"type": "Feature", "properties": {"type": "node", "id": 2291064340, "tags": {"int_name": "Inoi", "name": "\u039f\u03b9\u03bd\u03cc\u03b7", "public_transport": "station", "railway": "station"}}, "geometry": {"type": "Point", "coordinates": [23.6096826, 38.3221682]}}, {"type": "Feature", "properties": {"type": "node", "id": 4942040546, "tags": {"int_name": "Inoi", "name": "\u039f\u03b9\u03bd\u03cc\u03b7", "public_transport": "stop_position", "railway": "stop", "train": "yes"}}, "geometry": {"type": "Point", "coordinates": [23.6098095, 38.3215758]}}, {"type": "Feature", "properties": {"type": "node", "id": 155927792, "tags": {"name": "\u039f\u03b9\u03bd\u03cc\u03b7", "name:fr": "Inoi", "public_transport": "stop_position", "railway": "stop", "train": "yes"}}, "geometry": {"type": "Point", "coordinates": [23.609077, 38.3230172]}}, {"type": "Feature", "properties": {"type": "node", "id": 2291065001, "tags": {"name": "\u0394\u03ae\u03bb\u03b5\u03c3\u03b9", "name:en": "Dilesi", "name:fr": "Dilesi", "public_transport": "stop_position", "railway": "stop", "train": "yes"}}, "geometry": {"type": "Point", "coordinates": [23.6094499, 38.3376364]}}, {"type": "Feature", "properties": {"type": "node", "id": 2291066231, "tags": {"name": "\u0386\u03b3\u03b9\u03bf\u03c2 \u0393\u03b5\u03ce\u03c1\u03b3\u03b9\u03bf\u03c2", "name:en": "Saint George", "name:fr": "Saint George", "network": "\u03a0\u03c1\u03bf\u03b1\u03c3\u03c4\u03b9\u03b1\u03ba\u03cc\u03c2 \u0391\u03b8\u03ae\u03bd\u03b1\u03c2", "operator": "\u039f\u03a3\u0395", "public_transport": "stop_position", "railway": "stop", "train": "yes"}}, "geometry": {"type": "Point", "coordinates": [23.6071554, 38.3551079]}}, {"type": "Feature", "properties": {"type": "node", "id": 155706004, "tags": {"name": "\u039a\u03b1\u03bb\u03bf\u03c7\u03ce\u03c1\u03b9-\u03a0\u03b1\u03bd\u03c4\u03b5\u03af\u03c7\u03b9", "name:en": "Kalochori-Pantichi", "name:fr": "Kalochori-Pantichi", "public_transport": "stop_position", "railway": "stop", "train": "yes"}}, "geometry": {"type": "Point", "coordinates": [23.5932061, 38.3892135]}}, {"type": "Feature", "properties": {"type": "node", "id": 155891790, "tags": {"name": "\u03a3\u03c6\u03b5\u03bd\u03b4\u03ac\u03bb\u03b7", "name:fr": "Sfendali", "public_transport": "stop_position", "railway": "stop", "train": "yes"}}, "geometry": {"type": "Point", "coordinates": [23.7844236, 38.2354165]}}, {"type": "Feature", "properties": {"type": "node", "id": 4602473454, "tags": {"name": "\u03a3\u03c6\u03b5\u03bd\u03b4\u03ac\u03bb\u03b7", "name:fr": "Sfendali", "public_transport": "stop_position", "railway": "stop", "train": "yes"}}, "geometry": {"type": "Point", "coordinates": [23.7844173, 38.2353729]}}, {"type": "Feature", "properties": {"type": "node", "id": 4683331993, "tags": {"int_name": "Afidnes", "name": "\u0391\u03c6\u03af\u03b4\u03bd\u03b5\u03c2", "name:fr": "Afidnes", "name:sq": "Qurka", "public_transport": "stop_position", "railway": "stop", "train": "yes"}}, "geometry": {"type": "Point", "coordinates": [23.8447642, 38.1873915]}}, {"type": "Feature", "properties": {"type": "node", "id": 4683331994, "tags": {"int_name": "Afidnes", "name": "\u0391\u03c6\u03af\u03b4\u03bd\u03b5\u03c2", "name:fr": "Afidnes", "name:sq": "Qurka", "network": "\u03a4\u03c1\u03b1\u03b9\u03bd\u039f\u03a3\u0395", "operator": "\u039f\u03a3\u0395", "public_transport": "station", "railway": "station", "train": "yes", "wikidata": "Q4689236", "wikipedia": "el:\u03a3\u03b9\u03b4\u03b7\u03c1\u03bf\u03b4\u03c1\u03bf\u03bc\u03b9\u03ba\u03cc\u03c2 \u03a3\u03c4\u03b1\u03b8\u03bc\u03cc\u03c2 \u0391\u03c6\u03b9\u03b4\u03bd\u03ce\u03bd"}}, "geometry": {"type": "Point", "coordinates": [23.8446369, 38.1873782]}}, {"type": "Feature", "properties": {"type": "node", "id": 4683331997, "tags": {"int_name": "Afidnes", "name": "\u0391\u03c6\u03af\u03b4\u03bd\u03b5\u03c2", "name:fr": "Afidnes", "name:sq": "Qurka", "public_transport": "stop_position", "railway": "stop", "ref": "\u0391\u03b8\u03ae\u03bd\u03b1", "train": "yes"}}, "geometry": {"type": "Point", "coordinates": [23.8447689, 38.1864268]}}, {"type": "Feature", "properties": {"type": "node", "id": 4683332020, "tags": {"int_name": "Afidnes", "name": "\u0391\u03c6\u03af\u03b4\u03bd\u03b5\u03c2", "name:fr": "Afidnes", "name:sq": "Qurka", "public_transport": "stop_position", "railway": "stop", "ref": "\u0398\u03b5\u03c3\u03c3\u03b1\u03bb\u03bf\u03bd\u03af\u03ba\u03b7", "train": "yes"}}, "geometry": {"type": "Point", "coordinates": [23.844506, 38.1883297]}}, {"type": "Feature", "properties": {"type": "node", "id": 5777457447, "tags": {"name": "\u03a7\u03b1\u03bb\u03ba\u03af\u03b4\u03b1", "name:fr": "Chalcis", "public_transport": "stop_position", "railway": "stop", "train": "yes"}}, "geometry": {"type": "Point", "coordinates": [23.5861659, 38.4625271]}}, {"type": "Feature", "properties": {"type": "node", "id": 5777457448, "tags": {"name": "\u03a7\u03b1\u03bb\u03ba\u03af\u03b4\u03b1", "name:fr": "Chalcis", "public_transport": "stop_position", "railway": "stop", "train": "yes"}}, "geometry": {"type": "Point", "coordinates": [23.5861802, 38.4626178]}}, {"type": "Feature", "properties": {"type": "node", "id": 7785784493, "tags": {"name": "\u03a7\u03b1\u03bb\u03ba\u03af\u03b4\u03b1", "name:fr": "Chalcis", "public_transport": "station", "railway": "station", "train": "yes"}}, "geometry": {"type": "Point", "coordinates": [23.5861282, 38.462568]}}, {"type": "Feature", "properties": {"type": "node", "id": 155705963, "tags": {"name": "\u0391\u03c5\u03bb\u03af\u03b4\u03b1", "name:de": "Avlida", "name:en": "Avlida", "name:fr": "Avlida", "public_transport": "stop_position", "railway": "stop", "ref": "\u0391\u03b8\u03ae\u03bd\u03b1", "train": "yes"}}, "geometry": {"type": "Point", "coordinates": [23.6033397, 38.4044558]}}, {"type": "Feature", "properties": {"type": "node", "id": 155708452, "tags": {"name": "\u0391\u03c5\u03bb\u03af\u03b4\u03b1", "name:de": "Avlida", "name:en": "Avlida", "name:fr": "Avlida", "public_transport": "stop_position", "railway": "stop", "ref": "\u03a7\u03b1\u03bb\u03ba\u03af\u03b4\u03b1", "train": "yes"}}, "geometry": {"type": "Point", "coordinates": [23.6033835, 38.4044464]}}, {"type": "Feature", "properties": {"type": "node", "id": 1035624076, "tags": {"name": "\u039e\u03b9\u03bd\u03cc \u039d\u03b5\u03c1\u03cc", "name:en": "Xino Nero", "railway": "station"}}, "geometry": {"type": "Point", "coordinates": [21.634032, 40.6913512]}}, {"type": "Feature", "properties": {"type": "node", "id": 3670330796, "tags": {"name": "\u0391\u03bc\u03cd\u03bd\u03c4\u03b1\u03b9\u03bf", "name:de": "Amyndeo", "name:en": "Amyntaio", "public_transport": "station", "railway": "station", "train": "yes"}}, "geometry": {"type": "Point", "coordinates": [21.6854184, 40.691024]}}, {"type": "Feature", "properties": {"type": "node", "id": 7691547642, "tags": {"name": "\u0391\u03bc\u03cd\u03bd\u03c4\u03b1\u03b9\u03bf", "name:de": "Amyndeo", "name:en": "Amyntaio", "public_transport": "stop_position", "train": "yes"}}, "geometry": {"type": "Point", "coordinates": [21.6856087, 40.6909301]}}, {"type": "Feature", "properties": {"type": "node", "id": 7691547643, "tags": {"name": "\u0391\u03bc\u03cd\u03bd\u03c4\u03b1\u03b9\u03bf", "name:de": "Amyndeo", "name:en": "Amyntaio", "public_transport": "stop_position", "train": "yes"}}, "geometry": {"type": "Point", "coordinates": [21.6856277, 40.6908888]}}, {"type": "Feature", "properties": {"type": "node", "id": 2791603216, "tags": {"image": "https://commons.wikimedia.org/wiki/File:Florina_Railway_Station.jpg", "name": "\u03a6\u03bb\u03ce\u03c1\u03b9\u03bd\u03b1\u03c2", "name:en": "Florina", "name:mk": "\u0416\u0421 \u041b\u0435\u0440\u0438\u043d", "railway": "station", "wikimedia_commons": "File:Florina_Railway_Station.jpg"}}, "geometry": {"type": "Point", "coordinates": [21.4152375, 40.7813201]}}, {"type": "Feature", "properties": {"type": "node", "id": 295529622, "tags": {"name": "\u0392\u03b5\u03cd\u03b7", "name:de": "Vevi", "name:en": "Veve", "name:fr": "Veve", "public_transport": "stop_position", "train": "yes"}}, "geometry": {"type": "Point", "coordinates": [21.5706738, 40.7731352]}}, {"type": "Feature", "properties": {"type": "node", "id": 300806334, "tags": {"addr:country": "GR", "addr:place": "\u0392\u03b5\u03cd\u03b7", "addr:postcode": "53074", "alt_name:mk": "\u0414\u043e\u043b\u043d\u0430 \u0411\u0430\u043d\u0438\u0446\u0430", "name": "\u03a3\u03c4\u03b1\u03b8\u03bc\u03cc\u03c2 \u0392\u03b5\u03cd\u03b7\u03c2", "name:de": "Stathmos (Kato) Vevis", "name:el": "\u03a3\u03c4\u03b1\u03b8\u03bc\u03cc\u03c2 \u0392\u03b5\u03cd\u03b7\u03c2", "name:mk": "\u0421\u0442\u0430\u043d\u0438\u0446\u0430 \u0411\u0430\u043d\u0438\u0446\u0430", "old_name": "Kato Vevi", "population": "118", "public_transport": "station", "railway": "station", "train": "yes"}}, "geometry": {"type": "Point", "coordinates": [21.5707371, 40.7733037]}}, {"type": "Feature", "properties": {"type": "node", "id": 205461659, "tags": {"country": "Amyndeo municipality,Florina prefecture,Dytiki Makedonia,Greece", "name": "\u0386\u03b3\u03b9\u03bf\u03c2 \u03a0\u03b1\u03bd\u03c4\u03b5\u03bb\u03b5\u03ae\u03bc\u03c9\u03bd", "name:de": "Agios Pandelimonas", "name:el": "\u0386\u03b3\u03b9\u03bf\u03c2 \u03a0\u03b1\u03bd\u03c4\u03b5\u03bb\u03b5\u03ae\u03bc\u03c9\u03bd", "name:en": "Agios Pandelimonas", "name:fr": "Agios Pandelimonas", "railway": "station"}}, "geometry": {"type": "Point", "coordinates": [21.7437942, 40.7243354]}}, {"type": "Feature", "properties": {"type": "node", "id": 287772976, "tags": {"name": "\u03a1\u03b1\u03c8\u03ac\u03bd\u03b7", "name:en": "Rapsani", "public_transport": "stop_position", "train": "yes"}}, "geometry": {"type": "Point", "coordinates": [22.6138603, 39.8988163]}}, {"type": "Feature", "properties": {"type": "node", "id": 4598783045, "tags": {"name": "\u03a1\u03b1\u03c8\u03ac\u03bd\u03b7", "name:en": "Rapsani", "public_transport": "stop_position", "train": "yes"}}, "geometry": {"type": "Point", "coordinates": [22.6138351, 39.8988367]}}, {"type": "Feature", "properties": {"type": "node", "id": 6780643974, "tags": {"addr:place": "\u039d\u03ad\u03bf\u03b9 \u03a0\u03cc\u03c1\u03bf\u03b9", "name": "\u039d\u03ad\u03bf\u03b9 \u03a0\u03cc\u03c1\u03bf\u03b9", "name:de": "Nei Pori", "name:el": "\u039d\u03ad\u03bf\u03b9 \u03a0\u03cc\u03c1\u03bf\u03b9", "name:en": "Neoi Poroi", "name:fr": "Nei Pori", "public_transport": "stop_position", "railway": "stop", "train": "yes"}}, "geometry": {"type": "Point", "coordinates": [22.6383068, 39.9760603]}}, {"type": "Feature", "properties": {"type": "node", "id": 6780646886, "tags": {"name": "\u039d\u03ad\u03bf\u03b9 \u03a0\u03cc\u03c1\u03bf\u03b9", "name:de": "Nei Pori", "name:el": "\u039d\u03ad\u03bf\u03b9 \u03a0\u03cc\u03c1\u03bf\u03b9", "name:en": "Neoi Poroi", "name:fr": "Nei Pori", "public_transport": "stop_position", "railway": "stop", "train": "yes"}}, "geometry": {"type": "Point", "coordinates": [22.6383899, 39.976152]}}, {"type": "Feature", "properties": {"type": "node", "id": 286425728, "tags": {"name": "\u039b\u03b5\u03c0\u03c4\u03bf\u03ba\u03b1\u03c1\u03c5\u03ac", "name:de": "Leptokarya", "name:el": "\u039b\u03b5\u03c0\u03c4\u03bf\u03ba\u03b1\u03c1\u03c5\u03ac", "name:en": "Leptokarya", "name:fr": "Leptokarya", "name:mk": "\u041b\u0435\u043f\u0442\u043e\u043a\u0430\u0440\u0438\u0458\u0430", "public_transport": "stop_position", "railway": "stop", "train": "yes"}}, "geometry": {"type": "Point", "coordinates": [22.5655662, 40.0585648]}}, {"type": "Feature", "properties": {"type": "node", "id": 4602315176, "tags": {"name": "\u039b\u03b5\u03c0\u03c4\u03bf\u03ba\u03b1\u03c1\u03c5\u03ac", "name:de": "Leptokarya", "name:el": "\u039b\u03b5\u03c0\u03c4\u03bf\u03ba\u03b1\u03c1\u03c5\u03ac", "name:en": "Leptokarya", "name:fr": "Leptokarya", "public_transport": "stop_position", "railway": "stop", "train": "yes"}}, "geometry": {"type": "Point", "coordinates": [22.5656168, 40.0585691]}}, {"type": "Feature", "properties": {"type": "node", "id": 6780649449, "tags": {"name": "\u039b\u03b5\u03c0\u03c4\u03bf\u03ba\u03b1\u03c1\u03c5\u03ac", "name:de": "Leptokarya", "name:el": "\u039b\u03b5\u03c0\u03c4\u03bf\u03ba\u03b1\u03c1\u03c5\u03ac", "name:en": "Leptokarya", "name:fr": "Leptokarya", "public_transport": "stop_position", "railway": "stop", "train": "yes"}}, "geometry": {"type": "Point", "coordinates": [22.5657302, 40.0585827]}}, {"type": "Feature", "properties": {"type": "node", "id": 7694377303, "tags": {"name": "\u039b\u03b5\u03c0\u03c4\u03bf\u03ba\u03b1\u03c1\u03c5\u03ac", "name:de": "Leptokarya", "name:el": "\u039b\u03b5\u03c0\u03c4\u03bf\u03ba\u03b1\u03c1\u03c5\u03ac", "name:en": "Leptokarya", "name:fr": "Leptokarya", "railway": "station"}}, "geometry": {"type": "Point", "coordinates": [22.5655914, 40.0585678]}}, {"type": "Feature", "properties": {"type": "node", "id": 5433926636, "tags": {"name": "\u039b\u03b9\u03c4\u03cc\u03c7\u03c9\u03c1\u03bf", "name:fr": "Litochoro", "public_transport": "stop_position", "train": "yes"}}, "geometry": {"type": "Point", "coordinates": [22.5502122, 40.124945]}}, {"type": "Feature", "properties": {"type": "node", "id": 5433926637, "tags": {"name": "\u039b\u03b9\u03c4\u03cc\u03c7\u03c9\u03c1\u03bf", "name:fr": "Litochoro", "public_transport": "stop_position", "train": "yes"}}, "geometry": {"type": "Point", "coordinates": [22.5501006, 40.124917]}}, {"type": "Feature", "properties": {"type": "node", "id": 5433926638, "tags": {"name": "\u039b\u03b9\u03c4\u03cc\u03c7\u03c9\u03c1\u03bf", "name:fr": "Litochoro", "public_transport": "stop_position", "train": "yes"}}, "geometry": {"type": "Point", "coordinates": [22.550056, 40.1249058]}}, {"type": "Feature", "properties": {"type": "node", "id": 5433926639, "tags": {"name": "\u039b\u03b9\u03c4\u03cc\u03c7\u03c9\u03c1\u03bf", "name:fr": "Litochoro", "public_transport": "stop_position", "train": "yes"}}, "geometry": {"type": "Point", "coordinates": [22.5499443, 40.1248778]}}, {"type": "Feature", "properties": {"type": "node", "id": 3736191926, "tags": {"name": "\u039a\u03b1\u03c4\u03b5\u03c1\u03af\u03bd\u03b7", "name:bg": "\u041a\u0430\u0442\u0435\u0440\u0438\u043d\u0438", "name:el": "\u039a\u03b1\u03c4\u03b5\u03c1\u03af\u03bd\u03b7", "name:en": "Katerini", "name:fr": "Katerini", "name:mk": "\u041a\u0430\u0442\u0435\u0440\u0438\u043d\u0430", "name:tr": "Katerin", "public_transport": "stop_position", "train": "yes"}}, "geometry": {"type": "Point", "coordinates": [22.5311335, 40.2670392]}}, {"type": "Feature", "properties": {"type": "node", "id": 6175162599, "tags": {"addr:city": "\u039a\u03b1\u03c4\u03b5\u03c1\u03af\u03bd\u03b7", "addr:country": "GR", "name": "\u039a\u03b1\u03c4\u03b5\u03c1\u03af\u03bd\u03b7", "name:bg": "\u041a\u0430\u0442\u0435\u0440\u0438\u043d\u0438", "name:de": "Katerini", "name:el": "\u039a\u03b1\u03c4\u03b5\u03c1\u03af\u03bd\u03b7", "name:en": "Katerini", "name:fr": "Katerini", "name:mk": "\u041a\u0430\u0442\u0435\u0440\u0438\u043d\u0430", "name:tr": "Katerin", "railway": "station"}}, "geometry": {"type": "Point", "coordinates": [22.5315302, 40.2685138]}}, {"type": "Feature", "properties": {"type": "node", "id": 4602309827, "tags": {"name": "\u039a\u03b1\u03c4\u03b5\u03c1\u03af\u03bd\u03b7", "name:bg": "\u041a\u0430\u0442\u0435\u0440\u0438\u043d\u0438", "name:de": "Katerini", "name:el": "\u039a\u03b1\u03c4\u03b5\u03c1\u03af\u03bd\u03b7", "name:en": "Katerini", "name:fr": "Katerini", "name:mk": "\u041a\u0430\u0442\u0435\u0440\u0438\u043d\u0430", "name:tr": "Katerin", "public_transport": "stop_position", "train": "yes"}}, "geometry": {"type": "Point", "coordinates": [22.5318002, 40.2694684]}}, {"type": "Feature", "properties": {"type": "node", "id": 4788817395, "tags": {"addr:city": "\u0392\u03ad\u03c1\u03bf\u03b9\u03b1", "addr:country": "GR", "ele": "83", "int_name": "Veroia", "internet_access": "wlan", "internet_access:fee": "free", "name": "\u0392\u03ad\u03c1\u03bf\u03b9\u03b1", "name:de": "Bahnhof Veria", "name:el": "\u03a3\u03b9\u03b4\u03b7\u03c1\u03bf\u03b4\u03c1\u03bf\u03bc\u03b9\u03ba\u03cc\u03c2 \u03a3\u03c4\u03b1\u03b8\u03bc\u03cc\u03c2 \u0392\u03b5\u03c1\u03bf\u03af\u03b1\u03c2", "name:en": "Veria Railway Station", "name:es": "Estaci\u00f3n de V\u00e9ria", "name:fr": "Gare de V\u00e9roia", "name:it": "Stazione di V\u00e8ria", "name:jp": "\u30d9\u30ea\u30a2 \u99c5", "name:la": "Beroea", "name:pt": "V\u00e9ria", "name:ro": "Veria", "name:ru": "\u0416\u0435\u043b\u0435\u0437\u043d\u043e\u0434\u043e\u0440\u043e\u0436\u043d\u0430\u044f \u0441\u0442\u0430\u043d\u0446\u0438\u044f \u0412\u0435\u0440\u0438\u044f", "operator": "\u039f\u03c1\u03b3\u03b1\u03bd\u03b9\u03c3\u03bc\u03cc\u03c2 \u03a3\u03b9\u03b4\u03b7\u03c1\u03bf\u03b4\u03c1\u03cc\u03bc\u03c9\u03bd \u0395\u03bb\u03bb\u03ac\u03b4\u03bf\u03c2", "phone": "+30 233 102 4444", "public_transport": "station", "railway": "station", "railway:position": "67.5", "railway:ref": "\u0392\u03a1", "wheelchair": "no"}}, "geometry": {"type": "Point", "coordinates": [22.2135648, 40.5393528]}}, {"type": "Feature", "properties": {"type": "node", "id": 4951426366, "tags": {"name": "\u0392\u03ad\u03c1\u03bf\u03b9\u03b1", "name:en": "Veria", "public_transport": "stop_position", "railway": "stop", "railway:position": "67.5", "train": "yes"}}, "geometry": {"type": "Point", "coordinates": [22.2136994, 40.5394626]}}, {"type": "Feature", "properties": {"type": "node", "id": 4312778133, "tags": {"name": "\u03a3\u03c4\u03b1\u03b8\u03bc\u03cc\u03c2 \u039d\u03ac\u03bf\u03c5\u03c3\u03b1\u03c2", "public_transport": "stop_position", "railway": "stop", "railway:position": "79.1", "train": "yes"}}, "geometry": {"type": "Point", "coordinates": [22.1342022, 40.6214862]}}, {"type": "Feature", "properties": {"type": "node", "id": 4962862013, "tags": {"ele": "88", "int_name": "Naousa", "internet_access:fee": "no", "name": "\u039d\u03ac\u03bf\u03c5\u03c3\u03b1", "name:bg": "\u0413\u0430\u0440\u0430 \u041d\u0435\u0433\u0443\u0448", "name:de": "Bahnhof Naoussa", "name:el": "\u03a3\u03b9\u03b4\u03b7\u03c1\u03bf\u03b4\u03c1\u03bf\u03bc\u03b9\u03ba\u03cc\u03c2 \u03a3\u03c4\u03b1\u03b8\u03bc\u03cc\u03c2 \u039d\u03ac\u03bf\u03c5\u03c3\u03b1\u03c2", "name:en": "Naousa Railway Station", "name:es": "Estaci\u00f3n de N\u00e1oussa", "name:fr": "Gare de N\u00e1ousa", "name:it": "Stazione di Naoussa", "name:jp": "\u30ca\u30a6\u30b5 \u99c5", "name:ru": "\u0416\u0435\u043b\u0435\u0437\u043d\u043e\u0434\u043e\u0440\u043e\u0436\u043d\u0430\u044f \u0441\u0442\u0430\u043d\u0446\u0438\u044f \u041d\u0430\u0443\u0441\u0441\u0430", "operator": "\u039f\u03c1\u03b3\u03b1\u03bd\u03b9\u03c3\u03bc\u03cc\u03c2 \u03a3\u03b9\u03b4\u03b7\u03c1\u03bf\u03b4\u03c1\u03cc\u03bc\u03c9\u03bd \u0395\u03bb\u03bb\u03ac\u03b4\u03bf\u03c2", "phone": "+30 233 204 2127", "public_transport": "station", "railway": "station", "railway:position": "79.1", "railway:ref": "\u039d\u0391", "wheelchair": "no", "wikidata": "Q12276141"}}, "geometry": {"type": "Point", "coordinates": [22.1339962, 40.6214713]}}, {"type": "Feature", "properties": {"type": "node", "id": 4962654974, "tags": {"name": "\u0395\u03c0\u03b9\u03c3\u03ba\u03bf\u03c0\u03ae", "name:en": "Episkopi", "public_transport": "stop_position", "railway": "stop", "railway:position": "86.8", "train": "yes"}}, "geometry": {"type": "Point", "coordinates": [22.1414618, 40.6905459]}}, {"type": "Feature", "properties": {"type": "node", "id": 4962862012, "tags": {"ele": "66", "int_name": "Episkopi", "internet_access": "no", "internet_access:fee": "no", "name": "\u0395\u03c0\u03b9\u03c3\u03ba\u03bf\u03c0\u03ae", "name:de": "Bahnhof Episkopi", "name:el": "\u03a3\u03b9\u03b4\u03b7\u03c1\u03bf\u03b4\u03c1\u03bf\u03bc\u03b9\u03ba\u03cc\u03c2 \u03a3\u03c4\u03b1\u03b8\u03bc\u03cc\u03c2 \u0395\u03c0\u03b9\u03c3\u03ba\u03bf\u03c0\u03ae\u03c2", "name:en": "Episkopi Railway Station", "name:es": "Estaci\u00f3n de Episkopi", "name:fr": "Gare d' Episkopi", "name:it": "Stazione di Episkopi", "name:jp": "\u30a8\u30d4\u30b9\u30b3\u30d4 \u99c5", "name:ru": "\u0416\u0435\u043b\u0435\u0437\u043d\u043e\u0434\u043e\u0440\u043e\u0436\u043d\u0430\u044f \u0441\u0442\u0430\u043d\u0446\u0438\u044f \u042d\u043f\u0438\u0441\u043a\u043e\u043f\u0438", "operator": "\u039f\u03c1\u03b3\u03b1\u03bd\u03b9\u03c3\u03bc\u03cc\u03c2 \u03a3\u03b9\u03b4\u03b7\u03c1\u03bf\u03b4\u03c1\u03cc\u03bc\u03c9\u03bd \u0395\u03bb\u03bb\u03ac\u03b4\u03bf\u03c2", "phone": "no", "public_transport": "station", "railway": "station", "railway:position": "86.8", "railway:ref": "\u0395'\u03a0", "wheelchair": "no"}}, "geometry": {"type": "Point", "coordinates": [22.1412817, 40.6905571]}}, {"type": "Feature", "properties": {"type": "node", "id": 139717883, "tags": {"name": "\u039a\u03bf\u03c1\u03b9\u03bd\u03cc\u03c2", "name:en": "Korinos", "public_transport": "stop_position", "train": "yes"}}, "geometry": {"type": "Point", "coordinates": [22.5777293, 40.3162915]}}, {"type": "Feature", "properties": {"type": "node", "id": 3525547140, "tags": {"name": "\u039a\u03bf\u03c1\u03b9\u03bd\u03cc\u03c2", "name:en": "Korinos", "public_transport": "stop_position", "train": "yes"}}, "geometry": {"type": "Point", "coordinates": [22.5784127, 40.3170216]}}, {"type": "Feature", "properties": {"type": "node", "id": 4944169491, "tags": {"name": "\u039c\u03ad\u03c3\u03b7", "name:en": "Mesi", "public_transport": "stop_position", "railway": "stop", "railway:position": "62.5", "train": "yes"}}, "geometry": {"type": "Point", "coordinates": [22.2630878, 40.52703]}}, {"type": "Feature", "properties": {"type": "node", "id": 4944202636, "tags": {"name": "\u039a\u03bf\u03c5\u03bb\u03bf\u03cd\u03c1\u03b1", "name:en": "Koolura", "public_transport": "stop_position", "railway": "stop", "railway:position": "57.4", "train": "yes"}}, "geometry": {"type": "Point", "coordinates": [22.3143623, 40.5492764]}}, {"type": "Feature", "properties": {"type": "node", "id": 4942584308, "tags": {"ele": "16", "int_name": "Xechasmeni", "internet_access": "no", "internet_access:fee": "no", "name": "\u039e\u03b5\u03c7\u03b1\u03c3\u03bc\u03ad\u03bd\u03b7", "name:de": "Bahnhof Xehasmeni", "name:el": "\u03a3\u03b9\u03b4\u03b7\u03c1\u03bf\u03b4\u03c1\u03bf\u03bc\u03b9\u03ba\u03cc\u03c2 \u03a3\u03c4\u03b1\u03b8\u03bc\u03cc\u03c2 \u039e\u03b5\u03c7\u03b1\u03c3\u03bc\u03ad\u03bd\u03b7\u03c2", "name:en": "Cehasmeni Railway Station", "name:es": "Estaci\u00f3n de Xejasmeni", "name:fr": "Gare de Ksehasmeni", "name:it": "Stazione di Xecasmeni", "name:jp": "\u30bb\u30a2\u30b9\u30e1\u30cb \u99c5", "name:ru": "\u0416\u0435\u043b\u0435\u0437\u043d\u043e\u0434\u043e\u0440\u043e\u0436\u043d\u0430\u044f \u0441\u0442\u0430\u043d\u0446\u0438\u044f \u041a\u0441\u0435\u0445\u0430\u0437\u043c\u0435\u043d\u0438", "operator": "\u039f\u03c1\u03b3\u03b1\u03bd\u03b9\u03c3\u03bc\u03cc\u03c2 \u03a3\u03b9\u03b4\u03b7\u03c1\u03bf\u03b4\u03c1\u03cc\u03bc\u03c9\u03bd \u0395\u03bb\u03bb\u03ac\u03b4\u03bf\u03c2", "phone": "+30 233 103 9165", "public_transport": "station", "railway": "station", "railway:position": "54.8", "railway:ref": "\u039e\u039c", "wheelchair": "no"}}, "geometry": {"type": "Point", "coordinates": [22.3387937, 40.5638234]}}, {"type": "Feature", "properties": {"type": "node", "id": 4951799587, "tags": {"name": "\u039e\u03b5\u03c7\u03b1\u03c3\u03bc\u03ad\u03bd\u03b7", "name:en": "Cehasmeni", "public_transport": "stop_position", "railway": "stop", "railway:position": "54.8", "train": "yes"}}, "geometry": {"type": "Point", "coordinates": [22.3389946, 40.5636297]}}, {"type": "Feature", "properties": {"type": "node", "id": 4944224039, "tags": {"name": "\u039a\u03b5\u03c6\u03b1\u03bb\u03bf\u03c7\u03ce\u03c1\u03b9\u03bf\u03bd", "name:en": "Kefalohori", "public_transport": "stop_position", "railway": "stop", "railway:position": "52.2", "train": "yes"}}, "geometry": {"type": "Point", "coordinates": [22.3649872, 40.5787737]}}, {"type": "Feature", "properties": {"type": "node", "id": 4944236770, "tags": {"name": "\u039b\u03bf\u03c5\u03c4\u03c1\u03cc\u03c2", "name:en": "Lootros", "public_transport": "stop_position", "railway": "stop", "railway:position": "48.5", "train": "yes"}}, "geometry": {"type": "Point", "coordinates": [22.3981852, 40.5981109]}}, {"type": "Feature", "properties": {"type": "node", "id": 1939451177, "tags": {"name": "\u0391\u03b9\u03b3\u03af\u03bd\u03b9\u03bf\u03bd", "name:en": "Aiginio", "operator": "\u039f\u03a3\u0395", "public_transport": "station", "railway": "station"}}, "geometry": {"type": "Point", "coordinates": [22.5523936, 40.4978811]}}, {"type": "Feature", "properties": {"type": "node", "id": 7694377306, "tags": {"name": "\u0391\u03b9\u03b3\u03af\u03bd\u03b9\u03bf\u03bd", "name:en": "Aiginio", "public_transport": "stop_position", "railway": "stop", "train": "yes"}}, "geometry": {"type": "Point", "coordinates": [22.5531006, 40.4973505]}}, {"type": "Feature", "properties": {"type": "node", "id": 7694377305, "tags": {"name": "\u0391\u03b9\u03b3\u03af\u03bd\u03b9\u03bf\u03bd", "name:en": "Aiginio", "public_transport": "stop_position", "railway": "stop", "train": "yes"}}, "geometry": {"type": "Point", "coordinates": [22.5519647, 40.4985917]}}, {"type": "Feature", "properties": {"type": "node", "id": 4942584311, "tags": {"ele": "7", "int_name": "Alexandreia", "internet_access": "no", "internet_access:fee": "no", "name": "\u0391\u03bb\u03b5\u03be\u03ac\u03bd\u03b4\u03c1\u03b5\u03b9\u03b1", "name:de": "Bahnhof Alexandria", "name:el": "\u03a3\u03b9\u03b4\u03b7\u03c1\u03bf\u03b4\u03c1\u03bf\u03bc\u03b9\u03ba\u03cc\u03c2 \u03a3\u03c4\u03b1\u03b8\u03bc\u03cc\u03c2 \u0391\u03bb\u03b5\u03be\u03ac\u03bd\u03b4\u03c1\u03b5\u03b9\u03b1\u03c2", "name:en": "Alexandria Railway Station", "name:es": "Estaci\u00f3n de Alejandr\u00eda", "name:fr": "Gare d' Alex\u00e1ndrie", "name:it": "Stazione di Alessandria", "name:jp": "\u30a2\u30ec\u30af\u30b5\u30f3\u30c9\u30ea\u30a2 \u99c5", "name:ru": "\u0416\u0435\u043b\u0435\u0437\u043d\u043e\u0434\u043e\u0440\u043e\u0436\u043d\u0430\u044f \u0441\u0442\u0430\u043d\u0446\u0438\u044f \u0410\u043b\u0435\u043a\u0441\u0430\u043d\u0434\u0440\u0438\u044f", "operator": "\u039f\u03c1\u03b3\u03b1\u03bd\u03b9\u03c3\u03bc\u03cc\u03c2 \u03a3\u03b9\u03b4\u03b7\u03c1\u03bf\u03b4\u03c1\u03cc\u03bc\u03c9\u03bd \u0395\u03bb\u03bb\u03ac\u03b4\u03bf\u03c2", "phone": "+30 233 302 3210", "public_transport": "station", "railway": "station", "railway:position": "44.1", "railway:ref": "\u0393\u039a", "wheelchair": "no"}}, "geometry": {"type": "Point", "coordinates": [22.4414623, 40.6203384]}}, {"type": "Feature", "properties": {"type": "node", "id": 4944334994, "tags": {"name": "\u0391\u03bb\u03b5\u03be\u03ac\u03bd\u03b4\u03c1\u03b5\u03b9\u03b1", "name:en": "Alexandria", "public_transport": "stop_position", "railway": "stop", "railway:position": "44.1", "train": "yes"}}, "geometry": {"type": "Point", "coordinates": [22.4414694, 40.6201997]}}, {"type": "Feature", "properties": {"type": "node", "id": 4788608523, "tags": {"public_transport": "stop_position", "railway": "stop", "railway:position": "39.7", "train": "no"}}, "geometry": {"type": "Point", "coordinates": [22.4914015, 40.6280743]}}, {"type": "Feature", "properties": {"type": "node", "id": 4788607968, "tags": {"public_transport": "stop_position", "railway": "stop", "railway:position": "38.6", "train": "yes"}}, "geometry": {"type": "Point", "coordinates": [22.5044272, 40.6301281]}}, {"type": "Feature", "properties": {"type": "node", "id": 4789397377, "tags": {"name": "\u03a0\u03bb\u03b1\u03c4\u03cd", "name:bg": "\u041f\u043b\u0430\u0442\u0438", "name:el": "\u03a0\u03bb\u03b1\u03c4\u03cd", "name:en": "Platy", "name:fr": "Platy", "name:mk": "\u041f\u043b\u0430\u0442\u0438", "name:tr": "Plati", "public_transport": "stop_position", "railway": "stop", "railway:position": "36.3", "train": "yes"}}, "geometry": {"type": "Point", "coordinates": [22.5295803, 40.6365516]}}, {"type": "Feature", "properties": {"type": "node", "id": 4789397378, "tags": {"name": "\u03a0\u03bb\u03b1\u03c4\u03cd", "name:bg": "\u041f\u043b\u0430\u0442\u0438", "name:el": "\u03a0\u03bb\u03b1\u03c4\u03cd", "name:en": "Platy", "name:fr": "Platy", "name:mk": "\u041f\u043b\u0430\u0442\u0438", "name:tr": "Plati", "public_transport": "stop_position", "railway": "stop", "railway:position": "36.3", "train": "yes"}}, "geometry": {"type": "Point", "coordinates": [22.5295436, 40.6365835]}}, {"type": "Feature", "properties": {"type": "node", "id": 4789397379, "tags": {"name": "\u03a0\u03bb\u03b1\u03c4\u03cd", "name:bg": "\u041f\u043b\u0430\u0442\u0438", "name:el": "\u03a0\u03bb\u03b1\u03c4\u03cd", "name:en": "Platy", "name:fr": "Platy", "name:mk": "\u041f\u043b\u0430\u0442\u0438", "name:tr": "Plati", "public_transport": "stop_position", "railway": "stop", "railway:position": "36.3", "train": "yes"}}, "geometry": {"type": "Point", "coordinates": [22.5295054, 40.6366124]}}, {"type": "Feature", "properties": {"type": "node", "id": 4805502964, "tags": {"ele": "5", "int_name": "Platy", "internet_access": "wlan", "internet_access:fee": "free", "name": "\u03a0\u03bb\u03b1\u03c4\u03cd", "name:bg": "\u041f\u043b\u0430\u0442\u0438", "name:de": "Bahnhof Platy", "name:el": "\u03a0\u03bb\u03b1\u03c4\u03cd", "name:en": "Platy", "name:es": "Estaci\u00f3n de Platy", "name:fr": "Platy", "name:it": "Stazione di Platy", "name:jp": "\u30d7\u30e9\u30c6\u30a3 \u99c5", "name:mk": "\u041f\u043b\u0430\u0442\u0438", "name:ru": "\u0416\u0435\u043b\u0435\u0437\u043d\u043e\u0434\u043e\u0440\u043e\u0436\u043d\u0430\u044f \u0441\u0442\u0430\u043d\u0446\u0438\u044f \u041f\u043b\u0430\u0442\u0438", "name:tr": "Plati", "operator": "\u039f\u03c1\u03b3\u03b1\u03bd\u03b9\u03c3\u03bc\u03cc\u03c2 \u03a3\u03b9\u03b4\u03b7\u03c1\u03bf\u03b4\u03c1\u03cc\u03bc\u03c9\u03bd \u0395\u03bb\u03bb\u03ac\u03b4\u03bf\u03c2", "phone": "+30 233 306 3216", "public_transport": "station", "railway": "station", "railway:position": "36.3", "railway:ref": "\u03a0\u039b", "wheelchair": "limited"}}, "geometry": {"type": "Point", "coordinates": [22.529562, 40.6365676]}}, {"type": "Feature", "properties": {"type": "node", "id": 7694377302, "tags": {"name": "\u03a0\u03bb\u03b1\u03c4\u03cd", "name:bg": "\u041f\u043b\u0430\u0442\u0438", "name:el": "\u03a0\u03bb\u03b1\u03c4\u03cd", "name:en": "Platy", "name:fr": "Platy", "name:mk": "\u041f\u043b\u0430\u0442\u0438", "name:tr": "Plati", "public_transport": "stop_position", "railway": "stop", "railway:position": "36.3", "train": "yes"}}, "geometry": {"type": "Point", "coordinates": [22.5296598, 40.6364671]}}, {"type": "Feature", "properties": {"type": "node", "id": 4833116396, "tags": {"name": "\u039b\u03bf\u03c5\u03b4\u03af\u03b1\u03c2", "name:en": "Loudias", "public_transport": "stop_position", "railway": "stop", "railway:position": "32.8", "train": "no"}}, "geometry": {"type": "Point", "coordinates": [22.5643043, 40.6580201]}}, {"type": "Feature", "properties": {"type": "node", "id": 4833116397, "tags": {"name": "\u039b\u03bf\u03c5\u03b4\u03af\u03b1\u03c2", "name:en": "Loudias", "public_transport": "stop_position", "railway": "stop", "railway:position": "32.8", "train": "no"}}, "geometry": {"type": "Point", "coordinates": [22.5642691, 40.6580448]}}, {"type": "Feature", "properties": {"type": "node", "id": 4787210048, "tags": {"name": "\u0386\u03b4\u03b5\u03bd\u03b4\u03c1\u03bf\u03bd", "name:en": "Adendro", "public_transport": "stop_position", "railway": "stop", "railway:position": "28.8", "train": "yes"}}, "geometry": {"type": "Point", "coordinates": [22.6027755, 40.6743766]}}, {"type": "Feature", "properties": {"type": "node", "id": 4787210049, "tags": {"name": "\u0386\u03b4\u03b5\u03bd\u03b4\u03c1\u03bf\u03bd", "name:en": "Adendro", "public_transport": "stop_position", "railway": "stop", "railway:position": "28.8", "train": "yes"}}, "geometry": {"type": "Point", "coordinates": [22.6026928, 40.6744795]}}, {"type": "Feature", "properties": {"type": "node", "id": 4805568920, "tags": {"ele": "5", "int_name": "Adendro", "internet_access": "no", "name": "\u0386\u03b4\u03b5\u03bd\u03b4\u03c1\u03bf\u03bd", "name:de": "Bahnhof Adendro", "name:el": "\u03a3\u03b9\u03b4\u03b7\u03c1\u03bf\u03b4\u03c1\u03bf\u03bc\u03b9\u03ba\u03cc\u03c2 \u03a3\u03c4\u03b1\u03b8\u03bc\u03cc\u03c2 \u0391\u03b4\u03ad\u03bd\u03b4\u03c1\u03bf\u03c5", "name:en": "Adendro Railway Station", "name:es": "Estaci\u00f3n de \u00c1dendro", "name:fr": "Gare d' \u00c1dendro", "name:it": "Stazione di Adendro", "name:jp": "\u30a2\u30c7\u30f3\u30c9\u30ed \u99c5", "name:ru": "\u0416\u0435\u043b\u0435\u0437\u043d\u043e\u0434\u043e\u0440\u043e\u0436\u043d\u0430\u044f \u0441\u0442\u0430\u043d\u0446\u0438\u044f \u0410\u0434\u0435\u043d\u0434\u0440\u043e", "operator": "\u039f\u03c1\u03b3\u03b1\u03bd\u03b9\u03c3\u03bc\u03cc\u03c2 \u03a3\u03b9\u03b4\u03b7\u03c1\u03bf\u03b4\u03c1\u03cc\u03bc\u03c9\u03bd \u0395\u03bb\u03bb\u03ac\u03b4\u03bf\u03c2", "phone": "+30 239 103 1493", "public_transport": "station", "railway": "station", "railway:position": "28.8", "railway:ref": "\u0391\u0395'", "wheelchair": "yes"}}, "geometry": {"type": "Point", "coordinates": [22.6027357, 40.6744281]}}, {"type": "Feature", "properties": {"type": "node", "id": 4753175251, "tags": {"public_transport": "stop_position", "railway": "stop", "railway:position": "20.2", "train": "yes"}}, "geometry": {"type": "Point", "coordinates": [22.6982371, 40.6942427]}}, {"type": "Feature", "properties": {"type": "node", "id": 4753175252, "tags": {"public_transport": "stop_position", "railway": "stop", "railway:position": "20.2", "train": "yes"}}, "geometry": {"type": "Point", "coordinates": [22.6982351, 40.6942068]}}, {"type": "Feature", "properties": {"type": "node", "id": 4805688785, "tags": {"ele": "9", "int_name": "Axios", "internet_access": "no", "internet_access:fee": "no", "name": "\u0391\u03be\u03b9\u03cc\u03c2", "name:de": "Bahnhof Axi\u00f3s", "name:el": "\u03a3\u03b9\u03b4\u03b7\u03c1\u03bf\u03b4\u03c1\u03bf\u03bc\u03b9\u03ba\u03cc\u03c2 \u03a3\u03c4\u03b1\u03b8\u03bc\u03cc\u03c2 \u0391\u03be\u03b9\u03bf\u03cd", "name:en": "Axios Railway Station", "name:es": "Estaci\u00f3n de Axios", "name:fr": "Gare d' Axios", "name:it": "Stazione di Axi\u00f3s", "name:jp": "\u30a2\u30af\u30b7\u30aa\u30b9 \u99c5", "name:ru": "\u0416\u0435\u043b\u0435\u0437\u043d\u043e\u0434\u043e\u0440\u043e\u0436\u043d\u0430\u044f \u0441\u0442\u0430\u043d\u0446\u0438\u044f \u0410\u043a\u0441\u044c\u043e\u0301\u0441", "operator": "\u039f\u03c1\u03b3\u03b1\u03bd\u03b9\u03c3\u03bc\u03cc\u03c2 \u03a3\u03b9\u03b4\u03b7\u03c1\u03bf\u03b4\u03c1\u03cc\u03bc\u03c9\u03bd \u0395\u03bb\u03bb\u03ac\u03b4\u03bf\u03c2", "phone": "no", "public_transport": "station", "railway": "station", "railway:position": "20.2", "railway:ref": "\u0391\u039e", "wheelchair": "no"}}, "geometry": {"type": "Point", "coordinates": [22.698223, 40.6943732]}}, {"type": "Feature", "properties": {"type": "node", "id": 4751337610, "tags": {"name": "\u03a3\u03af\u03bd\u03b4\u03bf\u03c2", "name:en": "Sindos", "public_transport": "stop_position", "railway": "stop", "railway:position": "10.9", "train": "yes"}}, "geometry": {"type": "Point", "coordinates": [22.805536, 40.6741628]}}, {"type": "Feature", "properties": {"type": "node", "id": 4751337611, "tags": {"name": "\u03a3\u03af\u03bd\u03b4\u03bf\u03c2", "name:en": "Sindos", "public_transport": "stop_position", "railway": "stop", "railway:position": "10.9", "train": "yes"}}, "geometry": {"type": "Point", "coordinates": [22.8055759, 40.6742761]}}, {"type": "Feature", "properties": {"type": "node", "id": 4805733725, "tags": {"ele": "9", "int_name": "Sindos", "internet_access": "no", "internet_access:fee": "no", "name": "\u03a3\u03af\u03bd\u03b4\u03bf\u03c2", "name:de": "Bahnhof Sindos", "name:el": "\u03a3\u03b9\u03b4\u03b7\u03c1\u03bf\u03b4\u03c1\u03bf\u03bc\u03b9\u03ba\u03cc\u03c2 \u03a3\u03c4\u03b1\u03b8\u03bc\u03cc\u03c2 \u03a3\u03af\u03bd\u03b4\u03bf\u03c5", "name:en": "Sindos Railway Station", "name:es": "Estaci\u00f3n de Sindo", "name:fr": "Gare de S\u00edndos", "name:it": "Stazione di Sindos", "name:jp": "\u30b7\u30fc\u30f3\u30c9\u30b9 \u99c5", "name:lt": "Sindas gele\u017einkelio stotis", "name:ru": "\u0416\u0435\u043b\u0435\u0437\u043d\u043e\u0434\u043e\u0440\u043e\u0436\u043d\u0430\u044f \u0441\u0442\u0430\u043d\u0446\u0438\u044f \u0421\u0438\u043d\u0434\u043e\u0441", "operator": "\u039f\u03c1\u03b3\u03b1\u03bd\u03b9\u03c3\u03bc\u03cc\u03c2 \u03a3\u03b9\u03b4\u03b7\u03c1\u03bf\u03b4\u03c1\u03cc\u03bc\u03c9\u03bd \u0395\u03bb\u03bb\u03ac\u03b4\u03bf\u03c2", "phone": "no", "public_transport": "station", "railway": "station", "railway:position": "10.9", "railway:ref": "\u03a3\u0394", "wheelchair": "yes"}}, "geometry": {"type": "Point", "coordinates": [22.8053363, 40.674065]}}, {"type": "Feature", "properties": {"type": "node", "id": 4732892078, "tags": {"public_transport": "stop_position", "railway": "stop", "railway:position": "13.8", "train": "no"}}, "geometry": {"type": "Point", "coordinates": [22.7979297, 40.6975303]}}, {"type": "Feature", "properties": {"type": "node", "id": 4892376194, "tags": {"ele": "8", "int_name": "Anchialos Makedonias", "internet_access": "no", "name": "\u0391\u03b3\u03c7\u03af\u03b1\u03bb\u03bf\u03c2 \u039c\u03b1\u03ba\u03b5\u03b4\u03bf\u03bd\u03af\u03b1\u03c2", "name:de": "Bahnhof Mazedonien Anchialos", "name:el": "\u03a3\u03b9\u03b4\u03b7\u03c1\u03bf\u03b4\u03c1\u03bf\u03bc\u03b9\u03ba\u03cc\u03c2 \u03a3\u03c4\u03b1\u03b8\u03bc\u03cc\u03c2 \u0391\u03b3\u03c7\u03b9\u03ac\u03bb\u03bf\u03c5 \u039c\u03b1\u03ba\u03b5\u03b4\u03bf\u03bd\u03af\u03b1\u03c2", "name:en": "Anchialos of Macedonia Railway Station", "name:es": "Estaci\u00f3n de Anchialos de Macedonia", "name:fr": "Gare d' Anchialos Mac\u00e9doine", "name:it": "Stazione di Macedonia Anchialos", "name:jp": "\u30a2\u30cb\u30a2\u30ed\u30b9 \u30de\u30b1\u30c9\u30cb\u30a2\u30b9 \u99c5", "name:ru": "\u0416\u0435\u043b\u0435\u0437\u043d\u043e\u0434\u043e\u0440\u043e\u0436\u043d\u0430\u044f \u0441\u0442\u0430\u043d\u0446\u0438\u044f \u0410\u043d\u0445\u0438\u0430\u043b\u043e\u0441 \u041c\u0430\u043a\u0435\u0434\u043e\u043d\u0438\u0430c", "operator": "\u039f\u03c1\u03b3\u03b1\u03bd\u03b9\u03c3\u03bc\u03cc\u03c2 \u03a3\u03b9\u03b4\u03b7\u03c1\u03bf\u03b4\u03c1\u03cc\u03bc\u03c9\u03bd \u0395\u03bb\u03bb\u03ac\u03b4\u03bf\u03c2", "phone": "no", "public_transport": "station", "railway": "station", "railway:position": "13.8", "railway:ref": "\u0391\u039b", "wheelchair": "no"}}, "geometry": {"type": "Point", "coordinates": [22.7979425, 40.6975934]}}, {"type": "Feature", "properties": {"type": "node", "id": 4922782986, "tags": {"ele": "4.2", "int_name": "Thessaloniki (Emporikos)", "internet_access": "no", "internet_access:fee": "no", "name": "\u0398\u03b5\u03c3\u03c3\u03b1\u03bb\u03bf\u03bd\u03af\u03ba\u03b7 (\u0395\u03bc\u03c0\u03bf\u03c1\u03b9\u03ba\u03cc\u03c2)", "name:de": "G\u00fcterbahnhof Thessaloniki", "name:el": "\u0395\u03bc\u03c0\u03bf\u03c1\u03b9\u03ba\u03cc\u03c2 \u0398\u03b5\u03c3\u03c3\u03b1\u03bb\u03bf\u03bd\u03af\u03ba\u03b7\u03c2", "name:en": "Thessaloniki Freight Station", "name:es": "Estaci\u00f3n de carga de Sal\u00f3nica", "name:fr": "Gare de fret de Thessalonique", "name:it": "Stazione di Salonicco (Scalo Merci)", "name:jp": ".", "name:mk": "\u0422\u043e\u0432\u0430\u0440\u043d\u0430 \u0436\u0435\u043b\u0435\u0437\u043d\u0438\u0447\u043a\u0430 \u0441\u0442\u0430\u043d\u0438\u0446\u0430 \u0421\u043e\u043b\u0443\u043d", "name:ru": ".", "operator": "\u039f\u03c1\u03b3\u03b1\u03bd\u03b9\u03c3\u03bc\u03cc\u03c2 \u03a3\u03b9\u03b4\u03b7\u03c1\u03bf\u03b4\u03c1\u03cc\u03bc\u03c9\u03bd \u0395\u03bb\u03bb\u03ac\u03b4\u03bf\u03c2", "phone": "no", "public_transport": "station", "railway": "station", "railway:position": "0.0", "railway:ref": "\u0398\u039d", "wheelchair": "no"}}, "geometry": {"type": "Point", "coordinates": [22.9247853, 40.6416057]}}, {"type": "Feature", "properties": {"type": "node", "id": 4927030355, "tags": {"public_transport": "stop_position", "railway": "stop", "railway:position": "0.0", "train": "no"}}, "geometry": {"type": "Point", "coordinates": [22.9246864, 40.6413075]}}, {"type": "Feature", "properties": {"type": "node", "id": 208460599, "tags": {"int_name": "Thessaloniki", "name": "\u0398\u03b5\u03c3\u03c3\u03b1\u03bb\u03bf\u03bd\u03af\u03ba\u03b7", "name:ar": "\u0633\u0627\u0644\u0648\u0646\u064a\u0643", "name:bg": "\u0421\u043e\u043b\u0443\u043d", "name:ca": "Tessal\u00f2nica", "name:el": "\u0398\u03b5\u03c3\u03c3\u03b1\u03bb\u03bf\u03bd\u03af\u03ba\u03b7", "name:en": "Thessaloniki", "name:fr": "Thessalonique", "name:mk": "\u0421\u043e\u043b\u0443\u043d", "name:tr": "Selanik", "public_transport": "stop_position", "railway": "switch", "train": "yes"}}, "geometry": {"type": "Point", "coordinates": [22.9308575, 40.6439694]}}, {"type": "Feature", "properties": {"type": "node", "id": 4584669595, "tags": {"int_name": "Thessaloniki", "name": "\u0398\u03b5\u03c3\u03c3\u03b1\u03bb\u03bf\u03bd\u03af\u03ba\u03b7", "name:ar": "\u0633\u0627\u0644\u0648\u0646\u064a\u0643", "name:bg": "\u0421\u043e\u043b\u0443\u043d", "name:ca": "Tessal\u00f2nica", "name:el": "\u0398\u03b5\u03c3\u03c3\u03b1\u03bb\u03bf\u03bd\u03af\u03ba\u03b7", "name:en": "Thessaloniki", "name:fr": "Thessalonique", "name:mk": "\u0421\u043e\u043b\u0443\u043d", "name:tr": "Selanik", "public_transport": "stop_position", "railway": "switch", "train": "yes"}}, "geometry": {"type": "Point", "coordinates": [22.9308765, 40.6441354]}}, {"type": "Feature", "properties": {"type": "node", "id": 4925130296, "tags": {"ele": "13", "int_name": "Epivatikos Stathmos", "internet_access": "wlan", "internet_access:fee": "free", "name": "\u0395\u03c0\u03b9\u03b2\u03b1\u03c4\u03b9\u03ba\u03cc\u03c2 \u03a3\u03c4\u03b1\u03b8\u03bc\u03cc\u03c2 \u0398\u03b5\u03c3\u03c3\u03b1\u03bb\u03bf\u03bd\u03af\u03ba\u03b7\u03c2", "name:de": "Bahnhof Thessaloniki", "name:el": "\u0395\u03c0\u03b9\u03b2\u03b1\u03c4\u03b9\u03ba\u03cc\u03c2 \u03a3\u03c4\u03b1\u03b8\u03bc\u03cc\u03c2 \u0398\u03b5\u03c3\u03c3\u03b1\u03bb\u03bf\u03bd\u03af\u03ba\u03b7\u03c2", "name:en": "Thessaloniki Railway Station", "name:es": "Estaci\u00f3n de Sal\u00f3nica", "name:fr": "Gare de Thessalonique", "name:it": "Stazione di Salonicco", "name:jp": "\u30c6\u30c3\u30b5\u30ed\u30cb\u30ad \u99c5", "name:mk": "\u0416\u0435\u043b\u0435\u0437\u043d\u0438\u0447\u043a\u0430 \u0441\u0442\u0430\u043d\u0438\u0446\u0430 \u0421\u043e\u043b\u0443\u043d", "name:ru": "\u0416\u0435\u043b\u0435\u0437\u043d\u043e\u0434\u043e\u0440\u043e\u0436\u043d\u0430\u044f \u0441\u0442\u0430\u043d\u0446\u0438\u044f \u0421\u0430\u043b\u043e\u043d\u0438\u043a\u0438", "operator": "\u039f\u03c1\u03b3\u03b1\u03bd\u03b9\u03c3\u03bc\u03cc\u03c2 \u03a3\u03b9\u03b4\u03b7\u03c1\u03bf\u03b4\u03c1\u03cc\u03bc\u03c9\u03bd \u0395\u03bb\u03bb\u03ac\u03b4\u03bf\u03c2", "phone": "+30 231 051 7517", "public_transport": "station", "railway": "station", "railway:position": "-1.0", "railway:ref": "\u0398", "wheelchair": "yes"}}, "geometry": {"type": "Point", "coordinates": [22.9291851, 40.6451119]}}, {"type": "Feature", "properties": {"type": "node", "id": 4925130315, "tags": {"name": "\u0398\u03b5\u03c3\u03c3\u03b1\u03bb\u03bf\u03bd\u03af\u03ba\u03b7\u03c2", "name:bg": "\u0421\u043e\u043b\u0443\u043d", "name:ca": "Tessal\u00f2nica", "name:el": "\u0398\u03b5\u03c3\u03c3\u03b1\u03bb\u03bf\u03bd\u03af\u03ba\u03b7", "name:en": "Thessaloniki", "name:fr": "Thessalonique", "name:mk": "\u0421\u043e\u043b\u0443\u043d", "name:tr": "Selanik", "public_transport": "stop_position", "railway": "stop", "railway:position": "-1.0", "train": "yes"}}, "geometry": {"type": "Point", "coordinates": [22.9288346, 40.6450707]}}, {"type": "Feature", "properties": {"type": "node", "id": 4925130316, "tags": {"name": "\u0398\u03b5\u03c3\u03c3\u03b1\u03bb\u03bf\u03bd\u03af\u03ba\u03b7\u03c2", "name:bg": "\u0421\u043e\u043b\u0443\u043d", "name:ca": "Tessal\u00f2nica", "name:el": "\u0398\u03b5\u03c3\u03c3\u03b1\u03bb\u03bf\u03bd\u03af\u03ba\u03b7", "name:en": "Thessaloniki", "name:fr": "Thessalonique", "name:mk": "\u0421\u043e\u043b\u0443\u043d", "name:tr": "Selanik", "public_transport": "stop_position", "railway": "stop", "railway:position": "-1.0", "train": "yes"}}, "geometry": {"type": "Point", "coordinates": [22.9288664, 40.6451028]}}, {"type": "Feature", "properties": {"type": "node", "id": 4925130317, "tags": {"name": "\u0398\u03b5\u03c3\u03c3\u03b1\u03bb\u03bf\u03bd\u03af\u03ba\u03b7\u03c2", "name:bg": "\u0421\u043e\u043b\u0443\u043d", "name:ca": "Tessal\u00f2nica", "name:el": "\u0398\u03b5\u03c3\u03c3\u03b1\u03bb\u03bf\u03bd\u03af\u03ba\u03b7", "name:en": "Thessaloniki", "name:fr": "Thessalonique", "name:mk": "\u0421\u043e\u043b\u0443\u043d", "name:tr": "Selanik", "public_transport": "stop_position", "railway": "stop", "railway:position": "-1.0", "train": "yes"}}, "geometry": {"type": "Point", "coordinates": [22.9290978, 40.6453369]}}, {"type": "Feature", "properties": {"type": "node", "id": 4925130318, "tags": {"name": "\u0398\u03b5\u03c3\u03c3\u03b1\u03bb\u03bf\u03bd\u03af\u03ba\u03b7\u03c2", "name:bg": "\u0421\u043e\u043b\u0443\u043d", "name:ca": "Tessal\u00f2nica", "name:el": "\u0398\u03b5\u03c3\u03c3\u03b1\u03bb\u03bf\u03bd\u03af\u03ba\u03b7", "name:en": "Thessaloniki", "name:fr": "Thessalonique", "name:mk": "\u0421\u043e\u043b\u0443\u043d", "name:tr": "Selanik", "public_transport": "stop_position", "railway": "stop", "railway:position": "-1.0", "train": "yes"}}, "geometry": {"type": "Point", "coordinates": [22.9291293, 40.6453687]}}, {"type": "Feature", "properties": {"type": "node", "id": 4925130319, "tags": {"name": "\u0398\u03b5\u03c3\u03c3\u03b1\u03bb\u03bf\u03bd\u03af\u03ba\u03b7\u03c2", "name:bg": "\u0421\u043e\u043b\u0443\u043d", "name:ca": "Tessal\u00f2nica", "name:el": "\u0398\u03b5\u03c3\u03c3\u03b1\u03bb\u03bf\u03bd\u03af\u03ba\u03b7", "name:en": "Thessaloniki", "name:fr": "Thessalonique", "name:mk": "\u0421\u043e\u043b\u0443\u043d", "name:tr": "Selanik", "public_transport": "stop_position", "railway": "stop", "railway:position": "-1.0", "train": "yes"}}, "geometry": {"type": "Point", "coordinates": [22.929005, 40.645243]}}, {"type": "Feature", "properties": {"type": "node", "id": 4925130320, "tags": {"name": "\u0398\u03b5\u03c3\u03c3\u03b1\u03bb\u03bf\u03bd\u03af\u03ba\u03b7\u03c2", "name:bg": "\u0421\u043e\u043b\u0443\u043d", "name:ca": "Tessal\u00f2nica", "name:el": "\u0398\u03b5\u03c3\u03c3\u03b1\u03bb\u03bf\u03bd\u03af\u03ba\u03b7", "name:en": "Thessaloniki", "name:fr": "Thessalonique", "name:mk": "\u0421\u043e\u043b\u0443\u043d", "name:tr": "Selanik", "public_transport": "stop_position", "railway": "stop", "railway:position": "-1.0", "train": "yes"}}, "geometry": {"type": "Point", "coordinates": [22.9289635, 40.645201]}}, {"type": "Feature", "properties": {"type": "node", "id": 4925132621, "tags": {"name": "\u0398\u03b5\u03c3\u03c3\u03b1\u03bb\u03bf\u03bd\u03af\u03ba\u03b7\u03c2", "name:bg": "\u0421\u043e\u043b\u0443\u043d", "name:ca": "Tessal\u00f2nica", "name:el": "\u0398\u03b5\u03c3\u03c3\u03b1\u03bb\u03bf\u03bd\u03af\u03ba\u03b7", "name:en": "Thessaloniki", "name:fr": "Thessalonique", "name:mk": "\u0421\u043e\u043b\u0443\u043d", "name:tr": "Selanik", "public_transport": "stop_position", "railway": "stop", "railway:position": "-1.0", "train": "yes"}}, "geometry": {"type": "Point", "coordinates": [22.9292262, 40.6454668]}}, {"type": "Feature", "properties": {"type": "node", "id": 4942040547, "tags": {"int_name": "Thessaloniki", "name": "\u0398\u03b5\u03c3\u03c3\u03b1\u03bb\u03bf\u03bd\u03af\u03ba\u03b7", "name:ar": "\u0633\u0627\u0644\u0648\u0646\u064a\u0643", "name:bg": "\u0421\u043e\u043b\u0443\u043d", "name:ca": "Tessal\u00f2nica", "name:el": "\u0398\u03b5\u03c3\u03c3\u03b1\u03bb\u03bf\u03bd\u03af\u03ba\u03b7", "name:en": "Thessaloniki", "name:fr": "Thessalonique", "name:mk": "\u0421\u043e\u043b\u0443\u043d", "name:tr": "Selanik", "public_transport": "stop_position", "railway": "switch", "train": "yes"}}, "geometry": {"type": "Point", "coordinates": [22.9308934, 40.6440043]}}, {"type": "Feature", "properties": {"type": "node", "id": 5326340286, "tags": {"entrance": "yes", "entrance_marker:subway": "yes", "highway": "elevator", "level": "0;-1", "name": "\u0393", "railway": "stop", "wheelchair": "yes"}}, "geometry": {"type": "Point", "coordinates": [22.9284547, 40.644261]}}, {"type": "Feature", "properties": {"type": "node", "id": 4685524754, "tags": {"public_transport": "stop_position", "railway": "stop", "railway:position": "3.6", "train": "no"}}, "geometry": {"type": "Point", "coordinates": [22.8856458, 40.6689735]}}, {"type": "Feature", "properties": {"type": "node", "id": 4920890487, "tags": {"ele": "8.7", "int_name": "Dialogi", "internet_access": "no", "name": "\u0394\u03b9\u03b1\u03bb\u03bf\u03b3\u03ae", "name:de": "Rangierbahnhof", "name:el": "\u0394\u03b9\u03b1\u03bb\u03bf\u03b3\u03ae", "name:en": "Marshalling yard", "name:es": "Playa de maniobras", "name:fr": "Gare de triage", "name:it": "Stazione di smistamento", "name:jp": "\u64cd\u8eca\u5834", "name:ru": "\u0421\u043e\u0440\u0442\u0438\u0440\u043e\u0432\u043e\u0447\u043d\u0430\u044f \u0441\u0442\u0430\u043d\u0446\u0438\u044f", "operator": "\u039f\u03c1\u03b3\u03b1\u03bd\u03b9\u03c3\u03bc\u03cc\u03c2 \u03a3\u03b9\u03b4\u03b7\u03c1\u03bf\u03b4\u03c1\u03cc\u03bc\u03c9\u03bd \u0395\u03bb\u03bb\u03ac\u03b4\u03bf\u03c2", "phone": "no", "public_transport": "station", "railway": "station", "railway:position": "3.6", "railway:ref": "\u0394\u039b", "wheelchair": "no"}}, "geometry": {"type": "Point", "coordinates": [22.8853275, 40.669029]}}, {"type": "Feature", "properties": {"type": "node", "id": 4927030353, "tags": {"public_transport": "stop_position", "railway": "stop", "railway:position": "3.6", "train": "no"}}, "geometry": {"type": "Point", "coordinates": [22.8856221, 40.6689418]}}, {"type": "Feature", "properties": {"type": "node", "id": 4927030354, "tags": {"public_transport": "stop_position", "railway": "stop", "railway:position": "3.6", "train": "no"}}, "geometry": {"type": "Point", "coordinates": [22.8855619, 40.6688217]}}, {"type": "Feature", "properties": {"type": "node", "id": 205458165, "tags": {"addr:country": "GR", "addr:place": "\u0386\u03c1\u03bd\u03b9\u03c3\u03c3\u03b1", "name": "\u0386\u03c1\u03bd\u03b9\u03c3\u03c3\u03b1", "name:de": "Arnissa", "name:el": "\u0386\u03c1\u03bd\u03b9\u03c3\u03c3\u03b1", "name:en": "Arnissa", "name:fr": "Arnissa", "railway": "station"}}, "geometry": {"type": "Point", "coordinates": [21.8349208, 40.7980462]}}, {"type": "Feature", "properties": {"type": "node", "id": 4977535475, "tags": {"public_transport": "stop_position", "railway": "stop", "railway:position": "131.4", "train": "yes"}}, "geometry": {"type": "Point", "coordinates": [21.8671667, 40.7786809]}}, {"type": "Feature", "properties": {"type": "node", "id": 4990549404, "tags": {"public_transport": "stop_position", "railway": "stop", "railway:position": "119.1", "train": "yes"}}, "geometry": {"type": "Point", "coordinates": [21.9809776, 40.8097196]}}, {"type": "Feature", "properties": {"type": "node", "id": 4990550079, "tags": {"addr:city": "\u0386\u03b3\u03c1\u03b1\u03c2", "addr:country": "GR", "alt_name:mk": "\u0416\u0435\u043b\u0435\u0437\u043d\u0438\u0447\u043a\u0430 \u0441\u0442\u0430\u043d\u0438\u0446\u0430 \u0412\u043b\u0430\u0434\u043e\u0432\u043e", "ele": "484", "int_name": "Agras", "internet_access": "no", "internet_access:fee": "no", "name": "\u0386\u03b3\u03c1\u03b1\u03c2", "name:de": "Bahnhof Agras", "name:el": "\u03a3\u03b9\u03b4\u03b7\u03c1\u03bf\u03b4\u03c1\u03bf\u03bc\u03b9\u03ba\u03cc\u03c2 \u03a3\u03c4\u03b1\u03b8\u03bc\u03cc\u03c2 \u0386\u03b3\u03c1\u03b1\u03c2", "name:en": "Agras Railway Station", "name:es": "Estaci\u00f3n de Agras", "name:fr": "Gare d' Agras", "name:it": "Stazione di Agras", "name:jp": "\u30a2\u30b0\u30e9\u30b9 \u99c5", "name:mk": "\u0416\u0421 \u0412\u043b\u0430\u0434\u043e\u0432\u043e", "name:ru": "\u0416\u0435\u043b\u0435\u0437\u043d\u043e\u0434\u043e\u0440\u043e\u0436\u043d\u0430\u044f \u0441\u0442\u0430\u043d\u0446\u0438\u044f \u0410\u0433\u0440\u0430", "operator": "\u039f\u03c1\u03b3\u03b1\u03bd\u03b9\u03c3\u03bc\u03cc\u03c2 \u03a3\u03b9\u03b4\u03b7\u03c1\u03bf\u03b4\u03c1\u03cc\u03bc\u03c9\u03bd \u0395\u03bb\u03bb\u03ac\u03b4\u03bf\u03c2", "phone": "+30 238 109 2098", "public_transport": "station", "railway": "station", "railway:position": "119.1", "railway:ref": "\u0391\u0393", "wheelchair": "no"}}, "geometry": {"type": "Point", "coordinates": [21.9810064, 40.8098662]}}, {"type": "Feature", "properties": {"type": "node", "id": 4962654936, "tags": {"name": "\u03a0\u03b5\u03c4\u03c1\u03b9\u03ac", "name:en": "Petria", "public_transport": "stop_position", "railway": "stop", "railway:position": "90.1", "train": "yes"}}, "geometry": {"type": "Point", "coordinates": [22.1409374, 40.7202317]}}, {"type": "Feature", "properties": {"type": "node", "id": 4968890799, "tags": {"name": "\u03a3\u03ba\u03cd\u03b4\u03c1\u03b1", "name:en": "Sk\u00eddhra", "public_transport": "stop_position", "railway": "stop", "railway:position": "95.8", "train": "yes"}}, "geometry": {"type": "Point", "coordinates": [22.1576675, 40.7682265]}}, {"type": "Feature", "properties": {"type": "node", "id": 4970600726, "tags": {"addr:country": "GR", "ele": "34", "int_name": "Skydra", "internet_access": "no", "internet_access:fee": "no", "name": "\u03a3\u03ba\u03cd\u03b4\u03c1\u03b1", "name:de": "Bahnhof Skydra", "name:el": "\u03a3\u03b9\u03b4\u03b7\u03c1\u03bf\u03b4\u03c1\u03bf\u03bc\u03b9\u03ba\u03cc\u03c2 \u03a3\u03c4\u03b1\u03b8\u03bc\u03cc\u03c2 \u03a3\u03ba\u03cd\u03b4\u03c1\u03b1\u03c2", "name:en": "Sk\u00eddhra Railway Station", "name:es": "Estaci\u00f3n de Zkidra", "name:fr": "Gare de Sk\u00fddra", "name:it": "Stazione di Skydra", "name:jp": "\u30b9\u30ad\u30c9\u30e9 \u99c5", "name:ru": "\u0416\u0435\u043b\u0435\u0437\u043d\u043e\u0434\u043e\u0440\u043e\u0436\u043d\u0430\u044f \u0441\u0442\u0430\u043d\u0446\u0438\u044f \u0421\u043a\u0438\u0434\u0440\u0430", "old_name": "Vertekop", "operator": "\u039f\u03c1\u03b3\u03b1\u03bd\u03b9\u03c3\u03bc\u03cc\u03c2 \u03a3\u03b9\u03b4\u03b7\u03c1\u03bf\u03b4\u03c1\u03cc\u03bc\u03c9\u03bd \u0395\u03bb\u03bb\u03ac\u03b4\u03bf\u03c2", "phone": "+30 238 108 9204", "public_transport": "station", "railway": "station", "railway:position": "95.8", "railway:ref": "\u03a3\u03a5", "wheelchair": "no"}}, "geometry": {"type": "Point", "coordinates": [22.1574446, 40.7682483]}}, {"type": "Feature", "properties": {"type": "node", "id": 1279418783, "tags": {"public_transport": "stop_position", "railway": "stop", "railway:position": "102.6", "train": "yes"}}, "geometry": {"type": "Point", "coordinates": [22.129365, 40.804698]}}, {"type": "Feature", "properties": {"type": "node", "id": 4990865412, "tags": {"ele": "312", "int_name": "Edessa", "internet_access": "no", "internet_access:fee": "no", "name": "\u0388\u03b4\u03b5\u03c3\u03c3\u03b1", "name:de": "Bahnhof Edessa", "name:el": "\u03a3\u03b9\u03b4\u03b7\u03c1\u03bf\u03b4\u03c1\u03bf\u03bc\u03b9\u03ba\u03cc\u03c2 \u03a3\u03c4\u03b1\u03b8\u03bc\u03cc\u03c2 \u0388\u03b4\u03b5\u03c3\u03c3\u03b1", "name:en": "Edessa Railway Station", "name:es": "Estaci\u00f3n de \u00c9dessa", "name:fr": "Gare d' \u00c9dessa", "name:it": "Stazione di Edessa", "name:jp": "\u30a8\u30c7\u30c3\u30b5 \u99c5", "name:mk": "\u0416\u0421 \u0412\u043e\u0434\u0435\u043d", "name:ru": "\u0416\u0435\u043b\u0435\u0437\u043d\u043e\u0434\u043e\u0440\u043e\u0436\u043d\u0430\u044f \u0441\u0442\u0430\u043d\u0446\u0438\u044f \u042d\u0434\u0435\u0441\u0430", "old_name": "Voden", "operator": "\u039f\u03c1\u03b3\u03b1\u03bd\u03b9\u03c3\u03bc\u03cc\u03c2 \u03a3\u03b9\u03b4\u03b7\u03c1\u03bf\u03b4\u03c1\u03cc\u03bc\u03c9\u03bd \u0395\u03bb\u03bb\u03ac\u03b4\u03bf\u03c2", "phone": "+30 238 102 4900", "public_transport": "station", "railway": "station", "railway:position": "111.7", "railway:ref": "\u0395'", "wheelchair": "no", "wikidata": "Q18009303"}}, "geometry": {"type": "Point", "coordinates": [22.0500241, 40.8087765]}}, {"type": "Feature", "properties": {"type": "node", "id": 4990866527, "tags": {"name": "\u0388\u03b4\u03b5\u03c3\u03c3\u03b1", "name:en": "Edessa", "public_transport": "stop_position", "railway": "stop", "railway:position": "111.7", "train": "yes"}}, "geometry": {"type": "Point", "coordinates": [22.0499942, 40.8089111]}}, {"type": "Feature", "properties": {"type": "node", "id": 4661215077, "tags": {"public_transport": "stop_position", "railway": "stop", "railway:position": "51.4", "train": "no"}}, "geometry": {"type": "Point", "coordinates": [22.6363245, 40.948876]}}, {"type": "Feature", "properties": {"type": "node", "id": 4910948128, "tags": {"public_transport": "stop_position", "railway": "stop", "railway:position": "56.7", "train": "yes"}}, "geometry": {"type": "Point", "coordinates": [22.582072, 40.9875728]}}, {"type": "Feature", "properties": {"type": "node", "id": 4910948131, "tags": {"ele": "30", "int_name": "Polykastro", "internet_access": "no", "internet_access:fee": "no", "name": "\u03a0\u03bf\u03bb\u03cd\u03ba\u03b1\u03c3\u03c4\u03c1\u03bf\u03bd", "name:de": "Bahnhof Polykastro", "name:el": "\u03a3\u03b9\u03b4\u03b7\u03c1\u03bf\u03b4\u03c1\u03bf\u03bc\u03b9\u03ba\u03cc\u03c2 \u03a3\u03c4\u03b1\u03b8\u03bc\u03cc\u03c2 \u03a0\u03bf\u03bb\u03c5\u03ba\u03ac\u03c3\u03c4\u03c1\u03bf\u03c5", "name:en": "Polykastro Railway Station", "name:es": "Estaci\u00f3n de Polikastro", "name:fr": "Gare de Pol\u00fdkastro", "name:it": "Stazione di Polykastro", "name:jp": "\u30dd\u30ea\u30ab\u30b9\u30c8\u30ed\u30f3 \u99c5", "name:ru": "\u0416\u0435\u043b\u0435\u0437\u043d\u043e\u0434\u043e\u0440\u043e\u0436\u043d\u0430\u044f \u0441\u0442\u0430\u043d\u0446\u0438\u044f \u041f\u043e\u043b\u0438\u043a\u0430\u0441\u0442\u0440\u043e", "operator": "\u039f\u03c1\u03b3\u03b1\u03bd\u03b9\u03c3\u03bc\u03cc\u03c2 \u03a3\u03b9\u03b4\u03b7\u03c1\u03bf\u03b4\u03c1\u03cc\u03bc\u03c9\u03bd \u0395\u03bb\u03bb\u03ac\u03b4\u03bf\u03c2", "phone": "+30 234 309 7385", "public_transport": "station", "railway": "station", "railway:position": "56.7", "railway:ref": "\u03a0\u039a", "wheelchair": "no"}}, "geometry": {"type": "Point", "coordinates": [22.5820894, 40.9873268]}}, {"type": "Feature", "properties": {"type": "node", "id": 2312093771, "tags": {"public_transport": "stop_position", "railway": "stop", "railway:position": "60.9", "train": "no"}}, "geometry": {"type": "Point", "coordinates": [22.5512803, 41.013288]}}, {"type": "Feature", "properties": {"type": "node", "id": 4911134045, "tags": {"ele": "39", "int_name": "Axioupoli", "internet_access": "no", "internet_access:fee": "no", "name": "\u0391\u03be\u03b9\u03bf\u03cd\u03c0\u03bf\u03bb\u03b9\u03c2", "name:de": "Bahnhof Axioupoli", "name:el": "\u03a3\u03b9\u03b4\u03b7\u03c1\u03bf\u03b4\u03c1\u03bf\u03bc\u03b9\u03ba\u03cc\u03c2 \u03a3\u03c4\u03b1\u03b8\u03bc\u03cc\u03c2 \u0391\u03be\u03b9\u03bf\u03cd\u03c0\u03bf\u03bb\u03b7\u03c2", "name:en": "Axioupoli Railway Station", "name:es": "Estaci\u00f3n de Axio\u00fapoli", "name:fr": "Gare d' Axio\u00fapoli", "name:it": "Stazione di Axioupoli", "name:jp": "\u30a2\u30af\u30b7\u30a6\u30dd\u30ea \u99c5", "name:ru": "\u0416\u0435\u043b\u0435\u0437\u043d\u043e\u0434\u043e\u0440\u043e\u0436\u043d\u0430\u044f \u0441\u0442\u0430\u043d\u0446\u0438\u044f \u0410\u043a\u0441\u0438\u0443\u043f\u043e\u043b\u0438", "operator": "\u039f\u03c1\u03b3\u03b1\u03bd\u03b9\u03c3\u03bc\u03cc\u03c2 \u03a3\u03b9\u03b4\u03b7\u03c1\u03bf\u03b4\u03c1\u03cc\u03bc\u03c9\u03bd \u0395\u03bb\u03bb\u03ac\u03b4\u03bf\u03c2", "phone": "no", "public_transport": "station", "railway": "station", "railway:position": "60.9", "railway:ref": ".", "wheelchair": "no"}}, "geometry": {"type": "Point", "coordinates": [22.5511921, 41.0132818]}}, {"type": "Feature", "properties": {"type": "node", "id": 4899862314, "tags": {"ele": "26", "int_name": "Neo Polykastro", "internet_access": "no", "name": "\u039d\u03ad\u03bf \u03a0\u03bf\u03bb\u03cd\u03ba\u03b1\u03c3\u03c4\u03c1\u03bf", "name:de": "Neuer Bahnhof Polykastro", "name:el": "\u039d\u03ad\u03bf\u03c2 \u03a3\u03b9\u03b4\u03b7\u03c1\u03bf\u03b4\u03c1\u03bf\u03bc\u03b9\u03ba\u03cc\u03c2 \u03a3\u03c4\u03b1\u03b8\u03bc\u03cc\u03c2 \u03a0\u03bf\u03bb\u03c5\u03ba\u03ac\u03c3\u03c4\u03c1\u03bf\u03c5", "name:en": "New Polykastro Railway Station", "name:es": "Nueva Estaci\u00f3n de Polikastro", "name:fr": "Nouvelle Gare de Pol\u00fdkastro", "name:it": "Nuova Stazione di Polykastro", "name:jp": "\u65b0\u3057\u3044\u30dd\u30ea\u30ab\u30b9\u30c8\u30ed\u30f3 \u99c5", "name:ru": "\u041d\u043e\u0432\u044b\u0439 \u0416\u0435\u043b\u0435\u0437\u043d\u043e\u0434\u043e\u0440\u043e\u0436\u043d\u0430\u044f \u0441\u0442\u0430\u043d\u0446\u0438\u044f \u041f\u043e\u043b\u0438\u043a\u0430\u0441\u0442\u0440\u043e", "operator": "\u039f\u03c1\u03b3\u03b1\u03bd\u03b9\u03c3\u03bc\u03cc\u03c2 \u03a3\u03b9\u03b4\u03b7\u03c1\u03bf\u03b4\u03c1\u03cc\u03bc\u03c9\u03bd \u0395\u03bb\u03bb\u03ac\u03b4\u03bf\u03c2", "phone": "no", "public_transport": "station", "railway": "station", "railway:position": "53.1", "railway:ref": "\u03a0\u039a", "wheelchair": "yes"}}, "geometry": {"type": "Point", "coordinates": [22.6150381, 40.9670617]}}, {"type": "Feature", "properties": {"type": "node", "id": 4760052277, "tags": {"public_transport": "stop_position", "railway": "stop", "railway:position": "73.8", "train": "no"}}, "geometry": {"type": "Point", "coordinates": [22.5286186, 41.0972726]}}, {"type": "Feature", "properties": {"type": "node", "id": 2309833175, "tags": {"public_transport": "stop_position", "railway": "stop", "railway:position": "64.7", "train": "no"}}, "geometry": {"type": "Point", "coordinates": [22.5520802, 41.0427466]}}, {"type": "Feature", "properties": {"type": "node", "id": 4911236964, "tags": {"ele": "41", "int_name": "Paionia", "internet_access": "no", "internet_access:fee": "no", "name": "\u03a0\u03b1\u03b9\u03bf\u03bd\u03af\u03b1", "name:de": "Bahnhof Paionien", "name:el": "\u03a3\u03b9\u03b4\u03b7\u03c1\u03bf\u03b4\u03c1\u03bf\u03bc\u03b9\u03ba\u03cc\u03c2 \u03a3\u03c4\u03b1\u03b8\u03bc\u03cc\u03c2 \u03a0\u03b1\u03b9\u03bf\u03bd\u03af\u03b1\u03c2", "name:en": "Paeonia Railway Station", "name:es": "Estaci\u00f3n de Peonia", "name:fr": "Gare de P\u00e9onie", "name:it": "Stazione di Peonia", "name:jp": "\u30da\u30aa\u30cb\u30a2 \u99c5", "name:ru": "\u0416\u0435\u043b\u0435\u0437\u043d\u043e\u0434\u043e\u0440\u043e\u0436\u043d\u0430\u044f \u0441\u0442\u0430\u043d\u0446\u0438\u044f \u041f\u0435\u043e\u043d\u0439\u0430", "operator": "\u039f\u03c1\u03b3\u03b1\u03bd\u03b9\u03c3\u03bc\u03cc\u03c2 \u03a3\u03b9\u03b4\u03b7\u03c1\u03bf\u03b4\u03c1\u03cc\u03bc\u03c9\u03bd \u0395\u03bb\u03bb\u03ac\u03b4\u03bf\u03c2", "phone": "no", "public_transport": "station", "railway": "station", "railway:position": "64.7", "railway:ref": ".", "wheelchair": "no"}}, "geometry": {"type": "Point", "coordinates": [22.5519635, 41.0425727]}}, {"type": "Feature", "properties": {"type": "node", "id": 5745293876, "tags": {"construction": "stop", "public_transport": "stop_position", "railway": "construction", "railway:position": "61.7", "train": "yes"}}, "geometry": {"type": "Point", "coordinates": [22.5875734, 41.0528759]}}, {"type": "Feature", "properties": {"type": "node", "id": 5745293877, "tags": {"construction": "stop", "public_transport": "stop_position", "railway": "construction", "railway:position": "61.7", "train": "yes"}}, "geometry": {"type": "Point", "coordinates": [22.5876384, 41.0529089]}}, {"type": "Feature", "properties": {"type": "node", "id": 4914966083, "tags": {"ele": "51", "int_name": "Eidomeni", "internet_access": "no", "internet_access:fee": "no", "name": "\u0395\u03b9\u03b4\u03bf\u03bc\u03ad\u03bd\u03b7", "name:de": "Bahnhof Idomeni", "name:el": "\u03a3\u03b9\u03b4\u03b7\u03c1\u03bf\u03b4\u03c1\u03bf\u03bc\u03b9\u03ba\u03cc\u03c2 \u03a3\u03c4\u03b1\u03b8\u03bc\u03cc\u03c2 \u0395\u03b9\u03b4\u03bf\u03bc\u03ad\u03bd\u03b7\u03c2", "name:en": "Idomeni Railway Station", "name:es": "Estaci\u00f3n de Idomeni", "name:fr": "Gare d' Eidom\u00e9ni", "name:it": "Stazione di Idomeni", "name:jp": "\u30a4\u30fc\u30c9\u30e1\u30cb \u99c5", "name:mk": "\u0416\u0421 \u201e\u0421\u0435\u0445\u043e\u0432\u043e\u201c", "name:ru": "\u0416\u0435\u043b\u0435\u0437\u043d\u043e\u0434\u043e\u0440\u043e\u0436\u043d\u0430\u044f \u0441\u0442\u0430\u043d\u0446\u0438\u044f \u0418\u0434\u043e\u043c\u0451\u043d\u0438", "operator": "\u039f\u03c1\u03b3\u03b1\u03bd\u03b9\u03c3\u03bc\u03cc\u03c2 \u03a3\u03b9\u03b4\u03b7\u03c1\u03bf\u03b4\u03c1\u03cc\u03bc\u03c9\u03bd \u0395\u03bb\u03bb\u03ac\u03b4\u03bf\u03c2", "phone": "+30 234 309 1111", "public_transport": "station", "railway": "station", "railway:position": "76.6", "railway:ref": "\u0395'\u0394", "wheelchair": "no"}}, "geometry": {"type": "Point", "coordinates": [22.5181126, 41.1206864]}}, {"type": "Feature", "properties": {"type": "node", "id": 4915024291, "tags": {"public_transport": "stop_position", "railway": "stop", "railway:position": "76.6", "train": "yes"}}, "geometry": {"type": "Point", "coordinates": [22.5183748, 41.1207119]}}, {"type": "Feature", "properties": {"type": "node", "id": 4915024292, "tags": {"public_transport": "stop_position", "railway": "stop", "railway:position": "76.6", "train": "yes"}}, "geometry": {"type": "Point", "coordinates": [22.5184233, 41.1207142]}}, {"type": "Feature", "properties": {"type": "node", "id": 4915024293, "tags": {"public_transport": "stop_position", "railway": "stop", "railway:position": "76.6", "train": "no"}}, "geometry": {"type": "Point", "coordinates": [22.5185356, 41.120718]}}, {"type": "Feature", "properties": {"type": "node", "id": 4734608662, "tags": {"public_transport": "stop_position", "railway": "stop", "railway:position": "23.4", "train": "no"}}, "geometry": {"type": "Point", "coordinates": [22.6927225, 40.7273321]}}, {"type": "Feature", "properties": {"type": "node", "id": 4899862721, "tags": {"ele": "10", "int_name": "Gefyra", "internet_access": "no", "name": "\u0393\u03ad\u03c6\u03c5\u03c1\u03b1", "name:de": "Bahnhof Gefyra", "name:el": "\u03a3\u03b9\u03b4\u03b7\u03c1\u03bf\u03b4\u03c1\u03bf\u03bc\u03b9\u03ba\u03cc\u03c2 \u03a3\u03c4\u03b1\u03b8\u03bc\u03cc\u03c2 \u0393\u03ad\u03c6\u03c5\u03c1\u03b1\u03c2", "name:en": "Gefyra Railway Station", "name:es": "Estaci\u00f3n de J\u00e9fira", "name:fr": "Gare de G\u00e9fyra", "name:it": "Stazione di Jefira", "name:jp": "\u30b8\u30a7\u30d5\u30a3\u30fc\u30e9 \u99c5", "name:mk": "\u0416\u0421 \u0422\u043e\u043f\u0447\u0438\u0435\u0432\u043e", "name:ru": "\u0416\u0435\u043b\u0435\u0437\u043d\u043e\u0434\u043e\u0440\u043e\u0436\u043d\u0430\u044f \u0441\u0442\u0430\u043d\u0446\u0438\u044f \u0413\u0435\u0444\u0438\u0440\u0430", "operator": "\u039f\u03c1\u03b3\u03b1\u03bd\u03b9\u03c3\u03bc\u03cc\u03c2 \u03a3\u03b9\u03b4\u03b7\u03c1\u03bf\u03b4\u03c1\u03cc\u03bc\u03c9\u03bd \u0395\u03bb\u03bb\u03ac\u03b4\u03bf\u03c2", "phone": "no", "public_transport": "station", "railway": "station", "railway:position": "23.4", "railway:ref": "\u0393\u03a6", "wheelchair": "no"}}, "geometry": {"type": "Point", "coordinates": [22.6929857, 40.7274281]}}, {"type": "Feature", "properties": {"type": "node", "id": 4732892079, "tags": {"public_transport": "stop_position", "railway": "stop", "railway:position": "19.6", "train": "no"}}, "geometry": {"type": "Point", "coordinates": [22.7311825, 40.7102552]}}, {"type": "Feature", "properties": {"type": "node", "id": 4732407689, "tags": {"public_transport": "stop_position", "railway": "stop", "railway:position": "9.6", "train": "no"}}, "geometry": {"type": "Point", "coordinates": [22.8373457, 40.7059824]}}, {"type": "Feature", "properties": {"type": "node", "id": 4813093284, "tags": {"ele": "19", "int_name": "Lachanokipoi", "internet_access": "no", "internet_access:fee": "no", "name": "\u039b\u03b1\u03c7\u03b1\u03bd\u03cc\u03ba\u03b7\u03c0\u03bf\u03b9", "name:de": "Bahnhof Lachanokipi", "name:el": "\u03a3\u03b9\u03b4\u03b7\u03c1\u03bf\u03b4\u03c1\u03bf\u03bc\u03b9\u03ba\u03cc\u03c2 \u03a3\u03c4\u03b1\u03b8\u03bc\u03cc\u03c2 \u039b\u03b1\u03c7\u03b1\u03bd\u03bf\u03ba\u03ae\u03c0\u03c9\u03bd", "name:en": "Lachanokipi Railway Station", "name:es": "Estaci\u00f3n de Lajan\u00f3kipi", "name:fr": "Gare de Lachanokipoi", "name:it": "Stazione di Lachanokipi", "name:jp": "\u30e9\u30c1\u30e3\u30ce\u30ad\u30d4 \u99c5", "name:ru": "\u0416\u0435\u043b\u0435\u0437\u043d\u043e\u0434\u043e\u0440\u043e\u0436\u043d\u0430\u044f \u0441\u0442\u0430\u043d\u0446\u0438\u044f \u041b\u0430xa\u043dy\u043a\u0438\u043f\u0438", "operator": "\u039f\u03c1\u03b3\u03b1\u03bd\u03b9\u03c3\u03bc\u03cc\u03c2 \u03a3\u03b9\u03b4\u03b7\u03c1\u03bf\u03b4\u03c1\u03cc\u03bc\u03c9\u03bd \u0395\u03bb\u03bb\u03ac\u03b4\u03bf\u03c2", "phone": "no", "public_transport": "station", "railway": "station", "railway:position": "9.6", "railway:ref": "\u039b\u0391", "wheelchair": "no"}}, "geometry": {"type": "Point", "coordinates": [22.8373737, 40.7059806]}}, {"type": "Feature", "properties": {"type": "node", "id": 207640549, "tags": {"public_transport": "stop_position", "railway": "stop", "railway:position": "14.2", "train": "no"}}, "geometry": {"type": "Point", "coordinates": [22.8319767, 40.7465553]}}, {"type": "Feature", "properties": {"type": "node", "id": 4887878035, "tags": {"public_transport": "stop_position", "railway": "stop", "railway:position": "17.5", "train": "no"}}, "geometry": {"type": "Point", "coordinates": [22.8271167, 40.7755629]}}, {"type": "Feature", "properties": {"type": "node", "id": 130290133, "tags": {"public_transport": "stop_position", "railway": "stop", "railway:position": "20.9", "train": "yes"}}, "geometry": {"type": "Point", "coordinates": [22.8488881, 40.7964946]}}, {"type": "Feature", "properties": {"type": "node", "id": 4813093968, "tags": {"ele": "54", "int_name": "Filadelfeia", "internet_access": "no", "name": "\u03a6\u03b9\u03bb\u03b1\u03b4\u03ad\u03bb\u03c6\u03b5\u03b9\u03b1", "name:de": "Bahnhof Filadelfia", "name:el": "\u03a3\u03b9\u03b4\u03b7\u03c1\u03bf\u03b4\u03c1\u03bf\u03bc\u03b9\u03ba\u03cc\u03c2 \u03a3\u03c4\u03b1\u03b8\u03bc\u03cc\u03c2 \u03a6\u03b9\u03bb\u03b1\u03b4\u03b5\u03bb\u03c6\u03b5\u03af\u03b1\u03c2", "name:en": "Filadelfeia Railway Station", "name:es": "Estaci\u00f3n de Filadelfia", "name:fr": "Gare de Philadelfia", "name:it": "Stazione di Filadelfia", "name:jp": "\u30d5\u30a3\u30e9\u30c7\u30eb\u30d5\u30a3\u30a2 \u99c5", "name:mk": "\u0416\u0421 \u041d\u0430\u0440\u0435\u0448", "name:ru": "\u0416\u0435\u043b\u0435\u0437\u043d\u043e\u0434\u043e\u0440\u043e\u0436\u043d\u0430\u044f \u0441\u0442\u0430\u043d\u0446\u0438\u044f \u0424\u0438\u043b\u0430\u0434\u0435\u043b\u0444\u0438\u044f", "operator": "\u039f\u03c1\u03b3\u03b1\u03bd\u03b9\u03c3\u03bc\u03cc\u03c2 \u03a3\u03b9\u03b4\u03b7\u03c1\u03bf\u03b4\u03c1\u03cc\u03bc\u03c9\u03bd \u0395\u03bb\u03bb\u03ac\u03b4\u03bf\u03c2", "phone": "no", "public_transport": "station", "railway": "station", "railway:position": "20.9", "railway:ref": "\u03a6\u0394", "wheelchair": "no"}}, "geometry": {"type": "Point", "coordinates": [22.8488152, 40.796456]}}, {"type": "Feature", "properties": {"type": "node", "id": 4734608661, "tags": {"public_transport": "stop_position", "railway": "stop", "railway:position": "36.3", "train": "no"}}, "geometry": {"type": "Point", "coordinates": [22.6571305, 40.8275277]}}, {"type": "Feature", "properties": {"type": "node", "id": 4899862315, "tags": {"ele": "35", "int_name": "Kastanas", "internet_access": "no", "name": "\u039a\u03b1\u03c3\u03c4\u03b1\u03bd\u03ac\u03c2", "name:de": "Bahnhof Kastanas", "name:el": "\u03a3\u03b9\u03b4\u03b7\u03c1\u03bf\u03b4\u03c1\u03bf\u03bc\u03b9\u03ba\u03cc\u03c2 \u03a3\u03c4\u03b1\u03b8\u03bc\u03cc\u03c2 \u039a\u03b1\u03c3\u03c4\u03b1\u03bd\u03ac", "name:en": "Kastanas Railway Station", "name:es": "Estaci\u00f3n de Kastan\u00e1s", "name:fr": "Gare de Kastanas", "name:it": "Stazione di Kastan\u00e0s", "name:jp": "\u30ab\u30b9\u30bf\u30ca\u30b9 \u99c5", "name:ru": "\u0416\u0435\u043b\u0435\u0437\u043d\u043e\u0434\u043e\u0440\u043e\u0436\u043d\u0430\u044f \u0441\u0442\u0430\u043d\u0446\u0438\u044f \u041a\u0430\u0441\u0442\u0430\u043d\u0430\u0441", "operator": "\u039f\u03c1\u03b3\u03b1\u03bd\u03b9\u03c3\u03bc\u03cc\u03c2 \u03a3\u03b9\u03b4\u03b7\u03c1\u03bf\u03b4\u03c1\u03cc\u03bc\u03c9\u03bd \u0395\u03bb\u03bb\u03ac\u03b4\u03bf\u03c2", "phone": "+30(231)0711910", "public_transport": "station", "railway": "station", "railway:position": "36.3", "railway:ref": "\u039a\u0391", "wheelchair": "no"}}, "geometry": {"type": "Point", "coordinates": [22.6572762, 40.8273661]}}, {"type": "Feature", "properties": {"type": "node", "id": 4906158273, "tags": {"public_transport": "stop_position", "railway": "stop", "railway:position": "37.6", "train": "no"}}, "geometry": {"type": "Point", "coordinates": [22.662424, 40.8382362]}}, {"type": "Feature", "properties": {"type": "node", "id": 4734874450, "tags": {"public_transport": "stop_position", "railway": "stop", "railway:position": "43.6", "train": "no"}}, "geometry": {"type": "Point", "coordinates": [22.6554288, 40.8905297]}}, {"type": "Feature", "properties": {"type": "node", "id": 4899862316, "tags": {"ele": "27", "int_name": "Aspros", "internet_access": "no", "name": "\u0386\u03c3\u03c0\u03c1\u03bf\u03c2", "name:de": "Bahnhof Aspros", "name:el": "\u03a3\u03b9\u03b4\u03b7\u03c1\u03bf\u03b4\u03c1\u03bf\u03bc\u03b9\u03ba\u03cc\u03c2 \u03a3\u03c4\u03b1\u03b8\u03bc\u03cc\u03c2 \u0386\u03c3\u03c0\u03c1\u03bf\u03c5", "name:en": "Aspros Railway Station", "name:es": "Estaci\u00f3n de Aspros", "name:fr": "Gare d' \u00c1spros", "name:it": "Stazione di Aspros", "name:jp": "\u30a2\u30b9\u30d7\u30ed\u30b9 \u99c5", "name:mk": "\u0416\u0421 \u0410\u043c\u0430\u0442\u043e\u0432\u043e", "name:ru": "\u0416\u0435\u043b\u0435\u0437\u043d\u043e\u0434\u043e\u0440\u043e\u0436\u043d\u0430\u044f \u0441\u0442\u0430\u043d\u0446\u0438\u044f \u0410\u0441\u043f\u0440\u043e\u0441", "operator": "\u039f\u03c1\u03b3\u03b1\u03bd\u03b9\u03c3\u03bc\u03cc\u03c2 \u03a3\u03b9\u03b4\u03b7\u03c1\u03bf\u03b4\u03c1\u03cc\u03bc\u03c9\u03bd \u0395\u03bb\u03bb\u03ac\u03b4\u03bf\u03c2", "phone": "no", "public_transport": "station", "railway": "station", "railway:position": "43.6", "railway:ref": "\u0391\u039f", "wheelchair": "no"}}, "geometry": {"type": "Point", "coordinates": [22.6551446, 40.8905919]}}, {"type": "Feature", "properties": {"type": "node", "id": 4728021949, "tags": {"public_transport": "stop_position", "railway": "stop", "railway:position": "28.7", "train": "yes"}}, "geometry": {"type": "Point", "coordinates": [22.8847191, 40.8590293]}}, {"type": "Feature", "properties": {"type": "node", "id": 4813400168, "tags": {"ele": "87", "int_name": "Gallikos", "internet_access": "no", "name": "\u0393\u03b1\u03bb\u03bb\u03b9\u03ba\u03cc\u03c2", "name:de": "Bahnhof Gallikos", "name:el": "\u03a3\u03b9\u03b4\u03b7\u03c1\u03bf\u03b4\u03c1\u03bf\u03bc\u03b9\u03ba\u03cc\u03c2 \u03a3\u03c4\u03b1\u03b8\u03bc\u03cc\u03c2 \u0393\u03b1\u03bb\u03bb\u03b9\u03ba\u03bf\u03cd", "name:en": "Gallikos Railway Station", "name:es": "Estaci\u00f3n de Galik\u00f3s", "name:fr": "Gare de Gallik\u00f3s", "name:it": "Stazione di Gallikos", "name:jp": "\u30ac\u30ea\u30b3\u30b9 \u99c5", "name:ru": "\u0416\u0435\u043b\u0435\u0437\u043d\u043e\u0434\u043e\u0440\u043e\u0436\u043d\u0430\u044f \u0441\u0442\u0430\u043d\u0446\u0438\u044f \u0413\u0430\u043b\u0438\u043a\u043e\u0441", "operator": "\u039f\u03c1\u03b3\u03b1\u03bd\u03b9\u03c3\u03bc\u03cc\u03c2 \u03a3\u03b9\u03b4\u03b7\u03c1\u03bf\u03b4\u03c1\u03cc\u03bc\u03c9\u03bd \u0395\u03bb\u03bb\u03ac\u03b4\u03bf\u03c2", "phone": "+30 234 104 1900", "public_transport": "station", "railway": "station", "railway:position": "28.7", "railway:ref": "\u0393\u039b", "wheelchair": "no"}}, "geometry": {"type": "Point", "coordinates": [22.8847041, 40.8591026]}}, {"type": "Feature", "properties": {"type": "node", "id": 4727972852, "tags": {"public_transport": "stop_position", "railway": "stop", "railway:position": "41.2", "train": "yes"}}, "geometry": {"type": "Point", "coordinates": [22.8570104, 40.9589024]}}, {"type": "Feature", "properties": {"type": "node", "id": 4813400250, "tags": {"ele": "207", "int_name": "Kilkis", "internet_access": "no", "name": "\u039a\u03b9\u03bb\u03ba\u03af\u03c2", "name:de": "Bahnhof Kilkis", "name:el": "\u03a3\u03b9\u03b4\u03b7\u03c1\u03bf\u03b4\u03c1\u03bf\u03bc\u03b9\u03ba\u03cc\u03c2 \u03a3\u03c4\u03b1\u03b8\u03bc\u03cc\u03c2 \u039a\u03b9\u03bb\u03ba\u03af\u03c2", "name:en": "Kilkis Railway Station", "name:es": "Estaci\u00f3n de Kilk\u00eds", "name:fr": "Gare de Kilk\u00eds", "name:it": "Stazione di Kilkis", "name:jp": "\u30ad\u30eb\u30ad\u30b9 \u99c5", "name:ru": "\u0416\u0435\u043b\u0435\u0437\u043d\u043e\u0434\u043e\u0440\u043e\u0436\u043d\u0430\u044f \u0441\u0442\u0430\u043d\u0446\u0438\u044f \u041a\u0438\u043b\u043a\u0438\u0441", "operator": "\u039f\u03c1\u03b3\u03b1\u03bd\u03b9\u03c3\u03bc\u03cc\u03c2 \u03a3\u03b9\u03b4\u03b7\u03c1\u03bf\u03b4\u03c1\u03cc\u03bc\u03c9\u03bd \u0395\u03bb\u03bb\u03ac\u03b4\u03bf\u03c2", "phone": "+30 234 102 8585", "public_transport": "station", "railway": "station", "railway:position": "41.2", "railway:ref": "\u039a\u03a3", "wheelchair": "no"}}, "geometry": {"type": "Point", "coordinates": [22.856849, 40.9589039]}}, {"type": "Feature", "properties": {"type": "node", "id": 4727968153, "tags": {"public_transport": "stop_position", "railway": "stop", "railway:position": "51.3", "train": "yes"}}, "geometry": {"type": "Point", "coordinates": [22.8034714, 41.0251301]}}, {"type": "Feature", "properties": {"type": "node", "id": 4814821554, "tags": {"ele": "119", "int_name": "Metalliko", "internet_access": "no", "name": "\u039c\u03b5\u03c4\u03b1\u03bb\u03bb\u03b9\u03ba\u03cc", "name:de": "Bahnhof Metaliko", "name:el": "\u03a3\u03b9\u03b4\u03b7\u03c1\u03bf\u03b4\u03c1\u03bf\u03bc\u03b9\u03ba\u03cc\u03c2 \u03a3\u03c4\u03b1\u03b8\u03bc\u03cc\u03c2 \u039c\u03b5\u03c4\u03b1\u03bb\u03bb\u03b9\u03ba\u03bf\u03cd", "name:en": "Metalliko Railway Station", "name:es": "Estaci\u00f3n de Metalik\u00f3", "name:fr": "Gare de Metallik\u00f3", "name:it": "Stazione di Metaliko", "name:jp": "\u30e1\u30bf\u30eb\u30b3 \u99c5", "name:ru": "\u0416\u0435\u043b\u0435\u0437\u043d\u043e\u0434\u043e\u0440\u043e\u0436\u043d\u0430\u044f \u0441\u0442\u0430\u043d\u0446\u0438\u044f \u041c\u0435\u0442\u0430\u043b\u0438\u043a\u043e", "operator": "\u039f\u03c1\u03b3\u03b1\u03bd\u03b9\u03c3\u03bc\u03cc\u03c2 \u03a3\u03b9\u03b4\u03b7\u03c1\u03bf\u03b4\u03c1\u03cc\u03bc\u03c9\u03bd \u0395\u03bb\u03bb\u03ac\u03b4\u03bf\u03c2", "phone": "no", "public_transport": "station", "railway": "station", "railway:position": "51.3", "railway:ref": "\u039c\u0395'", "wheelchair": "no"}}, "geometry": {"type": "Point", "coordinates": [22.803685, 41.0250958]}}, {"type": "Feature", "properties": {"type": "node", "id": 4726882642, "tags": {"public_transport": "stop_position", "railway": "stop", "railway:position": "58.9", "train": "yes"}}, "geometry": {"type": "Point", "coordinates": [22.7832219, 41.0902595]}}, {"type": "Feature", "properties": {"type": "node", "id": 4726365756, "tags": {"public_transport": "stop_position", "railway": "stop", "railway:position": "26.5", "train": "yes"}}, "geometry": {"type": "Point", "coordinates": [22.7829977, 41.1101208]}}, {"type": "Feature", "properties": {"type": "node", "id": 4814821586, "tags": {"ele": "101", "int_name": "Kalindoia", "internet_access": "no", "internet_access:fee": "no", "name": "\u039a\u03b1\u03bb\u03af\u03bd\u03b4\u03bf\u03b9\u03b1", "name:de": "Bahnhof Kaleendia", "name:el": "\u03a3\u03b9\u03b4\u03b7\u03c1\u03bf\u03b4\u03c1\u03bf\u03bc\u03b9\u03ba\u03cc\u03c2 \u03a3\u03c4\u03b1\u03b8\u03bc\u03cc\u03c2 \u039a\u03b1\u03bb\u03af\u03bd\u03b4\u03bf\u03b9\u03b1\u03c2", "name:en": "Kalindia Railway Station", "name:es": "Estaci\u00f3n de Calindia", "name:fr": "Gare de Kalindia", "name:it": "Stazione di Calindia", "name:jp": "\u30ab\u30ec\u30f3\u30c7\u30a3\u30a2 \u99c5", "name:ru": "\u0416\u0435\u043b\u0435\u0437\u043d\u043e\u0434\u043e\u0440\u043e\u0436\u043d\u0430\u044f \u0441\u0442\u0430\u043d\u0446\u0438\u044f \u041a\u0430\u043b\u0438\u043d\u0434\u0438\u044f", "operator": "\u039f\u03c1\u03b3\u03b1\u03bd\u03b9\u03c3\u03bc\u03cc\u03c2 \u03a3\u03b9\u03b4\u03b7\u03c1\u03bf\u03b4\u03c1\u03cc\u03bc\u03c9\u03bd \u0395\u03bb\u03bb\u03ac\u03b4\u03bf\u03c2", "phone": "+30 234 105 1295", "public_transport": "station", "railway": "station", "railway:position": "26.5", "railway:ref": "\u039a\u0394", "wheelchair": "no"}}, "geometry": {"type": "Point", "coordinates": [22.7827553, 41.1100772]}}, {"type": "Feature", "properties": {"type": "node", "id": 1278562014, "tags": {"public_transport": "stop_position", "railway": "stop", "railway:position": "35.8", "train": "yes"}}, "geometry": {"type": "Point", "coordinates": [22.87643, 40.9158089]}}, {"type": "Feature", "properties": {"type": "node", "id": 4887864047, "tags": {"public_transport": "stop_position", "railway": "stop", "railway:position": "116.2", "train": "yes"}}, "geometry": {"type": "Point", "coordinates": [23.4282017, 41.1021771]}}, {"type": "Feature", "properties": {"type": "node", "id": 4887837488, "tags": {"public_transport": "stop_position", "railway": "stop", "railway:position": "118.8", "train": "yes"}}, "geometry": {"type": "Point", "coordinates": [23.4558967, 41.0898455]}}, {"type": "Feature", "properties": {"type": "node", "id": 4726320235, "tags": {"public_transport": "stop_position", "railway": "stop", "railway:position": "33.6", "train": "yes"}}, "geometry": {"type": "Point", "coordinates": [22.7721978, 41.1728163]}}, {"type": "Feature", "properties": {"type": "node", "id": 4814821592, "tags": {"ele": "155", "int_name": "Doirani", "internet_access": "no", "name": "\u0394\u03bf\u03ca\u03c1\u03ac\u03bd\u03b7", "name:de": "Bahnhof Doirani", "name:el": "\u03a3\u03b9\u03b4\u03b7\u03c1\u03bf\u03b4\u03c1\u03bf\u03bc\u03b9\u03ba\u03cc\u03c2 \u03a3\u03c4\u03b1\u03b8\u03bc\u03cc\u03c2 \u0394\u03bf\u03ca\u03c1\u03ac\u03bd\u03b7\u03c2", "name:en": "Doirani Railway Station", "name:es": "Estaci\u00f3n de Doirani", "name:fr": "Gare de Do\u00efr\u00e1ni", "name:it": "Stazione di Doirani", "name:jp": "\u30c9\u30a4\u30e9\u30cb \u99c5", "name:mk": "\u0416\u0421 \u0414\u043e\u0458\u0440\u0430\u043d", "name:ru": "\u0416\u0435\u043b\u0435\u0437\u043d\u043e\u0434\u043e\u0440\u043e\u0436\u043d\u0430\u044f \u0441\u0442\u0430\u043d\u0446\u0438\u044f \u0414\u043e\u0439\u0440\u0430\u043d\u0438", "operator": "\u039f\u03c1\u03b3\u03b1\u03bd\u03b9\u03c3\u03bc\u03cc\u03c2 \u03a3\u03b9\u03b4\u03b7\u03c1\u03bf\u03b4\u03c1\u03cc\u03bc\u03c9\u03bd \u0395\u03bb\u03bb\u03ac\u03b4\u03bf\u03c2", "phone": "no", "public_transport": "station", "railway": "station", "railway:position": "33.6", "railway:ref": "\u0394\u039f", "wheelchair": "no"}}, "geometry": {"type": "Point", "coordinates": [22.772055, 41.172778]}}, {"type": "Feature", "properties": {"type": "node", "id": 2514145014, "tags": {"public_transport": "stop_position", "railway": "stop", "railway:position": "41.0", "train": "yes"}}, "geometry": {"type": "Point", "coordinates": [22.8029167, 41.2170083]}}, {"type": "Feature", "properties": {"type": "node", "id": 4726224285, "tags": {"public_transport": "stop_position", "railway": "stop", "railway:position": "47.0", "train": "yes"}}, "geometry": {"type": "Point", "coordinates": [22.8401473, 41.2614116]}}, {"type": "Feature", "properties": {"type": "node", "id": 4815020481, "tags": {"ele": "195", "int_name": "Mouries", "internet_access": "no", "name": "\u039c\u03bf\u03c5\u03c1\u03b9\u03ad\u03c2", "name:de": "Bahnhof Muri\u00e4s", "name:el": "\u03a3\u03b9\u03b4\u03b7\u03c1\u03bf\u03b4\u03c1\u03bf\u03bc\u03b9\u03ba\u03cc\u03c2 \u03a3\u03c4\u03b1\u03b8\u03bc\u03cc\u03c2 \u039c\u03bf\u03c5\u03c1\u03b9\u03ce\u03bd", "name:en": "Mouries Railway Station", "name:es": "Estaci\u00f3n de Muri\u00e9s", "name:fr": "Gare de Mouri\u00e9s", "name:it": "Stazione di Mouries", "name:jp": "\u6851 \u99c5", "name:mk": "\u0416\u0421 \u0410\u043a\u0430\u043d\u045f\u0430\u043b\u0438", "name:ru": "\u0416\u0435\u043b\u0435\u0437\u043d\u043e\u0434\u043e\u0440\u043e\u0436\u043d\u0430\u044f \u0441\u0442\u0430\u043d\u0446\u0438\u044f \u041c\u0443\u0440\u0438ec", "operator": "\u039f\u03c1\u03b3\u03b1\u03bd\u03b9\u03c3\u03bc\u03cc\u03c2 \u03a3\u03b9\u03b4\u03b7\u03c1\u03bf\u03b4\u03c1\u03cc\u03bc\u03c9\u03bd \u0395\u03bb\u03bb\u03ac\u03b4\u03bf\u03c2", "phone": "+30 234 103 1346", "public_transport": "station", "railway": "station", "railway:position": "47.0", "railway:ref": "\u039c\u03a1", "wheelchair": "no"}}, "geometry": {"type": "Point", "coordinates": [22.840039, 41.2615397]}}, {"type": "Feature", "properties": {"type": "node", "id": 4606490350, "tags": {"name": "\u039a\u03b1\u03c3\u03c4\u03b1\u03bd\u03bf\u03cd\u03c3\u03c3\u03b1", "public_transport": "stop_position", "railway": "station", "railway:position": "52.1", "train": "yes"}}, "geometry": {"type": "Point", "coordinates": [22.8962794, 41.2760917]}}, {"type": "Feature", "properties": {"type": "node", "id": 4724691528, "tags": {"public_transport": "stop_position", "railway": "stop", "railway:position": "55.0", "train": "yes"}}, "geometry": {"type": "Point", "coordinates": [22.9288722, 41.2800001]}}, {"type": "Feature", "properties": {"type": "node", "id": 4724644222, "tags": {"public_transport": "stop_position", "railway": "stop", "railway:position": "61.6", "train": "yes"}}, "geometry": {"type": "Point", "coordinates": [22.999817, 41.2590587]}}, {"type": "Feature", "properties": {"type": "node", "id": 4815451745, "tags": {"ele": "96", "int_name": "Rodopoli", "internet_access": "no", "name": "\u03a1\u03bf\u03b4\u03cc\u03c0\u03bf\u03bb\u03b7", "name:de": "Bahnhof Rodopoli", "name:el": "\u03a3\u03b9\u03b4\u03b7\u03c1\u03bf\u03b4\u03c1\u03bf\u03bc\u03b9\u03ba\u03cc\u03c2 \u03a3\u03c4\u03b1\u03b8\u03bc\u03cc\u03c2 \u03a1\u03bf\u03b4\u03cc\u03c0\u03bf\u03bb\u03b7\u03c2", "name:en": "Rodopoli Railway Station", "name:es": "Estaci\u00f3n de Rod\u00f3poli", "name:fr": "Gare de Rod\u00f3poli", "name:it": "Stazione di Rodopoli", "name:jp": "\u30ed\u30c3\u30c9\u30dd\u30ea\u30fc \u99c5", "name:ru": "\u0416\u0435\u043b\u0435\u0437\u043d\u043e\u0434\u043e\u0440\u043e\u0436\u043d\u0430\u044f \u0441\u0442\u0430\u043d\u0446\u0438\u044f \u0420\u043e\u0434\u043e\u043f\u043e\u043b\u0438\u0441", "operator": "\u039f\u03c1\u03b3\u03b1\u03bd\u03b9\u03c3\u03bc\u03cc\u03c2 \u03a3\u03b9\u03b4\u03b7\u03c1\u03bf\u03b4\u03c1\u03cc\u03bc\u03c9\u03bd \u0395\u03bb\u03bb\u03ac\u03b4\u03bf\u03c2", "phone": "+30 232 702 2210", "public_transport": "station", "railway": "station", "railway:position": "61.6", "railway:ref": "\u03a1\u039f", "wheelchair": "no"}}, "geometry": {"type": "Point", "coordinates": [22.9998246, 41.2592343]}}, {"type": "Feature", "properties": {"type": "node", "id": 1278507319, "tags": {"public_transport": "stop_position", "railway": "stop", "railway:position": "64.0", "train": "yes"}}, "geometry": {"type": "Point", "coordinates": [23.0199472, 41.244919]}}, {"type": "Feature", "properties": {"type": "node", "id": 4724370049, "tags": {"public_transport": "stop_position", "railway": "stop", "railway:position": "68.6", "train": "yes"}}, "geometry": {"type": "Point", "coordinates": [23.0720844, 41.2554435]}}, {"type": "Feature", "properties": {"type": "node", "id": 4724400852, "tags": {"public_transport": "stop_position", "railway": "stop", "railway:position": "74.4", "train": "yes"}}, "geometry": {"type": "Point", "coordinates": [23.1393162, 41.2606856]}}, {"type": "Feature", "properties": {"type": "node", "id": 4815451766, "tags": {"ele": "60", "int_name": "Mandraki", "internet_access": "no", "internet_access:fee": "no", "name": "\u039c\u03b1\u03bd\u03b4\u03c1\u03ac\u03ba\u03b9", "name:de": "Bahnhof Mandraki", "name:el": "\u03a3\u03b9\u03b4\u03b7\u03c1\u03bf\u03b4\u03c1\u03bf\u03bc\u03b9\u03ba\u03cc\u03c2 \u03a3\u03c4\u03b1\u03b8\u03bc\u03cc\u03c2 \u039c\u03b1\u03bd\u03b4\u03c1\u03b1\u03ba\u03af\u03bf\u03c5", "name:en": "Mandraki Railway Station", "name:es": "Estaci\u00f3n de Mandraki", "name:fr": "Gare de Mandraki", "name:it": "Stazione di Mandraki", "name:jp": "\u30de\u30f3\u30c9\u30e9\u30ad \u99c5", "name:ru": "\u0416\u0435\u043b\u0435\u0437\u043d\u043e\u0434\u043e\u0440\u043e\u0436\u043d\u0430\u044f \u0441\u0442\u0430\u043d\u0446\u0438\u044f \u041c\u0430\u043d\u0434\u0440\u0430\u043a\u0438", "operator": "\u039f\u03c1\u03b3\u03b1\u03bd\u03b9\u03c3\u03bc\u03cc\u03c2 \u03a3\u03b9\u03b4\u03b7\u03c1\u03bf\u03b4\u03c1\u03cc\u03bc\u03c9\u03bd \u0395\u03bb\u03bb\u03ac\u03b4\u03bf\u03c2", "phone": "no", "public_transport": "station", "railway": "station", "railway:position": "74.4", "railway:ref": "\u039c\u0391", "wheelchair": "no"}}, "geometry": {"type": "Point", "coordinates": [23.1392245, 41.2608826]}}, {"type": "Feature", "properties": {"type": "node", "id": 4724539429, "tags": {"public_transport": "stop_position", "railway": "stop", "railway:position": "78.0", "train": "yes"}}, "geometry": {"type": "Point", "coordinates": [23.1821237, 41.2621997]}}, {"type": "Feature", "properties": {"type": "node", "id": 4138675889, "tags": {"public_transport": "stop_position", "railway": "stop", "railway:position": "79.2", "train": "yes"}}, "geometry": {"type": "Point", "coordinates": [23.1962157, 41.2613383]}}, {"type": "Feature", "properties": {"type": "node", "id": 4724517143, "tags": {"public_transport": "stop_position", "railway": "stop", "railway:position": "84.6", "train": "yes"}}, "geometry": {"type": "Point", "coordinates": [23.2556186, 41.2623876]}}, {"type": "Feature", "properties": {"type": "node", "id": 4816980799, "tags": {"ele": "42", "int_name": "Vyroneia", "internet_access": "no", "internet_access:fee": "no", "name": "\u0392\u03c5\u03c1\u03ce\u03bd\u03b5\u03b9\u03b1", "name:de": "Bahnhof Vironia", "name:el": "\u03a3\u03b9\u03b4\u03b7\u03c1\u03bf\u03b4\u03c1\u03bf\u03bc\u03b9\u03ba\u03cc\u03c2 \u03a3\u03c4\u03b1\u03b8\u03bc\u03cc\u03c2 \u0392\u03c5\u03c1\u03ce\u03bd\u03b5\u03b9\u03b1\u03c2", "name:en": "Vyroneia Railway Station", "name:es": "Estaci\u00f3n de Vironia", "name:fr": "Gare de V\u00fdroneia", "name:it": "Stazione di Vironia", "name:jp": "\u30d3\u30ed\u30cb\u30a2 \u99c5", "name:ru": "\u0416\u0435\u043b\u0435\u0437\u043d\u043e\u0434\u043e\u0440\u043e\u0436\u043d\u0430\u044f \u0441\u0442\u0430\u043d\u0446\u0438\u044f \u0412\u0438\u0440\u043e\u043d\u0438\u044f", "operator": "\u039f\u03c1\u03b3\u03b1\u03bd\u03b9\u03c3\u03bc\u03cc\u03c2 \u03a3\u03b9\u03b4\u03b7\u03c1\u03bf\u03b4\u03c1\u03cc\u03bc\u03c9\u03bd \u0395\u03bb\u03bb\u03ac\u03b4\u03bf\u03c2", "phone": "no", "public_transport": "station", "railway": "station", "railway:position": "84.6", "railway:ref": "\u0392\u03a5", "wheelchair": "no"}}, "geometry": {"type": "Point", "coordinates": [23.2554148, 41.2625192]}}, {"type": "Feature", "properties": {"type": "node", "id": 4819638797, "tags": {"ele": "28", "int_name": "Skotousa", "internet_access": "no", "internet_access:fee": "no", "name": "\u03a3\u03ba\u03bf\u03c4\u03bf\u03cd\u03c3\u03b1", "name:de": "Bahnhof Skotousa", "name:el": "\u03a3\u03b9\u03b4\u03b7\u03c1\u03bf\u03b4\u03c1\u03bf\u03bc\u03b9\u03ba\u03cc\u03c2 \u03a3\u03c4\u03b1\u03b8\u03bc\u03cc\u03c2 \u03a3\u03ba\u03bf\u03c4\u03bf\u03cd\u03c3\u03b1\u03c2", "name:en": "Skotousa Railway Station", "name:es": "Estaci\u00f3n de Skot\u00fasa", "name:fr": "Gare de Skoto\u00fasa", "name:it": "Stazione di Skotousa", "name:jp": "\u30b9\u30ab\u30c8\u30a5\u30fc\u30b5 \u99c5", "name:ru": "\u0416\u0435\u043b\u0435\u0437\u043d\u043e\u0434\u043e\u0440\u043e\u0436\u043d\u0430\u044f \u0441\u0442\u0430\u043d\u0446\u0438\u044f \u0421\u043a\u043e\u0442\u0443\u0441\u0430", "operator": "\u039f\u03c1\u03b3\u03b1\u03bd\u03b9\u03c3\u03bc\u03cc\u03c2 \u03a3\u03b9\u03b4\u03b7\u03c1\u03bf\u03b4\u03c1\u03cc\u03bc\u03c9\u03bd \u0395\u03bb\u03bb\u03ac\u03b4\u03bf\u03c2", "phone": "no", "public_transport": "station", "railway": "station", "railway:position": "110.7", "railway:ref": "\u03a3\u0391", "wheelchair": "no"}}, "geometry": {"type": "Point", "coordinates": [23.3765392, 41.1295271]}}, {"type": "Feature", "properties": {"type": "node", "id": 4819638807, "tags": {"public_transport": "stop_position", "railway": "stop", "railway:position": "110.7", "train": "yes"}}, "geometry": {"type": "Point", "coordinates": [23.3763443, 41.1294588]}}, {"type": "Feature", "properties": {"type": "node", "id": 4138674508, "tags": {"public_transport": "stop_position", "railway": "stop", "railway:position": "106.6", "train": "yes"}}, "geometry": {"type": "Point", "coordinates": [23.3665825, 41.1613115]}}, {"type": "Feature", "properties": {"type": "node", "id": 4819244399, "tags": {"public_transport": "stop_position", "railway": "stop", "railway:position": "102.7", "train": "yes"}}, "geometry": {"type": "Point", "coordinates": [23.3786089, 41.1940653]}}, {"type": "Feature", "properties": {"type": "node", "id": 4724327286, "tags": {"public_transport": "stop_position", "railway": "stop", "railway:position": "88.3", "train": "yes"}}, "geometry": {"type": "Point", "coordinates": [23.2977561, 41.2698715]}}, {"type": "Feature", "properties": {"type": "node", "id": 1278447135, "tags": {"public_transport": "stop_position", "railway": "stop", "railway:position": "98.9", "train": "yes"}}, "geometry": {"type": "Point", "coordinates": [23.3758067, 41.2290767]}}, {"type": "Feature", "properties": {"type": "node", "id": 4819390971, "tags": {"ele": "65", "int_name": "Sidirokastro", "internet_access": "no", "name": "\u03a3\u03b9\u03b4\u03b7\u03c1\u03cc\u03ba\u03b1\u03c3\u03c4\u03c1\u03bf", "name:de": "Bahnhof Sidirokastro", "name:el": "\u03a3\u03b9\u03b4\u03b7\u03c1\u03bf\u03b4\u03c1\u03bf\u03bc\u03b9\u03ba\u03cc\u03c2 \u03a3\u03c4\u03b1\u03b8\u03bc\u03cc\u03c2 \u03a3\u03b9\u03b4\u03b7\u03c1\u03bf\u03ba\u03ac\u03c3\u03c4\u03c1\u03bf\u03c5", "name:en": "Sidirokastro Railway Station", "name:es": "Estaci\u00f3n de Sidir\u00f3kastro", "name:fr": "Gare de Sidir\u00f3kastro", "name:it": "Stazione di Sidirokastro", "name:jp": "\u30b7\u30c7\u30a3\u30ed\u30c3\u30ab\u30b9\u30c8\u30ed \u99c5", "name:ru": "\u0416\u0435\u043b\u0435\u0437\u043d\u043e\u0434\u043e\u0440\u043e\u0436\u043d\u0430\u044f \u0441\u0442\u0430\u043d\u0446\u0438\u044f \u0421\u0438\u0434\u0438\u0440\u043e\u043a\u0430\u0441\u0442\u0440\u043e", "operator": "\u039f\u03c1\u03b3\u03b1\u03bd\u03b9\u03c3\u03bc\u03cc\u03c2 \u03a3\u03b9\u03b4\u03b7\u03c1\u03bf\u03b4\u03c1\u03cc\u03bc\u03c9\u03bd \u0395\u03bb\u03bb\u03ac\u03b4\u03bf\u03c2", "phone": "+30 232 302 2320", "public_transport": "station", "railway": "station", "railway:position": "98.9", "railway:ref": "\u03a3\u03a0", "wheelchair": "no"}}, "geometry": {"type": "Point", "coordinates": [23.3759162, 41.2291362]}}, {"type": "Feature", "properties": {"type": "node", "id": 4721172692, "tags": {"public_transport": "stop_position", "railway": "stop", "railway:position": "94.3", "train": "yes"}}, "geometry": {"type": "Point", "coordinates": [23.3454644, 41.2620382]}}, {"type": "Feature", "properties": {"type": "node", "id": 4768466407, "tags": {"public_transport": "stop_position", "railway": "stop", "railway:position": "0.0", "train": "yes"}}, "geometry": {"type": "Point", "coordinates": [23.3455174, 41.2620649]}}, {"type": "Feature", "properties": {"type": "node", "id": 4817385719, "tags": {"ele": "50", "int_name": "Strymonas", "internet_access": "no", "internet_access:fee": "no", "name": "\u03a3\u03c4\u03c1\u03c5\u03bc\u03ce\u03bd\u03b1\u03c2", "name:de": "Bahnhof Struma", "name:el": "\u03a3\u03b9\u03b4\u03b7\u03c1\u03bf\u03b4\u03c1\u03bf\u03bc\u03b9\u03ba\u03cc\u03c2 \u03a3\u03c4\u03b1\u03b8\u03bc\u03cc\u03c2 \u03a3\u03c4\u03c1\u03c5\u03bc\u03ce\u03bd\u03b1", "name:en": "Strym\u00f3nas Railway Station", "name:es": "Estaci\u00f3n de Estrim\u00f3n", "name:fr": "Gare de Strymonas", "name:it": "Stazione di Strymonas", "name:jp": "\u30b9\u30c8\u30eb\u30de \u99c5", "name:ru": "\u0416\u0435\u043b\u0435\u0437\u043d\u043e\u0434\u043e\u0440\u043e\u0436\u043d\u0430\u044f \u0441\u0442\u0430\u043d\u0446\u0438\u044f \u0441\u0442\u0440\u0438\u043c\u043e\u043d\u0430\u0441", "operator": "\u039f\u03c1\u03b3\u03b1\u03bd\u03b9\u03c3\u03bc\u03cc\u03c2 \u03a3\u03b9\u03b4\u03b7\u03c1\u03bf\u03b4\u03c1\u03cc\u03bc\u03c9\u03bd \u0395\u03bb\u03bb\u03ac\u03b4\u03bf\u03c2", "phone": "+30 232 302 2490", "public_transport": "station", "railway": "station", "railway:position": "94.3", "railway:ref": "\u03a3\u039a", "wheelchair": "no"}}, "geometry": {"type": "Point", "coordinates": [23.3456395, 41.2621969]}}, {"type": "Feature", "properties": {"type": "node", "id": 985941841, "tags": {"public_transport": "stop_position", "railway": "stop", "railway:position": "13.5", "train": "yes"}}, "geometry": {"type": "Point", "coordinates": [23.361379, 41.3703787]}}, {"type": "Feature", "properties": {"type": "node", "id": 4818046632, "tags": {"ele": "80", "int_name": "Promachonas", "internet_access": "no", "name": "\u03a0\u03c1\u03bf\u03bc\u03b1\u03c7\u03ce\u03bd\u03b1\u03c2", "name:de": "Bahnhof Pr\u00f6machonas", "name:el": "\u03a3\u03b9\u03b4\u03b7\u03c1\u03bf\u03b4\u03c1\u03bf\u03bc\u03b9\u03ba\u03cc\u03c2 \u03a3\u03c4\u03b1\u03b8\u03bc\u03cc\u03c2 \u03a0\u03c1\u03bf\u03bc\u03b1\u03c7\u03ce\u03bd\u03b1", "name:en": "Promachonas Railway Station", "name:es": "Estaci\u00f3n de Promajonas", "name:fr": "Gare de Promach\u00f3nas", "name:it": "Stazione di Promachonas", "name:jp": "\u30d7\u30ed\u30e0\u30db\u30fc\u30ca\u30b9 \u99c5", "name:ru": "\u0416\u0435\u043b\u0435\u0437\u043d\u043e\u0434\u043e\u0440\u043e\u0436\u043d\u0430\u044f \u0441\u0442\u0430\u043d\u0446\u0438\u044f \u041f\u0440\u043e\u043c\u0430\u0445\u043e\u043d\u0430\u0441", "operator": "\u039f\u03c1\u03b3\u03b1\u03bd\u03b9\u03c3\u03bc\u03cc\u03c2 \u03a3\u03b9\u03b4\u03b7\u03c1\u03bf\u03b4\u03c1\u03cc\u03bc\u03c9\u03bd \u0395\u03bb\u03bb\u03ac\u03b4\u03bf\u03c2", "phone": "no", "public_transport": "station", "railway": "station", "railway:position": "13.5", "railway:ref": "\u03a0\u039c", "wheelchair": "no"}}, "geometry": {"type": "Point", "coordinates": [23.3611878, 41.3704883]}}, {"type": "Feature", "properties": {"type": "node", "id": 4886402097, "tags": {"public_transport": "stop_position", "railway": "stop", "railway:position": "130.7", "train": "yes"}}, "geometry": {"type": "Point", "coordinates": [23.5758288, 41.0469187]}}, {"type": "Feature", "properties": {"type": "node", "id": 4883927548, "tags": {"ele": "27", "int_name": "Serres", "internet_access": "no", "internet_access:fee": "no", "name": "\u03a3\u03ad\u03c1\u03c1\u03b1\u03b9", "name:de": "Bahnhof Serres", "name:el": "\u03a3\u03b9\u03b4\u03b7\u03c1\u03bf\u03b4\u03c1\u03bf\u03bc\u03b9\u03ba\u03cc\u03c2 \u03a3\u03c4\u03b1\u03b8\u03bc\u03cc\u03c2 \u03a3\u03b5\u03c1\u03c1\u03ce\u03bd", "name:en": "Serres Railway Station", "name:es": "Estaci\u00f3n de Serres", "name:fr": "Gare de S\u00e9rres", "name:it": "Stazione di Serres", "name:jp": "\u30bb\u30ec \u99c5", "name:ru": "\u0416\u0435\u043b\u0435\u0437\u043d\u043e\u0434\u043e\u0440\u043e\u0436\u043d\u0430\u044f \u0441\u0442\u0430\u043d\u0446\u0438\u044f \u0421\u0435\u0440\u0435", "operator": "\u039f\u03c1\u03b3\u03b1\u03bd\u03b9\u03c3\u03bc\u03cc\u03c2 \u03a3\u03b9\u03b4\u03b7\u03c1\u03bf\u03b4\u03c1\u03cc\u03bc\u03c9\u03bd \u0395\u03bb\u03bb\u03ac\u03b4\u03bf\u03c2", "phone": "+30 232 105 9700", "public_transport": "station", "railway": "station", "railway:position": "126.0", "railway:ref": "\u03a3\u03a1", "wheelchair": "limited", "wikidata": "Q18009328"}}, "geometry": {"type": "Point", "coordinates": [23.5362605, 41.0739505]}}, {"type": "Feature", "properties": {"type": "node", "id": 4885873059, "tags": {"public_transport": "stop_position", "railway": "stop", "railway:position": "126.0", "train": "yes"}}, "geometry": {"type": "Point", "coordinates": [23.5365098, 41.0738126]}}, {"type": "Feature", "properties": {"type": "node", "id": 5300112926, "tags": {"public_transport": "stop_position", "railway": "stop", "railway:position": "134.3", "train": "yes"}}, "geometry": {"type": "Point", "coordinates": [23.6151066, 41.0341073]}}, {"type": "Feature", "properties": {"type": "node", "id": 1277499659, "tags": {"public_transport": "stop_position", "railway": "stop", "railway:position": "137.4", "train": "yes"}}, "geometry": {"type": "Point", "coordinates": [23.6492858, 41.0299313]}}, {"type": "Feature", "properties": {"type": "node", "id": 5300112619, "tags": {"ele": "39", "int_name": "Chryso", "internet_access": "no", "internet_access:fee": "no", "name": "\u03a7\u03c1\u03c5\u03c3\u03cc\u03bd", "name:de": "Bahnhof Chrisso", "name:el": "\u03a3\u03b9\u03b4\u03b7\u03c1\u03bf\u03b4\u03c1\u03bf\u03bc\u03b9\u03ba\u03cc\u03c2 \u03a3\u03c4\u03b1\u03b8\u03bc\u03cc\u03c2 \u03a7\u03c1\u03c5\u03c3\u03cc", "name:en": "Chriso Railway Station", "name:es": "Estaci\u00f3n de Chris\u00f3", "name:fr": "Gare de Chrys\u00f3", "name:it": "Stazione di Chriso", "name:jp": "\u30af\u30ea\u30bd \u99c5", "name:ru": "\u0416\u0435\u043b\u0435\u0437\u043d\u043e\u0434\u043e\u0440\u043e\u0436\u043d\u0430\u044f \u0441\u0442\u0430\u043d\u0446\u0438\u044f \u0425\u0440\u0438\u0441\u043e", "operator": "\u039f\u03c1\u03b3\u03b1\u03bd\u03b9\u03c3\u03bc\u03cc\u03c2 \u03a3\u03b9\u03b4\u03b7\u03c1\u03bf\u03b4\u03c1\u03cc\u03bc\u03c9\u03bd \u0395\u03bb\u03bb\u03ac\u03b4\u03bf\u03c2", "phone": "no", "public_transport": "station", "railway": "station", "railway:position": "137.4", "railway:ref": "\u03a7\u03a1", "wheelchair": "no"}}, "geometry": {"type": "Point", "coordinates": [23.6496369, 41.0298947]}}, {"type": "Feature", "properties": {"type": "node", "id": 3896920951, "tags": {"public_transport": "stop_position", "railway": "stop", "railway:position": "151.1", "train": "yes"}}, "geometry": {"type": "Point", "coordinates": [23.7794573, 40.9996931]}}, {"type": "Feature", "properties": {"type": "node", "id": 5300111775, "tags": {"ele": "11", "int_name": "Nea Zichni", "internet_access": "no", "internet_access:fee": "no", "name": "\u039d\u03ad\u03b1 \u0396\u03af\u03c7\u03bd\u03b7", "name:de": "Bahnhof N\u00e4a Zichni", "name:el": "\u03a3\u03b9\u03b4\u03b7\u03c1\u03bf\u03b4\u03c1\u03bf\u03bc\u03b9\u03ba\u03cc\u03c2 \u03a3\u03c4\u03b1\u03b8\u03bc\u03cc\u03c2 \u039d\u03ad\u03b1 \u0396\u03af\u03c7\u03bd\u03b7", "name:en": "Nea Zichni Railway Station", "name:es": "Estaci\u00f3n de Nea Ziqni", "name:fr": "Gare de N\u00e9a Z\u00edchni", "name:it": "Stazione di Nea Zichni", "name:jp": "\u30cd\u30a2 \u30b8\u30fc\u30af\u30cb \u99c5", "name:ru": "\u0416\u0435\u043b\u0435\u0437\u043d\u043e\u0434\u043e\u0440\u043e\u0436\u043d\u0430\u044f \u0441\u0442\u0430\u043d\u0446\u0438\u044f \u041d\u0435\u0430-\u0417\u0438\u0445\u043d\u0438", "operator": "\u039f\u03c1\u03b3\u03b1\u03bd\u03b9\u03c3\u03bc\u03cc\u03c2 \u03a3\u03b9\u03b4\u03b7\u03c1\u03bf\u03b4\u03c1\u03cc\u03bc\u03c9\u03bd \u0395\u03bb\u03bb\u03ac\u03b4\u03bf\u03c2", "phone": "no", "public_transport": "station", "railway": "station", "railway:position": "158.2", "railway:ref": "\u039c\u03a5", "wheelchair": "no"}}, "geometry": {"type": "Point", "coordinates": [23.8217396, 40.9554425]}}, {"type": "Feature", "properties": {"type": "node", "id": 5300111840, "tags": {"public_transport": "stop_position", "railway": "stop", "railway:position": "158.2", "train": "yes"}}, "geometry": {"type": "Point", "coordinates": [23.8217342, 40.9553493]}}, {"type": "Feature", "properties": {"type": "node", "id": 3908301007, "tags": {"public_transport": "stop_position", "railway": "stop", "railway:position": "163.2", "train": "yes"}}, "geometry": {"type": "Point", "coordinates": [23.8769656, 40.9718582]}}, {"type": "Feature", "properties": {"type": "node", "id": 5300111552, "tags": {"ele": "15", "int_name": "Dimitra", "internet_access": "no", "internet_access:fee": "no", "name": "\u0394\u03ae\u03bc\u03b7\u03c4\u03c1\u03b1", "name:de": "Bahnhof Dimitra", "name:el": "\u03a3\u03b9\u03b4\u03b7\u03c1\u03bf\u03b4\u03c1\u03bf\u03bc\u03b9\u03ba\u03cc\u03c2 \u03a3\u03c4\u03b1\u03b8\u03bc\u03cc\u03c2 \u0394\u03ae\u03bc\u03b7\u03c4\u03c1\u03b1", "name:en": "Dimitra Railway Station", "name:es": "Estaci\u00f3n de D\u00edmitra", "name:fr": "Gare de Dimitra", "name:it": "Stazione di Dimitra", "name:jp": "\u30c7\u30df\u30c8\u30a5\u30e9 \u99c5", "name:ru": "\u0416\u0435\u043b\u0435\u0437\u043d\u043e\u0434\u043e\u0440\u043e\u0436\u043d\u0430\u044f \u0441\u0442\u0430\u043d\u0446\u0438\u044f \u0414\u0438\u043c\u0438\u0442\u0440\u0430", "operator": "\u039f\u03c1\u03b3\u03b1\u03bd\u03b9\u03c3\u03bc\u03cc\u03c2 \u03a3\u03b9\u03b4\u03b7\u03c1\u03bf\u03b4\u03c1\u03cc\u03bc\u03c9\u03bd \u0395\u03bb\u03bb\u03ac\u03b4\u03bf\u03c2", "phone": "no", "public_transport": "station", "railway": "station", "railway:position": "163.2", "railway:ref": "\u0394\u039c", "wheelchair": "no"}}, "geometry": {"type": "Point", "coordinates": [23.8766568, 40.9719219]}}, {"type": "Feature", "properties": {"type": "node", "id": 1274743218, "tags": {"public_transport": "stop_position", "railway": "stop", "railway:position": "143.3", "train": "yes"}}, "geometry": {"type": "Point", "coordinates": [23.7059842, 41.0278366]}}, {"type": "Feature", "properties": {"type": "node", "id": 5300113022, "tags": {"public_transport": "stop_position", "railway": "stop", "railway:position": "143.3", "train": "yes"}}, "geometry": {"type": "Point", "coordinates": [23.706001, 41.0279889]}}, {"type": "Feature", "properties": {"type": "node", "id": 2514129331, "tags": {"public_transport": "stop_position", "railway": "stop", "railway:position": "149.2", "train": "yes"}}, "geometry": {"type": "Point", "coordinates": [23.7661141, 41.0164777]}}, {"type": "Feature", "properties": {"type": "node", "id": 5300112351, "tags": {"ele": "80", "int_name": "Gazoros", "internet_access": "no", "internet_access:fee": "no", "name": "\u0393\u03ac\u03b6\u03c9\u03c1\u03bf\u03c2", "name:de": "Bahnhof Gazoros", "name:el": "\u03a3\u03b9\u03b4\u03b7\u03c1\u03bf\u03b4\u03c1\u03bf\u03bc\u03b9\u03ba\u03cc\u03c2 \u03a3\u03c4\u03b1\u03b8\u03bc\u03cc\u03c2 \u0393\u03ac\u03b6\u03c9\u03c1\u03bf\u03c2", "name:en": "Gazoros Railway Station", "name:es": "Estaci\u00f3n de Gazoros", "name:fr": "Gare de G\u00e1zoros", "name:it": "Stazione di Gasoros", "name:jp": "\u30ac\u30be\u30ed\u30b9 \u99c5", "name:ru": "\u0416\u0435\u043b\u0435\u0437\u043d\u043e\u0434\u043e\u0440\u043e\u0436\u043d\u0430\u044f \u0441\u0442\u0430\u043d\u0446\u0438\u044f \u0413\u0430\u0437\u043e\u0440\u043e\u0441", "operator": "\u039f\u03c1\u03b3\u03b1\u03bd\u03b9\u03c3\u03bc\u03cc\u03c2 \u03a3\u03b9\u03b4\u03b7\u03c1\u03bf\u03b4\u03c1\u03cc\u03bc\u03c9\u03bd \u0395\u03bb\u03bb\u03ac\u03b4\u03bf\u03c2", "phone": "no", "public_transport": "station", "railway": "station", "railway:position": "149.2", "railway:ref": "\u0393\u0391", "wheelchair": "no"}}, "geometry": {"type": "Point", "coordinates": [23.7663984, 41.0164301]}}, {"type": "Feature", "properties": {"type": "node", "id": 1277499135, "tags": {"public_transport": "stop_position", "railway": "stop", "railway:position": "170.3", "train": "yes"}}, "geometry": {"type": "Point", "coordinates": [23.9327878, 41.0121679]}}, {"type": "Feature", "properties": {"type": "node", "id": 5300111263, "tags": {"ele": "28", "int_name": "Lefkothea", "internet_access": "no", "internet_access:fee": "no", "name": "\u039b\u03b5\u03c5\u03ba\u03bf\u03b8\u03ad\u03b1", "name:de": "Bahnhof Lefkotea", "name:el": "\u03a3\u03b9\u03b4\u03b7\u03c1\u03bf\u03b4\u03c1\u03bf\u03bc\u03b9\u03ba\u03cc\u03c2 \u03a3\u03c4\u03b1\u03b8\u03bc\u03cc\u03c2 \u039b\u03b5\u03c5\u03ba\u03bf\u03b8\u03ad\u03b1", "name:en": "Lefkothea Railway Station", "name:es": "Estaci\u00f3n de Lefkotea", "name:fr": "Gare de Lefkothea", "name:it": "Stazione di Lefkotea", "name:jp": "\u30ec\u30d5\u30b3\u30c6\u30a2 \u99c5", "name:ru": "\u0416\u0435\u043b\u0435\u0437\u043d\u043e\u0434\u043e\u0440\u043e\u0436\u043d\u0430\u044f \u0441\u0442\u0430\u043d\u0446\u0438\u044f \u041b\u0435\u0444\u043a\u043e\u0442\u0435\u0430", "operator": "\u039f\u03c1\u03b3\u03b1\u03bd\u03b9\u03c3\u03bc\u03cc\u03c2 \u03a3\u03b9\u03b4\u03b7\u03c1\u03bf\u03b4\u03c1\u03cc\u03bc\u03c9\u03bd \u0395\u03bb\u03bb\u03ac\u03b4\u03bf\u03c2", "phone": "no", "public_transport": "station", "railway": "station", "railway:position": "170.3", "railway:ref": "\u0393\u0393", "wheelchair": "no"}}, "geometry": {"type": "Point", "coordinates": [23.9329829, 41.0120998]}}, {"type": "Feature", "properties": {"type": "node", "id": 5300110797, "tags": {"ele": "30", "int_name": "Angista", "internet_access": "no", "internet_access:fee": "no", "name": "\u0391\u03b3\u03b3\u03af\u03c3\u03c4\u03b1", "name:en": "Stathmos Aggistis", "operator": "\u039f\u03c1\u03b3\u03b1\u03bd\u03b9\u03c3\u03bc\u03cc\u03c2 \u03a3\u03b9\u03b4\u03b7\u03c1\u03bf\u03b4\u03c1\u03cc\u03bc\u03c9\u03bd \u0395\u03bb\u03bb\u03ac\u03b4\u03bf\u03c2", "phone": "no", "public_transport": "station", "railway": "station", "railway:position": "0", "railway:ref": "\u0393\u0393", "wheelchair": "no"}}, "geometry": {"type": "Point", "coordinates": [23.9387212, 41.0070361]}}, {"type": "Feature", "properties": {"type": "node", "id": 5300110398, "tags": {"public_transport": "stop_position", "railway": "stop", "railway:position": "178.0", "train": "yes"}}, "geometry": {"type": "Point", "coordinates": [24.0131583, 41.0258356]}}, {"type": "Feature", "properties": {"type": "node", "id": 2514123184, "tags": {"ele": "61", "int_name": "Fotolivos", "internet_access": "no", "internet_access:fee": "no", "name": "\u03a6\u03c9\u03c4\u03bf\u03bb\u03af\u03b2\u03bf\u03c2", "name:de": "Bahnhof Fotolivos", "name:el": "\u03a3\u03b9\u03b4\u03b7\u03c1\u03bf\u03b4\u03c1\u03bf\u03bc\u03b9\u03ba\u03cc\u03c2 \u03a3\u03c4\u03b1\u03b8\u03bc\u03cc\u03c2 \u03a6\u03c9\u03c4\u03bf\u03bb\u03af\u03b2\u03bf\u03c2", "name:en": "Fotolivos Railway Station", "name:es": "Estaci\u00f3n de Fotolivos", "name:fr": "Gare de Fotol\u00edvos", "name:it": "Stazione di Fotolivos", "name:jp": "\u30d5\u30a9\u30c8\u30ea\u30dc\u30b9 \u99c5", "name:ru": "\u0416\u0435\u043b\u0435\u0437\u043d\u043e\u0434\u043e\u0440\u043e\u0436\u043d\u0430\u044f \u0441\u0442\u0430\u043d\u0446\u0438\u044f \u0424\u043e\u0442\u043e\u043b\u0438\u0432\u043e\u0441", "operator": "\u039f\u03c1\u03b3\u03b1\u03bd\u03b9\u03c3\u03bc\u03cc\u03c2 \u03a3\u03b9\u03b4\u03b7\u03c1\u03bf\u03b4\u03c1\u03cc\u03bc\u03c9\u03bd \u0395\u03bb\u03bb\u03ac\u03b4\u03bf\u03c2", "phone": "no", "public_transport": "station", "railway": "station", "railway:position": "183.5", "railway:ref": "\u03a6\u03a9", "wheelchair": "no"}}, "geometry": {"type": "Point", "coordinates": [24.0491966, 41.0597079]}}, {"type": "Feature", "properties": {"type": "node", "id": 5301424391, "tags": {"public_transport": "stop_position", "railway": "stop", "railway:position": "183.5", "train": "yes"}}, "geometry": {"type": "Point", "coordinates": [24.0490867, 41.0598392]}}, {"type": "Feature", "properties": {"type": "node", "id": 5301424203, "tags": {"public_transport": "stop_position", "railway": "stop", "railway:position": "189.6", "train": "yes"}}, "geometry": {"type": "Point", "coordinates": [24.0891166, 41.1036417]}}, {"type": "Feature", "properties": {"type": "node", "id": 5300113631, "tags": {"ele": "98", "int_name": "Drama", "internet_access": "no", "internet_access:fee": "no", "name": "\u0394\u03c1\u03ac\u03bc\u03b1", "name:de": "Bahnhof Drama", "name:el": "\u03a3\u03b9\u03b4\u03b7\u03c1\u03bf\u03b4\u03c1\u03bf\u03bc\u03b9\u03ba\u03cc\u03c2 \u03a3\u03c4\u03b1\u03b8\u03bc\u03cc\u03c2 \u0394\u03c1\u03ac\u03bc\u03b1", "name:en": "Drama Railway Station", "name:es": "Estaci\u00f3n de Drama", "name:fr": "Gare de Dr\u00e1ma", "name:it": "Stazione di Drama", "name:jp": "\u30c9\u30e9\u30de \u99c5", "name:ru": "\u0416\u0435\u043b\u0435\u0437\u043d\u043e\u0434\u043e\u0440\u043e\u0436\u043d\u0430\u044f \u0441\u0442\u0430\u043d\u0446\u0438\u044f \u0414\u0440\u0430\u043c\u0430", "operator": "\u039f\u03c1\u03b3\u03b1\u03bd\u03b9\u03c3\u03bc\u03cc\u03c2 \u03a3\u03b9\u03b4\u03b7\u03c1\u03bf\u03b4\u03c1\u03cc\u03bc\u03c9\u03bd \u0395\u03bb\u03bb\u03ac\u03b4\u03bf\u03c2", "phone": "+30 252 103 2444", "public_transport": "station", "railway": "station", "railway:position": "230700,0", "railway:ref": "\u0394", "wheelchair": "limited", "wikidata": "Q17449764"}}, "geometry": {"type": "Point", "coordinates": [24.1471344, 41.1404906]}}, {"type": "Feature", "properties": {"type": "node", "id": 5300113692, "tags": {"public_transport": "stop_position", "railway": "stop", "railway:position": "230700,0", "train": "yes"}}, "geometry": {"type": "Point", "coordinates": [24.1471666, 41.1403447]}}, {"type": "Feature", "properties": {"type": "node", "id": 2514122670, "tags": {"name": "\u039d\u03b9\u03ba\u03b7\u03c6\u03cc\u03c1\u03bf\u03c2", "name:en": "Nikiforos", "railway": "station"}}, "geometry": {"type": "Point", "coordinates": [24.3099189, 41.1672645]}}, {"type": "Feature", "properties": {"type": "node", "id": 4874485936, "tags": {"name": "\u03a4\u03bf\u03be\u03cc\u03c4\u03b5\u03c2", "public_transport": "stop_position", "railway": "station"}}, "geometry": {"type": "Point", "coordinates": [24.7801093, 41.0868702]}}, {"type": "Feature", "properties": {"type": "node", "id": 4874485938, "tags": {"name": "\u03a4\u03bf\u03be\u03cc\u03c4\u03b5\u03c2", "public_transport": "stop_position", "train": "yes"}}, "geometry": {"type": "Point", "coordinates": [24.780186, 41.0868728]}}, {"type": "Feature", "properties": {"type": "node", "id": 1277449602, "tags": {"name": "\u03a0\u03bb\u03b1\u03c4\u03ac\u03bd\u03b9\u03b1", "name:en": "Platania", "railway": "station"}}, "geometry": {"type": "Point", "coordinates": [24.4217942, 41.2044736]}}, {"type": "Feature", "properties": {"type": "node", "id": 1277435470, "tags": {"name": "\u03a0\u03b1\u03c1\u03b1\u03bd\u03ad\u03c3\u03c4\u03b9", "name:de": "Paranesti", "name:el": "\u03a0\u03b1\u03c1\u03b1\u03bd\u03ad\u03c3\u03c4\u03b9", "name:en": "Paranesti", "name:fr": "Paranesti", "railway": "station"}}, "geometry": {"type": "Point", "coordinates": [24.5019464, 41.265638]}}, {"type": "Feature", "properties": {"type": "node", "id": 1277423135, "tags": {"name": "\u03a3\u03b9\u03b4\u03b7\u03c1\u03bf\u03b4\u03c1\u03bf\u03bc\u03b9\u03ba\u03cc\u03c2 \u03a3\u03c4\u03b1\u03b8\u03bc\u03cc\u03c2 \u039d\u03b5\u03bf\u03c7\u03c9\u03c1\u03af\u03bf\u03c5", "name:en": "Neochorio Railway Station", "railway": "station"}}, "geometry": {"type": "Point", "coordinates": [24.6333954, 41.2208583]}}, {"type": "Feature", "properties": {"type": "node", "id": 2291093708, "tags": {"name": "\u03a3\u03c4\u03b1\u03c5\u03c1\u03bf\u03cd\u03c0\u03bf\u03bb\u03b7\u03c2", "name:en": "Stavroupolis", "opening_hours": "7:00 - 15:00", "phone": "+302542022363", "railway": "station"}}, "geometry": {"type": "Point", "coordinates": [24.7032736, 41.1932364]}}, {"type": "Feature", "properties": {"type": "node", "id": 308841776, "tags": {"addr:city": "\u039e\u03ac\u03bd\u03b8\u03b7", "addr:country": "GR", "name": "\u039e\u03ac\u03bd\u03b8\u03b7", "name:de": "Xanthi", "name:el": "\u039e\u03ac\u03bd\u03b8\u03b7", "name:en": "Xanthi", "name:fr": "Xanthi", "railway": "station"}}, "geometry": {"type": "Point", "coordinates": [24.8929027, 41.1238904]}}, {"type": "Feature", "properties": {"type": "node", "id": 1313057851, "tags": {"int_name": "Komotini Railway Station", "name": "\u039a\u03bf\u03bc\u03bf\u03c4\u03b7\u03bd\u03ae\u03c2", "name:de": "Komotini", "name:el": "\u03a3.\u03a3. \u039a\u03bf\u03bc\u03bf\u03c4\u03b7\u03bd\u03ae\u03c2", "name:en": "Komotini", "name:fr": "Komotini", "public_transport": "station", "railway": "station"}}, "geometry": {"type": "Point", "coordinates": [25.3939687, 41.1101238]}}, {"type": "Feature", "properties": {"type": "node", "id": 1544586944, "tags": {"name": "\u0392\u03ad\u03bd\u03bd\u03b1", "name:el": "\u0392\u03ad\u03bd\u03bd\u03b1", "name:en": "Venna", "public_transport": "station", "railway": "station"}}, "geometry": {"type": "Point", "coordinates": [25.5052107, 41.0226794]}}, {"type": "Feature", "properties": {"type": "node", "id": 6004882977, "tags": {"name": "\u0391\u03bb\u03b5\u03be\u03b1\u03bd\u03b4\u03c1\u03bf\u03cd\u03c0\u03bf\u03bb\u03b7", "name:mk": "\u0416\u0421 \u0414\u0435\u0434\u0435\u0430\u0433\u0430\u0447", "railway": "station"}}, "geometry": {"type": "Point", "coordinates": [25.8788025, 40.845253]}}, {"type": "Feature", "properties": {"type": "node", "id": 5358572367, "tags": {"name": "\u0391\u03bb\u03b5\u03be\u03b1\u03bd\u03b4\u03c1\u03bf\u03cd\u03c0\u03bf\u03bb\u03b9\u03c2 - \u0394\u03b9\u03b1\u03bb\u03bf\u03b3\u03ae", "name:en": "Alexandroupolis - Dialogi", "railway": "station"}}, "geometry": {"type": "Point", "coordinates": [25.8917876, 40.8480051]}}, {"type": "Feature", "properties": {"type": "node", "id": 2514113362, "tags": {"name": "\u039c\u03ad\u03c3\u03c4\u03b7", "name:el": "\u039c\u03ad\u03c3\u03c4\u03b7", "name:en": "Mesti", "public_transport": "station", "railway": "station"}}, "geometry": {"type": "Point", "coordinates": [25.6404462, 40.9671997]}}, {"type": "Feature", "properties": {"type": "node", "id": 2291096476, "tags": {"name": "\u039a\u03af\u03c1\u03ba\u03b7", "name:en": "Kirki", "railway": "station"}}, "geometry": {"type": "Point", "coordinates": [25.7978359, 40.9756196]}}, {"type": "Feature", "properties": {"type": "node", "id": 1791262359, "tags": {"name": "\u038a\u03b1\u03c3\u03bc\u03bf\u03c2", "name:en": "Iasmos", "railway": "station"}}, "geometry": {"type": "Point", "coordinates": [25.1874058, 41.1260377]}}, {"type": "Feature", "properties": {"type": "node", "id": 2599343704, "tags": {"name": "\u03a0\u03bf\u03bb\u03cd\u03b1\u03bd\u03b8\u03bf", "name:en": "Polyantho", "railway": "station"}}, "geometry": {"type": "Point", "coordinates": [25.2278228, 41.1256906]}}, {"type": "Feature", "properties": {"type": "node", "id": 301098266, "tags": {"name": "\u03a6\u03ad\u03c1\u03b5\u03c2", "name:de": "Feres", "name:el": "\u03a6\u03ad\u03c1\u03b5\u03c2", "name:en": "Feres", "name:fr": "Feres", "railway": "station"}}, "geometry": {"type": "Point", "coordinates": [26.185149, 40.8910599]}}, {"type": "Feature", "properties": {"type": "node", "id": 1305655684, "tags": {"name": "\u03a0\u03ad\u03c0\u03bb\u03bf\u03c2", "name:el": "\u03a0\u03ad\u03c0\u03bb\u03bf\u03c2", "name:en": "Peplos", "public_transport": "station", "railway": "station"}}, "geometry": {"type": "Point", "coordinates": [26.2769929, 40.959332]}}, {"type": "Feature", "properties": {"type": "node", "id": 1305963175, "tags": {"name": "\u03a4\u03c5\u03c7\u03b5\u03c1\u03cc", "name:de": "Tychero", "name:el": "\u03a4\u03c5\u03c7\u03b5\u03c1\u03cc", "name:en": "Tychero", "name:fr": "Tychero", "railway": "station"}}, "geometry": {"type": "Point", "coordinates": [26.2933272, 41.0348863]}}, {"type": "Feature", "properties": {"type": "node", "id": 1305962955, "tags": {"name": "\u039b\u03b1\u03b3\u03c5\u03bd\u03ac", "name:en": "Lagina", "railway": "station"}}, "geometry": {"type": "Point", "coordinates": [26.3013478, 41.0863918]}}, {"type": "Feature", "properties": {"type": "node", "id": 1307273578, "tags": {"name": "\u03a3\u03bf\u03c5\u03c6\u03bb\u03af", "name:de": "Soufli", "name:el": "\u03a3\u03bf\u03c5\u03c6\u03bb\u03af", "name:en": "Soufli", "name:fr": "Soufli", "railway": "station", "wheelchair": "no"}}, "geometry": {"type": "Point", "coordinates": [26.3017371, 41.1881803]}}, {"type": "Feature", "properties": {"type": "node", "id": 301068611, "tags": {"name": "\u0394\u03b9\u03b4\u03c5\u03bc\u03cc\u03c4\u03b5\u03b9\u03c7\u03bf", "name:bg": "\u0414\u0438\u043c\u043e\u0442\u0438\u043a\u0430", "name:de": "Didymoticho", "name:el": "\u0394\u03b9\u03b4\u03c5\u03bc\u03cc\u03c4\u03b5\u03b9\u03c7\u03bf", "name:en": "Didymoticho", "name:fr": "Didymoticho", "public_transport": "stop_position", "railway": "station", "train": "yes"}}, "geometry": {"type": "Point", "coordinates": [26.5113144, 41.3520883]}}, {"type": "Feature", "properties": {"type": "node", "id": 1306285599, "tags": {"name": "\u03a0\u03cd\u03b8\u03b9\u03bf \u0394\u03b9\u03b4\u03c5\u03bc\u03bf\u03c4\u03b5\u03af\u03c7\u03bf\u03c5", "name:el": "\u03a0\u03cd\u03b8\u03b9\u03bf \u0394\u03b9\u03b4\u03c5\u03bc\u03bf\u03c4\u03b5\u03af\u03c7\u03bf\u03c5", "name:en": "Pythion of Didymoteicho", "railway": "station", "uic_ref": "7300933"}}, "geometry": {"type": "Point", "coordinates": [26.6217978, 41.3696317]}}, {"type": "Feature", "properties": {"type": "node", "id": 2514082300, "tags": {"name": "\u03a7\u03b5\u03b9\u03bc\u03ce\u03bd\u03b9\u03bf\u03bd", "name:en": "Chimonion", "railway": "station"}}, "geometry": {"type": "Point", "coordinates": [26.5556128, 41.4500327]}}, {"type": "Feature", "properties": {"type": "node", "id": 1376325938, "tags": {"name": "\u039d\u03ad\u03bf \u039f\u03c1\u03b5\u03c3\u03c4\u03b9\u03ac\u03b4\u03b1", "name:en": "Nea Orestias", "public_transport": "stop_position", "railway": "station", "train": "yes"}}, "geometry": {"type": "Point", "coordinates": [26.5373822, 41.5029814]}}, {"type": "Feature", "properties": {"type": "node", "id": 6113774346, "tags": {"name": "\u039f\u03c1\u03bc\u03ad\u03bd\u03b9\u03bf", "railway": "station"}}, "geometry": {"type": "Point", "coordinates": [26.2121417, 41.7283429]}}, {"type": "Feature", "properties": {"type": "node", "id": 1307050441, "tags": {"int_name": "Dikea", "name": "\u0394\u03af\u03ba\u03b1\u03b9\u03b1", "name:de": "Dikea", "name:el": "\u0394\u03af\u03ba\u03b1\u03b9\u03b1", "name:en": "Dikea", "name:fr": "Dikea", "public_transport": "station", "railway": "station", "train": "yes"}}, "geometry": {"type": "Point", "coordinates": [26.2973673, 41.7061339]}}, {"type": "Feature", "properties": {"type": "node", "id": 2291099195, "tags": {"name": "\u039d\u03ad\u03b1 \u0392\u03cd\u03c3\u03c3\u03b1", "name:en": "Nea Vissa", "railway": "station"}}, "geometry": {"type": "Point", "coordinates": [26.5347148, 41.5786006]}}]}