{"version": 0.6, "generator": "Overpass API 0.7.56.8 7d656e78", "osm3s": {"timestamp_osm_base": "2021-03-02T19:41:42Z", "timestamp_areas_base": "2021-03-02T19:18:11Z", "copyright": "The data included in this document is from www.openstreetmap.org. The data is made available under ODbL."}, "elements": [{"type": "node", "id": 315973888, "lat": 41.5129028, "lon": 20.9497005, "tags": {"int_name": "Ki\u010devo", "name": "\u041a\u0438\u0447\u0435\u0432\u043e", "name:de": "Ki\u010devo", "name:en": "Ki\u010devo", "name:fr": "Kitchevo", "name:pl": "Kiczewo", "name:ro": "Ki\u010devo", "name:sq": "K\u00ebr\u00e7ova", "name:tr": "K\u0131r\u00e7ova", "railway": "station"}}, {"type": "node", "id": 3407148607, "lat": 41.0200931, "lon": 21.3430817, "tags": {"name": "\u0411\u0438\u0442\u043e\u043b\u0430", "railway": "station"}}, {"type": "node", "id": 8301279783, "lat": 41.2406655, "lon": 21.4085048, "tags": {"int_name": "Trojkrsti", "name": "\u0422\u0440\u043e\u0458\u043a\u0440\u0441\u0442\u0438", "network": "Makedonski \u017deleznici", "operator": "Makedonski \u017deleznici", "public_transport": "stop_position", "railway": "stop", "train": "yes"}}, {"type": "node", "id": 6024773299, "lat": 41.2719445, "lon": 21.4180319, "tags": {"name": "\u0411\u0430\u043a\u0430\u0440\u043d\u043e \u0413\u0443\u043c\u043d\u043e", "railway": "station"}}, {"type": "node", "id": 3395736710, "lat": 41.3107643, "lon": 21.4863569, "tags": {"name": "\u0413\u0430\u043b\u0438\u0447\u0430\u043d\u0438", "public_transport": "stop_position", "railway": "stop", "train": "yes"}}, {"type": "node", "id": 6021739329, "lat": 41.460995, "lon": 21.4567822, "tags": {"name": "\u0411\u0440\u0430\u0438\u043b\u043e\u0432\u043e", "railway": "station"}}, {"type": "node", "id": 8462489856, "lat": 41.5035844, "lon": 21.4297728, "tags": {"name": "\u0421\u043b\u0435\u043f\u0447\u0435", "name:en": "Slepche", "public_transport": "stop_position", "railway": "stop", "train": "yes"}}, {"type": "node", "id": 505893474, "lat": 41.4976957, "lon": 22.1044844, "tags": {"int_name": "Negotino Vardar", "name": "\u041d\u0435\u0433\u043e\u0442\u0438\u043d\u043e \u0412\u0430\u0440\u0434\u0430\u0440", "railway": "station"}}, {"type": "node", "id": 1861446447, "lat": 41.5221628, "lon": 22.1169337, "tags": {"name": "\u041a\u0440\u0438\u0432\u043e\u043b\u0430\u043a", "railway": "station"}}, {"type": "node", "id": 1861448698, "lat": 41.4632323, "lon": 22.151679, "tags": {"int_name": "Dubrovo", "name": "\u0414\u0443\u0431\u0440\u043e\u0432\u043e", "railway": "station"}}, {"type": "node", "id": 134701987, "lat": 41.1435249, "lon": 22.5125317, "tags": {"name": "\u0413\u0435\u0432\u0433\u0435\u043b\u0438\u0458\u0430", "name:sr": "\u0402\u0435\u0432\u0435\u0452\u0435\u043b\u0438\u0458\u0430", "railway": "station"}}, {"type": "node", "id": 1861450453, "lat": 41.3245375, "lon": 22.4442363, "tags": {"name": "\u041c\u0438\u0440\u0430\u0432\u0446\u0438", "railway": "station"}}, {"type": "node", "id": 1781549486, "lat": 41.4093676, "lon": 22.2448902, "tags": {"name": "\u0414\u0435\u043c\u0438\u0440 \u041a\u0430\u043f\u0438\u0458\u0430", "railway": "station"}}, {"type": "node", "id": 1861449329, "lat": 41.3926378, "lon": 22.3149557, "tags": {"int_name": "Klisura", "name": "\u041a\u043b\u0438\u0441\u0443\u0440\u0430", "railway": "station"}}, {"type": "node", "id": 6031546885, "lat": 41.6178861, "lon": 20.9383045, "tags": {"name": "\u0417\u0430\u0458\u0430\u0441", "railway": "station"}}, {"type": "node", "id": 3274639745, "lat": 41.6856193, "lon": 20.9634136, "tags": {"name": "\u041f\u0430\u0434\u0430\u043b\u0438\u0448\u0442\u0435", "railway": "station"}}, {"type": "node", "id": 2026118445, "lat": 41.7964482, "lon": 20.9172791, "tags": {"int_name": "Gostivar", "name": "\u0413\u043e\u0441\u0442\u0438\u0432\u0430\u0440", "name:de": "Gostivar", "name:en": "Gostivar", "name:mk": "\u0413\u043e\u0441\u0442\u0438\u0432\u0430\u0440", "name:pl": "Gostiwar", "name:sq": "Gostivari", "name:tr": "Gostivar", "railway": "station"}}, {"type": "node", "id": 1861496994, "lat": 41.9170146, "lon": 20.9445884, "tags": {"name": "\u0416\u0435\u0440\u043e\u0432\u0458\u0430\u043d\u0435", "railway": "station"}}, {"type": "node", "id": 6021739317, "lat": 41.5495992, "lon": 21.4321386, "tags": {"name": "\u0413\u043e\u0441\u0442\u0438\u0440\u0430\u0436\u043d\u0438", "railway": "station"}}, {"type": "node", "id": 1861477026, "lat": 41.55171, "lon": 21.6100934, "tags": {"int_name": "Vasil Antevski", "name": "\u0412\u0430\u0441\u0438\u043b \u0410\u043d\u0442\u0435\u0432\u0441\u043a\u0438", "name:en": "Vasil Antevski", "railway": "station"}}, {"type": "node", "id": 1861473065, "lat": 41.6472933, "lon": 21.6933905, "tags": {"name": "\u0427\u0430\u0448\u043a\u0430", "railway": "station"}}, {"type": "node", "id": 3745137689, "lat": 41.6790914, "lon": 21.7443383, "tags": {"int_name": "Topolka", "name": "Topolka", "name:en": "Topolka", "name:mk": "\u0422\u043e\u043f\u043e\u043b\u043a\u0430", "network": "Makedonski \u017deleznici", "operator": "Makedonski \u017deleznici", "public_transport": "stop_position", "railway": "stop", "train": "yes"}}, {"type": "node", "id": 1635043504, "lat": 41.7240351, "lon": 21.7697737, "tags": {"int_name": "Veles", "name": "\u0412\u0435\u043b\u0435\u0441", "name:de": "Veles", "name:en": "Veles", "name:mk": "\u0412\u0435\u043b\u0435\u0441", "name:sq": "Velesi", "name:tr": "K\u00f6pr\u00fcl\u00fc", "railway": "station"}}, {"type": "node", "id": 6030012856, "lat": 41.939892, "lon": 21.5350939, "tags": {"name": "\u0414\u0440\u0430\u0447\u0435\u0432\u043e", "railway": "station"}}, {"type": "node", "id": 1861432131, "lat": 41.9073663, "lon": 21.5937477, "tags": {"name": "\u0408\u0430\u043d\u0435 \u0421\u0430\u043d\u0434\u0430\u043d\u0441\u043a\u0438", "railway": "station"}}, {"type": "node", "id": 482151152, "lat": 41.7883808, "lon": 21.7016066, "tags": {"name": "\u0420\u0430\u0458\u043a\u043e \u0416\u0438\u043d\u0437\u0438\u0444\u043e\u0432", "railway": "station"}}, {"type": "node", "id": 482156739, "lat": 41.8321813, "lon": 21.6398864, "tags": {"int_name": "Kadina Reka", "name": "\u041a\u0430\u0434\u0438\u043d\u0430 \u0420\u0435\u043a\u0430", "railway": "station"}}, {"type": "node", "id": 1861437265, "lat": 41.8722865, "lon": 21.6049783, "tags": {"name": "\u0417\u0435\u043b\u0435\u043d\u0438\u043a\u043e\u0432\u043e", "railway": "station"}}, {"type": "node", "id": 2039194197, "lat": 42.007305, "lon": 20.9869215, "tags": {"name": "\u0422\u0435\u0442\u043e\u0432\u043e", "railway": "station"}}, {"type": "node", "id": 1861498385, "lat": 42.0793552, "lon": 21.1179976, "tags": {"name": "\u0408\u0435\u0433\u0443\u043d\u043e\u0432\u0446\u0435", "railway": "station"}}, {"type": "node", "id": 6031689968, "lat": 42.0174648, "lon": 21.3642753, "tags": {"name": "\u0403\u043e\u0440\u0447\u0435 \u041f\u0435\u0442\u0440\u043e\u0432", "railway": "station"}}, {"type": "node", "id": 3010499078, "lat": 42.0470435, "lon": 21.3539782, "tags": {"name": "\u0412\u043e\u043b\u043a\u043e\u0432\u043e", "railway": "station"}}, {"type": "node", "id": 1861492800, "lat": 42.0827496, "lon": 21.2215388, "tags": {"int_name": "Radu\u0161a", "name": "\u0420\u0430\u0434\u0443\u0448\u0430", "name:en": "Radusha", "railway": "station"}}, {"type": "node", "id": 7368537704, "lat": 41.9673061, "lon": 21.4788317, "tags": {"name": "\u041b\u0438\u0441\u0438\u0447\u0435", "name:en": "Lisiche", "name:mk": "\u041b\u0438\u0441\u0438\u0447\u0435", "network": "Makedonski \u017deleznici", "operator": "Makedonski \u017deleznici", "public_transport": "station", "railway": "station"}}, {"type": "node", "id": 4502801599, "lat": 42.026638, "lon": 21.4400096, "tags": {"name": "\u0421\u043a\u043e\u043f\u0458\u0435 \u0421\u0435\u0432\u0435\u0440", "railway": "station"}}, {"type": "node", "id": 1861427831, "lat": 41.9942355, "lon": 21.4989351, "tags": {"name": "\u041c\u0430\u045f\u0430\u0440\u0438", "railway": "station"}}, {"type": "node", "id": 1861425879, "lat": 41.9984918, "lon": 21.5761025, "tags": {"name": "\u0418\u043b\u0438\u043d\u0434\u0435\u043d", "railway": "station"}}, {"type": "node", "id": 408145352, "lat": 41.9879019, "lon": 21.6504137, "tags": {"name": "\u041c\u0438\u043b\u0430\u0434\u0438\u043d\u043e\u0432\u0446\u0438", "railway": "station"}}, {"type": "node", "id": 1861421092, "lat": 42.0725655, "lon": 21.6788966, "tags": {"name": "\u0420\u043e\u043c\u0430\u043d\u043e\u0432\u0446\u0438", "railway": "station"}}, {"type": "node", "id": 408145528, "lat": 42.1297906, "lon": 21.6848504, "tags": {"name": "\u041a\u0443\u043c\u0430\u043d\u043e\u0432\u043e", "railway": "station"}}, {"type": "node", "id": 3788972564, "lat": 42.22704, "lon": 21.6976955, "tags": {"name": "\u0422\u0430\u0431\u0430\u043d\u043e\u0432\u0446\u0435", "railway": "station"}}, {"type": "node", "id": 505848493, "lat": 41.5794465, "lon": 21.9448996, "tags": {"name": "\u0413\u0440\u0430\u0434\u0441\u043a\u043e", "railway": "station"}}, {"type": "node", "id": 2432438776, "lat": 41.6584822, "lon": 21.8736967, "tags": {"name": "\u0417\u0433\u0440\u043e\u043f\u043e\u043b\u0446\u0438", "railway": "station"}}, {"type": "node", "id": 1861446395, "lat": 41.5480362, "lon": 22.0389765, "tags": {"int_name": "Kukuri\u010dani", "name": "\u041a\u0443\u043a\u0443\u0440\u0438\u0447\u0430\u043d\u0438", "name:en": "Kukurichani", "railway": "station"}}, {"type": "node", "id": 1861467849, "lat": 41.799044, "lon": 21.8824731, "tags": {"name": "Toso Arsov", "railway": "station"}}, {"type": "node", "id": 1861460260, "lat": 41.8052596, "lon": 22.009438, "tags": {"name": "Ov\u010de Pole", "railway": "station"}}, {"type": "node", "id": 7388229405, "lat": 41.7556912, "lon": 22.1734492, "tags": {"internet_access": "no", "name": "\u0428\u0442\u0438\u043f", "name:de": "Stip", "name:en": "Stip", "name:es": "Stip", "name:sq": "Shtipi", "railway": "station", "wikidata": "Q921442", "wikipedia": "mk:\u041c\u0430\u043a\u0435\u0434\u043e\u043d\u0441\u043a\u0438 \u0436\u0435\u043b\u0435\u0437\u043d\u0438\u0446\u0438"}}, {"type": "node", "id": 1861458923, "lat": 41.8498386, "lon": 22.2385071, "tags": {"name": "Vanco Prke", "railway": "station"}}, {"type": "node", "id": 1861454476, "lat": 41.8763515, "lon": 22.2957201, "tags": {"name": "\u0421\u043e\u043a\u043e\u043b\u0430\u0440\u0446\u0438", "railway": "station"}}, {"type": "node", "id": 444537577, "lat": 41.9125116, "lon": 22.4153952, "tags": {"int_name": "Ko\u010dani", "name": "\u041a\u043e\u0447\u0430\u043d\u0438", "name:de": "Ko\u010dani", "name:en": "Ko\u010dani", "name:fr": "Kotchani", "name:hu": "Ko\u010dani", "name:it": "Ko\u010dani", "name:mk": "\u041a\u043e\u0447\u0430\u043d\u0438", "name:pl": "Koczani", "name:ro": "Ko\u010dani", "name:sq": "Ko\u00e7ani", "railway": "station"}}]}