{"type": "FeatureCollection", "features": [{"type": "Feature", "properties": {"type": "node", "id": 1496436583, "tags": {"name": "\u0412\u0440\u0431\u043d\u0438\u0446\u0430", "name:de": "Vrbnica", "name:fr": "Vrbnica", "name:sr": "\u0412\u0440\u0431\u043d\u0438\u0446\u0430", "name:sr-Latn": "Vrbnica", "public_transport": "station", "railway": "station"}}, "geometry": {"type": "Point", "coordinates": [19.7812548, 43.1552366]}}, {"type": "Feature", "properties": {"type": "node", "id": 476659127, "tags": {"name": "Han i Elezit", "name:sq": "Han i Elezit", "name:sr": "\u0402\u0435\u043d\u0435\u0440\u0430\u043b \u0408\u0430\u043d\u043a\u043e\u0432\u0438\u045b", "name:sr-Latn": "\u0110eneral Jankovi\u0107", "public_transport": "station", "railway": "station"}}, "geometry": {"type": "Point", "coordinates": [21.2941161, 42.1494263]}}, {"type": "Feature", "properties": {"type": "node", "id": 2107256271, "tags": {"name": "Ferizaj", "name:de": "Ferizaj", "name:en": "Ferizaj", "name:sq": "Ferizaj", "name:sr": "\u0423\u0440\u043e\u0448\u0435\u0432\u0430\u0446", "public_transport": "station", "railway": "station"}}, "geometry": {"type": "Point", "coordinates": [21.1536304, 42.3687437]}}, {"type": "Feature", "properties": {"type": "node", "id": 8441150284, "tags": {"name": "Ka\u00e7anik", "public_transport": "stop_position", "railway": "stop", "train": "yes"}}, "geometry": {"type": "Point", "coordinates": [21.2554799, 42.2330949]}}, {"type": "Feature", "properties": {"type": "node", "id": 2107256277, "tags": {"name": "Gur\u00ebz", "railway": "station"}}, "geometry": {"type": "Point", "coordinates": [21.2119027, 42.3114977]}}, {"type": "Feature", "properties": {"type": "node", "id": 1016562602, "tags": {"name": "\u041f\u0440\u0435\u0448\u0435\u0432\u043e", "name:en": "Presevo", "name:sq": "Presheva", "name:sr": "\u041f\u0440\u0435\u0448\u0435\u0432\u043e", "name:sr-Latn": "Pre\u0161evo", "railway": "station", "source": "GNS"}}, "geometry": {"type": "Point", "coordinates": [21.6846454, 42.3005437]}}, {"type": "Feature", "properties": {"type": "node", "id": 1569628155, "tags": {"alt_name": "Pec,Pe\u0107,Stanica Pec,Stanica Pe\u0107", "geonameid": "829470", "gns:gnadmin": "00", "gns:gnadmin2": "Kosovo", "gns:gnfeature": "S", "gns:gnfeaturec": "RSTN", "name": "Pej\u00eb", "name:alt": "\u017delezni\u010dka Stanica Pe\u0107", "name:en": "Pej\u00eb", "name:sr": "\u041f\u0435\u045b", "population": "0", "railway": "station"}}, "geometry": {"type": "Point", "coordinates": [20.3049484, 42.6604877]}}, {"type": "Feature", "properties": {"type": "node", "id": 1846621259, "tags": {"name": "Budisalc", "railway": "station"}}, "geometry": {"type": "Point", "coordinates": [20.493858, 42.6679614]}}, {"type": "Feature", "properties": {"type": "node", "id": 1846619686, "tags": {"name": "Klin\u00eb", "name:sr": "\u041a\u043b\u0438\u043d\u0430", "public_transport": "station", "railway": "station"}}, "geometry": {"type": "Point", "coordinates": [20.5838141, 42.6236507]}}, {"type": "Feature", "properties": {"type": "node", "id": 448562824, "tags": {"name": "Gurkat / Pogragja", "public_transport": "stop_position", "railway": "halt", "train": "yes"}}, "geometry": {"type": "Point", "coordinates": [20.6401825, 42.6287284]}}, {"type": "Feature", "properties": {"type": "node", "id": 448562596, "tags": {"name": "Uj\u00ebmir", "railway": "station"}}, "geometry": {"type": "Point", "coordinates": [20.6990323, 42.6143836]}}, {"type": "Feature", "properties": {"type": "node", "id": 448562520, "tags": {"name": "Qarrat", "public_transport": "stop_position", "railway": "station", "train": "yes"}}, "geometry": {"type": "Point", "coordinates": [20.7484669, 42.6046643]}}, {"type": "Feature", "properties": {"type": "node", "id": 476659240, "tags": {"name": "Lugdren", "public_transport": "stop_position", "railway": "halt", "train": "yes"}}, "geometry": {"type": "Point", "coordinates": [20.8258102, 42.6308589]}}, {"type": "Feature", "properties": {"type": "node", "id": 1569870500, "tags": {"alt_name": "Drenica,Stanica Drenica", "geonameid": "829481", "gns:gnadmin": "00", "gns:gnadmin2": "Kosovo", "gns:gnfeature": "S", "gns:gnfeaturec": "RSTN", "name": "Drenas", "name:alt": "\u017delezni\u010dka Stanica Drenica", "railway": "station"}}, "geometry": {"type": "Point", "coordinates": [20.8978942, 42.6244027]}}, {"type": "Feature", "properties": {"type": "node", "id": 1845306017, "tags": {"name": "Valaq", "name:sq": "Vallaq", "name:sr": "\u0412\u0430\u043b\u0430\u0447", "railway": "station"}}, "geometry": {"type": "Point", "coordinates": [20.827458, 42.9285833]}}, {"type": "Feature", "properties": {"type": "node", "id": 1845308007, "tags": {"name": "Zve\u010dan", "name:sq": "Zve\u00e7an", "name:sr": "\u0417\u0432\u0435\u0447\u0430\u043d", "name:sr-Latn": "Zve\u010dan", "public_transport": "station", "railway": "station"}}, "geometry": {"type": "Point", "coordinates": [20.8451395, 42.9099054]}}, {"type": "Feature", "properties": {"type": "node", "id": 2197932620, "tags": {"name": "Banjsk\u00eb", "name:sq": "Banjsk\u00eb", "name:sr": "\u0411\u0430\u045a\u0441\u043a\u0430", "name:sr-Latn": "Banjska", "railway": "station"}}, "geometry": {"type": "Point", "coordinates": [20.8225315, 42.9781066]}}, {"type": "Feature", "properties": {"type": "node", "id": 475699682, "tags": {"name": "Leshak", "name:sq": "Stacioni i Trenit i Leshakut", "name:sr": "\u041b\u0435\u0448\u0430\u043a", "name:sr-Latn": "Le\u0161ak", "railway": "station"}}, "geometry": {"type": "Point", "coordinates": [20.7390162, 43.168815]}}, {"type": "Feature", "properties": {"type": "node", "id": 1845296706, "tags": {"name": "So\u010danica", "public_transport": "stop_position", "railway": "stop", "train": "yes"}}, "geometry": {"type": "Point", "coordinates": [20.8087107, 43.0516237]}}, {"type": "Feature", "properties": {"type": "node", "id": 1845297083, "tags": {"name": "Sllatin\u00eb", "name:sq": "Sllatina e Ibrit", "name:sr": "\u0418\u0431\u0430\u0440\u0441\u043a\u0430 \u0421\u043b\u0430\u0442\u0438\u043d\u0430", "railway": "station"}}, "geometry": {"type": "Point", "coordinates": [20.8174395, 43.0339726]}}, {"type": "Feature", "properties": {"type": "node", "id": 1845293845, "tags": {"name": "Leposavi\u0107", "name:sr": "\u041b\u0435\u043f\u043e\u0441\u0430\u0432\u0438\u045b", "name:sr-Latn": "Leposavi\u0107", "public_transport": "station", "railway": "station"}}, "geometry": {"type": "Point", "coordinates": [20.7986051, 43.1055757]}}, {"type": "Feature", "properties": {"type": "node", "id": 1845292809, "tags": {"name": "Dren", "name:sr": "\u0414\u0440\u0435\u043d", "name:sr-Latn": "Dren", "railway": "station"}}, "geometry": {"type": "Point", "coordinates": [20.7683162, 43.129336]}}, {"type": "Feature", "properties": {"type": "node", "id": 4756284335, "tags": {"name": "Bablak", "railway": "station"}}, "geometry": {"type": "Point", "coordinates": [21.1546725, 42.4465163]}}, {"type": "Feature", "properties": {"type": "node", "id": 4682335665, "tags": {"name": "Lipjan", "name:de": "Lipjan", "name:en": "Lipjan", "name:sr": "\u041b\u0438\u043f\u0459\u0430\u043d", "name:sr-Latn": "Lipljan", "railway": "station"}}, "geometry": {"type": "Point", "coordinates": [21.1241508, 42.5221171]}}, {"type": "Feature", "properties": {"type": "node", "id": 1846604818, "tags": {"name": "Bardh", "railway": "station"}}, "geometry": {"type": "Point", "coordinates": [21.0232709, 42.629992]}}, {"type": "Feature", "properties": {"type": "node", "id": 448559565, "tags": {"name": "Miradi", "railway": "station"}}, "geometry": {"type": "Point", "coordinates": [21.0809187, 42.6108837]}}, {"type": "Feature", "properties": {"type": "node", "id": 4829337898, "tags": {"name": "Fush\u00eb Kosov\u00eb", "name:sr": "\u041a\u043e\u0441\u043e\u0432\u043e \u041f\u043e\u0459\u0435", "name:sr-Latn": "Kosovo Polje", "public_transport": "station", "railway": "station", "train": "yes"}}, "geometry": {"type": "Point", "coordinates": [21.0809567, 42.6348137]}}, {"type": "Feature", "properties": {"type": "node", "id": 1613271652, "tags": {"geonameid": "832770", "gns:gnadmin": "00", "gns:gnadmin2": "Serbia", "gns:gnfeature": "S", "gns:gnfeaturec": "RSTN", "name": "Prishtin\u00eb", "public_transport": "station", "railway": "station", "wikidata": "Q27582014"}}, "geometry": {"type": "Point", "coordinates": [21.151067, 42.658934]}}, {"type": "Feature", "properties": {"type": "node", "id": 1599387486, "tags": {"name": "\u0411\u0443\u0458\u0430\u043d\u043e\u0432\u0430\u0446", "name:de": "Bujanovac", "name:en": "Bujanovac", "name:sq": "Bujanoci", "name:sr": "\u0411\u0443\u0458\u0430\u043d\u043e\u0432\u0430\u0446", "name:sr-Latn": "Bujanovac", "public_transport": "station", "railway": "station"}}, "geometry": {"type": "Point", "coordinates": [21.7583925, 42.4396374]}}, {"type": "Feature", "properties": {"type": "node", "id": 1774026579, "tags": {"name": "\u041a\u043e\u0441\u0430\u043d\u0447\u0438\u045b \u0418\u0432\u0430\u043d", "name:sr": "\u041a\u043e\u0441\u0430\u043d\u0447\u0438\u045b \u0418\u0432\u0430\u043d", "name:sr-Latn": "Kosan\u010di\u0107 Ivan", "railway": "station"}}, "geometry": {"type": "Point", "coordinates": [21.2873039, 42.9584006]}}, {"type": "Feature", "properties": {"type": "node", "id": 2058876987, "tags": {"name": "\u041a\u043e\u0441\u0430\u043d\u0438\u0447\u043a\u0430 \u0420\u0430\u0447\u0430", "name:sr": "\u041a\u043e\u0441\u0430\u043d\u0438\u0447\u043a\u0430 \u0420\u0430\u0447\u0430", "name:sr-Latn": "Kosani\u010dka Ra\u010da", "railway": "station"}}, "geometry": {"type": "Point", "coordinates": [21.3194402, 43.0048317]}}, {"type": "Feature", "properties": {"type": "node", "id": 470378389, "tags": {"name": "\u0420\u0443\u0434\u0430\u0440\u0435", "name:en": "Rudare", "name:sr": "\u0420\u0443\u0434\u0430\u0440\u0435", "name:sr-Latn": "Rudare", "railway": "station"}}, "geometry": {"type": "Point", "coordinates": [21.3190869, 43.0655468]}}, {"type": "Feature", "properties": {"type": "node", "id": 1774008857, "tags": {"name": "\u041a\u0443\u0440\u0448\u0443\u043c\u043b\u0438\u0458\u0430", "name:en": "Kursumlija", "name:sr": "\u041a\u0443\u0440\u0448\u0443\u043c\u043b\u0438\u0458\u0430", "name:sr-Latn": "Kur\u0161umlija", "railway": "station"}}, "geometry": {"type": "Point", "coordinates": [21.2692552, 43.1341928]}}, {"type": "Feature", "properties": {"type": "node", "id": 1651998326, "tags": {"name": "\u0411\u0430\u0440\u043b\u043e\u0432\u043e", "name:de": "Barlovo", "name:en": "Barlovo", "name:sr": "\u0411\u0430\u0440\u043b\u043e\u0432\u043e", "name:sr-Latn": "Barlovo", "railway": "station"}}, "geometry": {"type": "Point", "coordinates": [21.3500384, 43.1743778]}}, {"type": "Feature", "properties": {"type": "node", "id": 1651998559, "tags": {"name": "\u041f\u043b\u043e\u0447\u043d\u0438\u043a", "name:en": "Plocnik", "name:sr": "\u041f\u043b\u043e\u0447\u043d\u0438\u043a", "name:sr-Latn": "Plo\u010dnik", "railway": "station"}}, "geometry": {"type": "Point", "coordinates": [21.3628086, 43.2071995]}}, {"type": "Feature", "properties": {"type": "node", "id": 1601611371, "tags": {"int_name": "Zitoradja Centar", "name": "\u0416\u0438\u0442\u043e\u0440\u0430\u0452\u0430 \u0426\u0435\u043d\u0442\u0430\u0440", "name:sr": "\u0416\u0438\u0442\u043e\u0440\u0430\u0452\u0430 \u0426\u0435\u043d\u0442\u0430\u0440", "name:sr-Latn": "\u017ditora\u0111a Centar", "railway": "station"}}, "geometry": {"type": "Point", "coordinates": [21.7130794, 43.1893092]}}, {"type": "Feature", "properties": {"type": "node", "id": 1599387528, "tags": {"name": "\u0420\u0438\u0441\u0442\u043e\u0432\u0430\u0446", "name:sr": "\u0420\u0438\u0441\u0442\u043e\u0432\u0430\u0446", "name:sr-Latn": "Ristovac", "railway": "station", "source": "GNS"}}, "geometry": {"type": "Point", "coordinates": [21.8427883, 42.4663338]}}, {"type": "Feature", "properties": {"type": "node", "id": 1599387542, "tags": {"name": "\u0412\u0440\u0430\u045a\u0435", "name:bg": "\u0412\u0440\u0430\u043d\u044f", "name:de": "Vranje", "name:el": "\u0392\u03c1\u03ac\u03bd\u03b9\u03b5", "name:en": "Vranje", "name:gr": "\u0392\u03b1\u03c1\u03b1\u03bd\u03b5\u03b9\u03b1", "name:hr": "Vranje", "name:ru": "\u0412\u0440\u0430\u043d\u0435", "name:sr": "\u0412\u0440\u0430\u045a\u0435", "name:sr-Latn": "Vranje", "name:tr": "Vranya", "old_name:de": "Wragl", "public_transport": "station", "railway": "station", "source": "GNS"}}, "geometry": {"type": "Point", "coordinates": [21.9228433, 42.5372678]}}, {"type": "Feature", "properties": {"type": "node", "id": 7207620853, "tags": {"name": "\u0412\u0440\u0430\u045a\u0441\u043a\u0430 \u0411\u0430\u045a\u0430", "name:en": "Vranjska Banja", "name:sr": "\u0412\u0440\u0430\u045a\u0441\u043a\u0430 \u0411\u0430\u045a\u0430", "name:sr-Latn": "Vranjska Banja", "railway": "station"}}, "geometry": {"type": "Point", "coordinates": [21.9826607, 42.5686799]}}, {"type": "Feature", "properties": {"type": "node", "id": 1845463578, "tags": {"name": "\u041f\u0440\u0438\u0431\u043e\u0458 \u0412\u0440\u0430\u045a\u0441\u043a\u0438", "name:sr": "\u041f\u0440\u0438\u0431\u043e\u0458 \u0412\u0440\u0430\u045a\u0441\u043a\u0438", "name:sr-Latn": "Priboj Vranjski", "railway": "station"}}, "geometry": {"type": "Point", "coordinates": [22.0225793, 42.6144839]}}, {"type": "Feature", "properties": {"type": "node", "id": 3473299145, "tags": {"name": "\u0421\u0443\u0432\u0430 \u041c\u043e\u0440\u0430\u0432\u0430", "name:en": "Suva Morava", "name:sr": "\u0421\u0443\u0432\u0430 \u041c\u043e\u0440\u0430\u0432\u0430", "name:sr-Latn": "Suva Morava", "railway": "station"}}, "geometry": {"type": "Point", "coordinates": [22.0505126, 42.6746146]}}, {"type": "Feature", "properties": {"type": "node", "id": 408154508, "tags": {"name": "\u0412\u043b\u0430\u0434\u0438\u0447\u0438\u043d \u0425\u0430\u043d", "name:en": "Vladicin Han", "name:sr": "\u0412\u043b\u0430\u0434\u0438\u0447\u0438\u043d \u0425\u0430\u043d", "name:sr-Latn": "Vladi\u010din Han", "public_transport": "station", "railway": "station"}}, "geometry": {"type": "Point", "coordinates": [22.0621597, 42.7102375]}}, {"type": "Feature", "properties": {"type": "node", "id": 1845461233, "tags": {"name": "\u041c\u043e\u043c\u0438\u043d \u043a\u0430\u043c\u0435\u043d", "name:sr": "\u041c\u043e\u043c\u0438\u043d \u043a\u0430\u043c\u0435\u043d", "name:sr-Latn": "Momin kamen", "railway": "station"}}, "geometry": {"type": "Point", "coordinates": [22.0827735, 42.7528768]}}, {"type": "Feature", "properties": {"type": "node", "id": 1845458432, "tags": {"name": "\u040f\u0435\u043f", "name:en": "Dzep", "name:sr": "\u040f\u0435\u043f", "name:sr-Latn": "D\u017eep", "railway": "station"}}, "geometry": {"type": "Point", "coordinates": [22.0935531, 42.77982]}}, {"type": "Feature", "properties": {"type": "node", "id": 1855425344, "tags": {"int_name": "Djordjevo", "name": "\u0402\u043e\u0440\u0452\u0435\u0432\u043e", "name:en": "Djordjevo", "name:sr": "\u0402\u043e\u0440\u0452\u0435\u0432\u043e", "name:sr-Latn": "\u0110or\u0111evo", "railway": "station"}}, "geometry": {"type": "Point", "coordinates": [22.0128146, 42.9347319]}}, {"type": "Feature", "properties": {"type": "node", "id": 1133052267, "tags": {"name": "\u041b\u0435\u0441\u043a\u043e\u0432\u0430\u0446", "name:en": "Leskovac", "name:sr": "\u041b\u0435\u0441\u043a\u043e\u0432\u0430\u0446", "name:sr-Latn": "Leskovac", "railway": "station"}}, "geometry": {"type": "Point", "coordinates": [21.9574836, 42.9964485]}}, {"type": "Feature", "properties": {"type": "node", "id": 408156583, "tags": {"name": "\u0413\u0440\u0434\u0435\u043b\u0438\u0446\u0430", "name:en": "Grdelica", "name:sr": "\u0413\u0440\u0434\u0435\u043b\u0438\u0446\u0430", "name:sr-Latn": "Grdelica", "public_transport": "station", "railway": "station"}}, "geometry": {"type": "Point", "coordinates": [22.0572153, 42.8955235]}}, {"type": "Feature", "properties": {"type": "node", "id": 1417644030, "tags": {"name": "\u041f\u0440\u0435\u0434\u0435\u0458\u0430\u043d\u0435", "name:en": "Predejane", "name:sr": "\u041f\u0440\u0435\u0434\u0435\u0458\u0430\u043d\u0435", "name:sr-Latn": "Predejane", "public_transport": "station", "railway": "station"}}, "geometry": {"type": "Point", "coordinates": [22.129289, 42.8295859]}}, {"type": "Feature", "properties": {"type": "node", "id": 1617180087, "tags": {"name": "\u041f\u0435\u0447\u0435\u045a\u0435\u0432\u0446\u0435", "name:en": "Pecenjevce", "name:sr": "\u041f\u0435\u0447\u0435\u045a\u0435\u0432\u0446\u0435", "name:sr-Latn": "Pe\u010denjevce", "railway": "station", "source": "GNS"}}, "geometry": {"type": "Point", "coordinates": [21.9324976, 43.1001618]}}, {"type": "Feature", "properties": {"type": "node", "id": 1845452215, "tags": {"name": "\u0411\u0440\u0435\u0441\u0442\u043e\u0432\u0430\u0446", "name:sr": "\u0411\u0440\u0435\u0441\u0442\u043e\u0432\u0430\u0446", "name:sr-Latn": "Brestovac", "railway": "station"}}, "geometry": {"type": "Point", "coordinates": [21.871906, 43.1513245]}}, {"type": "Feature", "properties": {"type": "node", "id": 408157306, "tags": {"name": "\u0414\u043e\u0459\u0435\u0432\u0430\u0446", "name:en": "Doljevac", "name:sr": "\u0414\u043e\u0459\u0435\u0432\u0430\u0446", "name:sr-Latn": "Doljevac", "railway": "station"}}, "geometry": {"type": "Point", "coordinates": [21.8335793, 43.2016555]}}, {"type": "Feature", "properties": {"type": "node", "id": 470378522, "tags": {"name": "\u0421\u0442\u0430\u043d\u0438\u0447\u0435\u045a\u0435", "name:en": "Stanicenje", "name:sr": "\u0421\u0442\u0430\u043d\u0438\u0447\u0435\u045a\u0435", "name:sr-Latn": "Stani\u010denje", "population": "0", "railway": "station"}}, "geometry": {"type": "Point", "coordinates": [22.5121417, 43.2132486]}}, {"type": "Feature", "properties": {"type": "node", "id": 470377863, "tags": {"name": "\u0411\u043e\u0436\u0443\u0440\u0430\u0442", "name:sr": "\u0411\u043e\u0436\u0443\u0440\u0430\u0442", "name:sr-Latn": "Bo\u017eurat", "population": "0", "railway": "station"}}, "geometry": {"type": "Point", "coordinates": [22.5991023, 43.1424385]}}, {"type": "Feature", "properties": {"type": "node", "id": 1845422406, "tags": {"name": "\u041f\u0438\u0440\u043e\u0442", "name:de": "Pirot", "name:en": "Pirot", "name:ru": "\u041f\u0438\u0440\u043e\u0442", "name:sr": "\u041f\u0438\u0440\u043e\u0442", "name:sr-Latn": "Pirot", "railway": "station"}}, "geometry": {"type": "Point", "coordinates": [22.5864658, 43.1699646]}}, {"type": "Feature", "properties": {"type": "node", "id": 1948654864, "tags": {"name": "\u0421\u0440\u0435\u045b\u043a\u043e\u0432\u0430\u0446", "name:en": "Sreckovac", "name:sr": "\u0421\u0440\u0435\u045b\u043a\u043e\u0432\u0430\u0446", "name:sr-Latn": "Sre\u0107kovac", "railway": "station"}}, "geometry": {"type": "Point", "coordinates": [22.721114, 43.0311403]}}, {"type": "Feature", "properties": {"type": "node", "id": 470378479, "tags": {"name": "\u0421\u0443\u043a\u043e\u0432\u043e", "name:en": "Sukovo", "name:sr": "\u0421\u0443\u043a\u043e\u0432\u043e", "name:sr-Latn": "Sukovo", "population": "0", "railway": "station"}}, "geometry": {"type": "Point", "coordinates": [22.6681171, 43.0722005]}}, {"type": "Feature", "properties": {"type": "node", "id": 2294504381, "tags": {"name": "\u0414\u0438\u043c\u0438\u0442\u0440\u043e\u0432\u0433\u0440\u0430\u0434", "name:en": "Dimitrovgrad", "name:sr": "\u0414\u0438\u043c\u0438\u0442\u0440\u043e\u0432\u0433\u0440\u0430\u0434", "name:sr-Latn": "Dimitrovgrad", "public_transport": "station", "railway": "station"}}, "geometry": {"type": "Point", "coordinates": [22.7675165, 43.0118835]}}, {"type": "Feature", "properties": {"type": "node", "id": 1560437283, "tags": {"name": "\u041f\u0440\u0438\u0458\u0435\u043f\u043e\u0459\u0435 \u0442\u0435\u0440\u0435\u0442\u043d\u0430", "name:sr": "\u041f\u0440\u0438\u0458\u0435\u043f\u043e\u0459\u0435 \u0442\u0435\u0440\u0435\u0442\u043d\u0430", "name:sr-Latn": "Prijepolje teretna", "public_transport": "station", "railway": "station"}}, "geometry": {"type": "Point", "coordinates": [19.6343113, 43.3651028]}}, {"type": "Feature", "properties": {"type": "node", "id": 312491162, "tags": {"name": "\u041f\u0440\u0438\u0458\u0435\u043f\u043e\u0459\u0435", "name:de": "Prijepolje", "name:en": "Prijepolje", "name:sr": "\u041f\u0440\u0438\u0458\u0435\u043f\u043e\u0459\u0435", "name:sr-Latn": "Prijepolje", "public_transport": "station", "railway": "station"}}, "geometry": {"type": "Point", "coordinates": [19.6399551, 43.3928239]}}, {"type": "Feature", "properties": {"type": "node", "id": 7738178100, "tags": {"name": "\u041f\u0440\u0438\u0431\u043e\u0458\u0441\u043a\u0430 \u0411\u0430\u045a\u0430", "name:sr": "\u041f\u0440\u0438\u0431\u043e\u0458\u0441\u043a\u0430 \u0411\u0430\u045a\u0430", "name:sr-Latn": "Pribojska Banja", "public_transport": "station", "railway": "station"}}, "geometry": {"type": "Point", "coordinates": [19.5736183, 43.5276224]}}, {"type": "Feature", "properties": {"type": "node", "id": 1414372177, "tags": {"name": "\u0411\u0438\u0441\u0442\u0440\u0438\u0446\u0430 \u043d\u0430 \u041b\u0438\u043c\u0443", "name:de": "Bistrica", "name:en": "Bistrica na Limu", "name:fr": "Bistrica", "name:sr": "\u0411\u0438\u0441\u0442\u0440\u0438\u0446\u0430 \u043d\u0430 \u041b\u0438\u043c\u0443", "name:sr-Latn": "Bistrica na Limu", "railway": "station"}}, "geometry": {"type": "Point", "coordinates": [19.6464606, 43.4830995]}}, {"type": "Feature", "properties": {"type": "node", "id": 312491163, "tags": {"name": "\u041f\u0440\u0438\u0431\u043e\u0458", "name:sr": "\u041f\u0440\u0438\u0431\u043e\u0458", "name:sr-Latn": "Priboj", "public_transport": "stop_position", "railway": "stop", "train": "yes"}}, "geometry": {"type": "Point", "coordinates": [19.5247973, 43.5817642]}}, {"type": "Feature", "properties": {"type": "node", "id": 2766946804, "tags": {"name": "\u041f\u0440\u0438\u0431\u043e\u0458", "name:sr": "\u041f\u0440\u0438\u0431\u043e\u0458", "name:sr-Latn": "Priboj", "public_transport": "station", "railway": "station"}}, "geometry": {"type": "Point", "coordinates": [19.5249285, 43.5818895]}}, {"type": "Feature", "properties": {"type": "node", "id": 1845256133, "tags": {"name": "\u041f\u043e\u0459\u0438\u0446\u0435", "name:sr": "\u041f\u043e\u0459\u0438\u0446\u0435", "name:sr-Latn": "Poljice", "public_transport": "halt", "railway": "station", "train": "yes"}}, "geometry": {"type": "Point", "coordinates": [19.5427498, 43.5632677]}}, {"type": "Feature", "properties": {"type": "node", "id": 1845258109, "tags": {"name": "\u0411\u0440\u043e\u0434\u0430\u0440\u0435\u0432\u043e", "name:sr": "\u0411\u0440\u043e\u0434\u0430\u0440\u0435\u0432\u043e", "name:sr-Latn": "Brodarevo", "public_transport": "station", "railway": "station"}}, "geometry": {"type": "Point", "coordinates": [19.7237259, 43.2436976]}}, {"type": "Feature", "properties": {"type": "node", "id": 1918196475, "tags": {"name": "\u0408\u0430\u0431\u043b\u0430\u043d\u0438\u0446\u0430", "name:sr": "\u0408\u0430\u0431\u043b\u0430\u043d\u0438\u0446\u0430", "name:sr-Latn": "Jablanica", "railway": "station", "wheelchair": "no"}}, "geometry": {"type": "Point", "coordinates": [19.5204203, 43.7008906]}}, {"type": "Feature", "properties": {"type": "node", "id": 7775783138, "tags": {"name": "\u0420\u0438\u0431\u043d\u0438\u0446\u0430 \u0417\u043b\u0430\u0442\u0438\u0431\u043e\u0440\u0441\u043a\u0430", "name:sr": "\u0420\u0438\u0431\u043d\u0438\u0446\u0430 \u0417\u043b\u0430\u0442\u0438\u0431\u043e\u0440\u0441\u043a\u0430", "name:sr-Latn": "Ribnica Zlatiborska", "public_transport": "stop_position", "railway": "stop", "train": "yes", "wheelchair": "no"}}, "geometry": {"type": "Point", "coordinates": [19.5731644, 43.7080883]}}, {"type": "Feature", "properties": {"type": "node", "id": 1598918645, "tags": {"name": "\u0417\u043b\u0430\u0442\u0438\u0431\u043e\u0440", "name:sr": "\u0417\u043b\u0430\u0442\u0438\u0431\u043e\u0440", "name:sr-Latn": "Zlatibor", "railway": "station", "wheelchair": "no"}}, "geometry": {"type": "Point", "coordinates": [19.6144021, 43.7350387]}}, {"type": "Feature", "properties": {"type": "node", "id": 454501320, "tags": {"name": "\u041c\u043e\u043a\u0440\u0430 \u0413\u043e\u0440\u0430", "name:sr": "\u041c\u043e\u043a\u0440\u0430 \u0413\u043e\u0440\u0430", "name:sr-Latn": "Mokra Gora", "public_transport": "station", "railway": "station", "tourism": "attraction", "train": "yes", "wikidata": "Q45400941", "wikipedia": "sr:\u0416\u0435\u043b\u0435\u0437\u043d\u0438\u0447\u043a\u0430 \u0441\u0442\u0430\u043d\u0438\u0446\u0430 \u041c\u043e\u043a\u0440\u0430 \u0413\u043e\u0440\u0430"}}, "geometry": {"type": "Point", "coordinates": [19.5069817, 43.7924171]}}, {"type": "Feature", "properties": {"type": "node", "id": 1419586639, "tags": {"name": "\u0413\u043e\u043b\u0443\u0431\u0438\u045b\u0438", "name:sr": "\u0413\u043e\u043b\u0443\u0431\u0438\u045b\u0438", "name:sr-Latn": "Golubi\u0107i", "public_transport": "station", "railway": "station", "tourism": "attraction", "wikidata": "Q45409204", "wikipedia": "sr:\u0416\u0435\u043b\u0435\u0437\u043d\u0438\u0447\u043a\u0430 \u0441\u0442\u0430\u043d\u0438\u0446\u0430 \u0413\u043e\u043b\u0443\u0431\u0438\u045b\u0438"}}, "geometry": {"type": "Point", "coordinates": [19.5211245, 43.7972375]}}, {"type": "Feature", "properties": {"type": "node", "id": 1419586640, "tags": {"name": "\u0408\u0430\u0442\u0430\u0440\u0435", "name:sr": "\u0408\u0430\u0442\u0430\u0440\u0435", "name:sr-Latn": "Jatare", "public_transport": "station", "railway": "station", "tourism": "attraction", "wikidata": "Q45407025", "wikipedia": "sr:\u0416\u0435\u043b\u0435\u0437\u043d\u0438\u0447\u043a\u0430 \u0441\u0442\u0430\u043d\u0438\u0446\u0430 \u0408\u0430\u0442\u0430\u0440\u0435"}}, "geometry": {"type": "Point", "coordinates": [19.5182616, 43.8028689]}}, {"type": "Feature", "properties": {"type": "node", "id": 1419586643, "tags": {"name": "\u0428\u0430\u0440\u0433\u0430\u043d-\u0412\u0438\u0442\u0430\u0441\u0438", "name:sr": "\u0428\u0430\u0440\u0433\u0430\u043d-\u0412\u0438\u0442\u0430\u0441\u0438", "name:sr-Latn": "\u0160argan-Vitasi", "public_transport": "station", "railway": "station", "tourism": "attraction", "wikidata": "Q45409136", "wikipedia": "sr:\u0416\u0435\u043b\u0435\u0437\u043d\u0438\u0447\u043a\u0430 \u0441\u0442\u0430\u043d\u0438\u0446\u0430 \u0428\u0430\u0440\u0433\u0430\u043d \u0412\u0438\u0442\u0430\u0441\u0438"}}, "geometry": {"type": "Point", "coordinates": [19.5428019, 43.8300229]}}, {"type": "Feature", "properties": {"type": "node", "id": 315237979, "tags": {"name": "\u0411\u0440\u0430\u043d\u0435\u0448\u0446\u0438", "name:sr": "\u0411\u0440\u0430\u043d\u0435\u0448\u0446\u0438", "name:sr-Latn": "Brane\u0161ci", "railway": "station", "wheelchair": "no"}}, "geometry": {"type": "Point", "coordinates": [19.6816796, 43.7792339]}}, {"type": "Feature", "properties": {"type": "node", "id": 1711847690, "tags": {"name": "\u0421\u0443\u0448\u0438\u0446\u0430", "name:en": "Susica", "name:sr": "\u0421\u0443\u0448\u0438\u0446\u0430", "name:sr-Latn": "Su\u0161ica", "railway": "station", "wheelchair": "no"}}, "geometry": {"type": "Point", "coordinates": [19.7528735, 43.7887631]}}, {"type": "Feature", "properties": {"type": "node", "id": 1946075818, "tags": {"name": "\u0421\u0442\u0430\u043f\u0430\u0440\u0438", "name:sr": "\u0421\u0442\u0430\u043f\u0430\u0440\u0438", "name:sr-Latn": "Stapari", "railway": "station", "wheelchair": "no"}}, "geometry": {"type": "Point", "coordinates": [19.7623144, 43.8457043]}}, {"type": "Feature", "properties": {"type": "node", "id": 7476461208, "tags": {"name": "\u0423\u0436\u0438\u0446\u0435 \u0442\u0435\u0440\u0435\u0442\u043d\u0430", "name:sr": "\u0423\u0436\u0438\u0446\u0435 \u0442\u0435\u0440\u0435\u0442\u043d\u0430", "name:sr-Latn": "U\u017eice teretna", "public_transport": "stop_position", "railway": "stop", "train": "yes"}}, "geometry": {"type": "Point", "coordinates": [19.8584157, 43.8466886]}}, {"type": "Feature", "properties": {"type": "node", "id": 1845238410, "tags": {"name": "\u0423\u0437\u0438\u045b\u0438", "name:sr": "\u0423\u0437\u0438\u045b\u0438", "name:sr-Latn": "Uzi\u0107i", "public_transport": "station", "railway": "station"}}, "geometry": {"type": "Point", "coordinates": [19.9807784, 43.8122965]}}, {"type": "Feature", "properties": {"type": "node", "id": 354100557, "tags": {"name": "\u041f\u043e\u0436\u0435\u0433\u0430", "name:en": "Pozega", "name:sr": "\u041f\u043e\u0436\u0435\u0433\u0430", "name:sr-Latn": "Po\u017eega", "railway": "station"}}, "geometry": {"type": "Point", "coordinates": [20.028905, 43.8403495]}}, {"type": "Feature", "properties": {"type": "node", "id": 315237907, "tags": {"name": "\u0423\u0436\u0438\u0446\u0435", "name:en": "Uzice", "name:sr": "\u0423\u0436\u0438\u0446\u0435", "name:sr-Latn": "U\u017eice", "railway": "station", "wheelchair": "no"}}, "geometry": {"type": "Point", "coordinates": [19.8393099, 43.8535616]}}, {"type": "Feature", "properties": {"type": "node", "id": 7542275676, "tags": {"name": "\u041a\u043e\u0441\u0458\u0435\u0440\u0438\u045b", "public_transport": "stop_position", "railway": "stop", "train": "yes"}}, "geometry": {"type": "Point", "coordinates": [19.919388, 44.0014095]}}, {"type": "Feature", "properties": {"type": "node", "id": 1843675132, "tags": {"name": "\u041a\u0430\u043b\u0435\u043d\u0438\u045b", "name:sr": "\u041a\u0430\u043b\u0435\u043d\u0438\u045b", "name:sr-Latn": "Kaleni\u0107", "railway": "station"}}, "geometry": {"type": "Point", "coordinates": [19.989643, 43.9274779]}}, {"type": "Feature", "properties": {"type": "node", "id": 1843815894, "tags": {"name": "\u0414\u0440\u0430\u0433\u0430\u0447\u0435\u0432\u043e", "name:sr": "\u0414\u0440\u0430\u0433\u0430\u0447\u0435\u0432\u043e", "name:sr-Latn": "Draga\u010devo", "railway": "station"}}, "geometry": {"type": "Point", "coordinates": [20.1144802, 43.880676]}}, {"type": "Feature", "properties": {"type": "node", "id": 1668037572, "tags": {"name": "\u0417\u0432\u043e\u0440\u043d\u0438\u043a", "name:de": "Zvornik", "name:en": "Zvornik", "name:sr": "\u0417\u0432\u043e\u0440\u043d\u0438\u043a", "name:sr-Latn": "Zvornik", "public_transport": "station", "railway": "station"}}, "geometry": {"type": "Point", "coordinates": [19.1215998, 44.4003018]}}, {"type": "Feature", "properties": {"type": "node", "id": 1674630674, "tags": {"name": "\u0411\u0440\u0430\u0441\u0438\u043d\u0430", "name:en": "Brasina", "name:sr": "\u0411\u0440\u0430\u0441\u0438\u043d\u0430", "name:sr-Latn": "Brasina", "public_transport": "station", "railway": "station"}}, "geometry": {"type": "Point", "coordinates": [19.14724, 44.4598899]}}, {"type": "Feature", "properties": {"type": "node", "id": 1629561085, "tags": {"disused": "yes", "name": "\u041a\u043e\u0432\u0438\u0459\u0430\u0447\u0430", "name:en": "Koviljaca", "name:sr": "\u041a\u043e\u0432\u0438\u0459\u0430\u0447\u0430", "name:sr-Latn": "Kovilja\u010da", "railway": "station", "source": "GNS"}}, "geometry": {"type": "Point", "coordinates": [19.1619706, 44.5171004]}}, {"type": "Feature", "properties": {"type": "node", "id": 5884494190, "tags": {"name": "\u041b\u043e\u0437\u043d\u0438\u0446\u0430", "name:sr": "\u041b\u043e\u0437\u043d\u0438\u0446\u0430", "name:sr-Latn": "Loznica", "public_transport": "station", "railway": "station", "train": "yes"}}, "geometry": {"type": "Point", "coordinates": [19.215995, 44.5354651]}}, {"type": "Feature", "properties": {"type": "node", "id": 1639094937, "tags": {"name": "\u0420\u0430\u0436\u0430\u043d\u0430", "name:sr": "\u0420\u0430\u0436\u0430\u043d\u0430", "name:sr-Latn": "Ra\u017eana", "railway": "station"}}, "geometry": {"type": "Point", "coordinates": [19.9076138, 44.0611519]}}, {"type": "Feature", "properties": {"type": "node", "id": 1639094888, "tags": {"name": "\u0421\u0430\u043c\u0430\u0440\u0438", "name:sr": "\u0421\u0430\u043c\u0430\u0440\u0438", "name:sr-Latn": "Samari", "railway": "station"}}, "geometry": {"type": "Point", "coordinates": [19.8575834, 44.1244035]}}, {"type": "Feature", "properties": {"type": "node", "id": 1843655859, "tags": {"name": "\u0414\u0438\u0432\u0446\u0438", "name:sr": "\u0414\u0438\u0432\u0446\u0438", "name:sr-Latn": "Divci", "railway": "station"}}, "geometry": {"type": "Point", "coordinates": [20.0279311, 44.300552]}}, {"type": "Feature", "properties": {"type": "node", "id": 1843656461, "tags": {"int_name": "Mladjevo", "name": "\u041c\u043b\u0430\u0452\u0435\u0432\u043e", "name:sr": "\u041c\u043b\u0430\u0452\u0435\u0432\u043e", "name:sr-Latn": "Mla\u0111evo", "railway": "station"}}, "geometry": {"type": "Point", "coordinates": [20.0630811, 44.3124896]}}, {"type": "Feature", "properties": {"type": "node", "id": 1843655568, "tags": {"name": "\u0421\u043b\u043e\u0432\u0430\u0446", "name:sr": "\u0421\u043b\u043e\u0432\u0430\u0446", "name:sr-Latn": "Slovac", "public_transport": "station", "railway": "station"}}, "geometry": {"type": "Point", "coordinates": [20.0929318, 44.3471764]}}, {"type": "Feature", "properties": {"type": "node", "id": 7837454512, "tags": {"name": "\u0421\u043b\u043e\u0432\u0430\u0446", "name:sr": "\u0421\u043b\u043e\u0432\u0430\u0446", "name:sr-Latn": "Slovac", "public_transport": "stop_position", "railway": "stop", "train": "yes"}}, "geometry": {"type": "Point", "coordinates": [20.0932555, 44.3471609]}}, {"type": "Feature", "properties": {"type": "node", "id": 5884494195, "tags": {"name": "\u041b\u0435\u0448\u043d\u0438\u0446\u0430", "name:sr": "\u041b\u0435\u0448\u043d\u0438\u0446\u0430", "name:sr-Latn": "Le\u0161nica", "public_transport": "station", "railway": "station", "train": "yes"}}, "geometry": {"type": "Point", "coordinates": [19.3212032, 44.656531]}}, {"type": "Feature", "properties": {"type": "node", "id": 5884494197, "tags": {"name": "\u041f\u0440\u045a\u0430\u0432\u043e\u0440 \u041c\u0430\u0447\u0432\u0430\u043d\u0441\u043a\u0438", "name:sr": "\u041f\u0440\u045a\u0430\u0432\u043e\u0440 \u041c\u0430\u0447\u0432\u0430\u043d\u0441\u043a\u0438", "name:sr-Latn": "Prnjavor Ma\u010dvanski", "public_transport": "station", "railway": "station", "train": "yes"}}, "geometry": {"type": "Point", "coordinates": [19.3770188, 44.6965335]}}, {"type": "Feature", "properties": {"type": "node", "id": 5884494199, "tags": {"name": "\u041f\u0435\u0442\u043b\u043e\u0432\u0430\u0447\u0430", "name:sr": "\u041f\u0435\u0442\u043b\u043e\u0432\u0430\u0447\u0430", "name:sr-Latn": "Petlova\u010da", "public_transport": "station", "railway": "station", "train": "yes"}}, "geometry": {"type": "Point", "coordinates": [19.4481723, 44.7285369]}}, {"type": "Feature", "properties": {"type": "node", "id": 5884494201, "tags": {"name": "\u0428\u0442\u0438\u0442\u0430\u0440", "name:sr": "\u0428\u0442\u0438\u0442\u0430\u0440", "name:sr-Latn": "\u0160titar", "public_transport": "station", "railway": "station", "train": "yes"}}, "geometry": {"type": "Point", "coordinates": [19.6102468, 44.7802584]}}, {"type": "Feature", "properties": {"type": "node", "id": 986758532, "tags": {"name": "\u0428\u0430\u0431\u0430\u0446", "name:de": "\u0160abac", "name:en": "Sabac", "name:hr": "\u0160abac", "name:hu": "Szab\u00e1cs", "name:ru": "\u0428\u0430\u0431\u0430\u0446", "name:sl": "\u0160abac", "name:sr": "\u0428\u0430\u0431\u0430\u0446", "name:sr-Latn": "\u0160abac", "old_name:de": "Schabatz;Sabatsch", "railway": "station"}}, "geometry": {"type": "Point", "coordinates": [19.7014928, 44.7589136]}}, {"type": "Feature", "properties": {"type": "node", "id": 1837471213, "tags": {"name": "\u041f\u043b\u0430\u0442\u0438\u0447\u0435\u0432\u043e", "name:sr": "\u041f\u043b\u0430\u0442\u0438\u0447\u0435\u0432\u043e", "name:sr-Latn": "Plati\u010devo", "railway": "station"}}, "geometry": {"type": "Point", "coordinates": [19.7788758, 44.8294772]}}, {"type": "Feature", "properties": {"type": "node", "id": 1430378581, "tags": {"name": "\u0428\u0438\u0434", "name:bs": "\u0160id", "name:de": "Schid", "name:en": "\u0160id", "name:hu": "Sid", "name:ru": "\u0428\u0438\u0434", "name:sr": "\u0428\u0438\u0434", "name:sr-Latn": "\u0160id", "public_transport": "station", "railway": "station", "train": "yes"}}, "geometry": {"type": "Point", "coordinates": [19.2215461, 45.1175468]}}, {"type": "Feature", "properties": {"type": "node", "id": 312077630, "tags": {"name": "\u041a\u0430\u0440\u0430\u0432\u0443\u043a\u043e\u0432\u043e", "name:hu": "B\u00e1csordas", "name:sr": "\u041a\u0430\u0440\u0430\u0432\u0443\u043a\u043e\u0432\u043e", "name:sr-Latn": "Karavukovo", "railway": "station"}}, "geometry": {"type": "Point", "coordinates": [19.2084892, 45.5017762]}}, {"type": "Feature", "properties": {"type": "node", "id": 3814453688, "tags": {"name": "\u041e\u045f\u0430\u0446\u0438", "name:en": "Odzaci", "name:hu": "H\u00f3ds\u00e1g", "name:sr": "\u041e\u045f\u0430\u0446\u0438", "name:sr-Latn": "Od\u017eaci", "public_transport": "station", "railway": "station", "train": "yes"}}, "geometry": {"type": "Point", "coordinates": [19.2737473, 45.5144084]}}, {"type": "Feature", "properties": {"type": "node", "id": 312075966, "tags": {"name": "\u0411\u043e\u0433\u043e\u0458\u0435\u0432\u043e", "name:hu": "Gombos", "name:sr": "\u0411\u043e\u0433\u043e\u0458\u0435\u0432\u043e", "name:sr-Latn": "Bogojevo", "railway": "station"}}, "geometry": {"type": "Point", "coordinates": [19.1038981, 45.5447549]}}, {"type": "Feature", "properties": {"type": "node", "id": 312077554, "tags": {"name": "\u0411\u043e\u0433\u043e\u0458\u0435\u0432\u043e \u0421\u0435\u043b\u043e", "name:hu": "Gombos falu", "name:sr": "\u0411\u043e\u0433\u043e\u0458\u0435\u0432\u043e \u0421\u0435\u043b\u043e", "name:sr-Latn": "Bogojevo Selo", "railway": "station"}}, "geometry": {"type": "Point", "coordinates": [19.1379638, 45.5328745]}}, {"type": "Feature", "properties": {"type": "node", "id": 312075543, "tags": {"name": "\u0421\u043e\u043d\u0442\u0430", "name:sr": "\u0421\u043e\u043d\u0442\u0430", "name:sr-Latn": "Sonta", "railway": "station"}}, "geometry": {"type": "Point", "coordinates": [19.1106131, 45.5994517]}}, {"type": "Feature", "properties": {"type": "node", "id": 311981358, "tags": {"name": "\u041f\u0440\u0438\u0433\u0440\u0435\u0432\u0438\u0446\u0430", "name:sr": "\u041f\u0440\u0438\u0433\u0440\u0435\u0432\u0438\u0446\u0430", "name:sr-Latn": "Prigrevica", "railway": "station"}}, "geometry": {"type": "Point", "coordinates": [19.0973335, 45.6758755]}}, {"type": "Feature", "properties": {"type": "node", "id": 1798237893, "tags": {"name": "\u041a\u0443\u043a\u0443\u0458\u0435\u0432\u0446\u0438 - \u0415\u0440\u0434\u0435\u0432\u0438\u043a", "name:en": "Kukujevci - Erdevik", "name:sr": "\u041a\u0443\u043a\u0443\u0458\u0435\u0432\u0446\u0438 - \u0415\u0440\u0434\u0435\u0432\u0438\u043a", "name:sr-Latn": "Kukujevci - Erdevik", "railway": "station"}}, "geometry": {"type": "Point", "coordinates": [19.3426217, 45.0623743]}}, {"type": "Feature", "properties": {"type": "node", "id": 1798243105, "tags": {"name": "\u041c\u0430\u0440\u0442\u0438\u043d\u0446\u0438", "name:hu": "Sz\u00e1vaszentm\u00e1rton", "name:sr": "\u041c\u0430\u0440\u0442\u0438\u043d\u0446\u0438", "name:sr-Latn": "Martinci", "railway": "station"}}, "geometry": {"type": "Point", "coordinates": [19.4678265, 45.0212056]}}, {"type": "Feature", "properties": {"type": "node", "id": 2191349501, "tags": {"name": "\u0421\u0440\u0435\u043c\u0441\u043a\u0430 \u041c\u0438\u0442\u0440\u043e\u0432\u0438\u0446\u0430", "name:sr": "\u0421\u0440\u0435\u043c\u0441\u043a\u0430 \u041c\u0438\u0442\u0440\u043e\u0432\u0438\u0446\u0430", "name:sr-Latn": "Sremska Mitrovica", "public_transport": "stop_position", "railway": "stop", "train": "yes"}}, "geometry": {"type": "Point", "coordinates": [19.6136772, 44.9824122]}}, {"type": "Feature", "properties": {"type": "node", "id": 2566003562, "tags": {"name": "\u0421\u0440\u0435\u043c\u0441\u043a\u0430 \u041c\u0438\u0442\u0440\u043e\u0432\u0438\u0446\u0430", "name:sr": "\u0421\u0440\u0435\u043c\u0441\u043a\u0430 \u041c\u0438\u0442\u0440\u043e\u0432\u0438\u0446\u0430", "name:sr-Latn": "Sremska Mitrovica", "public_transport": "stop_position", "railway": "stop", "train": "yes"}}, "geometry": {"type": "Point", "coordinates": [19.613663, 44.9824663]}}, {"type": "Feature", "properties": {"type": "node", "id": 312014188, "tags": {"name": "\u0424\u0443\u0442\u043e\u0433", "name:hu": "Futak", "name:sr": "\u0424\u0443\u0442\u043e\u0433", "name:sr-Latn": "Futog", "railway": "station"}}, "geometry": {"type": "Point", "coordinates": [19.7008112, 45.2547257]}}, {"type": "Feature", "properties": {"type": "node", "id": 1430378580, "tags": {"name": "\u0412\u043e\u0433\u0430\u045a", "name:sr": "\u0412\u043e\u0433\u0430\u045a", "name:sr-Latn": "Voganj", "railway": "station"}}, "geometry": {"type": "Point", "coordinates": [19.7186738, 44.9884902]}}, {"type": "Feature", "properties": {"type": "node", "id": 1837468969, "tags": {"int_name": "Budjanovci", "name": "\u0411\u0443\u0452\u0430\u043d\u043e\u0432\u0446\u0438", "name:sr": "\u0411\u0443\u0452\u0430\u043d\u043e\u0432\u0446\u0438", "name:sr-Latn": "Bu\u0111anovci", "railway": "station"}}, "geometry": {"type": "Point", "coordinates": [19.85625, 44.8973153]}}, {"type": "Feature", "properties": {"type": "node", "id": 313236386, "tags": {"name": "\u0420\u0443\u043c\u0430", "name:hu": "Ruma", "name:sr": "\u0420\u0443\u043c\u0430", "name:sr-Latn": "Ruma", "public_transport": "station", "railway": "station"}}, "geometry": {"type": "Point", "coordinates": [19.8269419, 44.9894125]}}, {"type": "Feature", "properties": {"type": "node", "id": 1430378578, "tags": {"name": "\u041f\u0443\u0442\u0438\u043d\u0446\u0438", "name:sr": "\u041f\u0443\u0442\u0438\u043d\u0446\u0438", "name:sr-Latn": "Putinci", "railway": "station"}}, "geometry": {"type": "Point", "coordinates": [19.9661965, 44.9806499]}}, {"type": "Feature", "properties": {"type": "node", "id": 5806352304, "tags": {"name": "\u0413\u043e\u043b\u0443\u0431\u0438\u043d\u0446\u0438", "name:en": "Golubinci", "name:sr": "\u0413\u043e\u043b\u0443\u0431\u0438\u043d\u0446\u0438", "name:sr-Latn": "Golubinci", "railway": "station"}}, "geometry": {"type": "Point", "coordinates": [20.051528, 45.0162234]}}, {"type": "Feature", "properties": {"type": "node", "id": 2966093688, "tags": {"addr:city": "Novi Sad", "addr:country": "RS", "addr:housenumber": "4", "addr:postcode": "21000", "addr:street": "\u0411\u0443\u043b\u0435\u0432\u0430\u0440 \u0408\u0430\u0448\u0435 \u0422\u043e\u043c\u0438\u045b\u0430", "name": "\u041d\u043e\u0432\u0438 \u0421\u0430\u0434", "name:sr": "\u041d\u043e\u0432\u0438 \u0421\u0430\u0434", "name:sr-Latn": "Novi Sad", "railway": "station", "wheelchair": "no"}}, "geometry": {"type": "Point", "coordinates": [19.8293645, 45.2658705]}}, {"type": "Feature", "properties": {"type": "node", "id": 1780090063, "tags": {"disused:railway": "halt", "name": "\u0411\u0443\u0434\u0438\u0441\u0430\u0432\u0430", "name:en": "Budisava", "name:sr": "\u0411\u0443\u0434\u0438\u0441\u0430\u0432\u0430", "name:sr-Latn": "Budisava", "public_transport": "station", "railway": "station", "train": "yes"}}, "geometry": {"type": "Point", "coordinates": [19.9964954, 45.28707]}}, {"type": "Feature", "properties": {"type": "node", "id": 312012597, "tags": {"addr:city": "\u0413\u0430\u0458\u0434\u043e\u0431\u0440\u0430", "addr:street": "\u0416\u0435\u043b\u0435\u0437\u043d\u0438\u0447\u043a\u0430", "name": "\u0413\u0430\u0458\u0434\u043e\u0431\u0440\u0430", "name:hu": "Sz\u00e9pliget", "name:sr": "\u0413\u0430\u0458\u0434\u043e\u0431\u0440\u0430", "name:sr-Latn": "Gajdobra", "railway": "station"}}, "geometry": {"type": "Point", "coordinates": [19.456257, 45.3565232]}}, {"type": "Feature", "properties": {"type": "node", "id": 312012490, "tags": {"name": "\u0420\u0430\u0442\u043a\u043e\u0432\u043e", "name:hu": "Parip\u00e1s", "name:sr": "\u0420\u0430\u0442\u043a\u043e\u0432\u043e", "name:sr-Latn": "Ratkovo", "railway": "station"}}, "geometry": {"type": "Point", "coordinates": [19.326947, 45.4481747]}}, {"type": "Feature", "properties": {"type": "node", "id": 312014084, "tags": {"name": "\u0411\u0430\u0447\u043a\u0438 \u041c\u0430\u0433\u043b\u0438\u045b", "name:sr": "\u0411\u0430\u0447\u043a\u0438 \u041c\u0430\u0433\u043b\u0438\u045b", "name:sr-Latn": "Ba\u010dki Magli\u0107", "railway": "station"}}, "geometry": {"type": "Point", "coordinates": [19.5364535, 45.3517035]}}, {"type": "Feature", "properties": {"type": "node", "id": 7282483391, "tags": {"name": "\u0411\u0430\u0447\u043a\u0438 \u041f\u0435\u0442\u0440\u043e\u0432\u0430\u0446 - \u0413\u043b\u043e\u0436\u0430\u043d", "name:sr": "\u0411\u0430\u0447\u043a\u0438 \u041f\u0435\u0442\u0440\u043e\u0432\u0430\u0446 - \u0413\u043b\u043e\u0436\u0430\u043d", "name:sr-Latn": "Ba\u010dki Petrovac - Glo\u017ean", "railway": "station"}}, "geometry": {"type": "Point", "coordinates": [19.5820533, 45.3289741]}}, {"type": "Feature", "properties": {"type": "node", "id": 1432227974, "tags": {"name": "\u0417\u043c\u0430\u0458\u0435\u0432\u043e", "name:en": "Zmajevo", "name:sr": "\u0417\u043c\u0430\u0458\u0435\u0432\u043e", "name:sr-Latn": "Zmajevo", "railway": "station"}}, "geometry": {"type": "Point", "coordinates": [19.673566, 45.4599482]}}, {"type": "Feature", "properties": {"type": "node", "id": 311987527, "tags": {"name": "\u0421\u0438\u0432\u0430\u0446", "name:hu": "Sziv\u00e1c", "name:sr": "\u0421\u0438\u0432\u0430\u0446", "name:sr-Latn": "Sivac", "railway": "station"}}, "geometry": {"type": "Point", "coordinates": [19.3779905, 45.6931334]}}, {"type": "Feature", "properties": {"type": "node", "id": 1294778091, "tags": {"name": "\u0426\u0440\u0432\u0435\u043d\u043a\u0430", "name:hu": "Cservenka", "name:sr": "\u0426\u0440\u0432\u0435\u043d\u043a\u0430", "name:sr-Latn": "Crvenka", "railway": "station"}}, "geometry": {"type": "Point", "coordinates": [19.4517124, 45.650935]}}, {"type": "Feature", "properties": {"type": "node", "id": 311990865, "tags": {"name": "\u041a\u0443\u043b\u0430", "name:en": "Kula", "name:hu": "Kula", "name:sr": "\u041a\u0443\u043b\u0430", "name:sr-Latn": "Kula", "railway": "station"}}, "geometry": {"type": "Point", "coordinates": [19.5152263, 45.6044465]}}, {"type": "Feature", "properties": {"type": "node", "id": 295392684, "tags": {"name": "\u0412\u0440\u0431\u0430\u0441", "name:sr": "\u0412\u0440\u0431\u0430\u0441", "name:sr-Latn": "Vrbas", "railway": "station"}}, "geometry": {"type": "Point", "coordinates": [19.6233725, 45.5734156]}}, {"type": "Feature", "properties": {"type": "node", "id": 1829580885, "tags": {"name": "\u041b\u043e\u0432\u045b\u0435\u043d\u0430\u0446", "name:en": "Lovcenac", "name:hu": "Szeghegy", "name:sr": "\u041b\u043e\u0432\u045b\u0435\u043d\u0430\u0446", "name:sr-Latn": "Lov\u0107enac", "railway": "station"}}, "geometry": {"type": "Point", "coordinates": [19.6492488, 45.6736016]}}, {"type": "Feature", "properties": {"type": "node", "id": 1888817859, "tags": {"name": "\u041a\u0438\u0441\u0430\u0447", "name:sr": "\u041a\u0438\u0441\u0430\u0447", "name:sr-Latn": "Kisa\u010d", "railway": "station"}}, "geometry": {"type": "Point", "coordinates": [19.7338946, 45.3591919]}}, {"type": "Feature", "properties": {"type": "node", "id": 1583766631, "tags": {"railway": "stop"}}, "geometry": {"type": "Point", "coordinates": [19.8329948, 45.3191969]}}, {"type": "Feature", "properties": {"type": "node", "id": 1584101575, "tags": {"railway": "stop"}}, "geometry": {"type": "Point", "coordinates": [19.8328308, 45.3192163]}}, {"type": "Feature", "properties": {"type": "node", "id": 311981047, "tags": {"name": "\u0411\u0443\u043a\u043e\u0432\u0430\u0447\u043a\u0438 \u0441\u0430\u043b\u0430\u0448\u0438", "name:sr": "\u0411\u0443\u043a\u043e\u0432\u0430\u0447\u043a\u0438 \u0441\u0430\u043b\u0430\u0448\u0438", "name:sr-Latn": "Bukova\u010dki sala\u0161i", "railway": "station"}}, "geometry": {"type": "Point", "coordinates": [19.0734959, 45.7405342]}}, {"type": "Feature", "properties": {"type": "node", "id": 311774549, "tags": {"name": "\u0421\u043e\u043c\u0431\u043e\u0440", "name:hu": "Zombor", "name:sr": "\u0421\u043e\u043c\u0431\u043e\u0440", "name:sr-Latn": "Sombor", "railway": "station"}}, "geometry": {"type": "Point", "coordinates": [19.1140701, 45.7859981]}}, {"type": "Feature", "properties": {"type": "node", "id": 1427518473, "tags": {"name": "\u041a\u0459\u0430\u0458\u0438\u045b\u0435\u0432\u043e", "name:hu": "Ker\u00e9ny", "name:sr": "\u041a\u0459\u0430\u0458\u0438\u045b\u0435\u0432\u043e", "name:sr-Latn": "Kljaji\u0107evo", "railway": "station"}}, "geometry": {"type": "Point", "coordinates": [19.2731237, 45.765441]}}, {"type": "Feature", "properties": {"type": "node", "id": 1828428565, "tags": {"name": "\u0421\u0432\u0435\u0442\u043e\u0437\u0430\u0440 \u041c\u0438\u043b\u0435\u0442\u0438\u045b", "name:sr": "\u0421\u0432\u0435\u0442\u043e\u0437\u0430\u0440 \u041c\u0438\u043b\u0435\u0442\u0438\u045b", "name:sr-Latn": "Svetozar Mileti\u0107", "railway": "station"}}, "geometry": {"type": "Point", "coordinates": [19.2098295, 45.8431437]}}, {"type": "Feature", "properties": {"type": "node", "id": 1828420391, "tags": {"name": "\u0410\u043b\u0435\u043a\u0441\u0430 \u0428\u0430\u043d\u0442\u0438\u045b", "name:en": "Aleksa Santic", "name:hu": "Babapuszta", "name:sr": "\u0410\u043b\u0435\u043a\u0441\u0430 \u0428\u0430\u043d\u0442\u0438\u045b", "name:sr-Latn": "Aleksa \u0160anti\u0107", "railway": "station"}}, "geometry": {"type": "Point", "coordinates": [19.3488783, 45.9247571]}}, {"type": "Feature", "properties": {"type": "node", "id": 1829580887, "tags": {"int_name": "Mali Idjos Polje", "name": "\u041c\u0430\u043b\u0438 \u0418\u0452\u043e\u0448 \u041f\u043e\u0459\u0435", "name:sr": "\u041c\u0430\u043b\u0438 \u0418\u0452\u043e\u0448 \u041f\u043e\u0459\u0435", "name:sr-Latn": "Mali I\u0111o\u0161 Polje", "railway": "station"}}, "geometry": {"type": "Point", "coordinates": [19.6489227, 45.7457605]}}, {"type": "Feature", "properties": {"type": "node", "id": 1070303370, "tags": {"name": "\u0411\u0430\u0447\u043a\u0430 \u0422\u043e\u043f\u043e\u043b\u0430", "name:en": "Backa Topola", "name:hu": "Topolya", "name:sr": "\u0411\u0430\u0447\u043a\u0430 \u0422\u043e\u043f\u043e\u043b\u0430", "name:sr-Latn": "Ba\u010dka Topola", "public_transport": "station", "railway": "station"}}, "geometry": {"type": "Point", "coordinates": [19.6496424, 45.8179729]}}, {"type": "Feature", "properties": {"type": "node", "id": 1199737930, "tags": {"name": "\u0416\u0435\u0434\u043d\u0438\u043a", "name:sr": "\u0416\u0435\u0434\u043d\u0438\u043a", "name:sr-Latn": "\u017dednik", "railway": "station"}}, "geometry": {"type": "Point", "coordinates": [19.6683235, 45.9398703]}}, {"type": "Feature", "properties": {"type": "node", "id": 312003988, "tags": {"name": "\u0411\u0430\u0458\u043c\u043e\u043a", "name:en": "Bajmok", "name:hu": "Bajmok", "name:sr": "\u0411\u0430\u0458\u043c\u043e\u043a", "name:sr-Latn": "Bajmok", "railway": "station"}}, "geometry": {"type": "Point", "coordinates": [19.4130931, 45.9768382]}}, {"type": "Feature", "properties": {"type": "node", "id": 1828428100, "tags": {"name": "\u0422\u0430\u0432\u0430\u043d\u043a\u0443\u0442", "name:en": "Tavankut", "name:hu": "Tavank\u00fat", "name:sr": "\u0422\u0430\u0432\u0430\u043d\u043a\u0443\u0442", "name:sr-Latn": "Tavankut", "public_transport": "station", "railway": "station"}}, "geometry": {"type": "Point", "coordinates": [19.5029825, 46.042579]}}, {"type": "Feature", "properties": {"type": "node", "id": 1829581980, "tags": {"name": "\u041d\u0430\u0443\u043c\u043e\u0432\u0438\u045b\u0435\u0432\u043e", "name:en": "Naumovicevo", "name:hu": "Somsichtanya", "name:sr": "\u041d\u0430\u0443\u043c\u043e\u0432\u0438\u045b\u0435\u0432\u043e", "name:sr-Latn": "Naumovi\u0107evo", "railway": "station"}}, "geometry": {"type": "Point", "coordinates": [19.6811931, 46.0235676]}}, {"type": "Feature", "properties": {"type": "node", "id": 1828427474, "tags": {"name": "\u0428\u0435\u0431\u0435\u0448\u0438\u045b", "name:hu": "Sebesicspuszta", "name:sr": "\u0428\u0435\u0431\u0435\u0448\u0438\u045b", "name:sr-Latn": "\u0160ebe\u0161i\u0107", "public_transport": "station", "railway": "station"}}, "geometry": {"type": "Point", "coordinates": [19.58889, 46.0846667]}}, {"type": "Feature", "properties": {"type": "node", "id": 1828420822, "tags": {"int_name": "Aleksandrovo predgradje", "name": "\u0410\u043b\u0435\u043a\u0441\u0430\u043d\u0434\u0440\u043e\u0432\u043e \u043f\u0440\u0435\u0434\u0433\u0440\u0430\u0452\u0435", "name:sr": "\u0410\u043b\u0435\u043a\u0441\u0430\u043d\u0434\u0440\u043e\u0432\u043e \u043f\u0440\u0435\u0434\u0433\u0440\u0430\u0452\u0435", "name:sr-Latn": "Aleksandrovo predgra\u0111e", "railway": "station"}}, "geometry": {"type": "Point", "coordinates": [19.6878986, 46.0663635]}}, {"type": "Feature", "properties": {"type": "node", "id": 893439322, "tags": {"name": "\u0421\u0443\u0431\u043e\u0442\u0438\u0446\u0430", "name:hu": "Szabadka", "name:pl": "Subotica", "name:sr": "\u0421\u0443\u0431\u043e\u0442\u0438\u0446\u0430", "name:sr-Latn": "Subotica", "public_transport": "station", "railway": "station", "train": "yes"}}, "geometry": {"type": "Point", "coordinates": [19.6712504, 46.1019634]}}, {"type": "Feature", "properties": {"type": "node", "id": 2194394532, "tags": {"name": "\u0421\u0443\u0431\u043e\u0442\u0438\u0446\u0430", "public_transport": "stop_position", "railway": "stop", "train": "yes"}}, "geometry": {"type": "Point", "coordinates": [19.6712892, 46.102001]}}, {"type": "Feature", "properties": {"type": "node", "id": 1828687293, "tags": {"name": "\u0411\u043e\u0433\u0430\u0440\u0430\u0448", "name:en": "Bogaras", "name:hu": "Bogaras", "name:sr": "\u0411\u043e\u0433\u0430\u0440\u0430\u0448", "name:sr-Latn": "Bogara\u0161", "railway": "station"}}, "geometry": {"type": "Point", "coordinates": [19.9273596, 45.9351898]}}, {"type": "Feature", "properties": {"type": "node", "id": 1828689194, "tags": {"name": "\u0413\u043e\u0440\u045a\u0438 \u0411\u0440\u0435\u0433", "name:en": "Gornji Breg", "name:hu": "Fels\u0151hegy", "name:sr": "\u0413\u043e\u0440\u045a\u0438 \u0411\u0440\u0435\u0433", "name:sr-Latn": "Gornji Breg", "public_transport": "station", "railway": "station"}}, "geometry": {"type": "Point", "coordinates": [20.0159286, 45.9322928]}}, {"type": "Feature", "properties": {"type": "node", "id": 7471163753, "tags": {"name": "\u0413\u043e\u0440\u045a\u0438 \u0411\u0440\u0435\u0433", "name:en": "Gornji Breg", "name:hu": "Fels\u0151hegy", "name:sr": "\u0413\u043e\u0440\u045a\u0438 \u0411\u0440\u0435\u0433", "name:sr-Latn": "Gornji Breg", "public_transport": "stop_position", "railway": "stop", "train": "yes"}}, "geometry": {"type": "Point", "coordinates": [20.0162918, 45.9321834]}}, {"type": "Feature", "properties": {"type": "node", "id": 907141616, "tags": {"name": "\u0421\u0435\u043d\u0442\u0430", "name:hu": "Zenta", "name:sr": "\u0421\u0435\u043d\u0442\u0430", "name:sr-Latn": "Senta", "railway": "station"}}, "geometry": {"type": "Point", "coordinates": [20.071685, 45.9296815]}}, {"type": "Feature", "properties": {"type": "node", "id": 1828672965, "tags": {"name": "\u0411\u0438\u043a\u043e\u0432\u043e", "name:en": "Bikovo", "name:hu": "B\u00e9kova", "name:sr": "\u0411\u0438\u043a\u043e\u0432\u043e", "name:sr-Latn": "Bikovo", "public_transport": "station", "railway": "station"}}, "geometry": {"type": "Point", "coordinates": [19.7719279, 46.0196671]}}, {"type": "Feature", "properties": {"type": "node", "id": 1828680372, "tags": {"name": "\u0413\u0430\u0431\u0440\u0438\u045b", "name:en": "Gabric", "name:hu": "V\u00f6r\u00f6segyh\u00e1za", "name:sr": "\u0413\u0430\u0431\u0440\u0438\u045b", "name:sr-Latn": "Gabri\u0107", "public_transport": "station", "railway": "station"}}, "geometry": {"type": "Point", "coordinates": [19.7948046, 46.0035313]}}, {"type": "Feature", "properties": {"type": "node", "id": 2195100302, "tags": {"name": "\u0413\u0430\u0431\u0440\u0438\u045b", "name:en": "Gabric", "name:hu": "V\u00f6r\u00f6segyh\u00e1za", "name:sr": "\u0413\u0430\u0431\u0440\u0438\u045b", "name:sr-Latn": "Gabri\u0107", "public_transport": "stop_position", "railway": "stop", "train": "yes"}}, "geometry": {"type": "Point", "coordinates": [19.7949718, 46.0037348]}}, {"type": "Feature", "properties": {"type": "node", "id": 1828683689, "tags": {"name": "\u041e\u0440\u043e\u043c", "name:en": "Orom", "name:hu": "Orom", "name:sr": "\u041e\u0440\u043e\u043c", "name:sr-Latn": "Orom", "public_transport": "station", "railway": "station"}}, "geometry": {"type": "Point", "coordinates": [19.8317736, 45.9780737]}}, {"type": "Feature", "properties": {"type": "node", "id": 1828684684, "tags": {"name": "\u0414\u043e\u043b\u0438\u043d\u0435", "name:hu": "V\u00f6lgyes", "name:sr": "\u0414\u043e\u043b\u0438\u043d\u0435", "name:sr-Latn": "Doline", "railway": "station"}}, "geometry": {"type": "Point", "coordinates": [19.8718491, 45.9580593]}}, {"type": "Feature", "properties": {"type": "node", "id": 475662921, "tags": {"name": "\u0420\u0430\u0448\u043a\u0430", "name:en": "Raska", "name:sr": "\u0420\u0430\u0448\u043a\u0430", "name:sr-Latn": "Ra\u0161ka", "railway": "station"}}, "geometry": {"type": "Point", "coordinates": [20.616678, 43.2907918]}}, {"type": "Feature", "properties": {"type": "node", "id": 475663057, "tags": {"name": "\u0420\u0443\u0434\u043d\u0438\u0446\u0430", "name:sr": "\u0420\u0443\u0434\u043d\u0438\u0446\u0430", "name:sr-Latn": "Rudnica", "railway": "station"}}, "geometry": {"type": "Point", "coordinates": [20.6808002, 43.2374142]}}, {"type": "Feature", "properties": {"type": "node", "id": 475662773, "tags": {"name": "\u0411\u0440\u0435\u0432\u043d\u0438\u043a", "name:sr": "\u0411\u0440\u0435\u0432\u043d\u0438\u043a", "name:sr-Latn": "Brevnik", "railway": "station"}}, "geometry": {"type": "Point", "coordinates": [20.6450854, 43.3558684]}}, {"type": "Feature", "properties": {"type": "node", "id": 475662644, "tags": {"name": "\u041f\u0438\u0441\u043a\u0430\u045a\u0430", "name:sr": "\u041f\u0438\u0441\u043a\u0430\u045a\u0430", "name:sr-Latn": "Piskanja", "railway": "station"}}, "geometry": {"type": "Point", "coordinates": [20.6464813, 43.3888535]}}, {"type": "Feature", "properties": {"type": "node", "id": 475662590, "tags": {"name": "\u0408\u043e\u0448\u0430\u043d\u0438\u0447\u043a\u0430 \u0411\u0430\u045a\u0430", "name:sr": "\u0408\u043e\u0448\u0430\u043d\u0438\u0447\u043a\u0430 \u0411\u0430\u045a\u0430", "name:sr-Latn": "Jo\u0161ani\u010dka Banja", "railway": "station"}}, "geometry": {"type": "Point", "coordinates": [20.6589489, 43.410719]}}, {"type": "Feature", "properties": {"type": "node", "id": 475662451, "tags": {"name": "\u0423\u0448\u045b\u0435", "name:sr": "\u0423\u0448\u045b\u0435", "name:sr-Latn": "U\u0161\u0107e", "public_transport": "station", "railway": "station"}}, "geometry": {"type": "Point", "coordinates": [20.6243013, 43.4654872]}}, {"type": "Feature", "properties": {"type": "node", "id": 475662311, "tags": {"name": "\u041f\u043e\u043b\u0443\u043c\u0438\u0440", "name:sr": "\u041f\u043e\u043b\u0443\u043c\u0438\u0440", "name:sr-Latn": "Polumir", "railway": "station"}}, "geometry": {"type": "Point", "coordinates": [20.6099163, 43.5329006]}}, {"type": "Feature", "properties": {"type": "node", "id": 1843807587, "tags": {"name": "\u041c\u0440\u0448\u0438\u043d\u0446\u0438", "name:sr": "\u041c\u0440\u0448\u0438\u043d\u0446\u0438", "name:sr-Latn": "Mr\u0161inci", "railway": "station"}}, "geometry": {"type": "Point", "coordinates": [20.4829474, 43.8182869]}}, {"type": "Feature", "properties": {"type": "node", "id": 1843798574, "tags": {"name": "\u0417\u0430\u0431\u043b\u0430\u045b\u0435", "name:en": "Zablace", "name:sr": "\u0417\u0430\u0431\u043b\u0430\u045b\u0435", "name:sr-Latn": "Zabla\u0107e", "railway": "station"}}, "geometry": {"type": "Point", "coordinates": [20.4479044, 43.8440291]}}, {"type": "Feature", "properties": {"type": "node", "id": 1743008091, "tags": {"name": "\u041e\u0432\u0447\u0430\u0440 \u0411\u0430\u045a\u0430", "name:sr": "\u041e\u0432\u0447\u0430\u0440 \u0411\u0430\u045a\u0430", "name:sr-Latn": "Ov\u010dar Banja", "public_transport": "station", "railway": "station"}}, "geometry": {"type": "Point", "coordinates": [20.1927366, 43.9034825]}}, {"type": "Feature", "properties": {"type": "node", "id": 1843814796, "tags": {"name": "\u041f\u0440\u0438\u0458\u0435\u0432\u043e\u0440", "name:sr": "\u041f\u0440\u0438\u0458\u0435\u0432\u043e\u0440", "name:sr-Latn": "Prijevor", "railway": "station"}}, "geometry": {"type": "Point", "coordinates": [20.2822463, 43.9086238]}}, {"type": "Feature", "properties": {"type": "node", "id": 7340345875, "tags": {"name": "\u0427\u0430\u0447\u0430\u043a", "name:sr-Latn": "\u010ca\u010dak", "public_transport": "stop_position", "railway": "stop", "train": "yes"}}, "geometry": {"type": "Point", "coordinates": [20.356327, 43.8900108]}}, {"type": "Feature", "properties": {"type": "node", "id": 475661989, "tags": {"name": "\u0411\u043e\u0433\u0443\u0442\u043e\u0432\u0430\u0447\u043a\u0430 \u0411\u0430\u045a\u0430", "name:sr": "\u0411\u043e\u0433\u0443\u0442\u043e\u0432\u0430\u0447\u043a\u0430 \u0411\u0430\u045a\u0430", "name:sr-Latn": "Bogutova\u010dka Banja", "public_transport": "station", "railway": "station"}}, "geometry": {"type": "Point", "coordinates": [20.5575185, 43.6527791]}}, {"type": "Feature", "properties": {"type": "node", "id": 475661903, "tags": {"name": "\u041c\u0430\u0442\u0430\u0440\u0443\u0448\u043a\u0430 \u0411\u0430\u045a\u0430", "name:sr": "\u041c\u0430\u0442\u0430\u0440\u0443\u0448\u043a\u0430 \u0411\u0430\u045a\u0430", "name:sr-Latn": "Mataru\u0161ka Banja", "public_transport": "station", "railway": "station"}}, "geometry": {"type": "Point", "coordinates": [20.6016322, 43.6969848]}}, {"type": "Feature", "properties": {"type": "node", "id": 475575393, "tags": {"name": "\u041a\u0440\u0430\u0459\u0435\u0432\u043e", "name:de": "Kraljevo", "name:en": "Kraljevo", "name:hr": "Kraljevo", "name:ru": "\u041a\u0440\u0430\u043b\u0435\u0432\u043e", "name:sl": "Kraljevo", "name:sr": "\u041a\u0440\u0430\u0459\u0435\u0432\u043e", "name:sr-Latn": "Kraljevo", "public_transport": "station", "railway": "station", "railway:ref:DB": "XJKL"}}, "geometry": {"type": "Point", "coordinates": [20.6934509, 43.72856]}}, {"type": "Feature", "properties": {"type": "node", "id": 2632524044, "tags": {"name": "\u0420\u0430\u0442\u0438\u043d\u0430", "name:en": "Ratina", "name:sr": "\u0420\u0430\u0442\u0438\u043d\u0430", "name:sr-Latn": "Ratina", "railway": "station"}}, "geometry": {"type": "Point", "coordinates": [20.7525668, 43.713211]}}, {"type": "Feature", "properties": {"type": "node", "id": 1843803505, "tags": {"name": "\u0421\u0430\u043c\u0430\u0438\u043b\u0430", "name:sr": "\u0421\u0430\u043c\u0430\u0438\u043b\u0430", "name:sr-Latn": "Samaila", "railway": "station"}}, "geometry": {"type": "Point", "coordinates": [20.5594714, 43.7776853]}}, {"type": "Feature", "properties": {"type": "node", "id": 1828418806, "tags": {"name": "\u0410\u0434\u0440\u0430\u043d\u0438", "name:sr": "\u0410\u0434\u0440\u0430\u043d\u0438", "name:sr-Latn": "Adrani", "railway": "station"}}, "geometry": {"type": "Point", "coordinates": [20.6286721, 43.7653553]}}, {"type": "Feature", "properties": {"type": "node", "id": 475575269, "tags": {"name": "\u0412\u0438\u0442\u0430\u043d\u043e\u0432\u0430\u0446", "name:sr": "\u0412\u0438\u0442\u0430\u043d\u043e\u0432\u0430\u0446", "name:sr-Latn": "Vitanovac", "railway": "station"}}, "geometry": {"type": "Point", "coordinates": [20.8016324, 43.7270385]}}, {"type": "Feature", "properties": {"type": "node", "id": 1956521193, "tags": {"disused": "yes", "fixme": "exact location", "name": "\u0412\u0440\u045a\u0430\u0447\u043a\u0430 \u0411\u0430\u045a\u0430", "name:en": "Vrnja\u010dka Banja", "name:sr": "\u0412\u0440\u045a\u0430\u0447\u043a\u0430 \u0411\u0430\u045a\u0430", "name:sr-Latn": "Vrnja\u010dka Banja", "operator": "\u0416\u0435\u043b\u0435\u0437\u043d\u0438\u0446\u0435 \u0421\u0440\u0431\u0438\u0458\u0435", "railway": "station"}}, "geometry": {"type": "Point", "coordinates": [20.9259921, 43.6390228]}}, {"type": "Feature", "properties": {"type": "node", "id": 475575221, "tags": {"name": "\u0412\u0438\u0442\u043a\u043e\u0432\u0430\u0446", "name:sr": "\u0412\u0438\u0442\u043a\u043e\u0432\u0430\u0446", "name:sr-Latn": "Vitkovac", "railway": "station"}}, "geometry": {"type": "Point", "coordinates": [20.7904669, 43.7914417]}}, {"type": "Feature", "properties": {"type": "node", "id": 475575165, "tags": {"name": "\u0413\u0443\u0431\u0435\u0440\u0435\u0432\u0430\u0446", "name:sr": "\u0413\u0443\u0431\u0435\u0440\u0435\u0432\u0430\u0446", "name:sr-Latn": "Guberevac", "railway": "station"}}, "geometry": {"type": "Point", "coordinates": [20.7738496, 43.8387412]}}, {"type": "Feature", "properties": {"type": "node", "id": 475575050, "tags": {"name": "\u041a\u043d\u0438\u045b", "name:sr": "\u041a\u043d\u0438\u045b", "name:sr-Latn": "Kni\u0107", "railway": "station"}}, "geometry": {"type": "Point", "coordinates": [20.7485551, 43.9329084]}}, {"type": "Feature", "properties": {"type": "node", "id": 475575098, "tags": {"name": "\u0413\u0440\u0443\u0436\u0430", "name:en": "Gruza", "name:sr": "\u0413\u0440\u0443\u0436\u0430", "name:sr-Latn": "Gru\u017ea", "railway": "station"}}, "geometry": {"type": "Point", "coordinates": [20.7678428, 43.8923477]}}, {"type": "Feature", "properties": {"type": "node", "id": 475574988, "tags": {"name": "\u0414\u0440\u0430\u0433\u043e\u0431\u0440\u0430\u045b\u0430", "name:en": "Dragobraca", "name:sr": "\u0414\u0440\u0430\u0433\u043e\u0431\u0440\u0430\u045b\u0430", "name:sr-Latn": "Dragobra\u0107a", "railway": "station"}}, "geometry": {"type": "Point", "coordinates": [20.8206323, 43.9732298]}}, {"type": "Feature", "properties": {"type": "node", "id": 475574941, "tags": {"name": "\u0413\u0440\u043e\u0448\u043d\u0438\u0446\u0430", "name:en": "Grosnica", "name:sr": "\u0413\u0440\u043e\u0448\u043d\u0438\u0446\u0430", "name:sr-Latn": "Gro\u0161nica", "railway": "station"}}, "geometry": {"type": "Point", "coordinates": [20.8765475, 43.9949038]}}, {"type": "Feature", "properties": {"type": "node", "id": 2632539758, "tags": {"name": "\u041f\u043e\u0447\u0435\u043a\u043e\u0432\u0438\u043d\u0430", "name:sr": "\u041f\u043e\u0447\u0435\u043a\u043e\u0432\u0438\u043d\u0430", "name:sr-Latn": "Po\u010dekovina", "railway": "station"}}, "geometry": {"type": "Point", "coordinates": [21.0759143, 43.5919323]}}, {"type": "Feature", "properties": {"type": "node", "id": 4224611076, "tags": {"disused": "yes", "fixme": "exact location", "name": "\u0421\u0442\u043e\u043f\u0430\u045a\u0430", "name:en": "Stopanja", "name:sr": "\u0421\u0442\u043e\u043f\u0430\u045a\u0430", "name:sr-Latn": "Stopanja", "railway": "station"}}, "geometry": {"type": "Point", "coordinates": [21.153334, 43.5771498]}}, {"type": "Feature", "properties": {"type": "node", "id": 1965376537, "tags": {"name": "\u041a\u043e\u0448\u0435\u0432\u0438", "name:en": "Kosevi", "name:sr": "\u041a\u043e\u0448\u0435\u0432\u0438", "name:sr-Latn": "Ko\u0161evi", "railway": "station"}}, "geometry": {"type": "Point", "coordinates": [21.2473766, 43.5854288]}}, {"type": "Feature", "properties": {"type": "node", "id": 1003607899, "tags": {"disused": "yes", "name": "\u041a\u0440\u0443\u0448\u0435\u0432\u0430\u0446", "name:de": "Kruschewatz", "name:en": "Kru\u0161evac", "name:sr": "\u041a\u0440\u0443\u0448\u0435\u0432\u0430\u0446", "name:sr-Latn": "Kru\u0161evac", "operator": "\u0416\u0435\u043b\u0435\u0437\u043d\u0438\u0446\u0435 \u0421\u0440\u0431\u0438\u0458\u0435", "railway": "station"}}, "geometry": {"type": "Point", "coordinates": [21.3274127, 43.5875493]}}, {"type": "Feature", "properties": {"type": "node", "id": 4950591374, "tags": {"name": "\u0414\u0435\u0434\u0438\u043d\u0430", "railway": "station"}}, "geometry": {"type": "Point", "coordinates": [21.3534533, 43.5925772]}}, {"type": "Feature", "properties": {"type": "node", "id": 1845434534, "tags": {"name": "\u0411\u0435\u043b\u043e\u0459\u0438\u043d", "name:en": "Beloljin", "name:sr": "\u0411\u0435\u043b\u043e\u0459\u0438\u043d", "name:sr-Latn": "Beloljin", "railway": "station"}}, "geometry": {"type": "Point", "coordinates": [21.4112227, 43.2296384]}}, {"type": "Feature", "properties": {"type": "node", "id": 1845433271, "tags": {"name": "\u0422\u043e\u043f\u043b\u0438\u0447\u043a\u0430 \u041c\u0430\u043b\u0430 \u041f\u043b\u0430\u043d\u0430", "name:sr": "\u0422\u043e\u043f\u043b\u0438\u0447\u043a\u0430 \u041c\u0430\u043b\u0430 \u041f\u043b\u0430\u043d\u0430", "name:sr-Latn": "Topli\u010dka Mala Plana", "railway": "station"}}, "geometry": {"type": "Point", "coordinates": [21.4809761, 43.2399501]}}, {"type": "Feature", "properties": {"type": "node", "id": 1635431162, "tags": {"name": "\u041f\u0440\u043e\u043a\u0443\u043f\u0459\u0435", "name:de": "Prokuplje", "name:en": "Prokuplje", "name:sr": "\u041f\u0440\u043e\u043a\u0443\u043f\u0459\u0435", "name:sr-Latn": "Prokuplje", "railway": "station"}}, "geometry": {"type": "Point", "coordinates": [21.592906, 43.2281443]}}, {"type": "Feature", "properties": {"type": "node", "id": 1687762856, "tags": {"local_ref": "2", "name": "\u0413\u0440\u0435\u0458\u0430\u0447", "name:sr": "\u0413\u0440\u0435\u0458\u0430\u0447", "name:sr-Latn": "Greja\u010d", "public_transport": "stop_position", "railway": "station", "train": "yes"}}, "geometry": {"type": "Point", "coordinates": [21.7477785, 43.4223876]}}, {"type": "Feature", "properties": {"type": "node", "id": 5243917170, "tags": {"local_ref": "3", "name": "\u0413\u0440\u0435\u0458\u0430\u0447", "name:sr": "\u0413\u0440\u0435\u0458\u0430\u0447", "name:sr-Latn": "Greja\u010d", "public_transport": "stop_position", "railway": "stop"}}, "geometry": {"type": "Point", "coordinates": [21.747844, 43.4224003]}}, {"type": "Feature", "properties": {"type": "node", "id": 1845269405, "tags": {"name": "\u0414\u043e\u045a\u0438 \u0409\u0443\u0431\u0435\u0448", "name:sr": "\u0414\u043e\u045a\u0438 \u0409\u0443\u0431\u0435\u0448", "name:sr-Latn": "Donji Ljube\u0161", "railway": "station"}}, "geometry": {"type": "Point", "coordinates": [21.5707785, 43.5784647]}}, {"type": "Feature", "properties": {"type": "node", "id": 1845266206, "tags": {"int_name": "Djunis", "name": "\u0402\u0443\u043d\u0438\u0441", "name:sr": "\u0402\u0443\u043d\u0438\u0441", "name:sr-Latn": "\u0110unis", "railway": "station"}}, "geometry": {"type": "Point", "coordinates": [21.5130606, 43.604899]}}, {"type": "Feature", "properties": {"type": "node", "id": 1828419647, "tags": {"name": "\u0410\u0434\u0440\u043e\u0432\u0430\u0446", "name:sr": "\u0410\u0434\u0440\u043e\u0432\u0430\u0446", "name:sr-Latn": "Adrovac", "railway": "station"}}, "geometry": {"type": "Point", "coordinates": [21.6495786, 43.5232268]}}, {"type": "Feature", "properties": {"type": "node", "id": 1599387445, "tags": {"name": "\u0410\u043b\u0435\u043a\u0441\u0438\u043d\u0430\u0446", "name:en": "Aleksinac", "name:sr": "\u0410\u043b\u0435\u043a\u0441\u0438\u043d\u0430\u0446", "name:sr-Latn": "Aleksinac", "public_transport": "station", "railway": "station", "source": "GNS"}}, "geometry": {"type": "Point", "coordinates": [21.6937348, 43.507891]}}, {"type": "Feature", "properties": {"type": "node", "id": 1845269978, "tags": {"name": "\u041a\u043e\u0440\u043c\u0430\u043d", "name:sr": "\u041a\u043e\u0440\u043c\u0430\u043d", "name:sr-Latn": "Korman", "railway": "station"}}, "geometry": {"type": "Point", "coordinates": [21.6126812, 43.5528137]}}, {"type": "Feature", "properties": {"type": "node", "id": 475574872, "tags": {"name": "\u0408\u043e\u0432\u0430\u043d\u043e\u0432\u0430\u0446", "name:sr": "\u0408\u043e\u0432\u0430\u043d\u043e\u0432\u0430\u0446", "name:sr-Latn": "Jovanovac", "railway": "station"}}, "geometry": {"type": "Point", "coordinates": [20.9766929, 44.0556424]}}, {"type": "Feature", "properties": {"type": "node", "id": 7390686506, "tags": {"name": "Cuprija", "public_transport": "stop_position", "railway": "stop", "train": "yes"}}, "geometry": {"type": "Point", "coordinates": [21.3652422, 43.9162695]}}, {"type": "Feature", "properties": {"type": "node", "id": 1845260559, "tags": {"name": "\u0408\u0430\u0433\u043e\u0434\u0438\u043d\u0430", "name:de": "Jagodina", "name:en": "Jagodina", "name:hr": "Jagodina", "name:sl": "Jagodina", "name:sr": "\u0408\u0430\u0433\u043e\u0434\u0438\u043d\u0430", "name:sr-Latn": "Jagodina", "railway": "station"}}, "geometry": {"type": "Point", "coordinates": [21.2633689, 43.9822614]}}, {"type": "Feature", "properties": {"type": "node", "id": 1599441252, "tags": {"name": "\u0421\u0442\u0430\u043b\u0430\u045b", "name:sr": "\u0421\u0442\u0430\u043b\u0430\u045b", "name:sr-Latn": "Stala\u0107", "operator": "\u0416\u0435\u043b\u0435\u0437\u043d\u0438\u0446\u0435 \u0421\u0440\u0431\u0438\u0458\u0435", "public_transport": "station", "railway": "station", "source": "USDMA"}}, "geometry": {"type": "Point", "coordinates": [21.4148427, 43.6821592]}}, {"type": "Feature", "properties": {"type": "node", "id": 1845264897, "tags": {"name": "\u0411\u0440\u0430\u0459\u0438\u043d\u0430", "name:sr": "\u0411\u0440\u0430\u0459\u0438\u043d\u0430", "name:sr-Latn": "Braljina", "railway": "station"}}, "geometry": {"type": "Point", "coordinates": [21.4832562, 43.6573166]}}, {"type": "Feature", "properties": {"type": "node", "id": 6720139220, "tags": {"name": "\u0106i\u0107evac", "public_transport": "station", "railway": "station", "train": "yes"}}, "geometry": {"type": "Point", "coordinates": [21.4380553, 43.7204508]}}, {"type": "Feature", "properties": {"type": "node", "id": 1845262970, "tags": {"name": "\u041f\u0430\u0440\u0430\u045b\u0438\u043d", "name:sr": "\u041f\u0430\u0440\u0430\u045b\u0438\u043d", "name:sr-Latn": "Para\u0107in", "railway": "station"}}, "geometry": {"type": "Point", "coordinates": [21.3988206, 43.8648285]}}, {"type": "Feature", "properties": {"type": "node", "id": 1843655287, "tags": {"name": "\u041b\u0430\u0458\u043a\u043e\u0432\u0430\u0446", "name:en": "Lajkovac", "name:sr": "\u041b\u0430\u0458\u043a\u043e\u0432\u0430\u0446", "name:sr-Latn": "Lajkovac", "public_transport": "station", "railway": "station"}}, "geometry": {"type": "Point", "coordinates": [20.1637582, 44.3678538]}}, {"type": "Feature", "properties": {"type": "node", "id": 313235265, "tags": {"name": "\u041b\u0430\u0437\u0430\u0440\u0435\u0432\u0430\u0446", "name:en": "Lazarevac", "name:sr": "\u041b\u0430\u0437\u0430\u0440\u0435\u0432\u0430\u0446", "name:sr-Latn": "Lazarevac", "railway": "station", "wikidata": "Q31182303", "wikipedia": "sr:\u0416\u0435\u043b\u0435\u0437\u043d\u0438\u0447\u043a\u0430 \u0441\u0442\u0430\u043d\u0438\u0446\u0430 \u041b\u0430\u0437\u0430\u0440\u0435\u0432\u0430\u0446"}}, "geometry": {"type": "Point", "coordinates": [20.2456514, 44.3847976]}}, {"type": "Feature", "properties": {"type": "node", "id": 313235264, "tags": {"name": "\u0412\u0440\u0435\u043e\u0446\u0438", "name:en": "Vreoci", "name:sr": "\u0412\u0440\u0435\u043e\u0446\u0438", "name:sr-Latn": "Vreoci", "railway": "station", "wikidata": "Q31182305", "wikipedia": "sr:\u0416\u0435\u043b\u0435\u0437\u043d\u0438\u0447\u043a\u0430 \u0441\u0442\u0430\u043d\u0438\u0446\u0430 \u0412\u0440\u0435\u043e\u0446\u0438"}}, "geometry": {"type": "Point", "coordinates": [20.2794586, 44.4489723]}}, {"type": "Feature", "properties": {"type": "node", "id": 475574643, "tags": {"name": "\u041a\u043e\u0432\u0430\u0447\u0435\u0432\u0430\u0446", "name:sr": "\u041a\u043e\u0432\u0430\u0447\u0435\u0432\u0430\u0446", "name:sr-Latn": "Kova\u010devac", "railway": "station"}}, "geometry": {"type": "Point", "coordinates": [20.7504607, 44.3994393]}}, {"type": "Feature", "properties": {"type": "node", "id": 475574606, "tags": {"name": "\u041c\u043b\u0430\u0434\u0435\u043d\u043e\u0432\u0430\u0446", "name:en": "Mladenovac", "name:sr": "\u041c\u043b\u0430\u0434\u0435\u043d\u043e\u0432\u0430\u0446", "name:sr-Latn": "Mladenovac", "railway": "station", "wikidata": "Q31182322", "wikipedia": "sr:\u0416\u0435\u043b\u0435\u0437\u043d\u0438\u0447\u043a\u0430 \u0441\u0442\u0430\u043d\u0438\u0446\u0430 \u041c\u043b\u0430\u0434\u0435\u043d\u043e\u0432\u0430\u0446"}}, "geometry": {"type": "Point", "coordinates": [20.6911826, 44.4402263]}}, {"type": "Feature", "properties": {"type": "node", "id": 475574685, "tags": {"name": "\u0413\u043b\u0438\u0431\u043e\u0432\u0430\u0446", "name:sr": "\u0413\u043b\u0438\u0431\u043e\u0432\u0430\u0446", "name:sr-Latn": "Glibovac", "railway": "station"}}, "geometry": {"type": "Point", "coordinates": [20.9052635, 44.368487]}}, {"type": "Feature", "properties": {"type": "node", "id": 523213074, "tags": {"name": "\u0421\u043c\u0435\u0434\u0435\u0440\u0435\u0432\u0441\u043a\u0430 \u041f\u0430\u043b\u0430\u043d\u043a\u0430", "public_transport": "station", "railway": "station"}}, "geometry": {"type": "Point", "coordinates": [20.9603199, 44.3626691]}}, {"type": "Feature", "properties": {"type": "node", "id": 475574660, "tags": {"name": "\u041a\u0443\u0441\u0430\u0434\u0430\u043a", "name:en": "Kusadak", "name:sr": "\u041a\u0443\u0441\u0430\u0434\u0430\u043a", "name:sr-Latn": "Kusadak", "public_transport": "station", "railway": "station"}}, "geometry": {"type": "Point", "coordinates": [20.8289207, 44.3762005]}}, {"type": "Feature", "properties": {"type": "node", "id": 7546149230, "tags": {"name": "\u041a\u0443\u0441\u0430\u0434\u0430\u043a", "name:en": "Kusadak", "name:sr": "\u041a\u0443\u0441\u0430\u0434\u0430\u043a", "name:sr-Latn": "Kusadak", "public_transport": "stop_position", "railway": "stop", "train": "yes"}}, "geometry": {"type": "Point", "coordinates": [20.8288815, 44.375976]}}, {"type": "Feature", "properties": {"type": "node", "id": 313234885, "tags": {"name": "\u0421\u0442\u0435\u043f\u043e\u0458\u0435\u0432\u0430\u0446", "name:sr": "\u0421\u0442\u0435\u043f\u043e\u0458\u0435\u0432\u0430\u0446", "name:sr-Latn": "Stepojevac", "public_transport": "stop_position", "railway": "stop", "train": "yes", "wikidata": "Q31182304", "wikipedia": "sr:\u0416\u0435\u043b\u0435\u0437\u043d\u0438\u0447\u043a\u0430 \u0441\u0442\u0430\u043d\u0438\u0446\u0430 \u0421\u0442\u0435\u043f\u043e\u0458\u0435\u0432\u0430\u0446"}}, "geometry": {"type": "Point", "coordinates": [20.3103219, 44.496689]}}, {"type": "Feature", "properties": {"type": "node", "id": 1843652347, "tags": {"name": "\u0421\u0442\u0435\u043f\u043e\u0458\u0435\u0432\u0430\u0446", "name:sr": "\u0421\u0442\u0435\u043f\u043e\u0458\u0435\u0432\u0430\u0446", "name:sr-Latn": "Stepojevac", "public_transport": "station", "railway": "station", "wikidata": "Q31182304", "wikipedia": "sr:\u0416\u0435\u043b\u0435\u0437\u043d\u0438\u0447\u043a\u0430 \u0441\u0442\u0430\u043d\u0438\u0446\u0430 \u0421\u0442\u0435\u043f\u043e\u0458\u0435\u0432\u0430\u0446"}}, "geometry": {"type": "Point", "coordinates": [20.3099871, 44.4968758]}}, {"type": "Feature", "properties": {"type": "node", "id": 1843649556, "tags": {"name": "\u0412\u0435\u043b\u0438\u043a\u0438 \u0411\u043e\u0440\u0430\u043a", "name:sr": "\u0412\u0435\u043b\u0438\u043a\u0438 \u0411\u043e\u0440\u0430\u043a", "name:sr-Latn": "Veliki Borak", "railway": "station", "wikidata": "Q31182300", "wikipedia": "sr:\u0416\u0435\u043b\u0435\u0437\u043d\u0438\u0447\u043a\u0430 \u0441\u0442\u0430\u043d\u0438\u0446\u0430 \u0412\u0435\u043b\u0438\u043a\u0438 \u0411\u043e\u0440\u0430\u043a"}}, "geometry": {"type": "Point", "coordinates": [20.3779351, 44.5403537]}}, {"type": "Feature", "properties": {"type": "node", "id": 1843585451, "tags": {"name": "\u0420\u0438\u043f\u0430\u045a \u0422\u0443\u043d\u0435\u043b", "name:sr": "\u0420\u0438\u043f\u0430\u045a \u0422\u0443\u043d\u0435\u043b", "name:sr-Latn": "Ripanj Tunel", "railway": "station"}}, "geometry": {"type": "Point", "coordinates": [20.5321424, 44.6003147]}}, {"type": "Feature", "properties": {"type": "node", "id": 1843645943, "tags": {"internet_access": "no", "name": "\u0411\u0435\u043b\u0430 \u0420\u0435\u043a\u0430", "name:sr": "\u0411\u0435\u043b\u0430 \u0420\u0435\u043a\u0430", "name:sr-Latn": "Bela Reka", "public_transport": "station", "railway": "station", "train": "yes", "wikidata": "Q31182299", "wikipedia": "sr:\u0416\u0435\u043b\u0435\u0437\u043d\u0438\u0447\u043a\u0430 \u0441\u0442\u0430\u043d\u0438\u0446\u0430 \u0411\u0435\u043b\u0430 \u0440\u0435\u043a\u0430"}}, "geometry": {"type": "Point", "coordinates": [20.4727183, 44.656235]}}, {"type": "Feature", "properties": {"type": "node", "id": 7541917772, "tags": {"name": "Klenje", "public_transport": "stop_position", "railway": "stop", "train": "yes"}}, "geometry": {"type": "Point", "coordinates": [20.5327895, 44.6417294]}}, {"type": "Feature", "properties": {"type": "node", "id": 7541917773, "tags": {"name": "Klenje", "public_transport": "stop_position", "railway": "stop", "train": "yes"}}, "geometry": {"type": "Point", "coordinates": [20.5328537, 44.6417249]}}, {"type": "Feature", "properties": {"type": "node", "id": 7541917774, "tags": {"name": "Klenje", "public_transport": "stop_position", "railway": "stop", "train": "yes"}}, "geometry": {"type": "Point", "coordinates": [20.5329162, 44.6417248]}}, {"type": "Feature", "properties": {"type": "node", "id": 259997361, "tags": {"name": "\u0420\u0438\u043f\u0430\u045a", "name:sr": "\u0420\u0438\u043f\u0430\u045a", "name:sr-Latn": "Ripanj", "railway": "station", "wikidata": "Q31182308", "wikipedia": "sr:\u0416\u0435\u043b\u0435\u0437\u043d\u0438\u0447\u043a\u0430 \u0441\u0442\u0430\u043d\u0438\u0446\u0430 \u0420\u0438\u043f\u0430\u045a"}}, "geometry": {"type": "Point", "coordinates": [20.5070117, 44.6623552]}}, {"type": "Feature", "properties": {"type": "node", "id": 4749421331, "tags": {"name": "\u0417\u0435\u043c\u0443\u043d\u0441\u043a\u043e \u043f\u043e\u0459\u0435", "name:sr": "\u0417\u0435\u043c\u0443\u043d\u0441\u043a\u043e \u043f\u043e\u0459\u0435", "name:sr-Latn": "Zemunsko polje", "network": "\u0411\u0413:\u0412\u043e\u0437", "note": "\"\u0417\u0435\u043c\u0443\u043d\u0441\u043a\u043e \u043f\u043e\u0459\u0435\"/\"Zemunsko polje\" is the official name of the stop.", "operator": "\u0416\u0435\u043b\u0435\u0437\u043d\u0438\u0446\u0435 \u0421\u0440\u0431\u0438\u0458\u0435", "public_transport": "stop_position", "train": "yes"}}, "geometry": {"type": "Point", "coordinates": [20.3348427, 44.8576912]}}, {"type": "Feature", "properties": {"type": "node", "id": 6417848130, "tags": {"name": "\u0417\u0435\u043c\u0443\u043d\u0441\u043a\u043e \u043f\u043e\u0459\u0435", "name:sr": "\u0417\u0435\u043c\u0443\u043d\u0441\u043a\u043e \u043f\u043e\u0459\u0435", "name:sr-Latn": "Zemunsko polje", "network": "\u0411\u0413:\u0412\u043e\u0437", "note": "\"\u0417\u0435\u043c\u0443\u043d\u0441\u043a\u043e \u043f\u043e\u0459\u0435\"/\"Zemunsko polje\" is the official name of the stop.", "operator": "\u0416\u0435\u043b\u0435\u0437\u043d\u0438\u0446\u0435 \u0421\u0440\u0431\u0438\u0458\u0435", "public_transport": "stop_position", "train": "yes"}}, "geometry": {"type": "Point", "coordinates": [20.3347871, 44.8576498]}}, {"type": "Feature", "properties": {"type": "node", "id": 1386526226, "tags": {"name": "\u041a\u0438\u0458\u0435\u0432\u043e", "name:sr": "\u041a\u0438\u0458\u0435\u0432\u043e", "name:sr-Latn": "Kijevo", "network": "\u0411\u0413:\u0412\u043e\u0437", "operator": "\u0416\u0435\u043b\u0435\u0437\u043d\u0438\u0446\u0435 \u0421\u0440\u0431\u0438\u0458\u0435", "public_transport": "stop_position", "railway": "stop", "train": "yes"}}, "geometry": {"type": "Point", "coordinates": [20.4369648, 44.7233188]}}, {"type": "Feature", "properties": {"type": "node", "id": 1386526227, "tags": {"name": "\u041a\u0438\u0458\u0435\u0432\u043e", "name:sr": "\u041a\u0438\u0458\u0435\u0432\u043e", "name:sr-Latn": "Kijevo", "network": "\u0411\u0413:\u0412\u043e\u0437", "operator": "\u0416\u0435\u043b\u0435\u0437\u043d\u0438\u0446\u0435 \u0421\u0440\u0431\u0438\u0458\u0435", "public_transport": "stop_position", "railway": "stop", "train": "yes"}}, "geometry": {"type": "Point", "coordinates": [20.4369504, 44.723403]}}, {"type": "Feature", "properties": {"type": "node", "id": 5911266560, "tags": {"name": "\u041a\u0438\u0458\u0435\u0432\u043e", "name:en": "Kijevo", "name:sr": "\u041a\u0438\u0458\u0435\u0432\u043e", "name:sr-Latn": "Kijevo", "public_transport": "station", "railway": "station", "train": "yes", "wikidata": "Q3096686", "wikipedia": "sr:\u0416\u0435\u043b\u0435\u0437\u043d\u0438\u0447\u043a\u0430 \u0441\u0442\u0430\u043d\u0438\u0446\u0430 \u041a\u0438\u0458\u0435\u0432\u043e"}}, "geometry": {"type": "Point", "coordinates": [20.4370655, 44.7232688]}}, {"type": "Feature", "properties": {"type": "node", "id": 475574495, "tags": {"name": "\u041a\u043d\u0435\u0436\u0435\u0432\u0430\u0446", "name:sr": "\u041a\u043d\u0435\u0436\u0435\u0432\u0430\u0446", "name:sr-Latn": "Kne\u017eevac", "network": "\u0411\u0413:\u0412\u043e\u0437", "operator": "\u0416\u0435\u043b\u0435\u0437\u043d\u0438\u0446\u0435 \u0421\u0440\u0431\u0438\u0458\u0435", "public_transport": "stop_position", "railway": "stop", "train": "yes"}}, "geometry": {"type": "Point", "coordinates": [20.4312268, 44.7315248]}}, {"type": "Feature", "properties": {"type": "node", "id": 1386521051, "tags": {"name": "\u041a\u043d\u0435\u0436\u0435\u0432\u0430\u0446", "name:sr": "\u041a\u043d\u0435\u0436\u0435\u0432\u0430\u0446", "name:sr-Latn": "Kne\u017eevac", "network": "\u0411\u0413:\u0412\u043e\u0437", "operator": "\u0416\u0435\u043b\u0435\u0437\u043d\u0438\u0446\u0435 \u0421\u0440\u0431\u0438\u0458\u0435", "public_transport": "stop_position", "railway": "stop", "train": "yes"}}, "geometry": {"type": "Point", "coordinates": [20.4311238, 44.7318476]}}, {"type": "Feature", "properties": {"type": "node", "id": 5911266553, "tags": {"name": "\u041a\u043d\u0435\u0436\u0435\u0432\u0430\u0446", "name:en": "Knezevac", "name:sr": "\u041a\u043d\u0435\u0436\u0435\u0432\u0430\u0446", "name:sr-Latn": "Kne\u017eevac", "public_transport": "station", "railway": "station", "train": "yes", "wikidata": "Q3096695", "wikipedia": "sr:\u0416\u0435\u043b\u0435\u0437\u043d\u0438\u0447\u043a\u0430 \u0441\u0442\u0430\u043d\u0438\u0446\u0430 \u041a\u043d\u0435\u0436\u0435\u0432\u0430\u0446"}}, "geometry": {"type": "Point", "coordinates": [20.4312026, 44.7316219]}}, {"type": "Feature", "properties": {"type": "node", "id": 259992102, "tags": {"name": "\u0420\u0430\u043a\u043e\u0432\u0438\u0446\u0430", "network": "\u0411\u0413:\u0412\u043e\u0437", "operator": "\u0416\u0435\u043b\u0435\u0437\u043d\u0438\u0446\u0435 \u0421\u0440\u0431\u0438\u0458\u0435", "public_transport": "stop_position", "railway": "stop", "train": "yes"}}, "geometry": {"type": "Point", "coordinates": [20.4432932, 44.7470489]}}, {"type": "Feature", "properties": {"type": "node", "id": 1386508505, "tags": {"name": "\u0420\u0430\u043a\u043e\u0432\u0438\u0446\u0430", "name:sr": "\u0420\u0430\u043a\u043e\u0432\u0438\u0446\u0430", "name:sr-Latn": "Rakovica", "network": "\u0411\u0413:\u0412\u043e\u0437", "operator": "\u0416\u0435\u043b\u0435\u0437\u043d\u0438\u0446\u0435 \u0421\u0440\u0431\u0438\u0458\u0435", "public_transport": "stop_position", "railway": "stop", "train": "yes"}}, "geometry": {"type": "Point", "coordinates": [20.4426061, 44.7463612]}}, {"type": "Feature", "properties": {"type": "node", "id": 1386553722, "tags": {"name": "\u0420\u0435\u0441\u043d\u0438\u043a", "name:sr": "\u0420\u0435\u0441\u043d\u0438\u043a", "name:sr-Latn": "Resnik", "network": "\u0411\u0413:\u0412\u043e\u0437", "operator": "\u0416\u0435\u043b\u0435\u0437\u043d\u0438\u0446\u0435 \u0421\u0440\u0431\u0438\u0458\u0435", "public_transport": "stop_position", "railway": "stop", "train": "yes"}}, "geometry": {"type": "Point", "coordinates": [20.4487448, 44.703975]}}, {"type": "Feature", "properties": {"type": "node", "id": 1843632704, "tags": {"name": "\u0411\u0435\u043b\u0438 \u041f\u043e\u0442\u043e\u043a", "name:sr": "\u0411\u0435\u043b\u0438 \u041f\u043e\u0442\u043e\u043a", "name:sr-Latn": "Beli Potok", "public_transport": "station", "railway": "station", "train": "yes", "wikidata": "Q31182719", "wikipedia": "sr:\u0416\u0435\u043b\u0435\u0437\u043d\u0438\u0447\u043a\u0430 \u0441\u0442\u0430\u043d\u0438\u0446\u0430 \u0411\u0435\u043b\u0438 \u041f\u043e\u0442\u043e\u043a"}}, "geometry": {"type": "Point", "coordinates": [20.5197461, 44.7148806]}}, {"type": "Feature", "properties": {"type": "node", "id": 291184340, "tags": {"name": "\u0417\u0435\u043c\u0443\u043d", "name:sr": "\u0417\u0435\u043c\u0443\u043d", "name:sr-Latn": "Zemun", "network": "\u0411\u0413:\u0412\u043e\u0437", "operator": "\u0416\u0435\u043b\u0435\u0437\u043d\u0438\u0446\u0435 \u0421\u0440\u0431\u0438\u0458\u0435", "public_transport": "stop_position", "train": "yes"}}, "geometry": {"type": "Point", "coordinates": [20.3712837, 44.8367028]}}, {"type": "Feature", "properties": {"type": "node", "id": 291184346, "tags": {"name": "\u0417\u0435\u043c\u0443\u043d", "name:sr": "\u0417\u0435\u043c\u0443\u043d", "name:sr-Latn": "Zemun", "network": "\u0411\u0413:\u0412\u043e\u0437", "operator": "\u0416\u0435\u043b\u0435\u0437\u043d\u0438\u0446\u0435 \u0421\u0440\u0431\u0438\u0458\u0435", "public_transport": "stop_position", "train": "yes"}}, "geometry": {"type": "Point", "coordinates": [20.3718091, 44.8369331]}}, {"type": "Feature", "properties": {"type": "node", "id": 552820285, "tags": {"name": "\u0417\u0435\u043c\u0443\u043d", "name:de": "Semlin", "name:en": "Zemun", "name:hu": "Zimony", "name:sr": "\u0417\u0435\u043c\u0443\u043d", "name:sr-Latn": "Zemun", "public_transport": "station", "railway": "station", "train": "yes", "wikidata": "Q3098106", "wikipedia": "sr:\u0416\u0435\u043b\u0435\u0437\u043d\u0438\u0447\u043a\u0430 \u0441\u0442\u0430\u043d\u0438\u0446\u0430 \u0417\u0435\u043c\u0443\u043d"}}, "geometry": {"type": "Point", "coordinates": [20.3723703, 44.8369302]}}, {"type": "Feature", "properties": {"type": "node", "id": 7821365420, "tags": {"internet_access": "no", "name": "\u0422\u043e\u0448\u0438\u043d \u0431\u0443\u043d\u0430\u0440", "name:en": "Tosin Bunar", "name:sr": "\u0422\u043e\u0448\u0438\u043d \u0431\u0443\u043d\u0430\u0440", "name:sr-Latn": "To\u0161in bunar", "network": "\u0411\u0413:\u0412\u043e\u0437", "operator": "\u0416\u0435\u043b\u0435\u0437\u043d\u0438\u0446\u0435 \u0421\u0440\u0431\u0438\u0458\u0435", "public_transport": "station", "railway": "station", "train": "yes", "wikidata": "Q3097901", "wikipedia": "sr:\u0416\u0435\u043b\u0435\u0437\u043d\u0438\u0447\u043a\u0430 \u0441\u0442\u0430\u043d\u0438\u0446\u0430 \u0422\u043e\u0448\u0438\u043d \u0431\u0443\u043d\u0430\u0440"}}, "geometry": {"type": "Point", "coordinates": [20.397005, 44.8164763]}}, {"type": "Feature", "properties": {"type": "node", "id": 8044197807, "tags": {"name": "\u0422\u043e\u0448\u0438\u043d \u0431\u0443\u043d\u0430\u0440", "name:en": "Tosin Bunar", "name:sr": "\u0422\u043e\u0448\u0438\u043d \u0431\u0443\u043d\u0430\u0440", "name:sr-Latn": "To\u0161in bunar", "network": "\u0411\u0413:\u0412\u043e\u0437", "operator": "\u0416\u0435\u043b\u0435\u0437\u043d\u0438\u0446\u0435 \u0421\u0440\u0431\u0438\u0458\u0435", "public_transport": "stop_position", "railway": "stop", "train": "yes"}}, "geometry": {"type": "Point", "coordinates": [20.3973258, 44.8163116]}}, {"type": "Feature", "properties": {"type": "node", "id": 476897991, "tags": {"name": "\u041d\u043e\u0432\u0438 \u0411\u0435\u043e\u0433\u0440\u0430\u0434", "name:de": "Neu-Belgrad", "name:en": "New Belgrade", "name:pl": "Nowy Belgrad", "name:ru": "\u041d\u043e\u0432\u044b\u0439 \u0411\u0435\u043b\u0433\u0440\u0430\u0434", "name:sr": "\u041d\u043e\u0432\u0438 \u0411\u0435\u043e\u0433\u0440\u0430\u0434", "name:sr-Latn": "Novi Beograd", "network": "\u0411\u0413:\u0412\u043e\u0437", "operator": "\u0416\u0435\u043b\u0435\u0437\u043d\u0438\u0446\u0435 \u0421\u0440\u0431\u0438\u0458\u0435", "public_transport": "stop_position", "railway": "stop", "train": "yes", "wikidata": "Q801271", "wikipedia": "sr:\u0416\u0435\u043b\u0435\u0437\u043d\u0438\u0447\u043a\u0430 \u0441\u0442\u0430\u043d\u0438\u0446\u0430 \u041d\u043e\u0432\u0438 \u0411\u0435\u043e\u0433\u0440\u0430\u0434"}}, "geometry": {"type": "Point", "coordinates": [20.4179331, 44.8069108]}}, {"type": "Feature", "properties": {"type": "node", "id": 6417848128, "tags": {"name": "\u041d\u043e\u0432\u0438 \u0411\u0435\u043e\u0433\u0440\u0430\u0434", "name:de": "Neu-Belgrad", "name:en": "New Belgrade", "name:pl": "Nowy Belgrad", "name:ru": "\u041d\u043e\u0432\u044b\u0439 \u0411\u0435\u043b\u0433\u0440\u0430\u0434", "name:sr": "\u041d\u043e\u0432\u0438 \u0411\u0435\u043e\u0433\u0440\u0430\u0434", "name:sr-Latn": "Novi Beograd", "network": "\u0411\u0413:\u0412\u043e\u0437", "operator": "\u0416\u0435\u043b\u0435\u0437\u043d\u0438\u0446\u0435 \u0421\u0440\u0431\u0438\u0458\u0435", "public_transport": "stop_position", "railway": "stop", "train": "yes"}}, "geometry": {"type": "Point", "coordinates": [20.4178846, 44.8068574]}}, {"type": "Feature", "properties": {"type": "node", "id": 7821346701, "tags": {"name": "\u041d\u043e\u0432\u0438 \u0411\u0435\u043e\u0433\u0440\u0430\u0434", "name:de": "Neu-Belgrad", "name:en": "New Belgrade", "name:pl": "Nowy Belgrad", "name:ru": "\u041d\u043e\u0432\u044b\u0439 \u0411\u0435\u043b\u0433\u0440\u0430\u0434", "name:sr": "\u041d\u043e\u0432\u0438 \u0411\u0435\u043e\u0433\u0440\u0430\u0434", "name:sr-Latn": "Novi Beograd", "network": "\u0411\u0413:\u0412\u043e\u0437", "operator": "\u0416\u0435\u043b\u0435\u0437\u043d\u0438\u0446\u0435 \u0421\u0440\u0431\u0438\u0458\u0435", "public_transport": "station", "railway": "station", "train": "yes", "wikidata": "Q801271", "wikipedia": "sr:\u0416\u0435\u043b\u0435\u0437\u043d\u0438\u0447\u043a\u0430 \u0441\u0442\u0430\u043d\u0438\u0446\u0430 \u041d\u043e\u0432\u0438 \u0411\u0435\u043e\u0433\u0440\u0430\u0434"}}, "geometry": {"type": "Point", "coordinates": [20.4178455, 44.8069189]}}, {"type": "Feature", "properties": {"type": "node", "id": 2188268549, "tags": {"alt_name": "\u041f\u0440\u043e\u043a\u043e\u043f", "alt_name:sr-Latn": "Prokop", "name": "\u0411\u0435\u043e\u0433\u0440\u0430\u0434 \u0446\u0435\u043d\u0442\u0430\u0440", "name:en": "Belgrade Center", "name:sr": "\u0411\u0435\u043e\u0433\u0440\u0430\u0434 \u0446\u0435\u043d\u0442\u0430\u0440", "name:sr-Latn": "Beograd centar", "network": "\u0411\u0413:\u0412\u043e\u0437", "operator": "\u0416\u0435\u043b\u0435\u0437\u043d\u0438\u0446\u0435 \u0421\u0440\u0431\u0438\u0458\u0435", "public_transport": "stop_position", "train": "yes"}}, "geometry": {"type": "Point", "coordinates": [20.4531473, 44.7934837]}}, {"type": "Feature", "properties": {"type": "node", "id": 2188268625, "tags": {"alt_name": "\u041f\u0440\u043e\u043a\u043e\u043f", "alt_name:sr-Latn": "Prokop", "name": "\u0411\u0435\u043e\u0433\u0440\u0430\u0434 \u0446\u0435\u043d\u0442\u0430\u0440", "name:en": "Belgrade Center", "name:sr": "\u0411\u0435\u043e\u0433\u0440\u0430\u0434 \u0446\u0435\u043d\u0442\u0430\u0440", "name:sr-Latn": "Beograd centar", "network": "\u0411\u0413:\u0412\u043e\u0437", "operator": "\u0416\u0435\u043b\u0435\u0437\u043d\u0438\u0446\u0435 \u0421\u0440\u0431\u0438\u0458\u0435", "public_transport": "stop_position", "train": "yes"}}, "geometry": {"type": "Point", "coordinates": [20.4528308, 44.7940528]}}, {"type": "Feature", "properties": {"type": "node", "id": 6140811391, "tags": {"loc_name": "\u041f\u0440\u043e\u043a\u043e\u043f", "loc_name:sr": "\u041f\u0440\u043e\u043a\u043e\u043f", "loc_name:sr-Latn": "Prokop", "name": "\u0411\u0435\u043e\u0433\u0440\u0430\u0434 \u0446\u0435\u043d\u0442\u0430\u0440", "name:de": "Belgrad Zentrum", "name:en": "Belgrade Center", "name:hu": "Belgr\u00e1d K\u00f6zponti", "name:sr": "\u0411\u0435\u043e\u0433\u0440\u0430\u0434 \u0446\u0435\u043d\u0442\u0430\u0440", "name:sr-Latn": "Beograd centar", "public_transport": "station", "railway": "station", "wikidata": "Q115753", "wikipedia": "sr:\u0416\u0435\u043b\u0435\u0437\u043d\u0438\u0447\u043a\u0430 \u0441\u0442\u0430\u043d\u0438\u0446\u0430 \u0411\u0435\u043e\u0433\u0440\u0430\u0434\u2013\u0446\u0435\u043d\u0442\u0430\u0440"}}, "geometry": {"type": "Point", "coordinates": [20.4530621, 44.7936264]}}, {"type": "Feature", "properties": {"type": "node", "id": 7086581555, "tags": {"level": "0", "name": "10", "public_transport": "stop_position", "railway": "stop", "train": "yes"}}, "geometry": {"type": "Point", "coordinates": [20.4527797, 44.7934476]}}, {"type": "Feature", "properties": {"type": "node", "id": 7086753788, "tags": {"level": "0", "name": "9", "public_transport": "stop_position", "railway": "stop", "train": "yes"}}, "geometry": {"type": "Point", "coordinates": [20.4528085, 44.793487]}}, {"type": "Feature", "properties": {"type": "node", "id": 7086753789, "tags": {"level": "0", "name": "8", "public_transport": "stop_position", "railway": "stop", "train": "yes"}}, "geometry": {"type": "Point", "coordinates": [20.4528646, 44.7935703]}}, {"type": "Feature", "properties": {"type": "node", "id": 7086753790, "tags": {"level": "0", "name": "7", "public_transport": "stop_position", "railway": "stop", "train": "yes"}}, "geometry": {"type": "Point", "coordinates": [20.4529018, 44.7936181]}}, {"type": "Feature", "properties": {"type": "node", "id": 7086753791, "tags": {"level": "0", "name": "6", "public_transport": "stop_position", "railway": "stop", "train": "yes"}}, "geometry": {"type": "Point", "coordinates": [20.4529742, 44.7937245]}}, {"type": "Feature", "properties": {"type": "node", "id": 7086753792, "tags": {"level": "0", "name": "5", "public_transport": "stop_position", "railway": "stop", "train": "yes"}}, "geometry": {"type": "Point", "coordinates": [20.453005, 44.7937741]}}, {"type": "Feature", "properties": {"type": "node", "id": 7086753793, "tags": {"level": "0", "name": "4", "public_transport": "stop_position", "railway": "stop", "train": "yes"}}, "geometry": {"type": "Point", "coordinates": [20.4530954, 44.793906]}}, {"type": "Feature", "properties": {"type": "node", "id": 7086753794, "tags": {"level": "0", "name": "3", "public_transport": "stop_position", "railway": "stop", "train": "yes"}}, "geometry": {"type": "Point", "coordinates": [20.4531348, 44.793959]}}, {"type": "Feature", "properties": {"type": "node", "id": 1779118035, "tags": {"int_name": "Karadjordjev park", "name": "\u041a\u0430\u0440\u0430\u0452\u043e\u0440\u0452\u0435\u0432 \u043f\u0430\u0440\u043a", "name:sr": "\u041a\u0430\u0440\u0430\u0452\u043e\u0440\u0452\u0435\u0432 \u043f\u0430\u0440\u043a", "name:sr-Latn": "Kara\u0111or\u0111ev park", "railway": "station", "wikidata": "Q14917237", "wikipedia": "sr:\u0416\u0435\u043b\u0435\u0437\u043d\u0438\u0447\u043a\u0430 \u0441\u0442\u0430\u043d\u0438\u0446\u0430 \u041a\u0430\u0440\u0430\u0452\u043e\u0440\u0452\u0435\u0432 \u043f\u0430\u0440\u043a"}}, "geometry": {"type": "Point", "coordinates": [20.4657188, 44.7935328]}}, {"type": "Feature", "properties": {"type": "node", "id": 6417848115, "tags": {"int_name": "Karadjordjev park", "name": "\u041a\u0430\u0440\u0430\u0452\u043e\u0440\u0452\u0435\u0432 \u043f\u0430\u0440\u043a", "name:en": "Karadjordje's Park", "name:sr": "\u041a\u0430\u0440\u0430\u0452\u043e\u0440\u0452\u0435\u0432 \u043f\u0430\u0440\u043a", "name:sr-Latn": "Kara\u0111or\u0111ev park", "network": "\u0411\u0413:\u0412\u043e\u0437", "operator": "\u0416\u0435\u043b\u0435\u0437\u043d\u0438\u0446\u0435 \u0421\u0440\u0431\u0438\u0458\u0435", "public_transport": "stop_position", "railway": "stop", "train": "yes"}}, "geometry": {"type": "Point", "coordinates": [20.4660134, 44.7937497]}}, {"type": "Feature", "properties": {"type": "node", "id": 6417848116, "tags": {"int_name": "Karadjordjev park", "name": "\u041a\u0430\u0440\u0430\u0452\u043e\u0440\u0452\u0435\u0432 \u043f\u0430\u0440\u043a", "name:en": "Karadjordje's Park", "name:sr": "\u041a\u0430\u0440\u0430\u0452\u043e\u0440\u0452\u0435\u0432 \u043f\u0430\u0440\u043a", "name:sr-Latn": "Kara\u0111or\u0111ev park", "network": "\u0411\u0413:\u0412\u043e\u0437", "operator": "\u0416\u0435\u043b\u0435\u0437\u043d\u0438\u0446\u0435 \u0421\u0440\u0431\u0438\u0458\u0435", "public_transport": "stop_position", "railway": "stop", "train": "yes"}}, "geometry": {"type": "Point", "coordinates": [20.4658969, 44.793805]}}, {"type": "Feature", "properties": {"type": "node", "id": 462552100, "tags": {"loc_name": "\u043a\u043e\u0434 \u0412\u0443\u043a\u0430", "loc_name:sr-Latn": "kod Vuka", "name": "\u0412\u0443\u043a\u043e\u0432 \u0441\u043f\u043e\u043c\u0435\u043d\u0438\u043a", "name:ru": "\u041f\u0430\u043c\u044f\u0442\u043d\u0438\u043a \u0412\u0443\u043a\u0443", "name:sr": "\u0412\u0443\u043a\u043e\u0432 \u0441\u043f\u043e\u043c\u0435\u043d\u0438\u043a", "name:sr-Latn": "Vukov spomenik", "network": "\u0411\u0413:\u0412\u043e\u0437", "operator": "\u0416\u0435\u043b\u0435\u0437\u043d\u0438\u0446\u0435 \u0421\u0440\u0431\u0438\u0458\u0435", "public_transport": "stop_position", "railway": "stop", "train": "yes"}}, "geometry": {"type": "Point", "coordinates": [20.4774605, 44.8051996]}}, {"type": "Feature", "properties": {"type": "node", "id": 2188319055, "tags": {"loc_name": "\u043a\u043e\u0434 \u0412\u0443\u043a\u0430", "loc_name:sr": "\u043a\u043e\u0434 \u0412\u0443\u043a\u0430", "loc_name:sr-Latn": "kod Vuka", "name": "\u0412\u0443\u043a\u043e\u0432 \u0441\u043f\u043e\u043c\u0435\u043d\u0438\u043a", "name:ru": "\u041f\u0430\u043c\u044f\u0442\u043d\u0438\u043a \u0412\u0443\u043a\u0443", "name:sr": "\u0412\u0443\u043a\u043e\u0432 \u0441\u043f\u043e\u043c\u0435\u043d\u0438\u043a", "name:sr-Latn": "Vukov spomenik", "network": "\u0411\u0413:\u0412\u043e\u0437", "operator": "\u0416\u0435\u043b\u0435\u0437\u043d\u0438\u0446\u0435 \u0421\u0440\u0431\u0438\u0458\u0435", "public_transport": "stop_position", "railway": "stop", "train": "yes", "wikidata": "Q781667", "wikipedia": "sr:\u0416\u0435\u043b\u0435\u0437\u043d\u0438\u0447\u043a\u0430 \u0441\u0442\u0430\u043d\u0438\u0446\u0430 \u0412\u0443\u043a\u043e\u0432 \u0441\u043f\u043e\u043c\u0435\u043d\u0438\u043a"}}, "geometry": {"type": "Point", "coordinates": [20.4777413, 44.8050568]}}, {"type": "Feature", "properties": {"type": "node", "id": 7821356922, "tags": {"loc_name": "\u043a\u043e\u0434 \u0412\u0443\u043a\u0430", "loc_name:sr": "\u043a\u043e\u0434 \u0412\u0443\u043a\u0430", "loc_name:sr-Latn": "kod Vuka", "name": "\u0412\u0443\u043a\u043e\u0432 \u0441\u043f\u043e\u043c\u0435\u043d\u0438\u043a", "name:ru": "\u041f\u0430\u043c\u044f\u0442\u043d\u0438\u043a \u0412\u0443\u043a\u0443", "name:sr": "\u0412\u0443\u043a\u043e\u0432 \u0441\u043f\u043e\u043c\u0435\u043d\u0438\u043a", "name:sr-Latn": "Vukov spomenik", "network": "\u0411\u0413:\u0412\u043e\u0437", "operator": "\u0416\u0435\u043b\u0435\u0437\u043d\u0438\u0446\u0435 \u0421\u0440\u0431\u0438\u0458\u0435", "public_transport": "station", "railway": "station", "train": "yes", "wikidata": "Q781667", "wikipedia": "sr:\u0416\u0435\u043b\u0435\u0437\u043d\u0438\u0447\u043a\u0430 \u0441\u0442\u0430\u043d\u0438\u0446\u0430 \u0412\u0443\u043a\u043e\u0432 \u0441\u043f\u043e\u043c\u0435\u043d\u0438\u043a"}}, "geometry": {"type": "Point", "coordinates": [20.4776373, 44.8051519]}}, {"type": "Feature", "properties": {"type": "node", "id": 1779115279, "tags": {"name": "\u041f\u0430\u043d\u0447\u0435\u0432\u0430\u0447\u043a\u0438 \u043c\u043e\u0441\u0442", "name:sr": "\u041f\u0430\u043d\u0447\u0435\u0432\u0430\u0447\u043a\u0438 \u043c\u043e\u0441\u0442", "name:sr-Latn": "Pan\u010deva\u010dki most", "public_transport": "station", "railway": "station", "wikidata": "Q3097247", "wikipedia": "sr:\u0416\u0435\u043b\u0435\u0437\u043d\u0438\u0447\u043a\u0430 \u0441\u0442\u0430\u043d\u0438\u0446\u0430 \u041f\u0430\u043d\u0447\u0435\u0432\u0430\u0447\u043a\u0438 \u043c\u043e\u0441\u0442"}}, "geometry": {"type": "Point", "coordinates": [20.4903693, 44.8200339]}}, {"type": "Feature", "properties": {"type": "node", "id": 6417848124, "tags": {"name": "\u041f\u0430\u043d\u0447\u0435\u0432\u0430\u0447\u043a\u0438 \u043c\u043e\u0441\u0442", "name:en": "Pancevo Bridge", "name:sr": "\u041f\u0430\u043d\u0447\u0435\u0432\u0430\u0447\u043a\u0438 \u043c\u043e\u0441\u0442", "name:sr-Latn": "Pan\u010deva\u010dki most", "network": "\u0411\u0413:\u0412\u043e\u0437", "operator": "\u0416\u0435\u043b\u0435\u0437\u043d\u0438\u0446\u0435 \u0421\u0440\u0431\u0438\u0458\u0435", "public_transport": "stop_position", "train": "yes"}}, "geometry": {"type": "Point", "coordinates": [20.4903031, 44.8198918]}}, {"type": "Feature", "properties": {"type": "node", "id": 6417848125, "tags": {"name": "\u041f\u0430\u043d\u0447\u0435\u0432\u0430\u0447\u043a\u0438 \u043c\u043e\u0441\u0442", "name:en": "Pancevo Bridge", "name:sr": "\u041f\u0430\u043d\u0447\u0435\u0432\u0430\u0447\u043a\u0438 \u043c\u043e\u0441\u0442", "name:sr-Latn": "Pan\u010deva\u010dki most", "network": "\u0411\u0413:\u0412\u043e\u0437", "operator": "\u0416\u0435\u043b\u0435\u0437\u043d\u0438\u0446\u0435 \u0421\u0440\u0431\u0438\u0458\u0435", "public_transport": "stop_position", "train": "yes"}}, "geometry": {"type": "Point", "coordinates": [20.4904425, 44.8201642]}}, {"type": "Feature", "properties": {"type": "node", "id": 6417848122, "tags": {"name": "\u041a\u0440\u045a\u0430\u0447\u0430 \u043c\u043e\u0441\u0442", "name:en": "Krnjaca Bridge", "name:sr": "\u041a\u0440\u045a\u0430\u0447\u0430 \u043c\u043e\u0441\u0442", "name:sr-Latn": "Krnja\u010da most", "network": "\u0411\u0413:\u0412\u043e\u0437", "operator": "\u0416\u0435\u043b\u0435\u0437\u043d\u0438\u0446\u0435 \u0421\u0440\u0431\u0438\u0458\u0435", "public_transport": "stop_position", "train": "yes"}}, "geometry": {"type": "Point", "coordinates": [20.4978919, 44.8408496]}}, {"type": "Feature", "properties": {"type": "node", "id": 6417848123, "tags": {"name": "\u041a\u0440\u045a\u0430\u0447\u0430 \u043c\u043e\u0441\u0442", "name:en": "Krnjaca Bridge", "name:sr": "\u041a\u0440\u045a\u0430\u0447\u0430 \u043c\u043e\u0441\u0442", "name:sr-Latn": "Krnja\u010da most", "network": "\u0411\u0413:\u0412\u043e\u0437", "operator": "\u0416\u0435\u043b\u0435\u0437\u043d\u0438\u0446\u0435 \u0421\u0440\u0431\u0438\u0458\u0435", "public_transport": "stop_position", "train": "yes"}}, "geometry": {"type": "Point", "coordinates": [20.4979839, 44.8408003]}}, {"type": "Feature", "properties": {"type": "node", "id": 6417848120, "tags": {"alt_name": "\u041a\u0440\u045a\u0430\u0447\u0430 \u0443\u043a\u0440\u0441\u043d\u0438\u0446\u0430", "alt_name:sr": "\u041a\u0440\u045a\u0430\u0447\u0430 \u0443\u043a\u0440\u0441\u043d\u0438\u0446\u0430", "alt_name:sr-Latn": "Krnja\u010da ukrsnica", "name": "\u041a\u0440\u045a\u0430\u0447\u0430", "name:en": "Krnjaca", "name:sr": "\u041a\u0440\u045a\u0430\u0447\u0430", "name:sr-Latn": "Krnja\u010da", "network": "\u0411\u0413:\u0412\u043e\u0437", "operator": "\u0416\u0435\u043b\u0435\u0437\u043d\u0438\u0446\u0435 \u0421\u0440\u0431\u0438\u0458\u0435", "public_transport": "stop_position", "train": "yes"}}, "geometry": {"type": "Point", "coordinates": [20.5053933, 44.8480348]}}, {"type": "Feature", "properties": {"type": "node", "id": 6417848121, "tags": {"alt_name": "\u041a\u0440\u045a\u0430\u0447\u0430 \u0443\u043a\u0440\u0441\u043d\u0438\u0446\u0430", "alt_name:sr": "\u041a\u0440\u045a\u0430\u0447\u0430 \u0443\u043a\u0440\u0441\u043d\u0438\u0446\u0430", "alt_name:sr-Latn": "Krnja\u010da ukrsnica", "name": "\u041a\u0440\u045a\u0430\u0447\u0430", "name:en": "Krnjaca", "name:sr": "\u041a\u0440\u045a\u0430\u0447\u0430", "name:sr-Latn": "Krnja\u010da", "network": "\u0411\u0413:\u0412\u043e\u0437", "operator": "\u0416\u0435\u043b\u0435\u0437\u043d\u0438\u0446\u0435 \u0421\u0440\u0431\u0438\u0458\u0435", "public_transport": "stop_position", "train": "yes"}}, "geometry": {"type": "Point", "coordinates": [20.5055575, 44.8479458]}}, {"type": "Feature", "properties": {"type": "node", "id": 6417848118, "tags": {"name": "\u0421\u0435\u0431\u0435\u0448", "name:sr": "\u0421\u0435\u0431\u0435\u0448", "name:sr-Latn": "Sebe\u0161", "network": "\u0411\u0413:\u0412\u043e\u0437", "operator": "\u0416\u0435\u043b\u0435\u0437\u043d\u0438\u0446\u0435 \u0421\u0440\u0431\u0438\u0458\u0435", "public_transport": "stop_position", "train": "yes"}}, "geometry": {"type": "Point", "coordinates": [20.5194939, 44.8612621]}}, {"type": "Feature", "properties": {"type": "node", "id": 6417848119, "tags": {"name": "\u0421\u0435\u0431\u0435\u0448", "name:sr": "\u0421\u0435\u0431\u0435\u0448", "name:sr-Latn": "Sebe\u0161", "network": "\u0411\u0413:\u0412\u043e\u0437", "operator": "\u0416\u0435\u043b\u0435\u0437\u043d\u0438\u0446\u0435 \u0421\u0440\u0431\u0438\u0458\u0435", "public_transport": "stop_position", "train": "yes"}}, "geometry": {"type": "Point", "coordinates": [20.5195461, 44.8612338]}}, {"type": "Feature", "properties": {"type": "node", "id": 3875013378, "tags": {"name": "\u041e\u0432\u0447\u0430", "name:en": "Ov\u010da", "name:hu": "B\u00e1r\u00e1nyos", "name:sr": "\u041e\u0432\u0447\u0430", "name:sr-Latn": "Ov\u010da", "public_transport": "station", "railway": "station", "wikidata": "Q28973086", "wikipedia": "sr:\u0416\u0435\u043b\u0435\u0437\u043d\u0438\u0447\u043a\u0430 \u0441\u0442\u0430\u043d\u0438\u0446\u0430 \u041e\u0432\u0447\u0430"}}, "geometry": {"type": "Point", "coordinates": [20.5439041, 44.8753679]}}, {"type": "Feature", "properties": {"type": "node", "id": 6417848117, "tags": {"name": "\u041e\u0432\u0447\u0430", "name:sr": "\u041e\u0432\u0447\u0430", "name:sr-Latn": "Ov\u010da", "network": "\u0411\u0413:\u0412\u043e\u0437", "operator": "\u0416\u0435\u043b\u0435\u0437\u043d\u0438\u0446\u0435 \u0421\u0440\u0431\u0438\u0458\u0435", "public_transport": "stop_position", "railway": "stop", "train": "yes"}}, "geometry": {"type": "Point", "coordinates": [20.5437016, 44.875325]}}, {"type": "Feature", "properties": {"type": "node", "id": 475574544, "tags": {"name": "\u0421\u043e\u043f\u043e\u0442 \u041a\u043e\u0441\u043c\u0430\u0458\u0441\u043a\u0438", "name:sr": "\u0421\u043e\u043f\u043e\u0442 \u041a\u043e\u0441\u043c\u0430\u0458\u0441\u043a\u0438", "name:sr-Latn": "Sopot Kosmajski", "public_transport": "station", "railway": "station", "wikidata": "Q31182319", "wikipedia": "sr:\u0416\u0435\u043b\u0435\u0437\u043d\u0438\u0447\u043a\u0430 \u0441\u0442\u0430\u043d\u0438\u0446\u0430 \u0421\u043e\u043f\u043e\u0442 \u041a\u043e\u0441\u043c\u0430\u0458\u0441\u043a\u0438"}}, "geometry": {"type": "Point", "coordinates": [20.6114494, 44.5236745]}}, {"type": "Feature", "properties": {"type": "node", "id": 2203580207, "tags": {"name": "\u0421\u043e\u043f\u043e\u0442 \u041a\u043e\u0441\u043c\u0430\u0458\u0441\u043a\u0438", "name:sr": "\u0421\u043e\u043f\u043e\u0442 \u041a\u043e\u0441\u043c\u0430\u0458\u0441\u043a\u0438", "name:sr-Latn": "Sopot Kosmajski", "public_transport": "stop_position", "railway": "stop", "train": "yes"}}, "geometry": {"type": "Point", "coordinates": [20.6115985, 44.5237875]}}, {"type": "Feature", "properties": {"type": "node", "id": 7844684187, "tags": {"name": "\u0421\u043e\u043f\u043e\u0442 \u041a\u043e\u0441\u043c\u0430\u0458\u0441\u043a\u0438", "name:sr": "\u0421\u043e\u043f\u043e\u0442 \u041a\u043e\u0441\u043c\u0430\u0458\u0441\u043a\u0438", "name:sr-Latn": "Sopot Kosmajski", "public_transport": "stop_position", "railway": "stop", "train": "yes"}}, "geometry": {"type": "Point", "coordinates": [20.6115668, 44.5237539]}}, {"type": "Feature", "properties": {"type": "node", "id": 1843585810, "tags": {"name": "\u0420\u0430\u0459\u0430", "name:sr": "\u0420\u0430\u0459\u0430", "name:sr-Latn": "Ralja", "public_transport": "station", "railway": "station"}}, "geometry": {"type": "Point", "coordinates": [20.5609984, 44.5685527]}}, {"type": "Feature", "properties": {"type": "node", "id": 1843630339, "tags": {"name": "\u041c\u0430\u043b\u0430 \u0418\u0432\u0430\u043d\u0447\u0430", "name:sr": "\u041c\u0430\u043b\u0430 \u0418\u0432\u0430\u043d\u0447\u0430", "name:sr-Latn": "Mala Ivan\u010da", "public_transport": "station", "railway": "station"}}, "geometry": {"type": "Point", "coordinates": [20.6150241, 44.5774158]}}, {"type": "Feature", "properties": {"type": "node", "id": 2203249176, "tags": {"name": "\u041c\u0430\u043b\u0430 \u0418\u0432\u0430\u043d\u0447\u0430", "name:sr": "\u041c\u0430\u043b\u0430 \u0418\u0432\u0430\u043d\u0447\u0430", "name:sr-Latn": "Mala Ivan\u010da", "public_transport": "station", "railway": "station"}}, "geometry": {"type": "Point", "coordinates": [20.6148814, 44.577289]}}, {"type": "Feature", "properties": {"type": "node", "id": 7932358019, "tags": {"name": "\u0412\u043b\u0430\u0448\u043a\u043e \u041f\u043e\u0459\u0435", "name:sr": "\u0412\u043b\u0430\u0448\u043a\u043e \u041f\u043e\u0459\u0435", "name:sr-Latn": "Vla\u0161ko Polje", "public_transport": "station", "railway": "station", "train": "yes", "wikidata": "Q31182321", "wikipedia": "sr:\u0416\u0435\u043b\u0435\u0437\u043d\u0438\u0447\u043a\u0430 \u0441\u0442\u0430\u043d\u0438\u0446\u0430 \u0412\u043b\u0430\u0448\u043a\u043e \u041f\u043e\u0459\u0435"}}, "geometry": {"type": "Point", "coordinates": [20.660348, 44.4805787]}}, {"type": "Feature", "properties": {"type": "node", "id": 1843629122, "tags": {"name": "\u041c\u0430\u043b\u0438 \u041f\u043e\u0436\u0430\u0440\u0435\u0432\u0430\u0446", "name:sr": "\u041c\u0430\u043b\u0438 \u041f\u043e\u0436\u0430\u0440\u0435\u0432\u0430\u0446", "name:sr-Latn": "Mali Po\u017earevac", "railway": "station"}}, "geometry": {"type": "Point", "coordinates": [20.6656478, 44.5693125]}}, {"type": "Feature", "properties": {"type": "node", "id": 1843626802, "tags": {"name": "\u0423\u043c\u0447\u0430\u0440\u0438", "name:sr": "\u0423\u043c\u0447\u0430\u0440\u0438", "name:sr-Latn": "Um\u010dari", "railway": "station"}}, "geometry": {"type": "Point", "coordinates": [20.74493, 44.5789882]}}, {"type": "Feature", "properties": {"type": "node", "id": 1843630968, "tags": {"name": "\u041b\u0438\u043f\u0435", "name:sr": "\u041b\u0438\u043f\u0435", "name:sr-Latn": "Lipe", "public_transport": "station", "railway": "station"}}, "geometry": {"type": "Point", "coordinates": [20.5808268, 44.6197358]}}, {"type": "Feature", "properties": {"type": "node", "id": 1843631929, "tags": {"name": "\u0412\u0440\u0447\u0438\u043d", "name:sr": "\u0412\u0440\u0447\u0438\u043d", "name:sr-Latn": "Vr\u010din", "public_transport": "station", "railway": "station"}}, "geometry": {"type": "Point", "coordinates": [20.5822114, 44.6714468]}}, {"type": "Feature", "properties": {"type": "node", "id": 7940056228, "tags": {"name": "\u0412\u0440\u0447\u0438\u043d", "name:sr": "\u0412\u0440\u0447\u0438\u043d", "name:sr-Latn": "Vr\u010din", "public_transport": "stop_position", "railway": "stop", "train": "yes"}}, "geometry": {"type": "Point", "coordinates": [20.5824019, 44.6715386]}}, {"type": "Feature", "properties": {"type": "node", "id": 1546462230, "tags": {"name": "\u0412\u043e\u0434\u0430\u045a", "name:sr": "\u0412\u043e\u0434\u0430\u045a", "name:sr-Latn": "Vodanj", "public_transport": "station", "railway": "station"}}, "geometry": {"type": "Point", "coordinates": [20.835393, 44.5906544]}}, {"type": "Feature", "properties": {"type": "node", "id": 1843624940, "tags": {"name": "\u041a\u043e\u043b\u0430\u0440\u0438", "name:sr": "\u041a\u043e\u043b\u0430\u0440\u0438", "name:sr-Latn": "Kolari", "railway": "station"}}, "geometry": {"type": "Point", "coordinates": [20.9002178, 44.5817088]}}, {"type": "Feature", "properties": {"type": "node", "id": 1843617197, "tags": {"name": "\u0420\u0430\u0434\u0438\u043d\u0430\u0446", "name:en": "Radinac", "name:sr": "\u0420\u0430\u0434\u0438\u043d\u0430\u0446", "name:sr-Latn": "Radinac", "railway": "station"}}, "geometry": {"type": "Point", "coordinates": [20.9683807, 44.6166776]}}, {"type": "Feature", "properties": {"type": "node", "id": 7825940182, "tags": {"name": "\u0421\u043c\u0435\u0434\u0435\u0440\u0435\u0432\u043e", "name:en": "Smederevo", "name:sr": "\u0421\u043c\u0435\u0434\u0435\u0440\u0435\u0432\u043e", "name:sr-Latn": "Smederevo", "public_transport": "station", "railway": "station", "train": "yes"}}, "geometry": {"type": "Point", "coordinates": [20.926878, 44.6678003]}}, {"type": "Feature", "properties": {"type": "node", "id": 3642619816, "tags": {"name": "\u041f\u0430\u043d\u0447\u0435\u0432\u043e \u0413\u043b\u0430\u0432\u043d\u0430", "name:hu": "Pancsova f\u0151p\u00e1lyaudvar", "name:sr-Latn": "Pan\u010devo Glavna", "railway": "station", "railway:ref:DB": "XJPC"}}, "geometry": {"type": "Point", "coordinates": [20.6374024, 44.8875281]}}, {"type": "Feature", "properties": {"type": "node", "id": 3642601256, "tags": {"name": "\u041f\u0430\u043d\u0447\u0435\u0432\u043e \u0412\u0430\u0440\u043e\u0448", "name:hu": "Pancsova-J\u00f3zsefv\u00e1ros", "name:sr": "\u041f\u0430\u043d\u0447\u0435\u0432\u043e \u0412\u0430\u0440\u043e\u0448", "name:sr-Latn": "Pan\u010devo Varo\u0161", "public_transport": "station", "railway": "station"}}, "geometry": {"type": "Point", "coordinates": [20.6605897, 44.8790482]}}, {"type": "Feature", "properties": {"type": "node", "id": 2188973500, "tags": {"name": "\u041a\u043e\u0432\u0438\u043d", "public_transport": "station", "railway": "station", "train": "yes"}}, "geometry": {"type": "Point", "coordinates": [20.9660503, 44.7518269]}}, {"type": "Feature", "properties": {"type": "node", "id": 2188973537, "tags": {"name": "\u0411\u0430\u0432\u0430\u043d\u0438\u0448\u0442\u0435", "public_transport": "station", "railway": "station", "train": "yes"}}, "geometry": {"type": "Point", "coordinates": [20.8916612, 44.8101539]}}, {"type": "Feature", "properties": {"type": "node", "id": 475574786, "tags": {"name": "\u0411\u0430\u0434\u045a\u0435\u0432\u0430\u0446", "name:sr": "\u0411\u0430\u0434\u045a\u0435\u0432\u0430\u0446", "name:sr-Latn": "Badnjevac", "railway": "station"}}, "geometry": {"type": "Point", "coordinates": [20.9801588, 44.1300281]}}, {"type": "Feature", "properties": {"type": "node", "id": 475574807, "tags": {"name": "\u0413\u0440\u0430\u0434\u0430\u0446", "name:sr": "\u0413\u0440\u0430\u0434\u0430\u0446", "name:sr-Latn": "Gradac", "railway": "station"}}, "geometry": {"type": "Point", "coordinates": [21.0216575, 44.1464152]}}, {"type": "Feature", "properties": {"type": "node", "id": 475574795, "tags": {"name": "\u0411\u0430\u0442\u043e\u0447\u0438\u043d\u0430", "name:sr": "\u0411\u0430\u0442\u043e\u0447\u0438\u043d\u0430", "name:sr-Latn": "Bato\u010dina", "public_transport": "station", "railway": "station"}}, "geometry": {"type": "Point", "coordinates": [21.0752592, 44.155588]}}, {"type": "Feature", "properties": {"type": "node", "id": 1828422772, "tags": {"name": "\u0411\u0430\u0433\u0440\u0434\u0430\u043d", "name:sr": "\u0411\u0430\u0433\u0440\u0434\u0430\u043d", "name:sr-Latn": "Bagrdan", "public_transport": "station", "railway": "station"}}, "geometry": {"type": "Point", "coordinates": [21.1801194, 44.0831335]}}, {"type": "Feature", "properties": {"type": "node", "id": 475574753, "tags": {"name": "\u041b\u0430\u043f\u043e\u0432\u043e", "name:en": "Lapovo", "name:sr": "\u041b\u0430\u043f\u043e\u0432\u043e", "name:sr-Latn": "Lapovo", "public_transport": "station", "railway": "station"}}, "geometry": {"type": "Point", "coordinates": [21.1022309, 44.1577208]}}, {"type": "Feature", "properties": {"type": "node", "id": 1843795663, "tags": {"name": "\u041b\u0430\u043f\u043e\u0432\u043e \u0440\u0430\u043d\u0436\u0438\u0440\u043d\u0430", "name:sr": "\u041b\u0430\u043f\u043e\u0432\u043e \u0440\u0430\u043d\u0436\u0438\u0440\u043d\u0430", "name:sr-Latn": "Lapovo ran\u017eirna", "public_transport": "station", "railway": "station"}}, "geometry": {"type": "Point", "coordinates": [21.0989908, 44.1681545]}}, {"type": "Feature", "properties": {"type": "node", "id": 475574750, "tags": {"name": "\u041b\u0430\u043f\u043e\u0432\u043e \u0412\u0430\u0440\u043e\u0448", "name:en": "Lapovo Varos", "name:sr": "\u041b\u0430\u043f\u043e\u0432\u043e \u0412\u0430\u0440\u043e\u0448", "name:sr-Latn": "Lapovo Varo\u0161", "public_transport": "station", "railway": "station"}}, "geometry": {"type": "Point", "coordinates": [21.1025772, 44.1865277]}}, {"type": "Feature", "properties": {"type": "node", "id": 475574718, "tags": {"name": "\u041c\u0430\u0440\u043a\u043e\u0432\u0430\u0446", "name:en": "Markovac", "name:sr": "\u041c\u0430\u0440\u043a\u043e\u0432\u0430\u0446", "name:sr-Latn": "Markovac", "railway": "station"}}, "geometry": {"type": "Point", "coordinates": [21.0963742, 44.2391123]}}, {"type": "Feature", "properties": {"type": "node", "id": 1547101357, "tags": {"name": "\u041c\u0430\u043b\u0430 \u041f\u043b\u0430\u043d\u0430", "name:en": "Mala Plana", "name:sr": "\u041c\u0430\u043b\u0430 \u041f\u043b\u0430\u043d\u0430", "name:sr-Latn": "Mala Plana", "railway": "station"}}, "geometry": {"type": "Point", "coordinates": [21.0349553, 44.3368602]}}, {"type": "Feature", "properties": {"type": "node", "id": 475574716, "tags": {"name": "\u0412\u0435\u043b\u0438\u043a\u0430 \u041f\u043b\u0430\u043d\u0430", "name:en": "Velika Plana", "name:sr": "\u0412\u0435\u043b\u0438\u043a\u0430 \u041f\u043b\u0430\u043d\u0430", "name:sr-Latn": "Velika Plana", "public_transport": "station", "railway": "station", "train": "yes"}}, "geometry": {"type": "Point", "coordinates": [21.0826417, 44.3251661]}}, {"type": "Feature", "properties": {"type": "node", "id": 1843610956, "tags": {"name": "\u041a\u0440\u045a\u0435\u0432\u043e-\u0422\u0440\u043d\u043e\u0432\u0447\u0435", "name:sr": "\u041a\u0440\u045a\u0435\u0432\u043e-\u0422\u0440\u043d\u043e\u0432\u0447\u0435", "name:sr-Latn": "Krnjevo-Trnov\u010de", "public_transport": "station", "railway": "station"}}, "geometry": {"type": "Point", "coordinates": [21.0727624, 44.410286]}}, {"type": "Feature", "properties": {"type": "node", "id": 1843610177, "tags": {"name": "\u0412\u0435\u043b\u0438\u043a\u043e \u041e\u0440\u0430\u0448\u0458\u0435", "name:sr": "\u0412\u0435\u043b\u0438\u043a\u043e \u041e\u0440\u0430\u0448\u0458\u0435", "name:sr-Latn": "Veliko Ora\u0161je", "railway": "station"}}, "geometry": {"type": "Point", "coordinates": [21.078363, 44.3725632]}}, {"type": "Feature", "properties": {"type": "node", "id": 2381013878, "tags": {"name": "\u041a\u0443\u0447\u0435\u0432\u043e", "name:en": "Kucevo", "name:sr": "\u041a\u0443\u0447\u0435\u0432\u043e", "name:sr-Latn": "Ku\u010devo", "railway": "station"}}, "geometry": {"type": "Point", "coordinates": [21.6752875, 44.4722513]}}, {"type": "Feature", "properties": {"type": "node", "id": 6830205888, "tags": {"name": "Voluja", "public_transport": "station", "railway": "station"}}, "geometry": {"type": "Point", "coordinates": [21.7396917, 44.4670292]}}, {"type": "Feature", "properties": {"type": "node", "id": 1843612278, "tags": {"name": "\u041b\u043e\u0437\u043e\u0432\u0438\u043a-\u0421\u0430\u0440\u0430\u043e\u0440\u0446\u0438", "name:sr": "\u041b\u043e\u0437\u043e\u0432\u0438\u043a-\u0421\u0430\u0440\u0430\u043e\u0440\u0446\u0438", "name:sr-Latn": "Lozovik-Saraorci", "railway": "station"}}, "geometry": {"type": "Point", "coordinates": [21.0702368, 44.4770451]}}, {"type": "Feature", "properties": {"type": "node", "id": 1843613438, "tags": {"name": "\u041e\u0441\u0438\u043f\u0430\u043e\u043d\u0438\u0446\u0430", "name:en": "Osipaonica", "name:sr": "\u041e\u0441\u0438\u043f\u0430\u043e\u043d\u0438\u0446\u0430", "name:sr-Latn": "Osipaonica", "public_transport": "station", "railway": "station"}}, "geometry": {"type": "Point", "coordinates": [21.0562294, 44.5347514]}}, {"type": "Feature", "properties": {"type": "node", "id": 1742994698, "tags": {"name": "\u041c\u0430\u043b\u0430 \u041a\u0440\u0441\u043d\u0430", "name:en": "Mala Krsna", "name:sr": "\u041c\u0430\u043b\u0430 \u041a\u0440\u0441\u043d\u0430", "name:sr-Latn": "Mala Krsna", "public_transport": "station", "railway": "station"}}, "geometry": {"type": "Point", "coordinates": [21.0024105, 44.5846418]}}, {"type": "Feature", "properties": {"type": "node", "id": 1742994694, "tags": {"name": "\u041f\u043e\u0436\u0430\u0440\u0435\u0432\u0430\u0446", "name:en": "Pozarevac", "name:sr": "\u041f\u043e\u0436\u0430\u0440\u0435\u0432\u0430\u0446", "name:sr-Latn": "Po\u017earevac", "public_transport": "station", "railway": "station"}}, "geometry": {"type": "Point", "coordinates": [21.1870761, 44.6140312]}}, {"type": "Feature", "properties": {"type": "node", "id": 2381005353, "tags": {"name": "\u0421\u0442\u0438\u0433", "name:en": "Stig", "name:sr": "\u0421\u0442\u0438\u0433", "name:sr-Latn": "Stig", "public_transport": "station", "railway": "station"}}, "geometry": {"type": "Point", "coordinates": [21.3149202, 44.6725755]}}, {"type": "Feature", "properties": {"type": "node", "id": 7857113574, "tags": {"name": "\u0421\u0442\u0438\u0433", "name:en": "Stig", "name:sr": "\u0421\u0442\u0438\u0433", "name:sr-Latn": "Stig", "public_transport": "stop_position", "railway": "stop", "train": "yes"}}, "geometry": {"type": "Point", "coordinates": [21.3147771, 44.6727101]}}, {"type": "Feature", "properties": {"type": "node", "id": 8116988206, "tags": {"name": "\u041c\u0440\u0430\u043c\u043e\u0440\u0430\u043a", "public_transport": "station", "railway": "station", "train": "yes"}}, "geometry": {"type": "Point", "coordinates": [20.9963082, 44.8573741]}}, {"type": "Feature", "properties": {"type": "node", "id": 2381009129, "tags": {"name": "\u0417\u0432\u0438\u0436\u0434", "name:en": "Zvizd", "name:sr": "\u0417\u0432\u0438\u0436\u0434", "name:sr-Latn": "Zvi\u017ed", "railway": "station"}}, "geometry": {"type": "Point", "coordinates": [21.5945748, 44.5315581]}}, {"type": "Feature", "properties": {"type": "node", "id": 2381006791, "tags": {"name": "\u0427\u0435\u0448\u0459\u0435\u0432\u0430 \u0411\u0430\u0440\u0430", "name:en": "Cesljeva Bara", "name:sr": "\u0427\u0435\u0448\u0459\u0435\u0432\u0430 \u0411\u0430\u0440\u0430", "name:sr-Latn": "\u010ce\u0161ljeva Bara", "public_transport": "station", "railway": "station"}}, "geometry": {"type": "Point", "coordinates": [21.4899203, 44.6241346]}}, {"type": "Feature", "properties": {"type": "node", "id": 2381007355, "tags": {"name": "\u0420\u0430\u0431\u0440\u043e\u0432\u043e-\u041a\u043b\u0435\u045a\u0435", "name:sr": "\u0420\u0430\u0431\u0440\u043e\u0432\u043e-\u041a\u043b\u0435\u045a\u0435", "name:sr-Latn": "Rabrovo-Klenje", "railway": "station"}}, "geometry": {"type": "Point", "coordinates": [21.5135511, 44.5960231]}}, {"type": "Feature", "properties": {"type": "node", "id": 2381013383, "tags": {"name": "\u041a\u0430\u043e\u043d\u0430", "name:en": "Kaona", "name:sr": "\u041a\u0430\u043e\u043d\u0430", "name:sr-Latn": "Kaona", "railway": "station"}}, "geometry": {"type": "Point", "coordinates": [21.6351939, 44.4891322]}}, {"type": "Feature", "properties": {"type": "node", "id": 1615549536, "tags": {"disused:railway": "station", "internet_access": "no", "name": "\u0412\u043e\u043b\u0443\u0458\u0430", "name:en": "Voluja", "name:sr": "\u0412\u043e\u043b\u0443\u0458\u0430", "name:sr-Latn": "Voluja", "operator": "\u017deleznice Srbije", "public_transport": "station", "railway": "station", "train": "yes"}}, "geometry": {"type": "Point", "coordinates": [21.7787428, 44.4836999]}}, {"type": "Feature", "properties": {"type": "node", "id": 408157341, "tags": {"name": "\u0411\u0435\u043b\u043e\u0442\u0438\u043d\u0446\u0435", "name:sr": "\u0411\u0435\u043b\u043e\u0442\u0438\u043d\u0446\u0435", "name:sr-Latn": "Belotince", "railway": "station"}}, "geometry": {"type": "Point", "coordinates": [21.8418449, 43.2646506]}}, {"type": "Feature", "properties": {"type": "node", "id": 1845426525, "tags": {"int_name": "Medjurovo", "name": "\u041c\u0435\u0452\u0443\u0440\u043e\u0432\u043e", "name:sr": "\u041c\u0435\u0452\u0443\u0440\u043e\u0432\u043e", "name:sr-Latn": "Me\u0111urovo", "public_transport": "station", "railway": "station"}}, "geometry": {"type": "Point", "coordinates": [21.8301081, 43.3039475]}}, {"type": "Feature", "properties": {"type": "node", "id": 1601596124, "tags": {"name": "\u041d\u0438\u0448", "name:sr": "\u041d\u0438\u0448", "name:sr-Latn": "Ni\u0161", "public_transport": "station", "railway": "station"}}, "geometry": {"type": "Point", "coordinates": [21.8773466, 43.3165977]}}, {"type": "Feature", "properties": {"type": "node", "id": 1947216956, "tags": {"name": "\u040b\u0435\u043b\u0435 \u043a\u0443\u043b\u0430", "name:sr": "\u040b\u0435\u043b\u0435 \u043a\u0443\u043b\u0430", "name:sr-Latn": "\u0106ele kula", "railway": "station"}}, "geometry": {"type": "Point", "coordinates": [21.9430349, 43.3082766]}}, {"type": "Feature", "properties": {"type": "node", "id": 1055727675, "tags": {"name": "\u041d\u0438\u0448\u043a\u0430 \u0411\u0430\u045a\u0430", "name:en": "Niska Banja", "name:sr": "\u041d\u0438\u0448\u043a\u0430 \u0411\u0430\u045a\u0430", "name:sr-Latn": "Ni\u0161ka Banja", "public_transport": "station", "railway": "station"}}, "geometry": {"type": "Point", "coordinates": [22.0040658, 43.3005528]}}, {"type": "Feature", "properties": {"type": "node", "id": 1948663786, "tags": {"name": "\u0414\u043e\u043b\u0430\u0446", "name:en": "Dolac", "name:sr": "\u0414\u043e\u043b\u0430\u0446", "name:sr-Latn": "Dolac", "railway": "station"}}, "geometry": {"type": "Point", "coordinates": [22.2072103, 43.2958605]}}, {"type": "Feature", "properties": {"type": "node", "id": 1947220070, "tags": {"name": "\u041e\u0441\u0442\u0440\u043e\u0432\u0438\u0446\u0430", "name:en": "Ostrovica", "name:sr": "\u041e\u0441\u0442\u0440\u043e\u0432\u0438\u0446\u0430", "name:sr-Latn": "Ostrovica", "railway": "station"}}, "geometry": {"type": "Point", "coordinates": [22.1183205, 43.3331484]}}, {"type": "Feature", "properties": {"type": "node", "id": 1845356833, "tags": {"name": "\u041f\u043e\u0434\u0432\u0438\u0441", "name:sr": "\u041f\u043e\u0434\u0432\u0438\u0441", "name:sr-Latn": "Podvis", "public_transport": "station", "railway": "station", "train": "yes"}}, "geometry": {"type": "Point", "coordinates": [22.1884095, 43.5454999]}}, {"type": "Feature", "properties": {"type": "node", "id": 1845357864, "tags": {"name": "\u0420\u0433\u043e\u0448\u0442\u0435", "name:en": "Rgoste", "name:sr": "\u0420\u0433\u043e\u0448\u0442\u0435", "name:sr-Latn": "Rgo\u0161te", "public_transport": "station", "railway": "station", "train": "yes"}}, "geometry": {"type": "Point", "coordinates": [22.2082801, 43.551189]}}, {"type": "Feature", "properties": {"type": "node", "id": 1948663525, "tags": {"name": "\u0426\u0440\u0432\u0435\u043d\u0430 \u0420\u0435\u043a\u0430", "name:sr": "\u0426\u0440\u0432\u0435\u043d\u0430 \u0420\u0435\u043a\u0430", "name:sr-Latn": "Crvena Reka", "railway": "station"}}, "geometry": {"type": "Point", "coordinates": [22.2467822, 43.267642]}}, {"type": "Feature", "properties": {"type": "node", "id": 7250184235, "tags": {"name": "\u0411\u0435\u043b\u0430 \u041f\u0430\u043b\u0430\u043d\u043a\u0430", "name:en": "Bela Palanka", "public_transport": "stop_position", "railway": "stop", "train": "yes"}}, "geometry": {"type": "Point", "coordinates": [22.3176511, 43.2216959]}}, {"type": "Feature", "properties": {"type": "node", "id": 1948662098, "tags": {"name": "\u0427\u0438\u0444\u043b\u0438\u043a", "name:en": "Ciflik", "name:sr": "\u0427\u0438\u0444\u043b\u0438\u043a", "name:sr-Latn": "\u010ciflik", "railway": "station"}}, "geometry": {"type": "Point", "coordinates": [22.4093683, 43.2257916]}}, {"type": "Feature", "properties": {"type": "node", "id": 368025815, "tags": {"name": "\u041a\u045a\u0430\u0436\u0435\u0432\u0430\u0446", "name:en": "Knjazevac", "name:sr": "\u041a\u045a\u0430\u0436\u0435\u0432\u0430\u0446", "name:sr-Latn": "Knja\u017eevac", "railway": "station"}}, "geometry": {"type": "Point", "coordinates": [22.2513857, 43.5714176]}}, {"type": "Feature", "properties": {"type": "node", "id": 1845358609, "tags": {"name": "\u0413\u043e\u0440\u045a\u0435 \u0417\u0443\u043d\u0438\u0447\u0435", "name:sr": "\u0413\u043e\u0440\u045a\u0435 \u0417\u0443\u043d\u0438\u0447\u0435", "name:sr-Latn": "Gornje Zuni\u010de", "railway": "station"}}, "geometry": {"type": "Point", "coordinates": [22.2719936, 43.6006289]}}, {"type": "Feature", "properties": {"type": "node", "id": 1845358862, "tags": {"name": "\u0414\u043e\u045a\u0435 \u0417\u0443\u043d\u0438\u0447\u0435", "name:sr": "\u0414\u043e\u045a\u0435 \u0417\u0443\u043d\u0438\u0447\u0435", "name:sr-Latn": "Donje Zuni\u010de", "railway": "station"}}, "geometry": {"type": "Point", "coordinates": [22.2740892, 43.6232764]}}, {"type": "Feature", "properties": {"type": "node", "id": 6830232694, "tags": {"name": "Borska Slatina", "railway": "station"}}, "geometry": {"type": "Point", "coordinates": [22.1514716, 44.0503749]}}, {"type": "Feature", "properties": {"type": "node", "id": 1845360219, "tags": {"name": "\u041c\u0438\u043d\u0438\u045b\u0435\u0432\u043e", "name:sr": "\u041c\u0438\u043d\u0438\u045b\u0435\u0432\u043e", "name:sr-Latn": "Mini\u0107evo", "railway": "station"}}, "geometry": {"type": "Point", "coordinates": [22.2898018, 43.6839348]}}, {"type": "Feature", "properties": {"type": "node", "id": 1845362038, "tags": {"name": "\u0421\u0435\u043b\u0430\u0447\u043a\u0430 \u0420\u0435\u043a\u0430", "name:sr": "\u0421\u0435\u043b\u0430\u0447\u043a\u0430 \u0420\u0435\u043a\u0430", "name:sr-Latn": "Sela\u010dka Reka", "railway": "station"}}, "geometry": {"type": "Point", "coordinates": [22.3007832, 43.7077999]}}, {"type": "Feature", "properties": {"type": "node", "id": 1845363387, "tags": {"name": "\u041c\u0430\u043b\u0438 \u0418\u0437\u0432\u043e\u0440", "name:sr": "\u041c\u0430\u043b\u0438 \u0418\u0437\u0432\u043e\u0440", "name:sr-Latn": "Mali Izvor", "railway": "station"}}, "geometry": {"type": "Point", "coordinates": [22.3050767, 43.7280129]}}, {"type": "Feature", "properties": {"type": "node", "id": 1845364117, "tags": {"name": "\u0412\u0440\u0430\u0442\u0430\u0440\u043d\u0438\u0446\u0430", "name:sr": "\u0412\u0440\u0430\u0442\u0430\u0440\u043d\u0438\u0446\u0430", "name:sr-Latn": "Vratarnica", "railway": "station"}}, "geometry": {"type": "Point", "coordinates": [22.3073506, 43.7832364]}}, {"type": "Feature", "properties": {"type": "node", "id": 1845365669, "tags": {"name": "\u0413\u0440\u0459\u0430\u043d", "name:en": "Grljan", "name:sr": "\u0413\u0440\u0459\u0430\u043d", "name:sr-Latn": "Grljan", "railway": "station"}}, "geometry": {"type": "Point", "coordinates": [22.290545, 43.8581479]}}, {"type": "Feature", "properties": {"type": "node", "id": 708674537, "tags": {"name": "\u0417\u0430\u0458\u0435\u0447\u0430\u0440", "name:bg": "\u0417\u0430\u0439\u0447\u0430\u0440", "name:de": "Zaje\u010dar", "name:en": "Zajecar", "name:ro": "Z\u0103iceari", "name:ru": "\u0417\u0430\u0435\u0447\u0430\u0440", "name:sr": "\u0417\u0430\u0458\u0435\u0447\u0430\u0440", "name:sr-Latn": "Zaje\u010dar", "old_name:de": "Zatitscher", "railway": "station"}}, "geometry": {"type": "Point", "coordinates": [22.2730628, 43.9050675]}}, {"type": "Feature", "properties": {"type": "node", "id": 1845370269, "tags": {"name": "\u0412\u0440\u0430\u0436\u043e\u0433\u0440\u043d\u0430\u0446", "name:sr": "\u0412\u0440\u0430\u0436\u043e\u0433\u0440\u043d\u0430\u0446", "name:sr-Latn": "Vra\u017eogrnac", "railway": "station"}}, "geometry": {"type": "Point", "coordinates": [22.324409, 43.9536647]}}, {"type": "Feature", "properties": {"type": "node", "id": 1845402384, "tags": {"name": "\u0422\u0440\u043d\u0430\u0432\u0430\u0446", "name:en": "Trnovac", "name:sr": "\u0422\u0440\u043d\u0430\u0432\u0430\u0446", "name:sr-Latn": "Trnavac", "railway": "station"}}, "geometry": {"type": "Point", "coordinates": [22.3275267, 43.997416]}}, {"type": "Feature", "properties": {"type": "node", "id": 1845372364, "tags": {"name": "\u0420\u0433\u043e\u0442\u0438\u043d\u0430", "name:en": "Rgotina", "name:sr": "\u0420\u0433\u043e\u0442\u0438\u043d\u0430", "name:sr-Latn": "Rgotina", "railway": "station"}}, "geometry": {"type": "Point", "coordinates": [22.2796042, 44.0071878]}}, {"type": "Feature", "properties": {"type": "node", "id": 1845400176, "tags": {"name": "\u0426\u0435\u0440\u043e\u0432\u043e", "name:sr": "\u0426\u0435\u0440\u043e\u0432\u043e", "name:sr-Latn": "Cerovo", "railway": "station"}}, "geometry": {"type": "Point", "coordinates": [22.0156168, 44.1874244]}}, {"type": "Feature", "properties": {"type": "node", "id": 1845393745, "tags": {"name": "\u0412\u043b\u0430\u043e\u043b\u0435", "name:sr": "\u0412\u043b\u0430\u043e\u043b\u0435", "name:sr-Latn": "Vlaole", "railway": "station"}}, "geometry": {"type": "Point", "coordinates": [22.0023087, 44.2573026]}}, {"type": "Feature", "properties": {"type": "node", "id": 1845382358, "tags": {"name": "\u041c\u0430\u043b\u0438 \u041a\u0440\u0438\u0432\u0435\u0459", "name:sr": "\u041c\u0430\u043b\u0438 \u041a\u0440\u0438\u0432\u0435\u0459", "name:sr-Latn": "Mali Krivelj", "railway": "station"}}, "geometry": {"type": "Point", "coordinates": [22.0641925, 44.1185951]}}, {"type": "Feature", "properties": {"type": "node", "id": 4457140268, "tags": {"name": "\u0411\u043e\u0440 \u0442\u0435\u0440\u0435\u0442\u043d\u0430", "name:en": "Bor teretna", "name:sr": "\u0411\u043e\u0440 \u0442\u0435\u0440\u0435\u0442\u043d\u0430", "name:sr-Latn": "Bor teretna", "railway": "station"}}, "geometry": {"type": "Point", "coordinates": [22.1251978, 44.0599177]}}, {"type": "Feature", "properties": {"type": "node", "id": 2202458456, "tags": {"name": "\u041b\u0435\u0441\u043a\u043e\u0432\u043e", "name:en": "Leskovo", "name:sr": "\u041b\u0435\u0441\u043a\u043e\u0432\u043e", "name:sr-Latn": "Leskovo", "railway": "station"}}, "geometry": {"type": "Point", "coordinates": [21.9419113, 44.3168155]}}, {"type": "Feature", "properties": {"type": "node", "id": 1614765533, "tags": {"name": "\u041c\u0430\u0458\u0434\u0430\u043d\u043f\u0435\u043a", "public_transport": "station", "railway": "station"}}, "geometry": {"type": "Point", "coordinates": [21.8892784, 44.3819166]}}, {"type": "Feature", "properties": {"type": "node", "id": 4047921423, "tags": {"name": "Tabakovac", "name:sr": "\u0422\u0430\u0431\u0430\u043a\u043e\u0432\u0430\u0446", "name:sr-Latn": "Tabakovac", "public_transport": "stop_position", "railway": "stop", "train": "yes"}}, "geometry": {"type": "Point", "coordinates": [22.4139168, 44.0577116]}}, {"type": "Feature", "properties": {"type": "node", "id": 7862498957, "tags": {"name": "Tabakovac", "name:sr": "\u0422\u0430\u0431\u0430\u043a\u043e\u0432\u0430\u0446", "name:sr-Latn": "Tabakovac", "public_transport": "stop_position", "railway": "stop", "train": "yes"}}, "geometry": {"type": "Point", "coordinates": [22.4142253, 44.0575137]}}, {"type": "Feature", "properties": {"type": "node", "id": 7862498958, "tags": {"name": "Tabakovac", "name:sr": "\u0422\u0430\u0431\u0430\u043a\u043e\u0432\u0430\u0446", "name:sr-Latn": "Tabakovac", "public_transport": "station", "railway": "station"}}, "geometry": {"type": "Point", "coordinates": [22.4140242, 44.0576393]}}, {"type": "Feature", "properties": {"type": "node", "id": 1845405721, "tags": {"name": "\u0411\u0440\u0443\u0441\u043d\u0438\u043a", "name:sr": "\u0411\u0440\u0443\u0441\u043d\u0438\u043a", "name:sr-Latn": "Brusnik", "railway": "station"}}, "geometry": {"type": "Point", "coordinates": [22.482941, 44.0980527]}}, {"type": "Feature", "properties": {"type": "node", "id": 1845408678, "tags": {"name": "\u0420\u0430\u0458\u0430\u0446", "name:en": "Rajac", "name:sr": "\u0420\u0430\u0458\u0430\u0446", "name:sr-Latn": "Rajac", "railway": "station"}}, "geometry": {"type": "Point", "coordinates": [22.5611381, 44.0895866]}}, {"type": "Feature", "properties": {"type": "node", "id": 1845409174, "tags": {"name": "\u0420\u043e\u0433\u0459\u0435\u0432\u043e", "name:en": "Rogljevo", "name:sr": "\u0420\u043e\u0433\u0459\u0435\u0432\u043e", "name:sr-Latn": "Rogljevo", "railway": "station"}}, "geometry": {"type": "Point", "coordinates": [22.5735546, 44.1164213]}}, {"type": "Feature", "properties": {"type": "node", "id": 828147818, "tags": {"contact:phone": "019542069", "name": "\u041d\u0435\u0433\u043e\u0442\u0438\u043d", "name:sr": "\u041d\u0435\u0433\u043e\u0442\u0438\u043d", "name:sr-Latn": "Negotin", "public_transport": "station", "railway": "station"}}, "geometry": {"type": "Point", "coordinates": [22.5401173, 44.2289345]}}, {"type": "Feature", "properties": {"type": "node", "id": 7542439360, "tags": {"name": "Kobi\u0161nica", "public_transport": "stop_position", "railway": "stop", "train": "yes"}}, "geometry": {"type": "Point", "coordinates": [22.5872456, 44.1890711]}}, {"type": "Feature", "properties": {"type": "node", "id": 1845412259, "tags": {"name": "\u041f\u0440\u0430\u0445\u043e\u0432\u043e", "name:en": "Prahovo", "name:sr": "\u041f\u0440\u0430\u0445\u043e\u0432\u043e", "name:sr-Latn": "Prahovo", "railway": "station"}}, "geometry": {"type": "Point", "coordinates": [22.5880135, 44.2874608]}}, {"type": "Feature", "properties": {"type": "node", "id": 1845413477, "tags": {"name": "\u041f\u0440\u0430\u0445\u043e\u0432\u043e \u043f\u0440\u0438\u0441\u0442\u0430\u043d\u0438\u0448\u0442\u0435", "name:sr": "\u041f\u0440\u0430\u0445\u043e\u0432\u043e \u043f\u0440\u0438\u0441\u0442\u0430\u043d\u0438\u0448\u0442\u0435", "name:sr-Latn": "Prahovo pristani\u0161te", "railway": "station"}}, "geometry": {"type": "Point", "coordinates": [22.6081176, 44.2911137]}}, {"type": "Feature", "properties": {"type": "node", "id": 2381014730, "tags": {"name": "\u0411\u0440\u043e\u0434\u0438\u0446\u0430", "name:en": "Brodica", "name:sr": "\u0411\u0440\u043e\u0434\u0438\u0446\u0430", "name:sr-Latn": "Brodica", "public_transport": "station", "railway": "station"}}, "geometry": {"type": "Point", "coordinates": [21.821628, 44.4840807]}}, {"type": "Feature", "properties": {"type": "node", "id": 476897994, "tags": {"name": "\u041d\u043e\u0432\u0430 \u041f\u0430\u0437\u043e\u0432\u0430", "name:sr": "\u041d\u043e\u0432\u0430 \u041f\u0430\u0437\u043e\u0432\u0430", "name:sr-Latn": "Nova Pazova", "railway": "station"}}, "geometry": {"type": "Point", "coordinates": [20.2100668, 44.9375363]}}, {"type": "Feature", "properties": {"type": "node", "id": 1883736833, "tags": {"name": "\u0421\u0442\u0430\u0440\u0430 \u041f\u0430\u0437\u043e\u0432\u0430", "name:sr": "\u0421\u0442\u0430\u0440\u0430 \u041f\u0430\u0437\u043e\u0432\u0430", "name:sr-Latn": "Stara Pazova", "railway": "station"}}, "geometry": {"type": "Point", "coordinates": [20.1381621, 44.9861478]}}, {"type": "Feature", "properties": {"type": "node", "id": 1427772370, "tags": {"name": "\u0411\u0430\u0442\u0430\u0458\u043d\u0438\u0446\u0430", "name:sr": "\u0411\u0430\u0442\u0430\u0458\u043d\u0438\u0446\u0430", "name:sr-Latn": "Batajnica", "operator": "\u0416\u0435\u043b\u0435\u0437\u043d\u0438\u0446\u0435 \u0421\u0440\u0431\u0438\u0458\u0435", "public_transport": "stop_position", "railway": "stop", "train": "yes", "wikidata": "Q3095917", "wikipedia": "sr:\u0416\u0435\u043b\u0435\u0437\u043d\u0438\u0447\u043a\u0430 \u0441\u0442\u0430\u043d\u0438\u0446\u0430 \u0411\u0430\u0442\u0430\u0458\u043d\u0438\u0446\u0430"}}, "geometry": {"type": "Point", "coordinates": [20.2718648, 44.8991413]}}, {"type": "Feature", "properties": {"type": "node", "id": 6417848129, "tags": {"name": "\u0411\u0430\u0442\u0430\u0458\u043d\u0438\u0446\u0430", "name:sr": "\u0411\u0430\u0442\u0430\u0458\u043d\u0438\u0446\u0430", "name:sr-Latn": "Batajnica", "network": "\u0411\u0413:\u0412\u043e\u0437", "operator": "\u0416\u0435\u043b\u0435\u0437\u043d\u0438\u0446\u0435 \u0421\u0440\u0431\u0438\u0458\u0435", "public_transport": "stop_position", "railway": "stop", "train": "yes"}}, "geometry": {"type": "Point", "coordinates": [20.2718277, 44.8991115]}}, {"type": "Feature", "properties": {"type": "node", "id": 7821345462, "tags": {"name": "\u0411\u0430\u0442\u0430\u0458\u043d\u0438\u0446\u0430", "name:sr": "\u0411\u0430\u0442\u0430\u0458\u043d\u0438\u0446\u0430", "name:sr-Latn": "Batajnica", "operator": "\u0416\u0435\u043b\u0435\u0437\u043d\u0438\u0446\u0435 \u0421\u0440\u0431\u0438\u0458\u0435", "public_transport": "station", "railway": "station", "train": "yes", "wikidata": "Q3095917", "wikipedia": "sr:\u0416\u0435\u043b\u0435\u0437\u043d\u0438\u0447\u043a\u0430 \u0441\u0442\u0430\u043d\u0438\u0446\u0430 \u0411\u0430\u0442\u0430\u0458\u043d\u0438\u0446\u0430"}}, "geometry": {"type": "Point", "coordinates": [20.2719915, 44.8992475]}}, {"type": "Feature", "properties": {"type": "node", "id": 1837485233, "tags": {"name": "\u0411\u0430\u043d\u0430\u0442\u0441\u043a\u043e \u041d\u043e\u0432\u043e \u0421\u0435\u043b\u043e", "name:en": "Banatsko Novo Selo", "name:sr": "\u0411\u0430\u043d\u0430\u0442\u0441\u043a\u043e \u041d\u043e\u0432\u043e \u0421\u0435\u043b\u043e", "name:sr-Latn": "Banatsko Novo Selo", "railway": "station"}}, "geometry": {"type": "Point", "coordinates": [20.7855629, 44.9763361]}}, {"type": "Feature", "properties": {"type": "node", "id": 7238657826, "tags": {"name": "\u0412\u043b\u0430\u0434\u0438\u043c\u0438\u0440\u043e\u0432\u0430\u0446", "name:sr": "\u0412\u043b\u0430\u0434\u0438\u043c\u0438\u0440\u043e\u0432\u0430\u0446", "name:sr-Latn": "Vladimirovac", "railway": "station"}}, "geometry": {"type": "Point", "coordinates": [20.8927449, 45.0314395]}}, {"type": "Feature", "properties": {"type": "node", "id": 1244940315, "tags": {"name": "\u0410\u043b\u0438\u0431\u0443\u043d\u0430\u0440", "name:en": "Alibunar", "name:hu": "Alibun\u00e1r", "name:sr": "\u0410\u043b\u0438\u0431\u0443\u043d\u0430\u0440", "name:sr-Latn": "Alibunar", "railway": "station"}}, "geometry": {"type": "Point", "coordinates": [20.9566683, 45.0730528]}}, {"type": "Feature", "properties": {"type": "node", "id": 1241388523, "tags": {"name": "\u0421\u0435\u043b\u0435\u0443\u0448", "public_transport": "station", "railway": "station", "train": "yes"}}, "geometry": {"type": "Point", "coordinates": [20.9193579, 45.1300119]}}, {"type": "Feature", "properties": {"type": "node", "id": 8116988209, "tags": {"name": "\u0418\u043b\u0430\u043d\u045f\u0430", "public_transport": "station", "railway": "station", "train": "yes"}}, "geometry": {"type": "Point", "coordinates": [20.9269079, 45.1706117]}}, {"type": "Feature", "properties": {"type": "node", "id": 1829568227, "tags": {"name": "\u0415\u043b\u0435\u043c\u0438\u0440", "name:en": "Elemir", "name:sr": "\u0415\u043b\u0435\u043c\u0438\u0440", "name:sr-Latn": "Elemir", "railway": "station"}}, "geometry": {"type": "Point", "coordinates": [20.3112286, 45.4372916]}}, {"type": "Feature", "properties": {"type": "node", "id": 1829567578, "tags": {"name": "\u041c\u0435\u043b\u0435\u043d\u0446\u0438", "name:hu": "Melence", "name:sr": "\u041c\u0435\u043b\u0435\u043d\u0446\u0438", "name:sr-Latn": "Melenci", "railway": "station"}}, "geometry": {"type": "Point", "coordinates": [20.297601, 45.508488]}}, {"type": "Feature", "properties": {"type": "node", "id": 1829566856, "tags": {"name": "\u041a\u0443\u043c\u0430\u043d\u0435", "name:hu": "Kum\u00e1n", "name:sr": "\u041a\u0443\u043c\u0430\u043d\u0435", "name:sr-Latn": "Kumane", "railway": "station"}}, "geometry": {"type": "Point", "coordinates": [20.2321811, 45.5483616]}}, {"type": "Feature", "properties": {"type": "node", "id": 1781785377, "tags": {"name": "\u041d\u043e\u0432\u0438 \u0411\u0435\u0447\u0435\u0458", "name:de": "Neu-Betsche", "name:en": "Novi Becej", "name:hu": "T\u00f6r\u00f6kbecse", "name:ru": "\u041d\u043e\u0432\u0438 \u0411\u0435\u0447\u0435\u0439", "name:sr": "\u041d\u043e\u0432\u0438 \u0411\u0435\u0447\u0435\u0458", "name:sr-Latn": "Novi Be\u010dej", "railway": "station", "source": "GNS"}}, "geometry": {"type": "Point", "coordinates": [20.1522801, 45.6078522]}}, {"type": "Feature", "properties": {"type": "node", "id": 1829562166, "tags": {"name": "\u0411\u0430\u043d\u0430\u0442. \u041c\u0438\u043b\u043e\u0448\u0435\u0432\u043e \u041f\u043e\u0459\u0435", "name:sr": "\u0411\u0430\u043d\u0430\u0442. \u041c\u0438\u043b\u043e\u0448\u0435\u0432\u043e \u041f\u043e\u0459\u0435", "name:sr-Latn": "Banat. Milo\u0161evo Polje", "railway": "station"}}, "geometry": {"type": "Point", "coordinates": [20.2959325, 45.6927831]}}, {"type": "Feature", "properties": {"type": "node", "id": 1829565388, "tags": {"name": "\u0411\u0430\u043d\u0430\u0442\u0441\u043a\u043e \u041c\u0438\u043b\u043e\u0448\u0435\u0432\u043e", "name:en": "Banatsko Milosevo", "name:hu": "Karlova", "name:sr": "\u0411\u0430\u043d\u0430\u0442\u0441\u043a\u043e \u041c\u0438\u043b\u043e\u0448\u0435\u0432\u043e", "name:sr-Latn": "Banatsko Milo\u0161evo", "railway": "station"}}, "geometry": {"type": "Point", "coordinates": [20.320296, 45.726277]}}, {"type": "Feature", "properties": {"type": "node", "id": 1837487743, "tags": {"name": "\u0411\u0430\u043d\u0430\u0442\u0441\u043a\u0438 \u041a\u0430\u0440\u043b\u043e\u0432\u0430\u0446", "name:en": "Banatski Karlovac", "name:hu": "Nagyk\u00e1rolyfalva", "name:sr": "\u0411\u0430\u043d\u0430\u0442\u0441\u043a\u0438 \u041a\u0430\u0440\u043b\u043e\u0432\u0430\u0446", "name:sr-Latn": "Banatski Karlovac", "railway": "station"}}, "geometry": {"type": "Point", "coordinates": [21.0162512, 45.0557868]}}, {"type": "Feature", "properties": {"type": "node", "id": 1837488401, "tags": {"name": "\u041d\u0438\u043a\u043e\u043b\u0438\u043d\u0446\u0438", "name:sr": "\u041d\u0438\u043a\u043e\u043b\u0438\u043d\u0446\u0438", "name:sr-Latn": "Nikolinci", "railway": "station"}}, "geometry": {"type": "Point", "coordinates": [21.0662095, 45.0604904]}}, {"type": "Feature", "properties": {"type": "node", "id": 1430004744, "tags": {"name": "\u0423\u0459\u043c\u0430", "name:sr": "\u0423\u0459\u043c\u0430", "name:sr-Latn": "Uljma", "railway": "station"}}, "geometry": {"type": "Point", "coordinates": [21.1555459, 45.0511059]}}, {"type": "Feature", "properties": {"type": "node", "id": 8116988208, "tags": {"name": "\u041b\u043e\u043a\u0432\u0435", "public_transport": "station", "railway": "station", "train": "yes"}}, "geometry": {"type": "Point", "coordinates": [21.0189344, 45.1618155]}}, {"type": "Feature", "properties": {"type": "node", "id": 7940023680, "tags": {"building": "train_station", "name": "\u0412\u0440\u0448\u0430\u0446", "name:en": "Vr\u0161ac", "name:sr": "\u0412\u0440\u0448\u0430\u0446", "name:sr-Latn": "Vr\u0161ac", "public_transport": "station", "railway": "station"}}, "geometry": {"type": "Point", "coordinates": [21.2837421, 45.1057449]}}, {"type": "Feature", "properties": {"type": "node", "id": 7940023681, "tags": {"building": "train_station", "name": "\u0412\u0440\u0448\u0430\u0446", "name:en": "Vr\u0161ac", "name:sr": "\u0412\u0440\u0448\u0430\u0446", "name:sr-Latn": "Vr\u0161ac", "public_transport": "stop_position", "railway": "stop", "train": "yes"}}, "geometry": {"type": "Point", "coordinates": [21.2833493, 45.1057513]}}, {"type": "Feature", "properties": {"type": "node", "id": 1829556554, "tags": {"name": "\u041f\u0430\u0434\u0435\u0458", "name:sr": "\u041f\u0430\u0434\u0435\u0458", "name:sr-Latn": "Padej", "railway": "station"}}, "geometry": {"type": "Point", "coordinates": [20.1716416, 45.8295499]}}, {"type": "Feature", "properties": {"type": "node", "id": 1829557609, "tags": {"name": "\u0411\u043e\u0447\u0430\u0440", "name:en": "Bocar", "name:hu": "Bocs\u00e1r", "name:sr": "\u0411\u043e\u0447\u0430\u0440", "name:sr-Latn": "Bo\u010dar", "railway": "station"}}, "geometry": {"type": "Point", "coordinates": [20.2854955, 45.7612169]}}, {"type": "Feature", "properties": {"type": "node", "id": 1829556116, "tags": {"name": "\u041e\u0441\u0442\u043e\u0458\u0438\u045b\u0435\u0432\u043e", "name:en": "Ostojicevo", "name:sr": "\u041e\u0441\u0442\u043e\u0458\u0438\u045b\u0435\u0432\u043e", "name:sr-Latn": "Ostoji\u0107evo", "railway": "station"}}, "geometry": {"type": "Point", "coordinates": [20.15274, 45.8911338]}}, {"type": "Feature", "properties": {"type": "node", "id": 1829555242, "tags": {"name": "\u0427\u043e\u043a\u0430", "name:en": "Coka", "name:sr": "\u0427\u043e\u043a\u0430", "name:sr-Latn": "\u010coka", "railway": "station"}}, "geometry": {"type": "Point", "coordinates": [20.1355286, 45.9429697]}}]}