{"version": 0.6, "generator": "Overpass API 0.7.56.7 b85c4387", "osm3s": {"timestamp_osm_base": "2021-03-02T15:07:57Z", "timestamp_areas_base": "2021-03-02T14:31:12Z", "copyright": "The data included in this document is from www.openstreetmap.org. The data is made available under ODbL."}, "elements": [{"type": "node", "id": 1358345535, "lat": 37.6485781, "lon": 21.3166396, "tags": {"country": "Pyrgos municipality,Ilia prefecture,Dytiki Ellada,Greece", "int_name": "Katakolo", "name": "\u039a\u03b1\u03c4\u03ac\u03ba\u03bf\u03bb\u03bf", "name:de": "Katakolon", "name:el": "\u039a\u03b1\u03c4\u03ac\u03ba\u03bf\u03bb\u03bf", "name:en": "Katakolo", "name:fr": "Katakolo", "name:ru": "\u041a\u0430\u0442\u0430\u043a\u043e\u043b\u043e", "population": "595", "public_transport": "station", "railway": "station"}}, {"type": "node", "id": 1345223145, "lat": 37.6534732, "lon": 21.5045896, "tags": {"int_name": "Alfios", "name": "\u0391\u03bb\u03c6\u03b5\u03b9\u03cc\u03c2", "name:el": "\u0391\u03bb\u03c6\u03b5\u03b9\u03cc\u03c2", "name:en": "Alfeios", "name:ru": "\u0410\u043b\u0444\u0435\u0439\u043e\u0441", "railway": "station"}}, {"type": "node", "id": 2623773495, "lat": 37.6535441, "lon": 21.5398292, "tags": {"int_name": "Salmoni", "name": "\u03a3\u03b1\u03bb\u03bc\u03ce\u03bd\u03b7", "name:el": "\u03a3\u03b1\u03bb\u03bc\u03ce\u03bd\u03b7", "name:en": "Salmoni", "name:ru": "\u0421\u0430\u043b\u043c\u043e\u043d\u0438", "railway": "station"}}, {"type": "node", "id": 2623755188, "lat": 37.6585316, "lon": 21.5574533, "tags": {"int_name": "Strefi", "name": "\u03a3\u03c4\u03c1\u03ad\u03c6\u03b9", "name:el": "\u03a3\u03c4\u03c1\u03ad\u03c6\u03b9", "name:en": "Strefi", "name:ru": "\u0421\u0442\u0440\u0435\u0444\u0438", "railway": "station"}}, {"type": "node", "id": 296331195, "lat": 37.6761406, "lon": 21.4352884, "tags": {"name": "\u03a0\u03cd\u03c1\u03b3\u03bf\u03c2", "name:de": "Pyrgos", "name:el": "\u03a0\u03cd\u03c1\u03b3\u03bf\u03c2", "name:en": "Pyrgos", "name:fr": "Pyrgos", "name:ru": "\u041f\u0438\u0440\u0433\u043e\u0441", "public_transport": "station", "railway": "station"}}, {"type": "node", "id": 296343143, "lat": 37.6455478, "lon": 21.6266964, "tags": {"int_name": "Archea Olympia", "name": "\u0391\u03c1\u03c7\u03b1\u03af\u03b1 \u039f\u03bb\u03c5\u03bc\u03c0\u03af\u03b1", "name:en": "Ancient Olympia", "name:fr": "Ancienne-Olympie", "name:ru": "\u0410\u0440\u0445\u0435\u044f \u041e\u043b\u0438\u043c\u043f\u0438\u044f", "railway": "station"}}, {"type": "node", "id": 1367379130, "lat": 37.0576482, "lon": 22.0638604, "tags": {"disused:railway": "station", "name": "\u0391\u03c3\u03c0\u03c1\u03cc\u03c7\u03c9\u03bc\u03b1", "network": "\u039f.\u03a3.\u0395.", "operator": "\u039f.\u03a3.\u0395.", "public_transport": "stop_position", "railway": "stop", "train": "yes"}}, {"type": "node", "id": 7262345968, "lat": 37.4723083, "lon": 22.3214393, "tags": {"public_transport": "stop_position", "source": "Maxar Premium Imagery (2020-03-04)", "train": "yes"}}, {"type": "node", "id": 7262345977, "lat": 37.47284, "lon": 22.3225693, "tags": {"public_transport": "stop_position", "source": "Maxar Premium Imagery (2020-03-04)", "train": "yes"}}, {"type": "node", "id": 4370299161, "lat": 38.0335406, "lon": 22.1099367, "tags": {"ele": "712", "name": "\u039a\u03b1\u03bb\u03ac\u03b2\u03c1\u03c5\u03c4\u03b1", "name:de": "Kalavryta", "name:el": "\u039a\u03b1\u03bb\u03ac\u03b2\u03c1\u03c5\u03c4\u03b1", "name:en": "Kalavryta", "operator": "OSE", "railway": "station"}}, {"type": "node", "id": 2228587103, "lat": 38.052793, "lon": 22.1445194, "tags": {"ele": "692", "name": "\u039a\u03b5\u03c1\u03c0\u03af\u03bd\u03b7", "name:de": "Kerpini", "railway": "stop"}}, {"type": "node", "id": 2329909929, "lat": 38.0941667, "lon": 22.1646042, "tags": {"ele": "625", "name": "\u0396\u03b1\u03c7\u03bb\u03c9\u03c1\u03bf\u03cd-\u039c\u03ad\u03b3\u03b1 \u03a3\u03c0\u03ae\u03bb\u03b1\u03b9\u03bf", "name:de": "Zachlorou-Megaspil\u00e4on", "railway": "stop"}}, {"type": "node", "id": 3921854635, "lat": 38.1087006, "lon": 22.1602551, "tags": {"name": "Portes", "public_transport": "stop_position", "railway": "halt", "train": "yes"}}, {"type": "node", "id": 2228500809, "lat": 38.1309641, "lon": 22.166943, "tags": {"ele": "518", "name": "\u03a4\u03c1\u03af\u03ba\u03bb\u03b9\u03b1", "name:de": "Triklia", "railway": "stop"}}, {"type": "node", "id": 3707251889, "lat": 38.1309488, "lon": 22.1670479, "tags": {"ele": "518", "name": "\u03a3.\u03a3. \u03a4\u03c1\u03af\u03ba\u03bb\u03b9\u03b1", "name:de": "Triklia", "railway": "station"}}, {"type": "node", "id": 4370294339, "lat": 38.154829, "lon": 22.1763004, "tags": {"ele": "125", "name": "\u039d\u03b9\u03ac\u03bc\u03b1\u03c4\u03b1;\u03a3.\u03a3. \u039d\u03b9\u03ac\u03bc\u03b1\u03c4\u03b1", "name:de": "Niamata", "railway": "station"}}, {"type": "node", "id": 8042807433, "lat": 38.1540449, "lon": 22.3450655, "tags": {"public_transport": "stop_position", "railway": "stop", "train": "yes"}}, {"type": "node", "id": 8042807434, "lat": 38.1539727, "lon": 22.3449576, "tags": {"public_transport": "stop_position", "railway": "stop", "train": "yes"}}, {"type": "node", "id": 6412700590, "lat": 38.1246064, "lon": 22.5066631, "tags": {"name": "\u039b\u03c5\u03ba\u03bf\u03c0\u03bf\u03c1\u03b9\u03ac", "name:fr": "Lykoporia", "public_transport": "stop_position", "source": "Bing (2019-04-17)", "train": "yes"}}, {"type": "node", "id": 6412700591, "lat": 38.1246318, "lon": 22.5066954, "tags": {"name": "\u039b\u03c5\u03ba\u03bf\u03c0\u03bf\u03c1\u03b9\u03ac", "name:fr": "Lykoporia", "public_transport": "stop_position", "source": "Bing (2019-04-17)", "train": "yes"}}, {"type": "node", "id": 3043415977, "lat": 37.9259619, "lon": 22.805621, "tags": {"name": "\u0396\u03b5\u03c5\u03b3\u03bf\u03bb\u03b1\u03c4\u03b9\u03cc", "railway": "station"}}, {"type": "node", "id": 3155138146, "lat": 37.9263374, "lon": 22.8046182, "tags": {"name": "\u0396\u03b5\u03c5\u03b3\u03bf\u03bb\u03b1\u03c4\u03b9\u03cc", "name:fr": "Zevgolateio", "public_transport": "stop_position", "railway": "stop", "train": "yes"}}, {"type": "node", "id": 1407488629, "lat": 37.92553, "lon": 22.8066551, "tags": {"name": "\u0396\u03b5\u03c5\u03b3\u03bf\u03bb\u03b1\u03c4\u03b9\u03cc", "name:fr": "Zevgolateio", "public_transport": "stop_position", "train": "yes"}}, {"type": "node", "id": 354052660, "lat": 37.9209312, "lon": 22.9324047, "tags": {"name": "\u039a\u03cc\u03c1\u03b9\u03bd\u03b8\u03bf\u03c2", "name:de": "Korinth", "name:el": "\u039a\u03cc\u03c1\u03b9\u03bd\u03b8\u03bf\u03c2", "name:en": "Corinth", "name:es": "Corinto", "name:et": "K\u00f3rinthos", "name:fi": "Korintti", "name:fr": "Corinthe", "name:it": "Corinto", "name:ku": "Kor\u00eent", "name:mi": "Koriniti", "name:mk": "\u041a\u043e\u0440\u0438\u043d\u0442", "name:nl": "Korinthe", "name:ru": "\u041a\u043e\u0440\u0438\u043d\u0444", "public_transport": "stop_position", "railway": "stop", "train": "yes"}}, {"type": "node", "id": 835489926, "lat": 37.920968, "lon": 22.932396, "tags": {"name": "\u039a\u03cc\u03c1\u03b9\u03bd\u03b8\u03bf\u03c2", "name:de": "Korinth", "name:el": "\u039a\u03cc\u03c1\u03b9\u03bd\u03b8\u03bf\u03c2", "name:en": "Corinth", "name:es": "Corinto", "name:et": "K\u00f3rinthos", "name:fi": "Korintti", "name:fr": "Corinthe", "name:it": "Corinto", "name:ku": "Kor\u00eent", "name:mi": "Koriniti", "name:mk": "\u041a\u043e\u0440\u0438\u043d\u0442", "name:nl": "Korinthe", "name:ru": "\u041a\u043e\u0440\u0438\u043d\u0444", "public_transport": "stop_position", "railway": "stop", "train": "yes"}}, {"type": "node", "id": 835490014, "lat": 37.9210815, "lon": 22.9323694, "tags": {"int_name": "Corinth", "name": "\u039a\u03cc\u03c1\u03b9\u03bd\u03b8\u03bf\u03c2", "name:de": "Korinth", "name:el": "\u039a\u03cc\u03c1\u03b9\u03bd\u03b8\u03bf\u03c2", "name:en": "Corinth", "name:es": "Corinto", "name:et": "K\u00f3rinthos", "name:fi": "Korintti", "name:fr": "Corinthe", "name:it": "Corinto", "name:ku": "Kor\u00eent", "name:mi": "Koriniti", "name:mk": "\u041a\u043e\u0440\u0438\u043d\u0442", "name:nl": "Korinthe", "name:ru": "\u041a\u043e\u0440\u0438\u043d\u0444", "public_transport": "stop_position", "railway": "stop", "train": "yes"}}, {"type": "node", "id": 7792751598, "lat": 37.9214056, "lon": 22.932332, "tags": {"int_name": "Corinth", "name": "\u039a\u03cc\u03c1\u03b9\u03bd\u03b8\u03bf\u03c2", "name:de": "Korinth", "name:el": "\u039a\u03cc\u03c1\u03b9\u03bd\u03b8\u03bf\u03c2", "name:en": "Corinth", "name:es": "Corinto", "name:et": "K\u00f3rinthos", "name:fi": "Korintti", "name:fr": "Corinthe", "name:it": "Corinto", "name:ku": "Kor\u00eent", "name:mi": "Koriniti", "name:mk": "\u041a\u043e\u0440\u0438\u043d\u0442", "name:nl": "Korinthe", "name:ru": "\u041a\u043e\u0440\u0438\u043d\u0444", "public_transport": "station", "railway": "station"}}, {"type": "node", "id": 309957342, "lat": 38.0139838, "lon": 22.7348102, "tags": {"name": "\u039a\u03b9\u03ac\u03c4\u03bf", "name:fr": "Kiato", "public_transport": "stop_position", "railway": "stop", "train": "yes"}}, {"type": "node", "id": 2661766284, "lat": 38.0139191, "lon": 22.7346807, "tags": {"name": "\u039a\u03b9\u03ac\u03c4\u03bf", "name:fr": "Kiato", "public_transport": "stop_position", "railway": "stop", "train": "yes"}}, {"type": "node", "id": 7785744802, "lat": 38.0140056, "lon": 22.7349625, "tags": {"name": "\u039a\u03b9\u03ac\u03c4\u03bf", "name:fr": "Kiato", "public_transport": "station", "railway": "station", "train": "yes"}}, {"type": "node", "id": 6409735388, "lat": 38.0355096, "lon": 22.7151815, "tags": {"name": "\u0394\u03b9\u03bc\u03b7\u03bd\u03b9\u03cc", "name:fr": "Diminio", "operator": "\u039f\u03a3\u0395", "public_transport": "station", "railway": "station", "source": "Bing (2019-04-16)", "train": "yes"}}, {"type": "node", "id": 6409735389, "lat": 38.0354968, "lon": 22.7151683, "tags": {"name": "\u0394\u03b9\u03bc\u03b7\u03bd\u03b9\u03cc", "name:fr": "Diminio", "public_transport": "stop_position", "source": "Bing (2019-04-16)", "train": "yes"}}, {"type": "node", "id": 6409735390, "lat": 38.0355225, "lon": 22.7151947, "tags": {"name": "\u0394\u03b9\u03bc\u03b7\u03bd\u03b9\u03cc", "name:fr": "Diminio", "public_transport": "stop_position", "source": "Bing (2019-04-16)", "train": "yes"}}, {"type": "node", "id": 835280792, "lat": 37.9331977, "lon": 23.1370307, "tags": {"int_name": "Agii Theodori", "name": "\u0386\u03b3\u03b9\u03bf\u03b9 \u0398\u03b5\u03bf\u03b4\u03ce\u03c1\u03bf\u03b9", "name:el": "\u0386\u03b3\u03b9\u03bf\u03b9 \u0398\u03b5\u03bf\u03b4\u03ce\u03c1\u03bf\u03b9", "public_transport": "station", "railway": "station"}}, {"type": "node", "id": 835280795, "lat": 37.9332426, "lon": 23.1369814, "tags": {"int_name": "Agii Theodori", "name": "\u0386\u03b3\u03b9\u03bf\u03b9 \u0398\u03b5\u03bf\u03b4\u03ce\u03c1\u03bf\u03b9", "name:fr": "Agii Theodori", "public_transport": "stop_position", "railway": "stop", "train": "yes"}}, {"type": "node", "id": 835280817, "lat": 37.9331432, "lon": 23.1370772, "tags": {"int_name": "Agii Theodori", "name": "\u0386\u03b3\u03b9\u03bf\u03b9 \u0398\u03b5\u03bf\u03b4\u03ce\u03c1\u03bf\u03b9", "name:fr": "Agii Theodori", "public_transport": "stop_position", "railway": "stop", "train": "yes"}}, {"type": "node", "id": 795867270, "lat": 37.9655417, "lon": 23.2013336, "tags": {"name": "\u039a\u03b9\u03bd\u03ad\u03c4\u03b1", "name:fr": "Kineta", "public_transport": "stop_position", "railway": "stop", "train": "yes"}}, {"type": "node", "id": 833771430, "lat": 37.9654267, "lon": 23.201055, "tags": {"int_name": "Kineta", "name": "\u039a\u03b9\u03bd\u03ad\u03c4\u03b1", "name:el": "\u039a\u03b9\u03bd\u03ad\u03c4\u03b1", "public_transport": "station", "railway": "station", "wheelchair": "yes"}}, {"type": "node", "id": 5777574608, "lat": 37.9652916, "lon": 23.200821, "tags": {"name": "\u039a\u03b9\u03bd\u03ad\u03c4\u03b1", "name:fr": "Kineta", "public_transport": "stop_position", "railway": "stop", "train": "yes"}}, {"type": "node", "id": 833385855, "lat": 37.9909531, "lon": 23.3610689, "tags": {"int_name": "Megara", "name": "\u039c\u03ad\u03b3\u03b1\u03c1\u03b1", "name:el": "\u039c\u03ad\u03b3\u03b1\u03c1\u03b1", "name:lt": "Megara", "public_transport": "station", "railway": "station"}}, {"type": "node", "id": 836837794, "lat": 37.9910006, "lon": 23.361019, "tags": {"name": "\u039c\u03ad\u03b3\u03b1\u03c1\u03b1", "name:fr": "M\u00e9gare", "public_transport": "stop_position", "railway": "stop", "train": "yes"}}, {"type": "node", "id": 836837808, "lat": 37.9909037, "lon": 23.3611209, "tags": {"name": "\u039c\u03ad\u03b3\u03b1\u03c1\u03b1", "name:fr": "M\u00e9gare", "public_transport": "stop_position", "train": "yes"}}, {"type": "node", "id": 4919885662, "lat": 38.0138939, "lon": 23.4157545, "tags": {"name": "\u039d\u03ad\u03b1 \u03a0\u03ad\u03c1\u03b1\u03bc\u03bf\u03c2", "name:fr": "Nea Peramos", "public_transport": "stop_position", "railway": "stop", "train": "yes"}}, {"type": "node", "id": 4919885663, "lat": 38.0127986, "lon": 23.4132616, "tags": {"name": "\u039d\u03ad\u03b1 \u03a0\u03ad\u03c1\u03b1\u03bc\u03bf\u03c2", "name:fr": "Nea Peramos", "public_transport": "stop_position", "railway": "stop", "train": "yes"}}, {"type": "node", "id": 5461368243, "lat": 38.5122543, "lon": 21.2985615, "tags": {"internet_access": "no", "name": "\u03a3\u03c4\u03b1\u03bc\u03bd\u03ac", "network": "\u039a\u03c1\u03c5\u03bf\u03bd\u03b5\u03c1\u03af\u03bf\u03c5 - \u0391\u03b3\u03c1\u03b9\u03bd\u03af\u03bf\u03c5", "operator": "\u039f.\u03a3.\u0395.", "public_transport": "station", "railway": "station", "train": "yes"}}, {"type": "node", "id": 5461390157, "lat": 38.3457796, "lon": 21.5882262, "tags": {"internet_access": "no", "name": "\u039a\u03c1\u03c5\u03bf\u03bd\u03ad\u03c1\u03b9", "network": "\u039a\u03c1\u03c5\u03bf\u03bd\u03b5\u03c1\u03af\u03bf\u03c5 - \u0391\u03b3\u03c1\u03b9\u03bd\u03af\u03bf\u03c5", "operator": "\u039f.\u03a3.\u0395.", "public_transport": "station", "railway": "station", "train": "yes"}}, {"type": "node", "id": 5461391594, "lat": 38.3447191, "lon": 21.5940372, "tags": {"internet_access": "no", "name": "\u039a\u03c1\u03c5\u03bf\u03bd\u03ad\u03c1\u03b9 \u039b\u03b9\u03bc\u03ae\u03bd", "network": "\u039a\u03c1\u03c5\u03bf\u03bd\u03b5\u03c1\u03af\u03bf\u03c5 - \u0391\u03b3\u03c1\u03b9\u03bd\u03af\u03bf\u03c5", "operator": "\u039f.\u03a3.\u0395.", "public_transport": "station", "railway": "station", "train": "yes"}}, {"type": "node", "id": 457129115, "lat": 38.2499135, "lon": 21.7350176, "tags": {"name": "\u03a0\u03ac\u03c4\u03c1\u03b1", "name:ar": "\u0628\u0627\u062a\u0631\u0627\u0633", "name:en": "Patras", "name:it": "Patrasso", "operator": "\u039f\u03a3\u0395", "public_transport": "station", "railway": "station", "train": "yes"}}, {"type": "node", "id": 63116844, "lat": 38.2981797, "lon": 21.7775486, "tags": {"int_name": "Rio", "name": "\u03a1\u03af\u03bf", "name:de": "Rio", "name:el": "\u03a1\u03af\u03bf", "name:en": "Rio", "name:fr": "Rio", "public_transport": "station", "railway": "station", "train": "yes"}}, {"type": "node", "id": 1318774862, "lat": 39.5460258, "lon": 21.7633215, "tags": {"addr:city": "\u03a4\u03c1\u03af\u03ba\u03b1\u03bb\u03b1", "addr:country": "GR", "name": "\u03a4\u03c1\u03af\u03ba\u03b1\u03bb\u03b1", "name:de": "Trikala", "name:el": "\u03a4\u03c1\u03af\u03ba\u03b1\u03bb\u03b1", "name:en": "Trikala", "name:fr": "Trikala", "railway": "station"}}, {"type": "node", "id": 287450434, "lat": 39.7027916, "lon": 21.6254549, "tags": {"country": "Kalambaka municipality,Trikala prefecture,Thessalia,Greece", "int_name": "Kalambaka", "name": "Kalambaka", "name:de": "Kalambaka", "name:el": "\u039a\u03b1\u03bb\u03b1\u03bc\u03c0\u03ac\u03ba\u03b1", "name:en": "Kalambaka", "name:fr": "Kalambaka", "public_transport": "station", "railway": "station", "train": "yes"}}, {"type": "node", "id": 6409103932, "lat": 38.2395952, "lon": 22.1034199, "tags": {"name": "\u0391\u03af\u03b3\u03b9\u03bf", "name:fr": "Aigion", "public_transport": "stop_position", "source": "DigitalGlobe Standard (2019-04-16)", "train": "yes"}}, {"type": "node", "id": 6409104296, "lat": 38.2398368, "lon": 22.1035475, "tags": {"name": "\u0391\u03af\u03b3\u03b9\u03bf", "name:fr": "Aigion", "public_transport": "stop_position", "source": "DigitalGlobe Standard (2019-04-16)", "train": "yes"}}, {"type": "node", "id": 6409104297, "lat": 38.2397962, "lon": 22.1035261, "tags": {"name": "\u0391\u03af\u03b3\u03b9\u03bf", "name:fr": "Aigion", "public_transport": "stop_position", "source": "DigitalGlobe Standard (2019-04-16)", "train": "yes"}}, {"type": "node", "id": 6409104299, "lat": 38.2397557, "lon": 22.1035047, "tags": {"name": "\u0391\u03af\u03b3\u03b9\u03bf", "name:fr": "Aigion", "operator": "\u039f\u03a3\u0395", "public_transport": "station", "railway": "station", "source": "DigitalGlobe Standard (2019-04-16)", "train": "yes"}}, {"type": "node", "id": 6409104301, "lat": 38.2397118, "lon": 22.1034815, "tags": {"name": "\u0391\u03af\u03b3\u03b9\u03bf", "name:fr": "Aigion", "public_transport": "stop_position", "source": "DigitalGlobe Standard (2019-04-16)", "train": "yes"}}, {"type": "node", "id": 6409104302, "lat": 38.239678, "lon": 22.1034636, "tags": {"name": "\u0391\u03af\u03b3\u03b9\u03bf", "name:fr": "Aigion", "public_transport": "stop_position", "source": "DigitalGlobe Standard (2019-04-16)", "train": "yes"}}, {"type": "node", "id": 6408258416, "lat": 38.2158432, "lon": 22.1414961, "tags": {"name": "\u0395\u03bb\u03af\u03ba\u03b7", "public_transport": "stop_position", "source": "DigitalGlobe-Standard", "train": "yes"}}, {"type": "node", "id": 6408258423, "lat": 38.2158141, "lon": 22.1414725, "tags": {"name": "\u0395\u03bb\u03af\u03ba\u03b7", "public_transport": "stop_position", "source": "DigitalGlobe-Standard", "train": "yes"}}, {"type": "node", "id": 6408258441, "lat": 38.2158296, "lon": 22.1414858, "tags": {"name": "\u0395\u03bb\u03af\u03ba\u03b7", "public_transport": "station", "railway": "station", "source": "DigitalGlobe-Standard", "train": "yes"}}, {"type": "node", "id": 461152213, "lat": 38.1918659, "lon": 22.1977184, "tags": {"name": "\u0394\u03b9\u03b1\u03ba\u03bf\u03c0\u03c4\u03cc", "name:de": "Diakopto", "name:el": "\u0394\u03b9\u03b1\u03ba\u03bf\u03c0\u03c4\u03cc", "name:en": "Diakopto", "operator": "OSE", "railway": "station"}}, {"type": "node", "id": 3921855836, "lat": 38.1918914, "lon": 22.1975148, "tags": {"public_transport": "stop_position", "train": "yes"}}, {"type": "node", "id": 4942009785, "lat": 38.7019951, "lon": 22.4578303, "tags": {"name": "\u039c\u03c0\u03c1\u03ac\u03bb\u03bf\u03c2", "name:de": "Bralos", "name:el": "\u039c\u03c0\u03c1\u03ac\u03bb\u03bf\u03c2", "name:en": "Bralos", "name:fr": "Bralos", "public_transport": "station", "railway": "station", "train": "yes"}}, {"type": "node", "id": 4942135705, "lat": 38.6698576, "lon": 22.5446387, "tags": {"disused:railway": "station", "name": "\u039b\u03b9\u03bb\u03b1\u03af\u03b1", "name:de": "Lilea", "name:el": "\u039b\u03b9\u03bb\u03b1\u03af\u03b1", "name:en": "Lilea", "name:fr": "Lilea", "public_transport": "station", "railway": "station", "train": "yes"}}, {"type": "node", "id": 4942009787, "lat": 38.6584164, "lon": 22.5947678, "tags": {"disused:railway": "station", "name": "\u0391\u03bc\u03c6\u03af\u03ba\u03bb\u03b5\u03b9\u03b1", "name:de": "Amfiklia", "name:el": "\u0391\u03bc\u03c6\u03af\u03ba\u03bb\u03b5\u03b9\u03b1", "name:en": "Amfiklia", "name:fr": "Amfiklia", "public_transport": "station", "railway": "station", "train": "yes"}}, {"type": "node", "id": 990028736, "lat": 38.8910819, "lon": 22.3720839, "tags": {"name": "\u039b\u03b5\u03b9\u03b1\u03bd\u03bf\u03ba\u03bb\u03ac\u03b4\u03b9", "public_transport": "stop_position", "train": "yes"}}, {"type": "node", "id": 990034428, "lat": 38.8905948, "lon": 22.3731627, "tags": {"name": "\u039b\u03b5\u03b9\u03b1\u03bd\u03bf\u03ba\u03bb\u03ac\u03b4\u03b9", "name:de": "Lianokladi", "name:el": "\u039b\u03b5\u03b9\u03b1\u03bd\u03bf\u03ba\u03bb\u03ac\u03b4\u03b9", "name:en": "Lianokladi", "name:fr": "Lianokladi", "railway": "station"}}, {"type": "node", "id": 990034452, "lat": 38.8903864, "lon": 22.3735636, "tags": {"name": "\u039b\u03b5\u03b9\u03b1\u03bd\u03bf\u03ba\u03bb\u03ac\u03b4\u03b9", "public_transport": "stop_position", "train": "yes"}}, {"type": "node", "id": 990034460, "lat": 38.890417, "lon": 22.3736711, "tags": {"name": "\u039b\u03b5\u03b9\u03b1\u03bd\u03bf\u03ba\u03bb\u03ac\u03b4\u03b9", "public_transport": "stop_position", "train": "yes"}}, {"type": "node", "id": 989463931, "lat": 38.8960375, "lon": 22.4347094, "tags": {"int_name": "Lamia", "name": "\u039b\u03b1\u03bc\u03af\u03b1", "name:de": "Lamia", "name:el": "\u039b\u03b1\u03bc\u03af\u03b1", "name:en": "Lamia", "name:es": "Lam\u00eda", "name:fi": "Lamia", "name:fr": "Lam\u00eda", "name:ru": "\u041b\u0430\u043c\u0438\u044f", "old_name": "Boudonitza", "railway": "station", "train": "yes"}}, {"type": "node", "id": 2291053726, "lat": 38.9133743, "lon": 22.6144319, "tags": {"name": "\u03a3\u03c4\u03c5\u03bb\u03af\u03b4\u03b1", "name:el": "\u03a3\u03c4\u03c5\u03bb\u03af\u03b4\u03b1", "name:en": "Stylida", "railway": "station"}}, {"type": "node", "id": 135767475, "lat": 38.5351052, "lon": 22.811179, "tags": {"country": "Sterea Ellada,Greece", "name": "\u0394\u03b1\u03cd\u03bb\u03b5\u03b9\u03b1", "name:de": "Davlia", "name:el": "\u0394\u03b1\u03cd\u03bb\u03b5\u03b9\u03b1", "name:en": "Davlia", "name:fr": "Davlia", "railway": "station", "wikidata": "Q12884431", "wikipedia": "el:\u03a3\u03b9\u03b4\u03b7\u03c1\u03bf\u03b4\u03c1\u03bf\u03bc\u03b9\u03ba\u03cc\u03c2 \u03a3\u03c4\u03b1\u03b8\u03bc\u03cc\u03c2 \u0394\u03b1\u03cd\u03bb\u03b5\u03b9\u03b1\u03c2"}}, {"type": "node", "id": 4602673471, "lat": 38.5351368, "lon": 22.8112086, "tags": {"country": "Sterea Ellada,Greece", "name": "\u0394\u03b1\u03cd\u03bb\u03b5\u03b9\u03b1", "name:de": "Davlia", "name:el": "\u0394\u03b1\u03cd\u03bb\u03b5\u03b9\u03b1", "name:en": "Davlia", "name:fr": "Davlia", "railway": "station", "wikidata": "Q12884431", "wikipedia": "el:\u03a3\u03b9\u03b4\u03b7\u03c1\u03bf\u03b4\u03c1\u03bf\u03bc\u03b9\u03ba\u03cc\u03c2 \u03a3\u03c4\u03b1\u03b8\u03bc\u03cc\u03c2 \u0394\u03b1\u03cd\u03bb\u03b5\u03b9\u03b1\u03c2"}}, {"type": "node", "id": 283667283, "lat": 38.4710093, "lon": 22.9269558, "tags": {"name": "\u039b\u03b9\u03b2\u03b1\u03b4\u03b5\u03b9\u03ac", "name:de": "Livadia", "name:el": "\u039b\u03b9\u03b2\u03b1\u03b4\u03b5\u03b9\u03ac", "name:en": "Livadia", "name:fr": "Livadia", "railway": "station", "wikidata": "Q12884448", "wikipedia": "el:\u03a3\u03b9\u03b4\u03b7\u03c1\u03bf\u03b4\u03c1\u03bf\u03bc\u03b9\u03ba\u03cc\u03c2 \u03a3\u03c4\u03b1\u03b8\u03bc\u03cc\u03c2 \u039b\u03b9\u03b2\u03b1\u03b4\u03b5\u03b9\u03ac\u03c2"}}, {"type": "node", "id": 4942009798, "lat": 38.4711908, "lon": 22.9269143, "tags": {"name": "\u039b\u03b9\u03b2\u03b1\u03b4\u03b5\u03b9\u03ac", "public_transport": "stop_position", "train": "yes"}}, {"type": "node", "id": 4942141028, "lat": 38.47069, "lon": 22.9271312, "tags": {"name": "\u039b\u03b9\u03b2\u03b1\u03b4\u03b5\u03b9\u03ac", "public_transport": "stop_position", "train": "yes"}}, {"type": "node", "id": 4942009783, "lat": 38.3793271, "lon": 23.1126627, "tags": {"name": "\u0391\u03bb\u03af\u03b1\u03c1\u03c4\u03bf\u03c2", "public_transport": "stop_position", "train": "yes"}}, {"type": "node", "id": 4942009784, "lat": 38.3796268, "lon": 23.1100663, "tags": {"name": "\u0391\u03bb\u03af\u03b1\u03c1\u03c4\u03bf\u03c2", "public_transport": "stop_position", "train": "yes"}}, {"type": "node", "id": 5581522118, "lat": 38.3793608, "lon": 23.1126719, "tags": {"name": "\u0391\u03bb\u03af\u03b1\u03c1\u03c4\u03bf\u03c2", "public_transport": "stop_position", "train": "yes"}}, {"type": "node", "id": 5581522119, "lat": 38.3792962, "lon": 23.1117972, "tags": {"name": "\u0391\u03bb\u03af\u03b1\u03c1\u03c4\u03bf\u03c2", "name:ru": "\u0410\u043b\u0438\u0430\u0440\u0442\u043e\u0441", "railway": "station"}}, {"type": "node", "id": 287731815, "lat": 38.3296472, "lon": 23.3183126, "tags": {"name": "\u0398\u03ae\u03b2\u03b1", "name:de": "Thiva", "name:el": "\u0398\u03ae\u03b2\u03b1", "name:en": "Thiva (Thebes)", "name:fr": "Thiva (Thebes)", "public_transport": "station", "railway": "station"}}, {"type": "node", "id": 4942009799, "lat": 38.3297015, "lon": 23.318637, "tags": {"name": "\u0398\u03ae\u03b2\u03b1", "public_transport": "stop_position", "railway": "stop", "train": "yes"}}, {"type": "node", "id": 4942009800, "lat": 38.3296286, "lon": 23.3180186, "tags": {"name": "\u0398\u03ae\u03b2\u03b1", "public_transport": "stop_position", "railway": "stop", "train": "yes"}}, {"type": "node", "id": 287731943, "lat": 38.36797, "lon": 23.383581, "tags": {"name": "\u038e\u03c0\u03b1\u03c4\u03bf", "name:de": "Ypato", "name:el": "\u038e\u03c0\u03b1\u03c4\u03bf", "name:en": "Ypato", "name:fr": "Ypato", "railway": "station"}}, {"type": "node", "id": 4602671580, "lat": 38.3679924, "lon": 23.3835593, "tags": {"name": "\u038e\u03c0\u03b1\u03c4\u03bf", "name:de": "Ypato", "name:el": "\u038e\u03c0\u03b1\u03c4\u03bf", "name:en": "Ypato", "name:fr": "Ypato", "railway": "station"}}, {"type": "node", "id": 360625719, "lat": 38.3726045, "lon": 23.4711704, "tags": {"name": "\u0395\u03bb\u03b5\u03ce\u03bd\u03b1\u03c2", "name:de": "Eleonas", "name:el": "\u0395\u03bb\u03b5\u03ce\u03bd\u03b1\u03c2", "name:en": "Eleonas", "name:fr": "Eleonas", "railway": "station"}}, {"type": "node", "id": 4602671548, "lat": 38.3726353, "lon": 23.4711862, "tags": {"name": "\u0395\u03bb\u03b5\u03ce\u03bd\u03b1\u03c2", "name:de": "Eleonas", "name:el": "\u0395\u03bb\u03b5\u03ce\u03bd\u03b1\u03c2", "name:en": "Eleonas", "name:fr": "Eleonas", "railway": "station"}}, {"type": "node", "id": 287711353, "lat": 38.6090187, "lon": 22.7169454, "tags": {"name": "\u03a4\u03b9\u03b8\u03bf\u03c1\u03ad\u03b1", "name:de": "Tithorea", "name:el": "\u03a4\u03b9\u03b8\u03bf\u03c1\u03ad\u03b1", "name:fr": "Tithorea", "railway": "station"}}, {"type": "node", "id": 4602673531, "lat": 38.6090444, "lon": 22.7169714, "tags": {"name": "\u03a4\u03b9\u03b8\u03bf\u03c1\u03ad\u03b1", "name:de": "Tithorea", "name:el": "\u03a4\u03b9\u03b8\u03bf\u03c1\u03ad\u03b1", "name:fr": "Tithorea", "railway": "station"}}, {"type": "node", "id": 4942135703, "lat": 38.6093193, "lon": 22.7166305, "tags": {"name": "\u03a4\u03b9\u03b8\u03bf\u03c1\u03ad\u03b1", "public_transport": "stop_position", "train": "yes"}}, {"type": "node", "id": 4942135704, "lat": 38.6084056, "lon": 22.7177059, "tags": {"name": "\u03a4\u03b9\u03b8\u03bf\u03c1\u03ad\u03b1", "public_transport": "stop_position", "train": "yes"}}, {"type": "node", "id": 5347384506, "lat": 38.8128125, "lon": 22.6559195, "tags": {"name": "\u039c\u03ce\u03bb\u03bf\u03c2", "name:fr": "Molos", "operator": "OSE", "public_transport": "stop_position", "train": "yes"}}, {"type": "node", "id": 5347384509, "lat": 38.8118322, "lon": 22.6591271, "tags": {"name": "\u039c\u03ce\u03bb\u03bf\u03c2", "name:fr": "Molos", "operator": "OSE", "public_transport": "stop_position", "train": "yes"}}, {"type": "node", "id": 2482382406, "lat": 39.0513001, "lon": 22.2276662, "tags": {"name": "\u0386\u03b3\u03b9\u03bf\u03c2 \u03a3\u03c4\u03ad\u03c6\u03b1\u03bd\u03bf\u03c2", "public_transport": "station", "railway": "station"}}, {"type": "node", "id": 4602453982, "lat": 39.0513149, "lon": 22.2277045, "tags": {"name": "\u0386\u03b3\u03b9\u03bf\u03c2 \u03a3\u03c4\u03ad\u03c6\u03b1\u03bd\u03bf\u03c2", "public_transport": "station", "railway": "station"}}, {"type": "node", "id": 1281643047, "lat": 39.0906353, "lon": 22.1914123, "tags": {"int_name": "Angeies", "name": "\u0391\u03b3\u03b3\u03b5\u03af\u03b5\u03c2", "name:de": "Angies", "name:el": "\u0391\u03b3\u03b3\u03b5\u03af\u03b5\u03c2", "name:en": "Aggeie", "name:fr": "Aggeie", "old_name": "\u0391\u03b3\u03b3\u03b5\u03af\u03b1\u03b9", "public_transport": "station", "railway": "station"}}, {"type": "node", "id": 419624336, "lat": 39.3539774, "lon": 21.9147319, "tags": {"name": "\u039a\u03b1\u03c1\u03b4\u03af\u03c4\u03c3\u03b1", "name:de": "Karditsa", "name:el": "\u039a\u03b1\u03c1\u03b4\u03af\u03c4\u03c3\u03b1", "name:en": "Karditsa", "name:fr": "Karditsa", "railway": "station"}}, {"type": "node", "id": 3914596674, "lat": 39.4019162, "lon": 22.2278511, "tags": {"name": "\u039f\u03c1\u03c6\u03b1\u03bd\u03ac", "public_transport": "stop_position", "train": "yes"}}, {"type": "node", "id": 4598783265, "lat": 39.4033161, "lon": 22.2282393, "tags": {"name": "\u039f\u03c1\u03c6\u03b1\u03bd\u03ac", "public_transport": "stop_position", "train": "yes"}}, {"type": "node", "id": 6326277737, "lat": 39.156926, "lon": 22.2835354, "tags": {"int_name": "Tavmako", "name": "\u0398\u03b1\u03c5\u03bc\u03b1\u03ba\u03cc", "public_transport": "station", "railway": "station", "train": "yes"}}, {"type": "node", "id": 303447372, "lat": 39.1800273, "lon": 22.2864581, "tags": {"name": "\u0394\u03bf\u03bc\u03bf\u03ba\u03cc\u03c2", "name:de": "Domokos", "name:el": "\u0394\u03bf\u03bc\u03bf\u03ba\u03cc\u03c2", "name:en": "Domokos", "name:fr": "Domokos", "railway": "station"}}, {"type": "node", "id": 4892579777, "lat": 39.1797198, "lon": 22.2866898, "tags": {"name": "\u0394\u03bf\u03bc\u03bf\u03ba\u03cc\u03c2", "public_transport": "stop_position", "train": "yes"}}, {"type": "node", "id": 4942009793, "lat": 39.1805321, "lon": 22.286479, "tags": {"name": "\u0394\u03bf\u03bc\u03bf\u03ba\u03cc\u03c2", "public_transport": "stop_position", "train": "yes"}}, {"type": "node", "id": 4942009792, "lat": 39.3137807, "lon": 22.2435594, "tags": {"name": "\u03a0\u03b1\u03bb\u03b1\u03b9\u03bf\u03c6\u03ac\u03c1\u03c3\u03b1\u03bb\u03bf\u03c2", "public_transport": "stop_position", "railway": "stop", "train": "yes"}}, {"type": "node", "id": 4942040545, "lat": 39.3123682, "lon": 22.2439667, "tags": {"name": "\u03a0\u03b1\u03bb\u03b1\u03b9\u03bf\u03c6\u03ac\u03c1\u03c3\u03b1\u03bb\u03bf\u03c2", "public_transport": "stop_position", "railway": "stop", "train": "yes"}}, {"type": "node", "id": 287554537, "lat": 39.6295962, "lon": 22.4227592, "tags": {"addr:city": "\u039b\u03ac\u03c1\u03b9\u03c3\u03b1", "addr:country": "GR", "addr:housenumber": "37", "addr:postcode": "41223", "addr:street": "\u03a0\u03b1\u03bb\u03b1\u03b9\u03bf\u03bb\u03cc\u03b3\u03bf\u03c5", "name": "\u03a3. \u03a3. \u039b\u03ac\u03c1\u03b9\u03c3\u03b1\u03c2", "name:de": "Bahnhof Larisa", "name:el": "\u03a3. \u03a3. \u039b\u03ac\u03c1\u03b9\u03c3\u03b1\u03c2", "name:el:en": "Sidirodromikos Stathmos Larisas", "name:en": "Larisa Railway Station", "name:ru": "\u041b\u0430\u0440\u0438\u0441\u0430", "railway": "station", "train": "yes"}}, {"type": "node", "id": 4942009794, "lat": 39.6293038, "lon": 22.4222115, "tags": {"name": "\u039b\u03ac\u03c1\u03b9\u03c3\u03b1", "name:de": "Larisa", "name:el": "\u039b\u03ac\u03c1\u03b9\u03c3\u03b1", "public_transport": "stop_position", "train": "yes"}}, {"type": "node", "id": 4942009795, "lat": 39.6298122, "lon": 22.4241473, "tags": {"name": "\u039b\u03ac\u03c1\u03b9\u03c3\u03b1", "public_transport": "stop_position", "train": "yes"}}, {"type": "node", "id": 4723533695, "lat": 39.59178, "lon": 22.5361467, "tags": {"int_name": "Chalki", "name": "\u03a7\u03ac\u03bb\u03ba\u03b7", "railway": "station"}}, {"type": "node", "id": 4670789007, "lat": 39.6527837, "lon": 22.4430151, "tags": {"public_transport": "stop_position", "train": "yes"}}, {"type": "node", "id": 303442716, "lat": 39.7642567, "lon": 22.4818404, "tags": {"name": "\u0393\u03c5\u03c1\u03c4\u03ce\u03bd\u03b7", "name:de": "Gyrtoni", "name:el": "Gyrtoni", "name:en": "Gyrtoni", "name:fr": "Gyrtoni", "public_transport": "stop_position", "train": "yes"}}, {"type": "node", "id": 540411705, "lat": 39.3254037, "lon": 23.0538159, "tags": {"email": "grafeio.volou@trainose.gr", "name": "\u0386\u03bd\u03c9 \u039b\u03b5\u03c7\u03ce\u03bd\u03b9\u03b1", "name:en": "Ano Lechonia", "network": "\u0392\u03cc\u03bb\u03bf\u03c2 - \u039c\u03b7\u03bb\u03b9\u03ad\u03c2", "operator": "\u039f.\u03a3.\u0395.", "payment:cash": "yes", "payment:credit_cards": "yes", "payment:debit_cards": "yes", "phone": "+30 2421039723", "railway": "station", "tourism": "attraction", "website": "http://www.trainose.gr/\u03c4\u03bf\u03c5\u03c1\u03b9\u03c3\u03bc\u03cc\u03c2-\u03c0\u03bf\u03bb\u03b9\u03c4\u03b9\u03c3\u03bc\u03cc\u03c2/\u03c4\u03c1\u03ad\u03bd\u03bf-\u03ba\u03b1\u03b9-\u03b1\u03bd\u03b1\u03c8\u03c5\u03c7\u03ae/\u03b8\u03b5\u03bc\u03b1\u03c4\u03b9\u03ba\u03cc-\u03c4\u03c1\u03ad\u03bd\u03bf-\u03c0\u03b7\u03bb\u03af\u03bf\u03c5/", "wikidata": "Q471828", "wikipedia": "el:\u03a4\u03c1\u03b5\u03bd\u03ac\u03ba\u03b9 \u03a0\u03b7\u03bb\u03af\u03bf\u03c5"}}, {"type": "node", "id": 2291049466, "lat": 39.3861843, "lon": 22.9110004, "tags": {"name": "\u039c\u03b5\u03bb\u03b9\u03c3\u03c3\u03ac\u03c4\u03b9\u03ba\u03b1", "name:en": "Melissatika", "railway": "station", "wheelchair": "limited"}}, {"type": "node", "id": 5985323352, "lat": 39.3642669, "lon": 22.9368266, "tags": {"name": "\u0392\u03cc\u03bb\u03bf\u03c5", "railway": "station", "wheelchair": "yes"}}, {"type": "node", "id": 3308286101, "lat": 39.3389126, "lon": 23.0137715, "tags": {"disused:railway": "station", "name": "\u03a3\u03b9\u03b4\u03b7\u03c1\u03bf\u03b4\u03c1\u03bf\u03bc\u03b9\u03ba\u03cc\u03c2 \u03a3\u03c4\u03b1\u03b8\u03bc\u03cc\u03c2 \u0391\u03b3\u03c1\u03b9\u03ac\u03c2", "public_transport": "station", "railway": "station", "train": "yes"}}, {"type": "node", "id": 434845521, "lat": 39.3220972, "lon": 23.0940377, "tags": {"name": "\u0386\u03bd\u03c9 \u0393\u03b1\u03c4\u03b6\u03ad\u03b1", "name:en": "Ano Gatzea", "railway": "station"}}, {"type": "node", "id": 6715198826, "lat": 39.3157357, "lon": 23.1247079, "tags": {"name": "\u03a0\u03b9\u03bd\u03b1\u03ba\u03ac\u03c4\u03b5\u03c2", "name:en": "Pinakates", "railway": "station"}}, {"type": "node", "id": 5399991617, "lat": 39.3276726, "lon": 23.1435614, "tags": {"name": "\u03a3\u03b9\u03b4\u03b7\u03c1\u03bf\u03b4\u03c1\u03bf\u03bc\u03b9\u03ba\u03cc\u03c2 \u03a3\u03c4\u03b1\u03b8\u03bc\u03cc\u03c2 \u039c\u03b7\u03bb\u03b9\u03ce\u03bd \u03a0\u03b7\u03bb\u03af\u03bf\u03c5", "operator": "\u039f.\u03a3.\u0395.", "railway": "station", "wikidata": "Q471828", "wikipedia": "el:\u03a4\u03c1\u03b5\u03bd\u03ac\u03ba\u03b9 \u03a0\u03b7\u03bb\u03af\u03bf\u03c5"}}, {"type": "node", "id": 358248977, "lat": 39.4853567, "lon": 22.6938814, "tags": {"name": "\u0391\u03c1\u03bc\u03ad\u03bd\u03b9\u03bf", "name:de": "Armenio", "name:el": "\u0391\u03c1\u03bc\u03ad\u03bd\u03b9\u03bf", "name:en": "Armenio", "name:fr": "Armenio", "railway": "station"}}, {"type": "node", "id": 2137213000, "lat": 37.9489756, "lon": 23.6434147, "tags": {"public_transport": "stop_position", "railway": "stop", "train": "yes"}}, {"type": "node", "id": 2137213028, "lat": 37.9490666, "lon": 23.6434156, "tags": {"int_name": "Piraeus", "name": "\u03a0\u03b5\u03b9\u03c1\u03b1\u03b9\u03ac", "name:en": "Piraeus", "public_transport": "stop_position", "railway": "stop", "train": "yes"}}, {"type": "node", "id": 2137213049, "lat": 37.9490942, "lon": 23.6434169, "tags": {"int_name": "Piraeus", "name": "\u03a0\u03b5\u03b9\u03c1\u03b1\u03b9\u03ac", "name:en": "Piraeus", "public_transport": "stop_position", "railway": "stop", "train": "yes"}}, {"type": "node", "id": 2137213094, "lat": 37.9491761, "lon": 23.6434149, "tags": {"public_transport": "stop_position", "railway": "stop", "train": "yes"}}, {"type": "node", "id": 6245569445, "lat": 37.9491311, "lon": 23.64372, "tags": {"addr:city": "\u03a0\u03b5\u03b9\u03c1\u03b1\u03b9\u03ac\u03c2", "addr:country": "GR", "addr:street": "\u039c\u03b1\u03c5\u03c1\u03bf\u03bc\u03b9\u03c7\u03ac\u03bb\u03b7 \u039a\u03c5\u03c1\u03b9\u03ac\u03ba\u03bf\u03c5", "name": "\u03a0\u03b5\u03b9\u03c1\u03b1\u03b9\u03ac\u03c2", "name:en": "Piraeus", "network": "\u03a0\u03c1\u03bf\u03b1\u03c3\u03c4\u03b9\u03b1\u03ba\u03cc\u03c2", "operator": "\u039f\u03a3\u0395", "public_transport": "station", "railway": "station"}}, {"type": "node", "id": 988439553, "lat": 37.9551275, "lon": 23.6537054, "tags": {"int_name": "Lefka", "name": "\u039b\u03b5\u03cd\u03ba\u03b1", "public_transport": "stop_position", "railway": "stop", "service": "Lefka", "train": "yes"}}, {"type": "node", "id": 2144975797, "lat": 37.955593, "lon": 23.6540813, "tags": {"int_name": "Lefka", "name": "\u039b\u03b5\u03cd\u03ba\u03b1", "public_transport": "stop_position", "railway": "stop", "service": "Lefka", "train": "yes"}}, {"type": "node", "id": 988420951, "lat": 37.9623809, "lon": 23.6682798, "tags": {"int_name": "Rentis", "name": "\u03a1\u03ad\u03bd\u03c4\u03b7\u03c2", "name:en": "Rentis", "official_name": "\u0386\u03b3\u03b9\u03bf\u03c2 \u0399\u03c9\u03ac\u03bd\u03bd\u03b7\u03c2 \u03a1\u03ad\u03bd\u03c4\u03b7\u03c2", "official_name:fr": "Saint Jean Rentis", "public_transport": "stop_position", "railway": "stop", "train": "yes"}}, {"type": "node", "id": 2148259068, "lat": 37.9622619, "lon": 23.6683076, "tags": {"int_name": "Rentis", "name": "\u03a1\u03ad\u03bd\u03c4\u03b7\u03c2", "name:en": "Rentis", "official_name": "\u0386\u03b3\u03b9\u03bf\u03c2 \u0399\u03c9\u03ac\u03bd\u03bd\u03b7\u03c2 \u03a1\u03ad\u03bd\u03c4\u03b7\u03c2", "official_name:fr": "Saint Jean Rentis", "public_transport": "stop_position", "railway": "stop", "train": "yes"}}, {"type": "node", "id": 2148259149, "lat": 37.9623421, "lon": 23.668454, "tags": {"int_name": "Rentis", "name": "\u03a1\u03ad\u03bd\u03c4\u03b7\u03c2", "name:en": "Rentis", "network": "\u03a0\u03c1\u03bf\u03b1\u03c3\u03c4\u03b9\u03b1\u03ba\u03cc\u03c2 \u0391\u03b8\u03ae\u03bd\u03b1\u03c2", "operator": "\u039f\u03a3\u0395", "public_transport": "station", "railway": "station"}}, {"type": "node", "id": 2148380439, "lat": 37.9686411, "lon": 23.6926743, "tags": {"int_name": "Tavros", "name": "\u03a4\u03b1\u03cd\u03c1\u03bf\u03c2", "name:en": "Tavros", "public_transport": "stop_position", "railway": "stop", "train": "yes"}}, {"type": "node", "id": 2148380495, "lat": 37.9689397, "lon": 23.6942248, "tags": {"int_name": "Tavros", "name": "\u03a4\u03b1\u03cd\u03c1\u03bf\u03c2", "name:en": "Tavros", "public_transport": "stop_position", "railway": "stop", "train": "yes"}}, {"type": "node", "id": 2148380652, "lat": 37.9687965, "lon": 23.6934298, "tags": {"int_name": "Tavros", "name": "\u03a4\u03b1\u03cd\u03c1\u03bf\u03c2", "name:en": "Tavros", "network": "\u03a0\u03c1\u03bf\u03b1\u03c3\u03c4\u03b9\u03b1\u03ba\u03cc\u03c2 \u0391\u03b8\u03ae\u03bd\u03b1\u03c2", "operator": "\u039f\u03a3\u0395", "public_transport": "station", "railway": "station"}}, {"type": "node", "id": 987485685, "lat": 37.9737356, "lon": 23.704064, "tags": {"int_name": "Rouf", "name": "\u03a1\u03bf\u03c5\u03c6", "name:en": "Rouf", "network": "\u03a0\u03c1\u03bf\u03b1\u03c3\u03c4\u03b9\u03b1\u03ba\u03cc\u03c2 \u0391\u03b8\u03ae\u03bd\u03b1\u03c2", "operator": "\u039f\u03a3\u0395", "public_transport": "station", "railway": "station"}}, {"type": "node", "id": 2148529035, "lat": 37.9736976, "lon": 23.7041009, "tags": {"int_name": "Rouf", "name": "\u03a1\u03bf\u03c5\u03c6", "name:en": "Rouf", "network": "\u03a0\u03c1\u03bf\u03b1\u03c3\u03c4\u03b9\u03b1\u03ba\u03cc\u03c2 \u0391\u03b8\u03ae\u03bd\u03b1\u03c2", "operator": "\u039f\u03a3\u0395", "public_transport": "stop_position", "railway": "stop", "train": "yes"}}, {"type": "node", "id": 2148529036, "lat": 37.9737634, "lon": 23.704011, "tags": {"int_name": "Rouf", "name": "\u03a1\u03bf\u03c5\u03c6", "name:en": "Rouf", "network": "\u03a0\u03c1\u03bf\u03b1\u03c3\u03c4\u03b9\u03b1\u03ba\u03cc\u03c2 \u0391\u03b8\u03ae\u03bd\u03b1\u03c2", "operator": "\u039f\u03a3\u0395", "public_transport": "stop_position", "railway": "stop", "train": "yes"}}, {"type": "node", "id": 832802993, "lat": 38.0730827, "lon": 23.5291665, "tags": {"name": "\u039c\u03b1\u03b3\u03bf\u03cd\u03bb\u03b1", "name:fr": "Magoula", "public_transport": "stop_position", "railway": "stop", "train": "yes"}}, {"type": "node", "id": 361470406, "lat": 38.0740597, "lon": 23.5298844, "tags": {"name": "\u039c\u03b1\u03b3\u03bf\u03cd\u03bb\u03b1", "name:fr": "Magoula", "public_transport": "stop_position", "railway": "stop", "train": "yes"}}, {"type": "node", "id": 833386358, "lat": 38.080976, "lon": 23.6044292, "tags": {"int_name": "Aspropyrgos", "name": "\u0391\u03c3\u03c0\u03c1\u03cc\u03c0\u03c5\u03c1\u03b3\u03bf\u03c2", "name:el": "\u0391\u03c3\u03c0\u03c1\u03cc\u03c0\u03c5\u03c1\u03b3\u03bf\u03c2", "name:fr": "Aspropyrgos", "network": "\u03a0\u03c1\u03bf\u03b1\u03c3\u03c4\u03b9\u03b1\u03ba\u03cc\u03c2 \u0391\u03b8\u03ae\u03bd\u03b1\u03c2", "operator": "\u039f\u03a3\u0395", "railway": "station"}}, {"type": "node", "id": 5777574609, "lat": 38.0809569, "lon": 23.604418, "tags": {"name": "\u0391\u03c3\u03c0\u03c1\u03cc\u03c0\u03c5\u03c1\u03b3\u03bf\u03c2", "name:fr": "Aspropyrgos", "public_transport": "stop_position", "railway": "stop", "train": "yes"}}, {"type": "node", "id": 5777574610, "lat": 38.0809896, "lon": 23.6044484, "tags": {"name": "\u0391\u03c3\u03c0\u03c1\u03cc\u03c0\u03c5\u03c1\u03b3\u03bf\u03c2", "name:fr": "Aspropyrgos", "public_transport": "stop_position", "railway": "stop", "train": "yes"}}, {"type": "node", "id": 2872124552, "lat": 37.9931275, "lon": 23.7202839, "tags": {"int_name": "Athens", "name": "\u0391\u03b8\u03ae\u03bd\u03b1", "name:en": "Athens", "public_transport": "stop_position", "railway": "stop", "ref": "7", "train": "yes"}}, {"type": "node", "id": 2872124553, "lat": 37.9931353, "lon": 23.7202365, "tags": {"int_name": "Athens", "name": "\u0391\u03b8\u03ae\u03bd\u03b1", "name:en": "Athens", "public_transport": "stop_position", "railway": "stop", "ref": "8", "train": "yes"}}, {"type": "node", "id": 2872124554, "lat": 37.9931596, "lon": 23.7200887, "tags": {"int_name": "Athens", "name": "\u0391\u03b8\u03ae\u03bd\u03b1", "name:en": "Athens", "public_transport": "stop_position", "railway": "stop", "ref": "9", "train": "yes"}}, {"type": "node", "id": 2872124555, "lat": 37.9931674, "lon": 23.7200412, "tags": {"int_name": "Athens", "name": "\u0391\u03b8\u03ae\u03bd\u03b1", "name:en": "Athens", "public_transport": "stop_position", "railway": "stop", "ref": "10", "train": "yes"}}, {"type": "node", "id": 1292319344, "lat": 38.0211401, "lon": 23.71838, "tags": {"int_name": "Agii Anargyri", "name": "\u0386\u03b3\u03b9\u03bf\u03b9 \u0391\u03bd\u03ac\u03c1\u03b3\u03c5\u03c1\u03bf\u03b9", "name:en": "Agii Anargyri", "public_transport": "stop_position", "railway": "stop", "train": "yes"}}, {"type": "node", "id": 2354629543, "lat": 38.0224583, "lon": 23.7186452, "tags": {"int_name": "Agii Anargyri", "name": "\u0386\u03b3\u03b9\u03bf\u03b9 \u0391\u03bd\u03ac\u03c1\u03b3\u03c5\u03c1\u03bf\u03b9", "name:en": "Agii Anargyri", "public_transport": "stop_position", "railway": "stop", "train": "yes"}}, {"type": "node", "id": 6245547243, "lat": 38.0218581, "lon": 23.7184204, "tags": {"int_name": "Agii Anargyri", "name": "\u0386\u03b3\u03b9\u03bf\u03b9 \u0391\u03bd\u03ac\u03c1\u03b3\u03c5\u03c1\u03bf\u03b9", "name:en": "Agii Anargyri", "network": "\u03a0\u03c1\u03bf\u03b1\u03c3\u03c4\u03b9\u03b1\u03ba\u03cc\u03c2 \u0391\u03b8\u03ae\u03bd\u03b1\u03c2", "operator": "\u039f\u03a3\u0395", "public_transport": "station", "railway": "station", "train": "yes"}}, {"type": "node", "id": 2343647510, "lat": 38.0400365, "lon": 23.7276759, "tags": {"int_name": "Pyrgos Vasilissis", "name": "\u03a0\u03cd\u03c1\u03b3\u03bf\u03c2 \u0392\u03b1\u03c3\u03b9\u03bb\u03af\u03c3\u03c3\u03b7\u03c2", "name:en": "Pyrgos Vasilissis", "public_transport": "stop_position", "railway": "stop", "train": "yes"}}, {"type": "node", "id": 2343649802, "lat": 38.0390975, "lon": 23.7271365, "tags": {"int_name": "Pyrgos Vasilissis", "name": "\u03a0\u03cd\u03c1\u03b3\u03bf\u03c2 \u0392\u03b1\u03c3\u03b9\u03bb\u03af\u03c3\u03c3\u03b7\u03c2", "name:en": "Pyrgos Vasilissis", "public_transport": "stop_position", "railway": "stop", "train": "yes"}}, {"type": "node", "id": 6245525848, "lat": 38.0397137, "lon": 23.727456, "tags": {"int_name": "Pirgos Vasilisis", "name": "\u03a0\u03cd\u03c1\u03b3\u03bf\u03c2 \u0392\u03b1\u03c3\u03b9\u03bb\u03af\u03c3\u03c3\u03b7\u03c2", "name:en": "Pirgos Vasilisis", "network": "\u03a0\u03c1\u03bf\u03b1\u03c3\u03c4\u03b9\u03b1\u03ba\u03cc\u03c2 \u0391\u03b8\u03ae\u03bd\u03b1\u03c2", "operator": "\u039f\u03a3\u0395", "public_transport": "station", "railway": "station", "train": "yes"}}, {"type": "node", "id": 936622796, "lat": 38.0707654, "lon": 23.7098471, "tags": {"int_name": "Ano Liosia", "name": "\u0386\u03bd\u03c9 \u039b\u03b9\u03cc\u03c3\u03b9\u03b1", "name:en": "Ano Liosia", "network": "\u03a0\u03c1\u03bf\u03b1\u03c3\u03c4\u03b9\u03b1\u03ba\u03cc\u03c2 \u0391\u03b8\u03ae\u03bd\u03b1\u03c2", "operator": "\u039f\u03a3\u0395", "public_transport": "station", "railway": "station"}}, {"type": "node", "id": 936622962, "lat": 38.0706893, "lon": 23.7099901, "tags": {"int_name": "Ano Liosia", "name": "\u0386\u03bd\u03c9 \u039b\u03b9\u03cc\u03c3\u03b9\u03b1", "name:en": "Ano Liosia", "public_transport": "stop_position", "railway": "stop", "train": "yes"}}, {"type": "node", "id": 5777457451, "lat": 38.0707953, "lon": 23.7100051, "tags": {"int_name": "Ano Liosia", "name": "\u0386\u03bd\u03c9 \u039b\u03b9\u03cc\u03c3\u03b9\u03b1", "name:en": "Ano Liosia", "public_transport": "stop_position", "railway": "stop", "train": "yes"}}, {"type": "node", "id": 3979025748, "lat": 38.0699579, "lon": 23.7163427, "tags": {"int_name": "Zefiri", "name": "\u0396\u03b5\u03c6\u03cd\u03c1\u03b9", "name:en": "Zefiri", "operator": "\u039f\u03a3\u0395", "public_transport": "stop_position", "train": "yes"}}, {"type": "node", "id": 6222934811, "lat": 38.0698218, "lon": 23.7168389, "tags": {"int_name": "Zefiri", "name": "\u0396\u03b5\u03c6\u03cd\u03c1\u03b9", "name:en": "Zefiri", "operator": "\u039f\u03a3\u0395", "public_transport": "station", "railway": "station", "train": "yes"}}, {"type": "node", "id": 3979025726, "lat": 38.0696643, "lon": 23.717562, "tags": {"int_name": "Zefiri", "name": "\u0396\u03b5\u03c6\u03cd\u03c1\u03b9", "name:en": "Zefiri", "operator": "\u039f\u03a3\u0395", "public_transport": "stop_position", "train": "yes"}}, {"type": "node", "id": 2343670486, "lat": 38.0535159, "lon": 23.732438, "tags": {"int_name": "Kato Acharnai", "name": "\u039a\u03ac\u03c4\u03c9 \u0391\u03c7\u03b1\u03c1\u03bd\u03b1\u03af", "name:en": "Kato Acharnai", "public_transport": "stop_position", "railway": "stop", "train": "yes"}}, {"type": "node", "id": 2343670500, "lat": 38.0547251, "lon": 23.7328066, "tags": {"int_name": "Kato Acharnai", "name": "\u039a\u03ac\u03c4\u03c9 \u0391\u03c7\u03b1\u03c1\u03bd\u03b1\u03af", "name:en": "Kato Acharnai", "public_transport": "stop_position", "railway": "stop", "train": "yes"}}, {"type": "node", "id": 6245525849, "lat": 38.054188, "lon": 23.7326454, "tags": {"int_name": "Kato Acharnai", "name": "\u039a\u03ac\u03c4\u03c9 \u0391\u03c7\u03b1\u03c1\u03bd\u03b1\u03af", "name:en": "Kato Acharnai", "network": "\u03a0\u03c1\u03bf\u03b1\u03c3\u03c4\u03b9\u03b1\u03ba\u03cc\u03c2 \u0391\u03b8\u03ae\u03bd\u03b1\u03c2", "operator": "\u039f\u03a3\u0395", "public_transport": "station", "railway": "station", "train": "yes"}}, {"type": "node", "id": 2354656162, "lat": 38.0656438, "lon": 23.7376508, "tags": {"int_name": "Acharnes Railway Center (SKA) Airport Line", "name": "\u03a3\u03b9\u03b4\u03b7\u03c1\u03bf\u03b4\u03c1\u03bf\u03bc\u03b9\u03ba\u03cc \u039a\u03ad\u03bd\u03c4\u03c1\u03bf \u0391\u03c7\u03b1\u03c1\u03bd\u03ce\u03bd (\u03a3\u039a\u0391) \u03b3\u03c1\u03b1\u03bc\u03bc\u03ae \u0391\u0395\u03a1", "name:en": "Acharnes Railway Center (SKA) Airport Line", "network": "\u03a0\u03c1\u03bf\u03b1\u03c3\u03c4\u03b9\u03b1\u03ba\u03cc\u03c2 \u0391\u03b8\u03ae\u03bd\u03b1\u03c2", "operator": "\u039f\u03a3\u0395", "public_transport": "stop_position", "railway": "stop", "train": "yes"}}, {"type": "node", "id": 6268675384, "lat": 38.0656513, "lon": 23.7377663, "tags": {"int_name": "Acharnes Railway Center (SKA) Airport Line", "name": "\u03a3\u03b9\u03b4\u03b7\u03c1\u03bf\u03b4\u03c1\u03bf\u03bc\u03b9\u03ba\u03cc \u039a\u03ad\u03bd\u03c4\u03c1\u03bf \u0391\u03c7\u03b1\u03c1\u03bd\u03ce\u03bd (\u03a3\u039a\u0391) \u03b3\u03c1\u03b1\u03bc\u03bc\u03ae \u0391\u0395\u03a1", "name:en": "Acharnes Railway Center (SKA) Airport Line", "network": "\u03a0\u03c1\u03bf\u03b1\u03c3\u03c4\u03b9\u03b1\u03ba\u03cc\u03c2 \u0391\u03b8\u03ae\u03bd\u03b1\u03c2", "operator": "\u039f\u03a3\u0395", "public_transport": "station", "railway": "station", "train": "yes"}}, {"type": "node", "id": 95700669, "lat": 38.0674989, "lon": 23.7377207, "tags": {"name": "\u03a3\u03b9\u03b4\u03b7\u03c1\u03bf\u03b4\u03c1\u03bf\u03bc\u03b9\u03ba\u03cc \u039a\u03ad\u03bd\u03c4\u03c1\u03bf \u0391\u03c7\u03b1\u03c1\u03bd\u03ce\u03bd (\u03a3\u039a\u0391)", "name:en": "Acharnes Railway Center (SKA)", "network": "\u03a0\u03c1\u03bf\u03b1\u03c3\u03c4\u03b9\u03b1\u03ba\u03cc\u03c2 \u0391\u03b8\u03ae\u03bd\u03b1\u03c2", "operator": "\u039f\u03a3\u0395", "public_transport": "stop_position", "railway": "stop", "train": "yes"}}, {"type": "node", "id": 1030023833, "lat": 38.067505, "lon": 23.7376759, "tags": {"name": "\u03a3\u03b9\u03b4\u03b7\u03c1\u03bf\u03b4\u03c1\u03bf\u03bc\u03b9\u03ba\u03cc \u039a\u03ad\u03bd\u03c4\u03c1\u03bf \u0391\u03c7\u03b1\u03c1\u03bd\u03ce\u03bd (\u03a3\u039a\u0391)", "name:en": "Acharnes Railway Center (SKA)", "network": "\u03a0\u03c1\u03bf\u03b1\u03c3\u03c4\u03b9\u03b1\u03ba\u03cc\u03c2 \u0391\u03b8\u03ae\u03bd\u03b1\u03c2", "operator": "\u039f\u03a3\u0395", "public_transport": "stop_position", "railway": "stop", "train": "yes"}}, {"type": "node", "id": 2354641739, "lat": 38.0686445, "lon": 23.737821, "tags": {"name": "\u03a3\u039a\u0391 (\u03a3\u03b9\u03b4\u03b7\u03c1\u03bf\u03b4\u03c1\u03bf\u03bc\u03b9\u03ba\u03cc \u039a\u03ad\u03bd\u03c4\u03c1\u03bf \u0391\u03c7\u03b1\u03c1\u03bd\u03ce\u03bd)", "name:en": "SKA (Acharnes Railway Center)", "network": "Athens - Thessaloniki", "operator": "\u039f\u03a3\u0395", "public_transport": "stop_position", "railway": "stop", "train": "yes"}}, {"type": "node", "id": 936804443, "lat": 38.0447682, "lon": 23.7941064, "tags": {"name": "\u039d\u03b5\u03c1\u03b1\u03c4\u03b6\u03b9\u03ce\u03c4\u03b9\u03c3\u03c3\u03b1", "name:fr": "Neratziotissa", "public_transport": "stop_position", "railway": "stop", "train": "yes"}}, {"type": "node", "id": 2541985709, "lat": 38.0454313, "lon": 23.7922588, "tags": {"name": "\u039d\u03b5\u03c1\u03b1\u03c4\u03b6\u03b9\u03ce\u03c4\u03b9\u03c3\u03c3\u03b1", "name:fr": "Neratziotissa", "public_transport": "stop_position", "railway": "stop", "train": "yes"}}, {"type": "node", "id": 360017697, "lat": 38.0600674, "lon": 23.7562064, "tags": {"name": "\u039c\u03b5\u03c4\u03b1\u03bc\u03cc\u03c1\u03c6\u03c9\u03c3\u03b7", "name:fr": "Metamorfosi", "public_transport": "stop_position", "railway": "stop", "train": "yes"}}, {"type": "node", "id": 936668220, "lat": 38.0603471, "lon": 23.7549222, "tags": {"name": "\u039c\u03b5\u03c4\u03b1\u03bc\u03cc\u03c1\u03c6\u03c9\u03c3\u03b7", "name:fr": "Metamorfosi", "public_transport": "stop_position", "railway": "stop", "train": "yes"}}, {"type": "node", "id": 936804085, "lat": 38.0567867, "lon": 23.772153, "tags": {"name": "\u0397\u03c1\u03b1\u03ba\u03bb\u03b5\u03af\u03bf\u03c5", "name:fr": "H\u00e9raklion", "public_transport": "stop_position", "railway": "stop", "train": "yes"}}, {"type": "node", "id": 936804332, "lat": 38.0572045, "lon": 23.7713656, "tags": {"name": "\u0397\u03c1\u03ac\u03ba\u03bb\u03b5\u03b9\u03bf", "name:de": "Iraklio", "name:el": "\u0397\u03c1\u03ac\u03ba\u03bb\u03b5\u03b9\u03bf", "name:en": "Iraklio", "name:fr": "Iraklio", "network": "\u03a0\u03c1\u03bf\u03b1\u03c3\u03c4\u03b9\u03b1\u03ba\u03cc\u03c2 \u0391\u03b8\u03ae\u03bd\u03b1\u03c2", "operator": "\u039f\u03a3\u0395", "public_transport": "station", "railway": "station"}}, {"type": "node", "id": 936804379, "lat": 38.0575311, "lon": 23.7706872, "tags": {"name": "\u0397\u03c1\u03b1\u03ba\u03bb\u03b5\u03af\u03bf\u03c5", "name:fr": "H\u00e9raklion", "public_transport": "stop_position", "railway": "stop", "train": "yes"}}, {"type": "node", "id": 936882777, "lat": 38.0248014, "lon": 23.8339306, "tags": {"int_name": "Doukissis Plakentias", "name": "\u0394\u03bf\u03c5\u03ba\u03af\u03c3\u03c3\u03b7\u03c2 \u03a0\u03bb\u03b1\u03ba\u03b5\u03bd\u03c4\u03af\u03b1\u03c2", "name:en": "Doukissis Plakentias", "public_transport": "stop_position", "railway": "stop", "train": "yes"}}, {"type": "node", "id": 2142437054, "lat": 38.0247026, "lon": 23.8338693, "tags": {"int_name": "Doukissis Plakentias", "name": "\u0394\u03bf\u03c5\u03ba\u03af\u03c3\u03c3\u03b7\u03c2 \u03a0\u03bb\u03b1\u03ba\u03b5\u03bd\u03c4\u03af\u03b1\u03c2", "name:en": "Doukissis Plakentias", "public_transport": "stop_position", "railway": "stop", "train": "yes"}}, {"type": "node", "id": 2786690723, "lat": 38.0246124, "lon": 23.8342692, "tags": {"name": "\u0394\u03bf\u03c5\u03ba\u03af\u03c3\u03c3\u03b7\u03c2 \u03a0\u03bb\u03b1\u03ba\u03b5\u03bd\u03c4\u03af\u03b1\u03c2", "name:el": "\u0394\u03bf\u03c5\u03ba\u03af\u03c3\u03c3\u03b7\u03c2 \u03a0\u03bb\u03b1\u03ba\u03b5\u03bd\u03c4\u03af\u03b1\u03c2", "name:en": "Doukissis Plakentias", "public_transport": "station", "railway": "station", "train": "yes"}}, {"type": "node", "id": 3781391905, "lat": 38.0328796, "lon": 23.8225838, "tags": {"int_name": "Pentelis", "name": "\u03a0\u03b5\u03bd\u03c4\u03ad\u03bb\u03b7\u03c2", "name:fr": "Pendeli", "public_transport": "stop_position", "railway": "stop", "train": "yes"}}, {"type": "node", "id": 2786688268, "lat": 38.0339566, "lon": 23.8215345, "tags": {"int_name": "Pentelis", "name": "\u03a0\u03b5\u03bd\u03c4\u03ad\u03bb\u03b7\u03c2", "name:fr": "Pendeli", "public_transport": "stop_position", "railway": "stop", "train": "yes"}}, {"type": "node", "id": 936804010, "lat": 38.041921, "lon": 23.8040729, "tags": {"name": "\u039a\u03b7\u03c6\u03b9\u03c3\u03af\u03b1\u03c2", "name:fr": "Kephissia", "public_transport": "stop_position", "railway": "stop", "train": "yes"}}, {"type": "node", "id": 936804329, "lat": 38.042363, "lon": 23.8030044, "tags": {"name": "\u039a\u03b7\u03c6\u03b9\u03c3\u03af\u03b1\u03c2", "name:fr": "Kephissia", "public_transport": "stop_position", "railway": "stop", "train": "yes"}}, {"type": "node", "id": 2320883269, "lat": 38.0421425, "lon": 23.8035281, "tags": {"name": "\u039a\u03b7\u03c6\u03b9\u03c3\u03af\u03b1\u03c2", "name:de": "Kifisias", "name:el": "\u039a\u03b7\u03c6\u03b9\u03c3\u03af\u03b1\u03c2", "name:en": "Kifisias", "name:fr": "Kifisias", "network": "\u03a0\u03c1\u03bf\u03b1\u03c3\u03c4\u03b9\u03b1\u03ba\u03cc\u03c2 \u0391\u03b8\u03ae\u03bd\u03b1\u03c2", "operator": "\u039f\u03a3\u0395", "public_transport": "station", "railway": "station", "wheelchair": "limited", "wikidata": "Q6405881", "wikipedia": "el:\u03a3\u03b9\u03b4\u03b7\u03c1\u03bf\u03b4\u03c1\u03bf\u03bc\u03b9\u03ba\u03cc\u03c2 \u03a3\u03c4\u03b1\u03b8\u03bc\u03cc\u03c2 \u039b\u03b5\u03c9\u03c6\u03cc\u03c1\u03bf\u03c5 \u039a\u03b7\u03c6\u03b9\u03c3\u03af\u03b1\u03c2"}}, {"type": "node", "id": 969213440, "lat": 38.0802938, "lon": 23.7428912, "tags": {"name": "\u0391\u03c7\u03b1\u03c1\u03bd\u03b1\u03af", "name:fr": "Acharnes", "public_transport": "stop_position", "railway": "stop", "train": "yes"}}, {"type": "node", "id": 2798912795, "lat": 38.0802827, "lon": 23.744082, "tags": {"name": "\u0391\u03c7\u03b1\u03c1\u03bd\u03b1\u03af", "name:fr": "Acharnes", "public_transport": "stop_position", "railway": "stop", "train": "yes"}}, {"type": "node", "id": 966702938, "lat": 38.0997502, "lon": 23.780116, "tags": {"name": "\u0394\u03b5\u03ba\u03ad\u03bb\u03b5\u03b9\u03b1", "name:en": "Decelea", "name:fr": "D\u00e9c\u00e9lie", "public_transport": "stop_position", "railway": "stop", "ref": "\u0398\u03b5\u03c3\u03c3\u03b1\u03bb\u03bf\u03bd\u03af\u03ba\u03b7-\u03a7\u03b1\u03bb\u03ba\u03af\u03b4\u03b1", "train": "yes", "wheelchair": "yes"}}, {"type": "node", "id": 5745155682, "lat": 38.0997889, "lon": 23.7800725, "tags": {"name": "\u0394\u03b5\u03ba\u03ad\u03bb\u03b5\u03b9\u03b1", "name:en": "Decelea", "name:fr": "D\u00e9c\u00e9lie", "public_transport": "stop_position", "railway": "stop", "ref": "\u0391\u03b8\u03ae\u03bd\u03b1", "train": "yes", "wheelchair": "yes"}}, {"type": "node", "id": 5985426212, "lat": 38.0997582, "lon": 23.7801051, "tags": {"name": "\u0394\u03b5\u03ba\u03ad\u03bb\u03b5\u03b9\u03b1", "network": "\u03a0\u03c1\u03bf\u03b1\u03c3\u03c4\u03b9\u03b1\u03ba\u03cc\u03c2 \u0391\u03b8\u03ae\u03bd\u03b1\u03c2", "operator": "\u039f\u03a3\u0395", "railway": "station"}}, {"type": "node", "id": 364329621, "lat": 38.1403673, "lon": 23.8591705, "tags": {"name": "\u0386\u03b3\u03b9\u03bf\u03c2 \u03a3\u03c4\u03ad\u03c6\u03b1\u03bd\u03bf\u03c2", "name:fr": "Agios Stefanos", "public_transport": "stop_position", "railway": "stop", "train": "yes"}}, {"type": "node", "id": 4077571119, "lat": 38.1402756, "lon": 23.8592367, "tags": {"ele": "350.4", "name": "\u0386\u03b3\u03b9\u03bf\u03c2 \u03a3\u03c4\u03ad\u03c6\u03b1\u03bd\u03bf\u03c2", "network": "\u03a0\u03c1\u03bf\u03b1\u03c3\u03c4\u03b9\u03b1\u03ba\u03cc\u03c2 \u0391\u03b8\u03ae\u03bd\u03b1\u03c2", "operator": "\u039f\u03a3\u0395", "public_transport": "station", "railway": "station", "railway:position": "33.5"}}, {"type": "node", "id": 4602583144, "lat": 38.140392, "lon": 23.8591367, "tags": {"name": "\u0386\u03b3\u03b9\u03bf\u03c2 \u03a3\u03c4\u03ad\u03c6\u03b1\u03bd\u03bf\u03c2", "name:fr": "Agios Stefanos", "public_transport": "stop_position", "railway": "stop", "train": "yes"}}, {"type": "node", "id": 368164861, "lat": 38.2505382, "lon": 23.6956698, "tags": {"name": "\u0391\u03c5\u03bb\u03ce\u03bd\u03b1\u03c2", "name:de": "Avlona", "name:el": "\u0391\u03c5\u03bb\u03ce\u03bd\u03b1\u03c2", "name:en": "Avlona", "name:fr": "Avlona", "public_transport": "stop_position", "railway": "stop", "train": "yes"}}, {"type": "node", "id": 4602473593, "lat": 38.2505129, "lon": 23.6955981, "tags": {"name": "\u0391\u03c5\u03bb\u03ce\u03bd\u03b1\u03c2", "name:de": "Avlona", "name:el": "\u0391\u03c5\u03bb\u03ce\u03bd\u03b1\u03c2", "name:en": "Avlona", "name:fr": "Avlona", "name:ru": "\u0410\u0432\u043b\u043e\u043d", "public_transport": "stop_position", "railway": "stop", "train": "yes"}}, {"type": "node", "id": 7785756627, "lat": 38.2505529, "lon": 23.6956085, "tags": {"name": "\u0391\u03c5\u03bb\u03ce\u03bd\u03b1\u03c2", "name:de": "Avlona", "name:el": "\u0391\u03c5\u03bb\u03ce\u03bd\u03b1\u03c2", "name:en": "Avlona", "name:fr": "Avlona", "public_transport": "station", "railway": "station", "train": "yes"}}, {"type": "node", "id": 2291068164, "lat": 38.281677, "lon": 23.667227, "tags": {"name": "\u0391\u03b3. \u0398\u03c9\u03bc\u03ac\u03c2", "name:en": "Ag. Tomas", "name:fr": "Saint Thomas", "public_transport": "stop_position", "railway": "stop", "train": "yes"}}, {"type": "node", "id": 4602473662, "lat": 38.2816588, "lon": 23.6671755, "tags": {"name": "\u0391\u03b3. \u0398\u03c9\u03bc\u03ac\u03c2", "name:en": "Ag. Tomas", "name:fr": "Saint Thomas", "public_transport": "stop_position", "railway": "stop", "train": "yes"}}, {"type": "node", "id": 155927732, "lat": 38.3069654, "lon": 23.6338955, "tags": {"name": "\u039f\u03b9\u03bd\u03cc\u03c6\u03c5\u03c4\u03b1", "name:en": "Inofyta", "name:fr": "Inofyta", "public_transport": "stop_position", "railway": "stop", "train": "yes"}}, {"type": "node", "id": 4602473731, "lat": 38.3069488, "lon": 23.6338252, "tags": {"name": "\u039f\u03b9\u03bd\u03cc\u03c6\u03c5\u03c4\u03b1", "name:en": "Inofyta", "name:fr": "Inofyta", "public_transport": "stop_position", "railway": "stop", "train": "yes"}}, {"type": "node", "id": 155927790, "lat": 38.321712, "lon": 23.6098045, "tags": {"int_name": "Inoi", "name": "\u039f\u03b9\u03bd\u03cc\u03b7", "public_transport": "stop_position", "railway": "stop", "train": "yes"}}, {"type": "node", "id": 2291064340, "lat": 38.3221682, "lon": 23.6096826, "tags": {"int_name": "Inoi", "name": "\u039f\u03b9\u03bd\u03cc\u03b7", "public_transport": "station", "railway": "station"}}, {"type": "node", "id": 4942040546, "lat": 38.3215758, "lon": 23.6098095, "tags": {"int_name": "Inoi", "name": "\u039f\u03b9\u03bd\u03cc\u03b7", "public_transport": "stop_position", "railway": "stop", "train": "yes"}}, {"type": "node", "id": 155927792, "lat": 38.3230172, "lon": 23.609077, "tags": {"name": "\u039f\u03b9\u03bd\u03cc\u03b7", "name:fr": "Inoi", "public_transport": "stop_position", "railway": "stop", "train": "yes"}}, {"type": "node", "id": 2291065001, "lat": 38.3376364, "lon": 23.6094499, "tags": {"name": "\u0394\u03ae\u03bb\u03b5\u03c3\u03b9", "name:en": "Dilesi", "name:fr": "Dilesi", "public_transport": "stop_position", "railway": "stop", "train": "yes"}}, {"type": "node", "id": 2291066231, "lat": 38.3551079, "lon": 23.6071554, "tags": {"name": "\u0386\u03b3\u03b9\u03bf\u03c2 \u0393\u03b5\u03ce\u03c1\u03b3\u03b9\u03bf\u03c2", "name:en": "Saint George", "name:fr": "Saint George", "network": "\u03a0\u03c1\u03bf\u03b1\u03c3\u03c4\u03b9\u03b1\u03ba\u03cc\u03c2 \u0391\u03b8\u03ae\u03bd\u03b1\u03c2", "operator": "\u039f\u03a3\u0395", "public_transport": "stop_position", "railway": "stop", "train": "yes"}}, {"type": "node", "id": 155706004, "lat": 38.3892135, "lon": 23.5932061, "tags": {"name": "\u039a\u03b1\u03bb\u03bf\u03c7\u03ce\u03c1\u03b9-\u03a0\u03b1\u03bd\u03c4\u03b5\u03af\u03c7\u03b9", "name:en": "Kalochori-Pantichi", "name:fr": "Kalochori-Pantichi", "public_transport": "stop_position", "railway": "stop", "train": "yes"}}, {"type": "node", "id": 155891790, "lat": 38.2354165, "lon": 23.7844236, "tags": {"name": "\u03a3\u03c6\u03b5\u03bd\u03b4\u03ac\u03bb\u03b7", "name:fr": "Sfendali", "public_transport": "stop_position", "railway": "stop", "train": "yes"}}, {"type": "node", "id": 4602473454, "lat": 38.2353729, "lon": 23.7844173, "tags": {"name": "\u03a3\u03c6\u03b5\u03bd\u03b4\u03ac\u03bb\u03b7", "name:fr": "Sfendali", "public_transport": "stop_position", "railway": "stop", "train": "yes"}}, {"type": "node", "id": 4683331993, "lat": 38.1873915, "lon": 23.8447642, "tags": {"int_name": "Afidnes", "name": "\u0391\u03c6\u03af\u03b4\u03bd\u03b5\u03c2", "name:fr": "Afidnes", "name:sq": "Qurka", "public_transport": "stop_position", "railway": "stop", "train": "yes"}}, {"type": "node", "id": 4683331994, "lat": 38.1873782, "lon": 23.8446369, "tags": {"int_name": "Afidnes", "name": "\u0391\u03c6\u03af\u03b4\u03bd\u03b5\u03c2", "name:fr": "Afidnes", "name:sq": "Qurka", "network": "\u03a4\u03c1\u03b1\u03b9\u03bd\u039f\u03a3\u0395", "operator": "\u039f\u03a3\u0395", "public_transport": "station", "railway": "station", "train": "yes", "wikidata": "Q4689236", "wikipedia": "el:\u03a3\u03b9\u03b4\u03b7\u03c1\u03bf\u03b4\u03c1\u03bf\u03bc\u03b9\u03ba\u03cc\u03c2 \u03a3\u03c4\u03b1\u03b8\u03bc\u03cc\u03c2 \u0391\u03c6\u03b9\u03b4\u03bd\u03ce\u03bd"}}, {"type": "node", "id": 4683331997, "lat": 38.1864268, "lon": 23.8447689, "tags": {"int_name": "Afidnes", "name": "\u0391\u03c6\u03af\u03b4\u03bd\u03b5\u03c2", "name:fr": "Afidnes", "name:sq": "Qurka", "public_transport": "stop_position", "railway": "stop", "ref": "\u0391\u03b8\u03ae\u03bd\u03b1", "train": "yes"}}, {"type": "node", "id": 4683332020, "lat": 38.1883297, "lon": 23.844506, "tags": {"int_name": "Afidnes", "name": "\u0391\u03c6\u03af\u03b4\u03bd\u03b5\u03c2", "name:fr": "Afidnes", "name:sq": "Qurka", "public_transport": "stop_position", "railway": "stop", "ref": "\u0398\u03b5\u03c3\u03c3\u03b1\u03bb\u03bf\u03bd\u03af\u03ba\u03b7", "train": "yes"}}, {"type": "node", "id": 5777457447, "lat": 38.4625271, "lon": 23.5861659, "tags": {"name": "\u03a7\u03b1\u03bb\u03ba\u03af\u03b4\u03b1", "name:fr": "Chalcis", "public_transport": "stop_position", "railway": "stop", "train": "yes"}}, {"type": "node", "id": 5777457448, "lat": 38.4626178, "lon": 23.5861802, "tags": {"name": "\u03a7\u03b1\u03bb\u03ba\u03af\u03b4\u03b1", "name:fr": "Chalcis", "public_transport": "stop_position", "railway": "stop", "train": "yes"}}, {"type": "node", "id": 7785784493, "lat": 38.462568, "lon": 23.5861282, "tags": {"name": "\u03a7\u03b1\u03bb\u03ba\u03af\u03b4\u03b1", "name:fr": "Chalcis", "public_transport": "station", "railway": "station", "train": "yes"}}, {"type": "node", "id": 155705963, "lat": 38.4044558, "lon": 23.6033397, "tags": {"name": "\u0391\u03c5\u03bb\u03af\u03b4\u03b1", "name:de": "Avlida", "name:en": "Avlida", "name:fr": "Avlida", "public_transport": "stop_position", "railway": "stop", "ref": "\u0391\u03b8\u03ae\u03bd\u03b1", "train": "yes"}}, {"type": "node", "id": 155708452, "lat": 38.4044464, "lon": 23.6033835, "tags": {"name": "\u0391\u03c5\u03bb\u03af\u03b4\u03b1", "name:de": "Avlida", "name:en": "Avlida", "name:fr": "Avlida", "public_transport": "stop_position", "railway": "stop", "ref": "\u03a7\u03b1\u03bb\u03ba\u03af\u03b4\u03b1", "train": "yes"}}, {"type": "node", "id": 1035624076, "lat": 40.6913512, "lon": 21.634032, "tags": {"name": "\u039e\u03b9\u03bd\u03cc \u039d\u03b5\u03c1\u03cc", "name:en": "Xino Nero", "railway": "station"}}, {"type": "node", "id": 3670330796, "lat": 40.691024, "lon": 21.6854184, "tags": {"name": "\u0391\u03bc\u03cd\u03bd\u03c4\u03b1\u03b9\u03bf", "name:de": "Amyndeo", "name:en": "Amyntaio", "public_transport": "station", "railway": "station", "train": "yes"}}, {"type": "node", "id": 7691547642, "lat": 40.6909301, "lon": 21.6856087, "tags": {"name": "\u0391\u03bc\u03cd\u03bd\u03c4\u03b1\u03b9\u03bf", "name:de": "Amyndeo", "name:en": "Amyntaio", "public_transport": "stop_position", "train": "yes"}}, {"type": "node", "id": 7691547643, "lat": 40.6908888, "lon": 21.6856277, "tags": {"name": "\u0391\u03bc\u03cd\u03bd\u03c4\u03b1\u03b9\u03bf", "name:de": "Amyndeo", "name:en": "Amyntaio", "public_transport": "stop_position", "train": "yes"}}, {"type": "node", "id": 2791603216, "lat": 40.7813201, "lon": 21.4152375, "tags": {"image": "https://commons.wikimedia.org/wiki/File:Florina_Railway_Station.jpg", "name": "\u03a6\u03bb\u03ce\u03c1\u03b9\u03bd\u03b1\u03c2", "name:en": "Florina", "name:mk": "\u0416\u0421 \u041b\u0435\u0440\u0438\u043d", "railway": "station", "wikimedia_commons": "File:Florina_Railway_Station.jpg"}}, {"type": "node", "id": 295529622, "lat": 40.7731352, "lon": 21.5706738, "tags": {"name": "\u0392\u03b5\u03cd\u03b7", "name:de": "Vevi", "name:en": "Veve", "name:fr": "Veve", "public_transport": "stop_position", "train": "yes"}}, {"type": "node", "id": 300806334, "lat": 40.7733037, "lon": 21.5707371, "tags": {"addr:country": "GR", "addr:place": "\u0392\u03b5\u03cd\u03b7", "addr:postcode": "53074", "alt_name:mk": "\u0414\u043e\u043b\u043d\u0430 \u0411\u0430\u043d\u0438\u0446\u0430", "name": "\u03a3\u03c4\u03b1\u03b8\u03bc\u03cc\u03c2 \u0392\u03b5\u03cd\u03b7\u03c2", "name:de": "Stathmos (Kato) Vevis", "name:el": "\u03a3\u03c4\u03b1\u03b8\u03bc\u03cc\u03c2 \u0392\u03b5\u03cd\u03b7\u03c2", "name:mk": "\u0421\u0442\u0430\u043d\u0438\u0446\u0430 \u0411\u0430\u043d\u0438\u0446\u0430", "old_name": "Kato Vevi", "population": "118", "public_transport": "station", "railway": "station", "train": "yes"}}, {"type": "node", "id": 205461659, "lat": 40.7243354, "lon": 21.7437942, "tags": {"country": "Amyndeo municipality,Florina prefecture,Dytiki Makedonia,Greece", "name": "\u0386\u03b3\u03b9\u03bf\u03c2 \u03a0\u03b1\u03bd\u03c4\u03b5\u03bb\u03b5\u03ae\u03bc\u03c9\u03bd", "name:de": "Agios Pandelimonas", "name:el": "\u0386\u03b3\u03b9\u03bf\u03c2 \u03a0\u03b1\u03bd\u03c4\u03b5\u03bb\u03b5\u03ae\u03bc\u03c9\u03bd", "name:en": "Agios Pandelimonas", "name:fr": "Agios Pandelimonas", "railway": "station"}}, {"type": "node", "id": 287772976, "lat": 39.8988163, "lon": 22.6138603, "tags": {"name": "\u03a1\u03b1\u03c8\u03ac\u03bd\u03b7", "name:en": "Rapsani", "public_transport": "stop_position", "train": "yes"}}, {"type": "node", "id": 4598783045, "lat": 39.8988367, "lon": 22.6138351, "tags": {"name": "\u03a1\u03b1\u03c8\u03ac\u03bd\u03b7", "name:en": "Rapsani", "public_transport": "stop_position", "train": "yes"}}, {"type": "node", "id": 6780643974, "lat": 39.9760603, "lon": 22.6383068, "tags": {"addr:place": "\u039d\u03ad\u03bf\u03b9 \u03a0\u03cc\u03c1\u03bf\u03b9", "name": "\u039d\u03ad\u03bf\u03b9 \u03a0\u03cc\u03c1\u03bf\u03b9", "name:de": "Nei Pori", "name:el": "\u039d\u03ad\u03bf\u03b9 \u03a0\u03cc\u03c1\u03bf\u03b9", "name:en": "Neoi Poroi", "name:fr": "Nei Pori", "public_transport": "stop_position", "railway": "stop", "train": "yes"}}, {"type": "node", "id": 6780646886, "lat": 39.976152, "lon": 22.6383899, "tags": {"name": "\u039d\u03ad\u03bf\u03b9 \u03a0\u03cc\u03c1\u03bf\u03b9", "name:de": "Nei Pori", "name:el": "\u039d\u03ad\u03bf\u03b9 \u03a0\u03cc\u03c1\u03bf\u03b9", "name:en": "Neoi Poroi", "name:fr": "Nei Pori", "public_transport": "stop_position", "railway": "stop", "train": "yes"}}, {"type": "node", "id": 286425728, "lat": 40.0585648, "lon": 22.5655662, "tags": {"name": "\u039b\u03b5\u03c0\u03c4\u03bf\u03ba\u03b1\u03c1\u03c5\u03ac", "name:de": "Leptokarya", "name:el": "\u039b\u03b5\u03c0\u03c4\u03bf\u03ba\u03b1\u03c1\u03c5\u03ac", "name:en": "Leptokarya", "name:fr": "Leptokarya", "name:mk": "\u041b\u0435\u043f\u0442\u043e\u043a\u0430\u0440\u0438\u0458\u0430", "public_transport": "stop_position", "railway": "stop", "train": "yes"}}, {"type": "node", "id": 4602315176, "lat": 40.0585691, "lon": 22.5656168, "tags": {"name": "\u039b\u03b5\u03c0\u03c4\u03bf\u03ba\u03b1\u03c1\u03c5\u03ac", "name:de": "Leptokarya", "name:el": "\u039b\u03b5\u03c0\u03c4\u03bf\u03ba\u03b1\u03c1\u03c5\u03ac", "name:en": "Leptokarya", "name:fr": "Leptokarya", "public_transport": "stop_position", "railway": "stop", "train": "yes"}}, {"type": "node", "id": 6780649449, "lat": 40.0585827, "lon": 22.5657302, "tags": {"name": "\u039b\u03b5\u03c0\u03c4\u03bf\u03ba\u03b1\u03c1\u03c5\u03ac", "name:de": "Leptokarya", "name:el": "\u039b\u03b5\u03c0\u03c4\u03bf\u03ba\u03b1\u03c1\u03c5\u03ac", "name:en": "Leptokarya", "name:fr": "Leptokarya", "public_transport": "stop_position", "railway": "stop", "train": "yes"}}, {"type": "node", "id": 7694377303, "lat": 40.0585678, "lon": 22.5655914, "tags": {"name": "\u039b\u03b5\u03c0\u03c4\u03bf\u03ba\u03b1\u03c1\u03c5\u03ac", "name:de": "Leptokarya", "name:el": "\u039b\u03b5\u03c0\u03c4\u03bf\u03ba\u03b1\u03c1\u03c5\u03ac", "name:en": "Leptokarya", "name:fr": "Leptokarya", "railway": "station"}}, {"type": "node", "id": 5433926636, "lat": 40.124945, "lon": 22.5502122, "tags": {"name": "\u039b\u03b9\u03c4\u03cc\u03c7\u03c9\u03c1\u03bf", "name:fr": "Litochoro", "public_transport": "stop_position", "train": "yes"}}, {"type": "node", "id": 5433926637, "lat": 40.124917, "lon": 22.5501006, "tags": {"name": "\u039b\u03b9\u03c4\u03cc\u03c7\u03c9\u03c1\u03bf", "name:fr": "Litochoro", "public_transport": "stop_position", "train": "yes"}}, {"type": "node", "id": 5433926638, "lat": 40.1249058, "lon": 22.550056, "tags": {"name": "\u039b\u03b9\u03c4\u03cc\u03c7\u03c9\u03c1\u03bf", "name:fr": "Litochoro", "public_transport": "stop_position", "train": "yes"}}, {"type": "node", "id": 5433926639, "lat": 40.1248778, "lon": 22.5499443, "tags": {"name": "\u039b\u03b9\u03c4\u03cc\u03c7\u03c9\u03c1\u03bf", "name:fr": "Litochoro", "public_transport": "stop_position", "train": "yes"}}, {"type": "node", "id": 3736191926, "lat": 40.2670392, "lon": 22.5311335, "tags": {"name": "\u039a\u03b1\u03c4\u03b5\u03c1\u03af\u03bd\u03b7", "name:bg": "\u041a\u0430\u0442\u0435\u0440\u0438\u043d\u0438", "name:el": "\u039a\u03b1\u03c4\u03b5\u03c1\u03af\u03bd\u03b7", "name:en": "Katerini", "name:fr": "Katerini", "name:mk": "\u041a\u0430\u0442\u0435\u0440\u0438\u043d\u0430", "name:tr": "Katerin", "public_transport": "stop_position", "train": "yes"}}, {"type": "node", "id": 6175162599, "lat": 40.2685138, "lon": 22.5315302, "tags": {"addr:city": "\u039a\u03b1\u03c4\u03b5\u03c1\u03af\u03bd\u03b7", "addr:country": "GR", "name": "\u039a\u03b1\u03c4\u03b5\u03c1\u03af\u03bd\u03b7", "name:bg": "\u041a\u0430\u0442\u0435\u0440\u0438\u043d\u0438", "name:de": "Katerini", "name:el": "\u039a\u03b1\u03c4\u03b5\u03c1\u03af\u03bd\u03b7", "name:en": "Katerini", "name:fr": "Katerini", "name:mk": "\u041a\u0430\u0442\u0435\u0440\u0438\u043d\u0430", "name:tr": "Katerin", "railway": "station"}}, {"type": "node", "id": 4602309827, "lat": 40.2694684, "lon": 22.5318002, "tags": {"name": "\u039a\u03b1\u03c4\u03b5\u03c1\u03af\u03bd\u03b7", "name:bg": "\u041a\u0430\u0442\u0435\u0440\u0438\u043d\u0438", "name:de": "Katerini", "name:el": "\u039a\u03b1\u03c4\u03b5\u03c1\u03af\u03bd\u03b7", "name:en": "Katerini", "name:fr": "Katerini", "name:mk": "\u041a\u0430\u0442\u0435\u0440\u0438\u043d\u0430", "name:tr": "Katerin", "public_transport": "stop_position", "train": "yes"}}, {"type": "node", "id": 4788817395, "lat": 40.5393528, "lon": 22.2135648, "tags": {"addr:city": "\u0392\u03ad\u03c1\u03bf\u03b9\u03b1", "addr:country": "GR", "ele": "83", "int_name": "Veroia", "internet_access": "wlan", "internet_access:fee": "free", "name": "\u0392\u03ad\u03c1\u03bf\u03b9\u03b1", "name:de": "Bahnhof Veria", "name:el": "\u03a3\u03b9\u03b4\u03b7\u03c1\u03bf\u03b4\u03c1\u03bf\u03bc\u03b9\u03ba\u03cc\u03c2 \u03a3\u03c4\u03b1\u03b8\u03bc\u03cc\u03c2 \u0392\u03b5\u03c1\u03bf\u03af\u03b1\u03c2", "name:en": "Veria Railway Station", "name:es": "Estaci\u00f3n de V\u00e9ria", "name:fr": "Gare de V\u00e9roia", "name:it": "Stazione di V\u00e8ria", "name:jp": "\u30d9\u30ea\u30a2 \u99c5", "name:la": "Beroea", "name:pt": "V\u00e9ria", "name:ro": "Veria", "name:ru": "\u0416\u0435\u043b\u0435\u0437\u043d\u043e\u0434\u043e\u0440\u043e\u0436\u043d\u0430\u044f \u0441\u0442\u0430\u043d\u0446\u0438\u044f \u0412\u0435\u0440\u0438\u044f", "operator": "\u039f\u03c1\u03b3\u03b1\u03bd\u03b9\u03c3\u03bc\u03cc\u03c2 \u03a3\u03b9\u03b4\u03b7\u03c1\u03bf\u03b4\u03c1\u03cc\u03bc\u03c9\u03bd \u0395\u03bb\u03bb\u03ac\u03b4\u03bf\u03c2", "phone": "+30 233 102 4444", "public_transport": "station", "railway": "station", "railway:position": "67.5", "railway:ref": "\u0392\u03a1", "wheelchair": "no"}}, {"type": "node", "id": 4951426366, "lat": 40.5394626, "lon": 22.2136994, "tags": {"name": "\u0392\u03ad\u03c1\u03bf\u03b9\u03b1", "name:en": "Veria", "public_transport": "stop_position", "railway": "stop", "railway:position": "67.5", "train": "yes"}}, {"type": "node", "id": 4312778133, "lat": 40.6214862, "lon": 22.1342022, "tags": {"name": "\u03a3\u03c4\u03b1\u03b8\u03bc\u03cc\u03c2 \u039d\u03ac\u03bf\u03c5\u03c3\u03b1\u03c2", "public_transport": "stop_position", "railway": "stop", "railway:position": "79.1", "train": "yes"}}, {"type": "node", "id": 4962862013, "lat": 40.6214713, "lon": 22.1339962, "tags": {"ele": "88", "int_name": "Naousa", "internet_access:fee": "no", "name": "\u039d\u03ac\u03bf\u03c5\u03c3\u03b1", "name:bg": "\u0413\u0430\u0440\u0430 \u041d\u0435\u0433\u0443\u0448", "name:de": "Bahnhof Naoussa", "name:el": "\u03a3\u03b9\u03b4\u03b7\u03c1\u03bf\u03b4\u03c1\u03bf\u03bc\u03b9\u03ba\u03cc\u03c2 \u03a3\u03c4\u03b1\u03b8\u03bc\u03cc\u03c2 \u039d\u03ac\u03bf\u03c5\u03c3\u03b1\u03c2", "name:en": "Naousa Railway Station", "name:es": "Estaci\u00f3n de N\u00e1oussa", "name:fr": "Gare de N\u00e1ousa", "name:it": "Stazione di Naoussa", "name:jp": "\u30ca\u30a6\u30b5 \u99c5", "name:ru": "\u0416\u0435\u043b\u0435\u0437\u043d\u043e\u0434\u043e\u0440\u043e\u0436\u043d\u0430\u044f \u0441\u0442\u0430\u043d\u0446\u0438\u044f \u041d\u0430\u0443\u0441\u0441\u0430", "operator": "\u039f\u03c1\u03b3\u03b1\u03bd\u03b9\u03c3\u03bc\u03cc\u03c2 \u03a3\u03b9\u03b4\u03b7\u03c1\u03bf\u03b4\u03c1\u03cc\u03bc\u03c9\u03bd \u0395\u03bb\u03bb\u03ac\u03b4\u03bf\u03c2", "phone": "+30 233 204 2127", "public_transport": "station", "railway": "station", "railway:position": "79.1", "railway:ref": "\u039d\u0391", "wheelchair": "no", "wikidata": "Q12276141"}}, {"type": "node", "id": 4962654974, "lat": 40.6905459, "lon": 22.1414618, "tags": {"name": "\u0395\u03c0\u03b9\u03c3\u03ba\u03bf\u03c0\u03ae", "name:en": "Episkopi", "public_transport": "stop_position", "railway": "stop", "railway:position": "86.8", "train": "yes"}}, {"type": "node", "id": 4962862012, "lat": 40.6905571, "lon": 22.1412817, "tags": {"ele": "66", "int_name": "Episkopi", "internet_access": "no", "internet_access:fee": "no", "name": "\u0395\u03c0\u03b9\u03c3\u03ba\u03bf\u03c0\u03ae", "name:de": "Bahnhof Episkopi", "name:el": "\u03a3\u03b9\u03b4\u03b7\u03c1\u03bf\u03b4\u03c1\u03bf\u03bc\u03b9\u03ba\u03cc\u03c2 \u03a3\u03c4\u03b1\u03b8\u03bc\u03cc\u03c2 \u0395\u03c0\u03b9\u03c3\u03ba\u03bf\u03c0\u03ae\u03c2", "name:en": "Episkopi Railway Station", "name:es": "Estaci\u00f3n de Episkopi", "name:fr": "Gare d' Episkopi", "name:it": "Stazione di Episkopi", "name:jp": "\u30a8\u30d4\u30b9\u30b3\u30d4 \u99c5", "name:ru": "\u0416\u0435\u043b\u0435\u0437\u043d\u043e\u0434\u043e\u0440\u043e\u0436\u043d\u0430\u044f \u0441\u0442\u0430\u043d\u0446\u0438\u044f \u042d\u043f\u0438\u0441\u043a\u043e\u043f\u0438", "operator": "\u039f\u03c1\u03b3\u03b1\u03bd\u03b9\u03c3\u03bc\u03cc\u03c2 \u03a3\u03b9\u03b4\u03b7\u03c1\u03bf\u03b4\u03c1\u03cc\u03bc\u03c9\u03bd \u0395\u03bb\u03bb\u03ac\u03b4\u03bf\u03c2", "phone": "no", "public_transport": "station", "railway": "station", "railway:position": "86.8", "railway:ref": "\u0395'\u03a0", "wheelchair": "no"}}, {"type": "node", "id": 139717883, "lat": 40.3162915, "lon": 22.5777293, "tags": {"name": "\u039a\u03bf\u03c1\u03b9\u03bd\u03cc\u03c2", "name:en": "Korinos", "public_transport": "stop_position", "train": "yes"}}, {"type": "node", "id": 3525547140, "lat": 40.3170216, "lon": 22.5784127, "tags": {"name": "\u039a\u03bf\u03c1\u03b9\u03bd\u03cc\u03c2", "name:en": "Korinos", "public_transport": "stop_position", "train": "yes"}}, {"type": "node", "id": 4944169491, "lat": 40.52703, "lon": 22.2630878, "tags": {"name": "\u039c\u03ad\u03c3\u03b7", "name:en": "Mesi", "public_transport": "stop_position", "railway": "stop", "railway:position": "62.5", "train": "yes"}}, {"type": "node", "id": 4944202636, "lat": 40.5492764, "lon": 22.3143623, "tags": {"name": "\u039a\u03bf\u03c5\u03bb\u03bf\u03cd\u03c1\u03b1", "name:en": "Koolura", "public_transport": "stop_position", "railway": "stop", "railway:position": "57.4", "train": "yes"}}, {"type": "node", "id": 4942584308, "lat": 40.5638234, "lon": 22.3387937, "tags": {"ele": "16", "int_name": "Xechasmeni", "internet_access": "no", "internet_access:fee": "no", "name": "\u039e\u03b5\u03c7\u03b1\u03c3\u03bc\u03ad\u03bd\u03b7", "name:de": "Bahnhof Xehasmeni", "name:el": "\u03a3\u03b9\u03b4\u03b7\u03c1\u03bf\u03b4\u03c1\u03bf\u03bc\u03b9\u03ba\u03cc\u03c2 \u03a3\u03c4\u03b1\u03b8\u03bc\u03cc\u03c2 \u039e\u03b5\u03c7\u03b1\u03c3\u03bc\u03ad\u03bd\u03b7\u03c2", "name:en": "Cehasmeni Railway Station", "name:es": "Estaci\u00f3n de Xejasmeni", "name:fr": "Gare de Ksehasmeni", "name:it": "Stazione di Xecasmeni", "name:jp": "\u30bb\u30a2\u30b9\u30e1\u30cb \u99c5", "name:ru": "\u0416\u0435\u043b\u0435\u0437\u043d\u043e\u0434\u043e\u0440\u043e\u0436\u043d\u0430\u044f \u0441\u0442\u0430\u043d\u0446\u0438\u044f \u041a\u0441\u0435\u0445\u0430\u0437\u043c\u0435\u043d\u0438", "operator": "\u039f\u03c1\u03b3\u03b1\u03bd\u03b9\u03c3\u03bc\u03cc\u03c2 \u03a3\u03b9\u03b4\u03b7\u03c1\u03bf\u03b4\u03c1\u03cc\u03bc\u03c9\u03bd \u0395\u03bb\u03bb\u03ac\u03b4\u03bf\u03c2", "phone": "+30 233 103 9165", "public_transport": "station", "railway": "station", "railway:position": "54.8", "railway:ref": "\u039e\u039c", "wheelchair": "no"}}, {"type": "node", "id": 4951799587, "lat": 40.5636297, "lon": 22.3389946, "tags": {"name": "\u039e\u03b5\u03c7\u03b1\u03c3\u03bc\u03ad\u03bd\u03b7", "name:en": "Cehasmeni", "public_transport": "stop_position", "railway": "stop", "railway:position": "54.8", "train": "yes"}}, {"type": "node", "id": 4944224039, "lat": 40.5787737, "lon": 22.3649872, "tags": {"name": "\u039a\u03b5\u03c6\u03b1\u03bb\u03bf\u03c7\u03ce\u03c1\u03b9\u03bf\u03bd", "name:en": "Kefalohori", "public_transport": "stop_position", "railway": "stop", "railway:position": "52.2", "train": "yes"}}, {"type": "node", "id": 4944236770, "lat": 40.5981109, "lon": 22.3981852, "tags": {"name": "\u039b\u03bf\u03c5\u03c4\u03c1\u03cc\u03c2", "name:en": "Lootros", "public_transport": "stop_position", "railway": "stop", "railway:position": "48.5", "train": "yes"}}, {"type": "node", "id": 1939451177, "lat": 40.4978811, "lon": 22.5523936, "tags": {"name": "\u0391\u03b9\u03b3\u03af\u03bd\u03b9\u03bf\u03bd", "name:en": "Aiginio", "operator": "\u039f\u03a3\u0395", "public_transport": "station", "railway": "station"}}, {"type": "node", "id": 7694377306, "lat": 40.4973505, "lon": 22.5531006, "tags": {"name": "\u0391\u03b9\u03b3\u03af\u03bd\u03b9\u03bf\u03bd", "name:en": "Aiginio", "public_transport": "stop_position", "railway": "stop", "train": "yes"}}, {"type": "node", "id": 7694377305, "lat": 40.4985917, "lon": 22.5519647, "tags": {"name": "\u0391\u03b9\u03b3\u03af\u03bd\u03b9\u03bf\u03bd", "name:en": "Aiginio", "public_transport": "stop_position", "railway": "stop", "train": "yes"}}, {"type": "node", "id": 4942584311, "lat": 40.6203384, "lon": 22.4414623, "tags": {"ele": "7", "int_name": "Alexandreia", "internet_access": "no", "internet_access:fee": "no", "name": "\u0391\u03bb\u03b5\u03be\u03ac\u03bd\u03b4\u03c1\u03b5\u03b9\u03b1", "name:de": "Bahnhof Alexandria", "name:el": "\u03a3\u03b9\u03b4\u03b7\u03c1\u03bf\u03b4\u03c1\u03bf\u03bc\u03b9\u03ba\u03cc\u03c2 \u03a3\u03c4\u03b1\u03b8\u03bc\u03cc\u03c2 \u0391\u03bb\u03b5\u03be\u03ac\u03bd\u03b4\u03c1\u03b5\u03b9\u03b1\u03c2", "name:en": "Alexandria Railway Station", "name:es": "Estaci\u00f3n de Alejandr\u00eda", "name:fr": "Gare d' Alex\u00e1ndrie", "name:it": "Stazione di Alessandria", "name:jp": "\u30a2\u30ec\u30af\u30b5\u30f3\u30c9\u30ea\u30a2 \u99c5", "name:ru": "\u0416\u0435\u043b\u0435\u0437\u043d\u043e\u0434\u043e\u0440\u043e\u0436\u043d\u0430\u044f \u0441\u0442\u0430\u043d\u0446\u0438\u044f \u0410\u043b\u0435\u043a\u0441\u0430\u043d\u0434\u0440\u0438\u044f", "operator": "\u039f\u03c1\u03b3\u03b1\u03bd\u03b9\u03c3\u03bc\u03cc\u03c2 \u03a3\u03b9\u03b4\u03b7\u03c1\u03bf\u03b4\u03c1\u03cc\u03bc\u03c9\u03bd \u0395\u03bb\u03bb\u03ac\u03b4\u03bf\u03c2", "phone": "+30 233 302 3210", "public_transport": "station", "railway": "station", "railway:position": "44.1", "railway:ref": "\u0393\u039a", "wheelchair": "no"}}, {"type": "node", "id": 4944334994, "lat": 40.6201997, "lon": 22.4414694, "tags": {"name": "\u0391\u03bb\u03b5\u03be\u03ac\u03bd\u03b4\u03c1\u03b5\u03b9\u03b1", "name:en": "Alexandria", "public_transport": "stop_position", "railway": "stop", "railway:position": "44.1", "train": "yes"}}, {"type": "node", "id": 4788608523, "lat": 40.6280743, "lon": 22.4914015, "tags": {"public_transport": "stop_position", "railway": "stop", "railway:position": "39.7", "train": "no"}}, {"type": "node", "id": 4788607968, "lat": 40.6301281, "lon": 22.5044272, "tags": {"public_transport": "stop_position", "railway": "stop", "railway:position": "38.6", "train": "yes"}}, {"type": "node", "id": 4789397377, "lat": 40.6365516, "lon": 22.5295803, "tags": {"name": "\u03a0\u03bb\u03b1\u03c4\u03cd", "name:bg": "\u041f\u043b\u0430\u0442\u0438", "name:el": "\u03a0\u03bb\u03b1\u03c4\u03cd", "name:en": "Platy", "name:fr": "Platy", "name:mk": "\u041f\u043b\u0430\u0442\u0438", "name:tr": "Plati", "public_transport": "stop_position", "railway": "stop", "railway:position": "36.3", "train": "yes"}}, {"type": "node", "id": 4789397378, "lat": 40.6365835, "lon": 22.5295436, "tags": {"name": "\u03a0\u03bb\u03b1\u03c4\u03cd", "name:bg": "\u041f\u043b\u0430\u0442\u0438", "name:el": "\u03a0\u03bb\u03b1\u03c4\u03cd", "name:en": "Platy", "name:fr": "Platy", "name:mk": "\u041f\u043b\u0430\u0442\u0438", "name:tr": "Plati", "public_transport": "stop_position", "railway": "stop", "railway:position": "36.3", "train": "yes"}}, {"type": "node", "id": 4789397379, "lat": 40.6366124, "lon": 22.5295054, "tags": {"name": "\u03a0\u03bb\u03b1\u03c4\u03cd", "name:bg": "\u041f\u043b\u0430\u0442\u0438", "name:el": "\u03a0\u03bb\u03b1\u03c4\u03cd", "name:en": "Platy", "name:fr": "Platy", "name:mk": "\u041f\u043b\u0430\u0442\u0438", "name:tr": "Plati", "public_transport": "stop_position", "railway": "stop", "railway:position": "36.3", "train": "yes"}}, {"type": "node", "id": 4805502964, "lat": 40.6365676, "lon": 22.529562, "tags": {"ele": "5", "int_name": "Platy", "internet_access": "wlan", "internet_access:fee": "free", "name": "\u03a0\u03bb\u03b1\u03c4\u03cd", "name:bg": "\u041f\u043b\u0430\u0442\u0438", "name:de": "Bahnhof Platy", "name:el": "\u03a0\u03bb\u03b1\u03c4\u03cd", "name:en": "Platy", "name:es": "Estaci\u00f3n de Platy", "name:fr": "Platy", "name:it": "Stazione di Platy", "name:jp": "\u30d7\u30e9\u30c6\u30a3 \u99c5", "name:mk": "\u041f\u043b\u0430\u0442\u0438", "name:ru": "\u0416\u0435\u043b\u0435\u0437\u043d\u043e\u0434\u043e\u0440\u043e\u0436\u043d\u0430\u044f \u0441\u0442\u0430\u043d\u0446\u0438\u044f \u041f\u043b\u0430\u0442\u0438", "name:tr": "Plati", "operator": "\u039f\u03c1\u03b3\u03b1\u03bd\u03b9\u03c3\u03bc\u03cc\u03c2 \u03a3\u03b9\u03b4\u03b7\u03c1\u03bf\u03b4\u03c1\u03cc\u03bc\u03c9\u03bd \u0395\u03bb\u03bb\u03ac\u03b4\u03bf\u03c2", "phone": "+30 233 306 3216", "public_transport": "station", "railway": "station", "railway:position": "36.3", "railway:ref": "\u03a0\u039b", "wheelchair": "limited"}}, {"type": "node", "id": 7694377302, "lat": 40.6364671, "lon": 22.5296598, "tags": {"name": "\u03a0\u03bb\u03b1\u03c4\u03cd", "name:bg": "\u041f\u043b\u0430\u0442\u0438", "name:el": "\u03a0\u03bb\u03b1\u03c4\u03cd", "name:en": "Platy", "name:fr": "Platy", "name:mk": "\u041f\u043b\u0430\u0442\u0438", "name:tr": "Plati", "public_transport": "stop_position", "railway": "stop", "railway:position": "36.3", "train": "yes"}}, {"type": "node", "id": 4833116396, "lat": 40.6580201, "lon": 22.5643043, "tags": {"name": "\u039b\u03bf\u03c5\u03b4\u03af\u03b1\u03c2", "name:en": "Loudias", "public_transport": "stop_position", "railway": "stop", "railway:position": "32.8", "train": "no"}}, {"type": "node", "id": 4833116397, "lat": 40.6580448, "lon": 22.5642691, "tags": {"name": "\u039b\u03bf\u03c5\u03b4\u03af\u03b1\u03c2", "name:en": "Loudias", "public_transport": "stop_position", "railway": "stop", "railway:position": "32.8", "train": "no"}}, {"type": "node", "id": 4787210048, "lat": 40.6743766, "lon": 22.6027755, "tags": {"name": "\u0386\u03b4\u03b5\u03bd\u03b4\u03c1\u03bf\u03bd", "name:en": "Adendro", "public_transport": "stop_position", "railway": "stop", "railway:position": "28.8", "train": "yes"}}, {"type": "node", "id": 4787210049, "lat": 40.6744795, "lon": 22.6026928, "tags": {"name": "\u0386\u03b4\u03b5\u03bd\u03b4\u03c1\u03bf\u03bd", "name:en": "Adendro", "public_transport": "stop_position", "railway": "stop", "railway:position": "28.8", "train": "yes"}}, {"type": "node", "id": 4805568920, "lat": 40.6744281, "lon": 22.6027357, "tags": {"ele": "5", "int_name": "Adendro", "internet_access": "no", "name": "\u0386\u03b4\u03b5\u03bd\u03b4\u03c1\u03bf\u03bd", "name:de": "Bahnhof Adendro", "name:el": "\u03a3\u03b9\u03b4\u03b7\u03c1\u03bf\u03b4\u03c1\u03bf\u03bc\u03b9\u03ba\u03cc\u03c2 \u03a3\u03c4\u03b1\u03b8\u03bc\u03cc\u03c2 \u0391\u03b4\u03ad\u03bd\u03b4\u03c1\u03bf\u03c5", "name:en": "Adendro Railway Station", "name:es": "Estaci\u00f3n de \u00c1dendro", "name:fr": "Gare d' \u00c1dendro", "name:it": "Stazione di Adendro", "name:jp": "\u30a2\u30c7\u30f3\u30c9\u30ed \u99c5", "name:ru": "\u0416\u0435\u043b\u0435\u0437\u043d\u043e\u0434\u043e\u0440\u043e\u0436\u043d\u0430\u044f \u0441\u0442\u0430\u043d\u0446\u0438\u044f \u0410\u0434\u0435\u043d\u0434\u0440\u043e", "operator": "\u039f\u03c1\u03b3\u03b1\u03bd\u03b9\u03c3\u03bc\u03cc\u03c2 \u03a3\u03b9\u03b4\u03b7\u03c1\u03bf\u03b4\u03c1\u03cc\u03bc\u03c9\u03bd \u0395\u03bb\u03bb\u03ac\u03b4\u03bf\u03c2", "phone": "+30 239 103 1493", "public_transport": "station", "railway": "station", "railway:position": "28.8", "railway:ref": "\u0391\u0395'", "wheelchair": "yes"}}, {"type": "node", "id": 4753175251, "lat": 40.6942427, "lon": 22.6982371, "tags": {"public_transport": "stop_position", "railway": "stop", "railway:position": "20.2", "train": "yes"}}, {"type": "node", "id": 4753175252, "lat": 40.6942068, "lon": 22.6982351, "tags": {"public_transport": "stop_position", "railway": "stop", "railway:position": "20.2", "train": "yes"}}, {"type": "node", "id": 4805688785, "lat": 40.6943732, "lon": 22.698223, "tags": {"ele": "9", "int_name": "Axios", "internet_access": "no", "internet_access:fee": "no", "name": "\u0391\u03be\u03b9\u03cc\u03c2", "name:de": "Bahnhof Axi\u00f3s", "name:el": "\u03a3\u03b9\u03b4\u03b7\u03c1\u03bf\u03b4\u03c1\u03bf\u03bc\u03b9\u03ba\u03cc\u03c2 \u03a3\u03c4\u03b1\u03b8\u03bc\u03cc\u03c2 \u0391\u03be\u03b9\u03bf\u03cd", "name:en": "Axios Railway Station", "name:es": "Estaci\u00f3n de Axios", "name:fr": "Gare d' Axios", "name:it": "Stazione di Axi\u00f3s", "name:jp": "\u30a2\u30af\u30b7\u30aa\u30b9 \u99c5", "name:ru": "\u0416\u0435\u043b\u0435\u0437\u043d\u043e\u0434\u043e\u0440\u043e\u0436\u043d\u0430\u044f \u0441\u0442\u0430\u043d\u0446\u0438\u044f \u0410\u043a\u0441\u044c\u043e\u0301\u0441", "operator": "\u039f\u03c1\u03b3\u03b1\u03bd\u03b9\u03c3\u03bc\u03cc\u03c2 \u03a3\u03b9\u03b4\u03b7\u03c1\u03bf\u03b4\u03c1\u03cc\u03bc\u03c9\u03bd \u0395\u03bb\u03bb\u03ac\u03b4\u03bf\u03c2", "phone": "no", "public_transport": "station", "railway": "station", "railway:position": "20.2", "railway:ref": "\u0391\u039e", "wheelchair": "no"}}, {"type": "node", "id": 4751337610, "lat": 40.6741628, "lon": 22.805536, "tags": {"name": "\u03a3\u03af\u03bd\u03b4\u03bf\u03c2", "name:en": "Sindos", "public_transport": "stop_position", "railway": "stop", "railway:position": "10.9", "train": "yes"}}, {"type": "node", "id": 4751337611, "lat": 40.6742761, "lon": 22.8055759, "tags": {"name": "\u03a3\u03af\u03bd\u03b4\u03bf\u03c2", "name:en": "Sindos", "public_transport": "stop_position", "railway": "stop", "railway:position": "10.9", "train": "yes"}}, {"type": "node", "id": 4805733725, "lat": 40.674065, "lon": 22.8053363, "tags": {"ele": "9", "int_name": "Sindos", "internet_access": "no", "internet_access:fee": "no", "name": "\u03a3\u03af\u03bd\u03b4\u03bf\u03c2", "name:de": "Bahnhof Sindos", "name:el": "\u03a3\u03b9\u03b4\u03b7\u03c1\u03bf\u03b4\u03c1\u03bf\u03bc\u03b9\u03ba\u03cc\u03c2 \u03a3\u03c4\u03b1\u03b8\u03bc\u03cc\u03c2 \u03a3\u03af\u03bd\u03b4\u03bf\u03c5", "name:en": "Sindos Railway Station", "name:es": "Estaci\u00f3n de Sindo", "name:fr": "Gare de S\u00edndos", "name:it": "Stazione di Sindos", "name:jp": "\u30b7\u30fc\u30f3\u30c9\u30b9 \u99c5", "name:lt": "Sindas gele\u017einkelio stotis", "name:ru": "\u0416\u0435\u043b\u0435\u0437\u043d\u043e\u0434\u043e\u0440\u043e\u0436\u043d\u0430\u044f \u0441\u0442\u0430\u043d\u0446\u0438\u044f \u0421\u0438\u043d\u0434\u043e\u0441", "operator": "\u039f\u03c1\u03b3\u03b1\u03bd\u03b9\u03c3\u03bc\u03cc\u03c2 \u03a3\u03b9\u03b4\u03b7\u03c1\u03bf\u03b4\u03c1\u03cc\u03bc\u03c9\u03bd \u0395\u03bb\u03bb\u03ac\u03b4\u03bf\u03c2", "phone": "no", "public_transport": "station", "railway": "station", "railway:position": "10.9", "railway:ref": "\u03a3\u0394", "wheelchair": "yes"}}, {"type": "node", "id": 4732892078, "lat": 40.6975303, "lon": 22.7979297, "tags": {"public_transport": "stop_position", "railway": "stop", "railway:position": "13.8", "train": "no"}}, {"type": "node", "id": 4892376194, "lat": 40.6975934, "lon": 22.7979425, "tags": {"ele": "8", "int_name": "Anchialos Makedonias", "internet_access": "no", "name": "\u0391\u03b3\u03c7\u03af\u03b1\u03bb\u03bf\u03c2 \u039c\u03b1\u03ba\u03b5\u03b4\u03bf\u03bd\u03af\u03b1\u03c2", "name:de": "Bahnhof Mazedonien Anchialos", "name:el": "\u03a3\u03b9\u03b4\u03b7\u03c1\u03bf\u03b4\u03c1\u03bf\u03bc\u03b9\u03ba\u03cc\u03c2 \u03a3\u03c4\u03b1\u03b8\u03bc\u03cc\u03c2 \u0391\u03b3\u03c7\u03b9\u03ac\u03bb\u03bf\u03c5 \u039c\u03b1\u03ba\u03b5\u03b4\u03bf\u03bd\u03af\u03b1\u03c2", "name:en": "Anchialos of Macedonia Railway Station", "name:es": "Estaci\u00f3n de Anchialos de Macedonia", "name:fr": "Gare d' Anchialos Mac\u00e9doine", "name:it": "Stazione di Macedonia Anchialos", "name:jp": "\u30a2\u30cb\u30a2\u30ed\u30b9 \u30de\u30b1\u30c9\u30cb\u30a2\u30b9 \u99c5", "name:ru": "\u0416\u0435\u043b\u0435\u0437\u043d\u043e\u0434\u043e\u0440\u043e\u0436\u043d\u0430\u044f \u0441\u0442\u0430\u043d\u0446\u0438\u044f \u0410\u043d\u0445\u0438\u0430\u043b\u043e\u0441 \u041c\u0430\u043a\u0435\u0434\u043e\u043d\u0438\u0430c", "operator": "\u039f\u03c1\u03b3\u03b1\u03bd\u03b9\u03c3\u03bc\u03cc\u03c2 \u03a3\u03b9\u03b4\u03b7\u03c1\u03bf\u03b4\u03c1\u03cc\u03bc\u03c9\u03bd \u0395\u03bb\u03bb\u03ac\u03b4\u03bf\u03c2", "phone": "no", "public_transport": "station", "railway": "station", "railway:position": "13.8", "railway:ref": "\u0391\u039b", "wheelchair": "no"}}, {"type": "node", "id": 4922782986, "lat": 40.6416057, "lon": 22.9247853, "tags": {"ele": "4.2", "int_name": "Thessaloniki (Emporikos)", "internet_access": "no", "internet_access:fee": "no", "name": "\u0398\u03b5\u03c3\u03c3\u03b1\u03bb\u03bf\u03bd\u03af\u03ba\u03b7 (\u0395\u03bc\u03c0\u03bf\u03c1\u03b9\u03ba\u03cc\u03c2)", "name:de": "G\u00fcterbahnhof Thessaloniki", "name:el": "\u0395\u03bc\u03c0\u03bf\u03c1\u03b9\u03ba\u03cc\u03c2 \u0398\u03b5\u03c3\u03c3\u03b1\u03bb\u03bf\u03bd\u03af\u03ba\u03b7\u03c2", "name:en": "Thessaloniki Freight Station", "name:es": "Estaci\u00f3n de carga de Sal\u00f3nica", "name:fr": "Gare de fret de Thessalonique", "name:it": "Stazione di Salonicco (Scalo Merci)", "name:jp": ".", "name:mk": "\u0422\u043e\u0432\u0430\u0440\u043d\u0430 \u0436\u0435\u043b\u0435\u0437\u043d\u0438\u0447\u043a\u0430 \u0441\u0442\u0430\u043d\u0438\u0446\u0430 \u0421\u043e\u043b\u0443\u043d", "name:ru": ".", "operator": "\u039f\u03c1\u03b3\u03b1\u03bd\u03b9\u03c3\u03bc\u03cc\u03c2 \u03a3\u03b9\u03b4\u03b7\u03c1\u03bf\u03b4\u03c1\u03cc\u03bc\u03c9\u03bd \u0395\u03bb\u03bb\u03ac\u03b4\u03bf\u03c2", "phone": "no", "public_transport": "station", "railway": "station", "railway:position": "0.0", "railway:ref": "\u0398\u039d", "wheelchair": "no"}}, {"type": "node", "id": 4927030355, "lat": 40.6413075, "lon": 22.9246864, "tags": {"public_transport": "stop_position", "railway": "stop", "railway:position": "0.0", "train": "no"}}, {"type": "node", "id": 208460599, "lat": 40.6439694, "lon": 22.9308575, "tags": {"int_name": "Thessaloniki", "name": "\u0398\u03b5\u03c3\u03c3\u03b1\u03bb\u03bf\u03bd\u03af\u03ba\u03b7", "name:ar": "\u0633\u0627\u0644\u0648\u0646\u064a\u0643", "name:bg": "\u0421\u043e\u043b\u0443\u043d", "name:ca": "Tessal\u00f2nica", "name:el": "\u0398\u03b5\u03c3\u03c3\u03b1\u03bb\u03bf\u03bd\u03af\u03ba\u03b7", "name:en": "Thessaloniki", "name:fr": "Thessalonique", "name:mk": "\u0421\u043e\u043b\u0443\u043d", "name:tr": "Selanik", "public_transport": "stop_position", "railway": "switch", "train": "yes"}}, {"type": "node", "id": 4584669595, "lat": 40.6441354, "lon": 22.9308765, "tags": {"int_name": "Thessaloniki", "name": "\u0398\u03b5\u03c3\u03c3\u03b1\u03bb\u03bf\u03bd\u03af\u03ba\u03b7", "name:ar": "\u0633\u0627\u0644\u0648\u0646\u064a\u0643", "name:bg": "\u0421\u043e\u043b\u0443\u043d", "name:ca": "Tessal\u00f2nica", "name:el": "\u0398\u03b5\u03c3\u03c3\u03b1\u03bb\u03bf\u03bd\u03af\u03ba\u03b7", "name:en": "Thessaloniki", "name:fr": "Thessalonique", "name:mk": "\u0421\u043e\u043b\u0443\u043d", "name:tr": "Selanik", "public_transport": "stop_position", "railway": "switch", "train": "yes"}}, {"type": "node", "id": 4925130296, "lat": 40.6451119, "lon": 22.9291851, "tags": {"ele": "13", "int_name": "Epivatikos Stathmos", "internet_access": "wlan", "internet_access:fee": "free", "name": "\u0395\u03c0\u03b9\u03b2\u03b1\u03c4\u03b9\u03ba\u03cc\u03c2 \u03a3\u03c4\u03b1\u03b8\u03bc\u03cc\u03c2 \u0398\u03b5\u03c3\u03c3\u03b1\u03bb\u03bf\u03bd\u03af\u03ba\u03b7\u03c2", "name:de": "Bahnhof Thessaloniki", "name:el": "\u0395\u03c0\u03b9\u03b2\u03b1\u03c4\u03b9\u03ba\u03cc\u03c2 \u03a3\u03c4\u03b1\u03b8\u03bc\u03cc\u03c2 \u0398\u03b5\u03c3\u03c3\u03b1\u03bb\u03bf\u03bd\u03af\u03ba\u03b7\u03c2", "name:en": "Thessaloniki Railway Station", "name:es": "Estaci\u00f3n de Sal\u00f3nica", "name:fr": "Gare de Thessalonique", "name:it": "Stazione di Salonicco", "name:jp": "\u30c6\u30c3\u30b5\u30ed\u30cb\u30ad \u99c5", "name:mk": "\u0416\u0435\u043b\u0435\u0437\u043d\u0438\u0447\u043a\u0430 \u0441\u0442\u0430\u043d\u0438\u0446\u0430 \u0421\u043e\u043b\u0443\u043d", "name:ru": "\u0416\u0435\u043b\u0435\u0437\u043d\u043e\u0434\u043e\u0440\u043e\u0436\u043d\u0430\u044f \u0441\u0442\u0430\u043d\u0446\u0438\u044f \u0421\u0430\u043b\u043e\u043d\u0438\u043a\u0438", "operator": "\u039f\u03c1\u03b3\u03b1\u03bd\u03b9\u03c3\u03bc\u03cc\u03c2 \u03a3\u03b9\u03b4\u03b7\u03c1\u03bf\u03b4\u03c1\u03cc\u03bc\u03c9\u03bd \u0395\u03bb\u03bb\u03ac\u03b4\u03bf\u03c2", "phone": "+30 231 051 7517", "public_transport": "station", "railway": "station", "railway:position": "-1.0", "railway:ref": "\u0398", "wheelchair": "yes"}}, {"type": "node", "id": 4925130315, "lat": 40.6450707, "lon": 22.9288346, "tags": {"name": "\u0398\u03b5\u03c3\u03c3\u03b1\u03bb\u03bf\u03bd\u03af\u03ba\u03b7\u03c2", "name:bg": "\u0421\u043e\u043b\u0443\u043d", "name:ca": "Tessal\u00f2nica", "name:el": "\u0398\u03b5\u03c3\u03c3\u03b1\u03bb\u03bf\u03bd\u03af\u03ba\u03b7", "name:en": "Thessaloniki", "name:fr": "Thessalonique", "name:mk": "\u0421\u043e\u043b\u0443\u043d", "name:tr": "Selanik", "public_transport": "stop_position", "railway": "stop", "railway:position": "-1.0", "train": "yes"}}, {"type": "node", "id": 4925130316, "lat": 40.6451028, "lon": 22.9288664, "tags": {"name": "\u0398\u03b5\u03c3\u03c3\u03b1\u03bb\u03bf\u03bd\u03af\u03ba\u03b7\u03c2", "name:bg": "\u0421\u043e\u043b\u0443\u043d", "name:ca": "Tessal\u00f2nica", "name:el": "\u0398\u03b5\u03c3\u03c3\u03b1\u03bb\u03bf\u03bd\u03af\u03ba\u03b7", "name:en": "Thessaloniki", "name:fr": "Thessalonique", "name:mk": "\u0421\u043e\u043b\u0443\u043d", "name:tr": "Selanik", "public_transport": "stop_position", "railway": "stop", "railway:position": "-1.0", "train": "yes"}}, {"type": "node", "id": 4925130317, "lat": 40.6453369, "lon": 22.9290978, "tags": {"name": "\u0398\u03b5\u03c3\u03c3\u03b1\u03bb\u03bf\u03bd\u03af\u03ba\u03b7\u03c2", "name:bg": "\u0421\u043e\u043b\u0443\u043d", "name:ca": "Tessal\u00f2nica", "name:el": "\u0398\u03b5\u03c3\u03c3\u03b1\u03bb\u03bf\u03bd\u03af\u03ba\u03b7", "name:en": "Thessaloniki", "name:fr": "Thessalonique", "name:mk": "\u0421\u043e\u043b\u0443\u043d", "name:tr": "Selanik", "public_transport": "stop_position", "railway": "stop", "railway:position": "-1.0", "train": "yes"}}, {"type": "node", "id": 4925130318, "lat": 40.6453687, "lon": 22.9291293, "tags": {"name": "\u0398\u03b5\u03c3\u03c3\u03b1\u03bb\u03bf\u03bd\u03af\u03ba\u03b7\u03c2", "name:bg": "\u0421\u043e\u043b\u0443\u043d", "name:ca": "Tessal\u00f2nica", "name:el": "\u0398\u03b5\u03c3\u03c3\u03b1\u03bb\u03bf\u03bd\u03af\u03ba\u03b7", "name:en": "Thessaloniki", "name:fr": "Thessalonique", "name:mk": "\u0421\u043e\u043b\u0443\u043d", "name:tr": "Selanik", "public_transport": "stop_position", "railway": "stop", "railway:position": "-1.0", "train": "yes"}}, {"type": "node", "id": 4925130319, "lat": 40.645243, "lon": 22.929005, "tags": {"name": "\u0398\u03b5\u03c3\u03c3\u03b1\u03bb\u03bf\u03bd\u03af\u03ba\u03b7\u03c2", "name:bg": "\u0421\u043e\u043b\u0443\u043d", "name:ca": "Tessal\u00f2nica", "name:el": "\u0398\u03b5\u03c3\u03c3\u03b1\u03bb\u03bf\u03bd\u03af\u03ba\u03b7", "name:en": "Thessaloniki", "name:fr": "Thessalonique", "name:mk": "\u0421\u043e\u043b\u0443\u043d", "name:tr": "Selanik", "public_transport": "stop_position", "railway": "stop", "railway:position": "-1.0", "train": "yes"}}, {"type": "node", "id": 4925130320, "lat": 40.645201, "lon": 22.9289635, "tags": {"name": "\u0398\u03b5\u03c3\u03c3\u03b1\u03bb\u03bf\u03bd\u03af\u03ba\u03b7\u03c2", "name:bg": "\u0421\u043e\u043b\u0443\u043d", "name:ca": "Tessal\u00f2nica", "name:el": "\u0398\u03b5\u03c3\u03c3\u03b1\u03bb\u03bf\u03bd\u03af\u03ba\u03b7", "name:en": "Thessaloniki", "name:fr": "Thessalonique", "name:mk": "\u0421\u043e\u043b\u0443\u043d", "name:tr": "Selanik", "public_transport": "stop_position", "railway": "stop", "railway:position": "-1.0", "train": "yes"}}, {"type": "node", "id": 4925132621, "lat": 40.6454668, "lon": 22.9292262, "tags": {"name": "\u0398\u03b5\u03c3\u03c3\u03b1\u03bb\u03bf\u03bd\u03af\u03ba\u03b7\u03c2", "name:bg": "\u0421\u043e\u043b\u0443\u043d", "name:ca": "Tessal\u00f2nica", "name:el": "\u0398\u03b5\u03c3\u03c3\u03b1\u03bb\u03bf\u03bd\u03af\u03ba\u03b7", "name:en": "Thessaloniki", "name:fr": "Thessalonique", "name:mk": "\u0421\u043e\u043b\u0443\u043d", "name:tr": "Selanik", "public_transport": "stop_position", "railway": "stop", "railway:position": "-1.0", "train": "yes"}}, {"type": "node", "id": 4942040547, "lat": 40.6440043, "lon": 22.9308934, "tags": {"int_name": "Thessaloniki", "name": "\u0398\u03b5\u03c3\u03c3\u03b1\u03bb\u03bf\u03bd\u03af\u03ba\u03b7", "name:ar": "\u0633\u0627\u0644\u0648\u0646\u064a\u0643", "name:bg": "\u0421\u043e\u043b\u0443\u043d", "name:ca": "Tessal\u00f2nica", "name:el": "\u0398\u03b5\u03c3\u03c3\u03b1\u03bb\u03bf\u03bd\u03af\u03ba\u03b7", "name:en": "Thessaloniki", "name:fr": "Thessalonique", "name:mk": "\u0421\u043e\u043b\u0443\u043d", "name:tr": "Selanik", "public_transport": "stop_position", "railway": "switch", "train": "yes"}}, {"type": "node", "id": 5326340286, "lat": 40.644261, "lon": 22.9284547, "tags": {"entrance": "yes", "entrance_marker:subway": "yes", "highway": "elevator", "level": "0;-1", "name": "\u0393", "railway": "stop", "wheelchair": "yes"}}, {"type": "node", "id": 4685524754, "lat": 40.6689735, "lon": 22.8856458, "tags": {"public_transport": "stop_position", "railway": "stop", "railway:position": "3.6", "train": "no"}}, {"type": "node", "id": 4920890487, "lat": 40.669029, "lon": 22.8853275, "tags": {"ele": "8.7", "int_name": "Dialogi", "internet_access": "no", "name": "\u0394\u03b9\u03b1\u03bb\u03bf\u03b3\u03ae", "name:de": "Rangierbahnhof", "name:el": "\u0394\u03b9\u03b1\u03bb\u03bf\u03b3\u03ae", "name:en": "Marshalling yard", "name:es": "Playa de maniobras", "name:fr": "Gare de triage", "name:it": "Stazione di smistamento", "name:jp": "\u64cd\u8eca\u5834", "name:ru": "\u0421\u043e\u0440\u0442\u0438\u0440\u043e\u0432\u043e\u0447\u043d\u0430\u044f \u0441\u0442\u0430\u043d\u0446\u0438\u044f", "operator": "\u039f\u03c1\u03b3\u03b1\u03bd\u03b9\u03c3\u03bc\u03cc\u03c2 \u03a3\u03b9\u03b4\u03b7\u03c1\u03bf\u03b4\u03c1\u03cc\u03bc\u03c9\u03bd \u0395\u03bb\u03bb\u03ac\u03b4\u03bf\u03c2", "phone": "no", "public_transport": "station", "railway": "station", "railway:position": "3.6", "railway:ref": "\u0394\u039b", "wheelchair": "no"}}, {"type": "node", "id": 4927030353, "lat": 40.6689418, "lon": 22.8856221, "tags": {"public_transport": "stop_position", "railway": "stop", "railway:position": "3.6", "train": "no"}}, {"type": "node", "id": 4927030354, "lat": 40.6688217, "lon": 22.8855619, "tags": {"public_transport": "stop_position", "railway": "stop", "railway:position": "3.6", "train": "no"}}, {"type": "node", "id": 205458165, "lat": 40.7980462, "lon": 21.8349208, "tags": {"addr:country": "GR", "addr:place": "\u0386\u03c1\u03bd\u03b9\u03c3\u03c3\u03b1", "name": "\u0386\u03c1\u03bd\u03b9\u03c3\u03c3\u03b1", "name:de": "Arnissa", "name:el": "\u0386\u03c1\u03bd\u03b9\u03c3\u03c3\u03b1", "name:en": "Arnissa", "name:fr": "Arnissa", "railway": "station"}}, {"type": "node", "id": 4977535475, "lat": 40.7786809, "lon": 21.8671667, "tags": {"public_transport": "stop_position", "railway": "stop", "railway:position": "131.4", "train": "yes"}}, {"type": "node", "id": 4990549404, "lat": 40.8097196, "lon": 21.9809776, "tags": {"public_transport": "stop_position", "railway": "stop", "railway:position": "119.1", "train": "yes"}}, {"type": "node", "id": 4990550079, "lat": 40.8098662, "lon": 21.9810064, "tags": {"addr:city": "\u0386\u03b3\u03c1\u03b1\u03c2", "addr:country": "GR", "alt_name:mk": "\u0416\u0435\u043b\u0435\u0437\u043d\u0438\u0447\u043a\u0430 \u0441\u0442\u0430\u043d\u0438\u0446\u0430 \u0412\u043b\u0430\u0434\u043e\u0432\u043e", "ele": "484", "int_name": "Agras", "internet_access": "no", "internet_access:fee": "no", "name": "\u0386\u03b3\u03c1\u03b1\u03c2", "name:de": "Bahnhof Agras", "name:el": "\u03a3\u03b9\u03b4\u03b7\u03c1\u03bf\u03b4\u03c1\u03bf\u03bc\u03b9\u03ba\u03cc\u03c2 \u03a3\u03c4\u03b1\u03b8\u03bc\u03cc\u03c2 \u0386\u03b3\u03c1\u03b1\u03c2", "name:en": "Agras Railway Station", "name:es": "Estaci\u00f3n de Agras", "name:fr": "Gare d' Agras", "name:it": "Stazione di Agras", "name:jp": "\u30a2\u30b0\u30e9\u30b9 \u99c5", "name:mk": "\u0416\u0421 \u0412\u043b\u0430\u0434\u043e\u0432\u043e", "name:ru": "\u0416\u0435\u043b\u0435\u0437\u043d\u043e\u0434\u043e\u0440\u043e\u0436\u043d\u0430\u044f \u0441\u0442\u0430\u043d\u0446\u0438\u044f \u0410\u0433\u0440\u0430", "operator": "\u039f\u03c1\u03b3\u03b1\u03bd\u03b9\u03c3\u03bc\u03cc\u03c2 \u03a3\u03b9\u03b4\u03b7\u03c1\u03bf\u03b4\u03c1\u03cc\u03bc\u03c9\u03bd \u0395\u03bb\u03bb\u03ac\u03b4\u03bf\u03c2", "phone": "+30 238 109 2098", "public_transport": "station", "railway": "station", "railway:position": "119.1", "railway:ref": "\u0391\u0393", "wheelchair": "no"}}, {"type": "node", "id": 4962654936, "lat": 40.7202317, "lon": 22.1409374, "tags": {"name": "\u03a0\u03b5\u03c4\u03c1\u03b9\u03ac", "name:en": "Petria", "public_transport": "stop_position", "railway": "stop", "railway:position": "90.1", "train": "yes"}}, {"type": "node", "id": 4968890799, "lat": 40.7682265, "lon": 22.1576675, "tags": {"name": "\u03a3\u03ba\u03cd\u03b4\u03c1\u03b1", "name:en": "Sk\u00eddhra", "public_transport": "stop_position", "railway": "stop", "railway:position": "95.8", "train": "yes"}}, {"type": "node", "id": 4970600726, "lat": 40.7682483, "lon": 22.1574446, "tags": {"addr:country": "GR", "ele": "34", "int_name": "Skydra", "internet_access": "no", "internet_access:fee": "no", "name": "\u03a3\u03ba\u03cd\u03b4\u03c1\u03b1", "name:de": "Bahnhof Skydra", "name:el": "\u03a3\u03b9\u03b4\u03b7\u03c1\u03bf\u03b4\u03c1\u03bf\u03bc\u03b9\u03ba\u03cc\u03c2 \u03a3\u03c4\u03b1\u03b8\u03bc\u03cc\u03c2 \u03a3\u03ba\u03cd\u03b4\u03c1\u03b1\u03c2", "name:en": "Sk\u00eddhra Railway Station", "name:es": "Estaci\u00f3n de Zkidra", "name:fr": "Gare de Sk\u00fddra", "name:it": "Stazione di Skydra", "name:jp": "\u30b9\u30ad\u30c9\u30e9 \u99c5", "name:ru": "\u0416\u0435\u043b\u0435\u0437\u043d\u043e\u0434\u043e\u0440\u043e\u0436\u043d\u0430\u044f \u0441\u0442\u0430\u043d\u0446\u0438\u044f \u0421\u043a\u0438\u0434\u0440\u0430", "old_name": "Vertekop", "operator": "\u039f\u03c1\u03b3\u03b1\u03bd\u03b9\u03c3\u03bc\u03cc\u03c2 \u03a3\u03b9\u03b4\u03b7\u03c1\u03bf\u03b4\u03c1\u03cc\u03bc\u03c9\u03bd \u0395\u03bb\u03bb\u03ac\u03b4\u03bf\u03c2", "phone": "+30 238 108 9204", "public_transport": "station", "railway": "station", "railway:position": "95.8", "railway:ref": "\u03a3\u03a5", "wheelchair": "no"}}, {"type": "node", "id": 1279418783, "lat": 40.804698, "lon": 22.129365, "tags": {"public_transport": "stop_position", "railway": "stop", "railway:position": "102.6", "train": "yes"}}, {"type": "node", "id": 4990865412, "lat": 40.8087765, "lon": 22.0500241, "tags": {"ele": "312", "int_name": "Edessa", "internet_access": "no", "internet_access:fee": "no", "name": "\u0388\u03b4\u03b5\u03c3\u03c3\u03b1", "name:de": "Bahnhof Edessa", "name:el": "\u03a3\u03b9\u03b4\u03b7\u03c1\u03bf\u03b4\u03c1\u03bf\u03bc\u03b9\u03ba\u03cc\u03c2 \u03a3\u03c4\u03b1\u03b8\u03bc\u03cc\u03c2 \u0388\u03b4\u03b5\u03c3\u03c3\u03b1", "name:en": "Edessa Railway Station", "name:es": "Estaci\u00f3n de \u00c9dessa", "name:fr": "Gare d' \u00c9dessa", "name:it": "Stazione di Edessa", "name:jp": "\u30a8\u30c7\u30c3\u30b5 \u99c5", "name:mk": "\u0416\u0421 \u0412\u043e\u0434\u0435\u043d", "name:ru": "\u0416\u0435\u043b\u0435\u0437\u043d\u043e\u0434\u043e\u0440\u043e\u0436\u043d\u0430\u044f \u0441\u0442\u0430\u043d\u0446\u0438\u044f \u042d\u0434\u0435\u0441\u0430", "old_name": "Voden", "operator": "\u039f\u03c1\u03b3\u03b1\u03bd\u03b9\u03c3\u03bc\u03cc\u03c2 \u03a3\u03b9\u03b4\u03b7\u03c1\u03bf\u03b4\u03c1\u03cc\u03bc\u03c9\u03bd \u0395\u03bb\u03bb\u03ac\u03b4\u03bf\u03c2", "phone": "+30 238 102 4900", "public_transport": "station", "railway": "station", "railway:position": "111.7", "railway:ref": "\u0395'", "wheelchair": "no", "wikidata": "Q18009303"}}, {"type": "node", "id": 4990866527, "lat": 40.8089111, "lon": 22.0499942, "tags": {"name": "\u0388\u03b4\u03b5\u03c3\u03c3\u03b1", "name:en": "Edessa", "public_transport": "stop_position", "railway": "stop", "railway:position": "111.7", "train": "yes"}}, {"type": "node", "id": 4661215077, "lat": 40.948876, "lon": 22.6363245, "tags": {"public_transport": "stop_position", "railway": "stop", "railway:position": "51.4", "train": "no"}}, {"type": "node", "id": 4910948128, "lat": 40.9875728, "lon": 22.582072, "tags": {"public_transport": "stop_position", "railway": "stop", "railway:position": "56.7", "train": "yes"}}, {"type": "node", "id": 4910948131, "lat": 40.9873268, "lon": 22.5820894, "tags": {"ele": "30", "int_name": "Polykastro", "internet_access": "no", "internet_access:fee": "no", "name": "\u03a0\u03bf\u03bb\u03cd\u03ba\u03b1\u03c3\u03c4\u03c1\u03bf\u03bd", "name:de": "Bahnhof Polykastro", "name:el": "\u03a3\u03b9\u03b4\u03b7\u03c1\u03bf\u03b4\u03c1\u03bf\u03bc\u03b9\u03ba\u03cc\u03c2 \u03a3\u03c4\u03b1\u03b8\u03bc\u03cc\u03c2 \u03a0\u03bf\u03bb\u03c5\u03ba\u03ac\u03c3\u03c4\u03c1\u03bf\u03c5", "name:en": "Polykastro Railway Station", "name:es": "Estaci\u00f3n de Polikastro", "name:fr": "Gare de Pol\u00fdkastro", "name:it": "Stazione di Polykastro", "name:jp": "\u30dd\u30ea\u30ab\u30b9\u30c8\u30ed\u30f3 \u99c5", "name:ru": "\u0416\u0435\u043b\u0435\u0437\u043d\u043e\u0434\u043e\u0440\u043e\u0436\u043d\u0430\u044f \u0441\u0442\u0430\u043d\u0446\u0438\u044f \u041f\u043e\u043b\u0438\u043a\u0430\u0441\u0442\u0440\u043e", "operator": "\u039f\u03c1\u03b3\u03b1\u03bd\u03b9\u03c3\u03bc\u03cc\u03c2 \u03a3\u03b9\u03b4\u03b7\u03c1\u03bf\u03b4\u03c1\u03cc\u03bc\u03c9\u03bd \u0395\u03bb\u03bb\u03ac\u03b4\u03bf\u03c2", "phone": "+30 234 309 7385", "public_transport": "station", "railway": "station", "railway:position": "56.7", "railway:ref": "\u03a0\u039a", "wheelchair": "no"}}, {"type": "node", "id": 2312093771, "lat": 41.013288, "lon": 22.5512803, "tags": {"public_transport": "stop_position", "railway": "stop", "railway:position": "60.9", "train": "no"}}, {"type": "node", "id": 4911134045, "lat": 41.0132818, "lon": 22.5511921, "tags": {"ele": "39", "int_name": "Axioupoli", "internet_access": "no", "internet_access:fee": "no", "name": "\u0391\u03be\u03b9\u03bf\u03cd\u03c0\u03bf\u03bb\u03b9\u03c2", "name:de": "Bahnhof Axioupoli", "name:el": "\u03a3\u03b9\u03b4\u03b7\u03c1\u03bf\u03b4\u03c1\u03bf\u03bc\u03b9\u03ba\u03cc\u03c2 \u03a3\u03c4\u03b1\u03b8\u03bc\u03cc\u03c2 \u0391\u03be\u03b9\u03bf\u03cd\u03c0\u03bf\u03bb\u03b7\u03c2", "name:en": "Axioupoli Railway Station", "name:es": "Estaci\u00f3n de Axio\u00fapoli", "name:fr": "Gare d' Axio\u00fapoli", "name:it": "Stazione di Axioupoli", "name:jp": "\u30a2\u30af\u30b7\u30a6\u30dd\u30ea \u99c5", "name:ru": "\u0416\u0435\u043b\u0435\u0437\u043d\u043e\u0434\u043e\u0440\u043e\u0436\u043d\u0430\u044f \u0441\u0442\u0430\u043d\u0446\u0438\u044f \u0410\u043a\u0441\u0438\u0443\u043f\u043e\u043b\u0438", "operator": "\u039f\u03c1\u03b3\u03b1\u03bd\u03b9\u03c3\u03bc\u03cc\u03c2 \u03a3\u03b9\u03b4\u03b7\u03c1\u03bf\u03b4\u03c1\u03cc\u03bc\u03c9\u03bd \u0395\u03bb\u03bb\u03ac\u03b4\u03bf\u03c2", "phone": "no", "public_transport": "station", "railway": "station", "railway:position": "60.9", "railway:ref": ".", "wheelchair": "no"}}, {"type": "node", "id": 4899862314, "lat": 40.9670617, "lon": 22.6150381, "tags": {"ele": "26", "int_name": "Neo Polykastro", "internet_access": "no", "name": "\u039d\u03ad\u03bf \u03a0\u03bf\u03bb\u03cd\u03ba\u03b1\u03c3\u03c4\u03c1\u03bf", "name:de": "Neuer Bahnhof Polykastro", "name:el": "\u039d\u03ad\u03bf\u03c2 \u03a3\u03b9\u03b4\u03b7\u03c1\u03bf\u03b4\u03c1\u03bf\u03bc\u03b9\u03ba\u03cc\u03c2 \u03a3\u03c4\u03b1\u03b8\u03bc\u03cc\u03c2 \u03a0\u03bf\u03bb\u03c5\u03ba\u03ac\u03c3\u03c4\u03c1\u03bf\u03c5", "name:en": "New Polykastro Railway Station", "name:es": "Nueva Estaci\u00f3n de Polikastro", "name:fr": "Nouvelle Gare de Pol\u00fdkastro", "name:it": "Nuova Stazione di Polykastro", "name:jp": "\u65b0\u3057\u3044\u30dd\u30ea\u30ab\u30b9\u30c8\u30ed\u30f3 \u99c5", "name:ru": "\u041d\u043e\u0432\u044b\u0439 \u0416\u0435\u043b\u0435\u0437\u043d\u043e\u0434\u043e\u0440\u043e\u0436\u043d\u0430\u044f \u0441\u0442\u0430\u043d\u0446\u0438\u044f \u041f\u043e\u043b\u0438\u043a\u0430\u0441\u0442\u0440\u043e", "operator": "\u039f\u03c1\u03b3\u03b1\u03bd\u03b9\u03c3\u03bc\u03cc\u03c2 \u03a3\u03b9\u03b4\u03b7\u03c1\u03bf\u03b4\u03c1\u03cc\u03bc\u03c9\u03bd \u0395\u03bb\u03bb\u03ac\u03b4\u03bf\u03c2", "phone": "no", "public_transport": "station", "railway": "station", "railway:position": "53.1", "railway:ref": "\u03a0\u039a", "wheelchair": "yes"}}, {"type": "node", "id": 4760052277, "lat": 41.0972726, "lon": 22.5286186, "tags": {"public_transport": "stop_position", "railway": "stop", "railway:position": "73.8", "train": "no"}}, {"type": "node", "id": 2309833175, "lat": 41.0427466, "lon": 22.5520802, "tags": {"public_transport": "stop_position", "railway": "stop", "railway:position": "64.7", "train": "no"}}, {"type": "node", "id": 4911236964, "lat": 41.0425727, "lon": 22.5519635, "tags": {"ele": "41", "int_name": "Paionia", "internet_access": "no", "internet_access:fee": "no", "name": "\u03a0\u03b1\u03b9\u03bf\u03bd\u03af\u03b1", "name:de": "Bahnhof Paionien", "name:el": "\u03a3\u03b9\u03b4\u03b7\u03c1\u03bf\u03b4\u03c1\u03bf\u03bc\u03b9\u03ba\u03cc\u03c2 \u03a3\u03c4\u03b1\u03b8\u03bc\u03cc\u03c2 \u03a0\u03b1\u03b9\u03bf\u03bd\u03af\u03b1\u03c2", "name:en": "Paeonia Railway Station", "name:es": "Estaci\u00f3n de Peonia", "name:fr": "Gare de P\u00e9onie", "name:it": "Stazione di Peonia", "name:jp": "\u30da\u30aa\u30cb\u30a2 \u99c5", "name:ru": "\u0416\u0435\u043b\u0435\u0437\u043d\u043e\u0434\u043e\u0440\u043e\u0436\u043d\u0430\u044f \u0441\u0442\u0430\u043d\u0446\u0438\u044f \u041f\u0435\u043e\u043d\u0439\u0430", "operator": "\u039f\u03c1\u03b3\u03b1\u03bd\u03b9\u03c3\u03bc\u03cc\u03c2 \u03a3\u03b9\u03b4\u03b7\u03c1\u03bf\u03b4\u03c1\u03cc\u03bc\u03c9\u03bd \u0395\u03bb\u03bb\u03ac\u03b4\u03bf\u03c2", "phone": "no", "public_transport": "station", "railway": "station", "railway:position": "64.7", "railway:ref": ".", "wheelchair": "no"}}, {"type": "node", "id": 5745293876, "lat": 41.0528759, "lon": 22.5875734, "tags": {"construction": "stop", "public_transport": "stop_position", "railway": "construction", "railway:position": "61.7", "train": "yes"}}, {"type": "node", "id": 5745293877, "lat": 41.0529089, "lon": 22.5876384, "tags": {"construction": "stop", "public_transport": "stop_position", "railway": "construction", "railway:position": "61.7", "train": "yes"}}, {"type": "node", "id": 4914966083, "lat": 41.1206864, "lon": 22.5181126, "tags": {"ele": "51", "int_name": "Eidomeni", "internet_access": "no", "internet_access:fee": "no", "name": "\u0395\u03b9\u03b4\u03bf\u03bc\u03ad\u03bd\u03b7", "name:de": "Bahnhof Idomeni", "name:el": "\u03a3\u03b9\u03b4\u03b7\u03c1\u03bf\u03b4\u03c1\u03bf\u03bc\u03b9\u03ba\u03cc\u03c2 \u03a3\u03c4\u03b1\u03b8\u03bc\u03cc\u03c2 \u0395\u03b9\u03b4\u03bf\u03bc\u03ad\u03bd\u03b7\u03c2", "name:en": "Idomeni Railway Station", "name:es": "Estaci\u00f3n de Idomeni", "name:fr": "Gare d' Eidom\u00e9ni", "name:it": "Stazione di Idomeni", "name:jp": "\u30a4\u30fc\u30c9\u30e1\u30cb \u99c5", "name:mk": "\u0416\u0421 \u201e\u0421\u0435\u0445\u043e\u0432\u043e\u201c", "name:ru": "\u0416\u0435\u043b\u0435\u0437\u043d\u043e\u0434\u043e\u0440\u043e\u0436\u043d\u0430\u044f \u0441\u0442\u0430\u043d\u0446\u0438\u044f \u0418\u0434\u043e\u043c\u0451\u043d\u0438", "operator": "\u039f\u03c1\u03b3\u03b1\u03bd\u03b9\u03c3\u03bc\u03cc\u03c2 \u03a3\u03b9\u03b4\u03b7\u03c1\u03bf\u03b4\u03c1\u03cc\u03bc\u03c9\u03bd \u0395\u03bb\u03bb\u03ac\u03b4\u03bf\u03c2", "phone": "+30 234 309 1111", "public_transport": "station", "railway": "station", "railway:position": "76.6", "railway:ref": "\u0395'\u0394", "wheelchair": "no"}}, {"type": "node", "id": 4915024291, "lat": 41.1207119, "lon": 22.5183748, "tags": {"public_transport": "stop_position", "railway": "stop", "railway:position": "76.6", "train": "yes"}}, {"type": "node", "id": 4915024292, "lat": 41.1207142, "lon": 22.5184233, "tags": {"public_transport": "stop_position", "railway": "stop", "railway:position": "76.6", "train": "yes"}}, {"type": "node", "id": 4915024293, "lat": 41.120718, "lon": 22.5185356, "tags": {"public_transport": "stop_position", "railway": "stop", "railway:position": "76.6", "train": "no"}}, {"type": "node", "id": 4734608662, "lat": 40.7273321, "lon": 22.6927225, "tags": {"public_transport": "stop_position", "railway": "stop", "railway:position": "23.4", "train": "no"}}, {"type": "node", "id": 4899862721, "lat": 40.7274281, "lon": 22.6929857, "tags": {"ele": "10", "int_name": "Gefyra", "internet_access": "no", "name": "\u0393\u03ad\u03c6\u03c5\u03c1\u03b1", "name:de": "Bahnhof Gefyra", "name:el": "\u03a3\u03b9\u03b4\u03b7\u03c1\u03bf\u03b4\u03c1\u03bf\u03bc\u03b9\u03ba\u03cc\u03c2 \u03a3\u03c4\u03b1\u03b8\u03bc\u03cc\u03c2 \u0393\u03ad\u03c6\u03c5\u03c1\u03b1\u03c2", "name:en": "Gefyra Railway Station", "name:es": "Estaci\u00f3n de J\u00e9fira", "name:fr": "Gare de G\u00e9fyra", "name:it": "Stazione di Jefira", "name:jp": "\u30b8\u30a7\u30d5\u30a3\u30fc\u30e9 \u99c5", "name:mk": "\u0416\u0421 \u0422\u043e\u043f\u0447\u0438\u0435\u0432\u043e", "name:ru": "\u0416\u0435\u043b\u0435\u0437\u043d\u043e\u0434\u043e\u0440\u043e\u0436\u043d\u0430\u044f \u0441\u0442\u0430\u043d\u0446\u0438\u044f \u0413\u0435\u0444\u0438\u0440\u0430", "operator": "\u039f\u03c1\u03b3\u03b1\u03bd\u03b9\u03c3\u03bc\u03cc\u03c2 \u03a3\u03b9\u03b4\u03b7\u03c1\u03bf\u03b4\u03c1\u03cc\u03bc\u03c9\u03bd \u0395\u03bb\u03bb\u03ac\u03b4\u03bf\u03c2", "phone": "no", "public_transport": "station", "railway": "station", "railway:position": "23.4", "railway:ref": "\u0393\u03a6", "wheelchair": "no"}}, {"type": "node", "id": 4732892079, "lat": 40.7102552, "lon": 22.7311825, "tags": {"public_transport": "stop_position", "railway": "stop", "railway:position": "19.6", "train": "no"}}, {"type": "node", "id": 4732407689, "lat": 40.7059824, "lon": 22.8373457, "tags": {"public_transport": "stop_position", "railway": "stop", "railway:position": "9.6", "train": "no"}}, {"type": "node", "id": 4813093284, "lat": 40.7059806, "lon": 22.8373737, "tags": {"ele": "19", "int_name": "Lachanokipoi", "internet_access": "no", "internet_access:fee": "no", "name": "\u039b\u03b1\u03c7\u03b1\u03bd\u03cc\u03ba\u03b7\u03c0\u03bf\u03b9", "name:de": "Bahnhof Lachanokipi", "name:el": "\u03a3\u03b9\u03b4\u03b7\u03c1\u03bf\u03b4\u03c1\u03bf\u03bc\u03b9\u03ba\u03cc\u03c2 \u03a3\u03c4\u03b1\u03b8\u03bc\u03cc\u03c2 \u039b\u03b1\u03c7\u03b1\u03bd\u03bf\u03ba\u03ae\u03c0\u03c9\u03bd", "name:en": "Lachanokipi Railway Station", "name:es": "Estaci\u00f3n de Lajan\u00f3kipi", "name:fr": "Gare de Lachanokipoi", "name:it": "Stazione di Lachanokipi", "name:jp": "\u30e9\u30c1\u30e3\u30ce\u30ad\u30d4 \u99c5", "name:ru": "\u0416\u0435\u043b\u0435\u0437\u043d\u043e\u0434\u043e\u0440\u043e\u0436\u043d\u0430\u044f \u0441\u0442\u0430\u043d\u0446\u0438\u044f \u041b\u0430xa\u043dy\u043a\u0438\u043f\u0438", "operator": "\u039f\u03c1\u03b3\u03b1\u03bd\u03b9\u03c3\u03bc\u03cc\u03c2 \u03a3\u03b9\u03b4\u03b7\u03c1\u03bf\u03b4\u03c1\u03cc\u03bc\u03c9\u03bd \u0395\u03bb\u03bb\u03ac\u03b4\u03bf\u03c2", "phone": "no", "public_transport": "station", "railway": "station", "railway:position": "9.6", "railway:ref": "\u039b\u0391", "wheelchair": "no"}}, {"type": "node", "id": 207640549, "lat": 40.7465553, "lon": 22.8319767, "tags": {"public_transport": "stop_position", "railway": "stop", "railway:position": "14.2", "train": "no"}}, {"type": "node", "id": 4887878035, "lat": 40.7755629, "lon": 22.8271167, "tags": {"public_transport": "stop_position", "railway": "stop", "railway:position": "17.5", "train": "no"}}, {"type": "node", "id": 130290133, "lat": 40.7964946, "lon": 22.8488881, "tags": {"public_transport": "stop_position", "railway": "stop", "railway:position": "20.9", "train": "yes"}}, {"type": "node", "id": 4813093968, "lat": 40.796456, "lon": 22.8488152, "tags": {"ele": "54", "int_name": "Filadelfeia", "internet_access": "no", "name": "\u03a6\u03b9\u03bb\u03b1\u03b4\u03ad\u03bb\u03c6\u03b5\u03b9\u03b1", "name:de": "Bahnhof Filadelfia", "name:el": "\u03a3\u03b9\u03b4\u03b7\u03c1\u03bf\u03b4\u03c1\u03bf\u03bc\u03b9\u03ba\u03cc\u03c2 \u03a3\u03c4\u03b1\u03b8\u03bc\u03cc\u03c2 \u03a6\u03b9\u03bb\u03b1\u03b4\u03b5\u03bb\u03c6\u03b5\u03af\u03b1\u03c2", "name:en": "Filadelfeia Railway Station", "name:es": "Estaci\u00f3n de Filadelfia", "name:fr": "Gare de Philadelfia", "name:it": "Stazione di Filadelfia", "name:jp": "\u30d5\u30a3\u30e9\u30c7\u30eb\u30d5\u30a3\u30a2 \u99c5", "name:mk": "\u0416\u0421 \u041d\u0430\u0440\u0435\u0448", "name:ru": "\u0416\u0435\u043b\u0435\u0437\u043d\u043e\u0434\u043e\u0440\u043e\u0436\u043d\u0430\u044f \u0441\u0442\u0430\u043d\u0446\u0438\u044f \u0424\u0438\u043b\u0430\u0434\u0435\u043b\u0444\u0438\u044f", "operator": "\u039f\u03c1\u03b3\u03b1\u03bd\u03b9\u03c3\u03bc\u03cc\u03c2 \u03a3\u03b9\u03b4\u03b7\u03c1\u03bf\u03b4\u03c1\u03cc\u03bc\u03c9\u03bd \u0395\u03bb\u03bb\u03ac\u03b4\u03bf\u03c2", "phone": "no", "public_transport": "station", "railway": "station", "railway:position": "20.9", "railway:ref": "\u03a6\u0394", "wheelchair": "no"}}, {"type": "node", "id": 4734608661, "lat": 40.8275277, "lon": 22.6571305, "tags": {"public_transport": "stop_position", "railway": "stop", "railway:position": "36.3", "train": "no"}}, {"type": "node", "id": 4899862315, "lat": 40.8273661, "lon": 22.6572762, "tags": {"ele": "35", "int_name": "Kastanas", "internet_access": "no", "name": "\u039a\u03b1\u03c3\u03c4\u03b1\u03bd\u03ac\u03c2", "name:de": "Bahnhof Kastanas", "name:el": "\u03a3\u03b9\u03b4\u03b7\u03c1\u03bf\u03b4\u03c1\u03bf\u03bc\u03b9\u03ba\u03cc\u03c2 \u03a3\u03c4\u03b1\u03b8\u03bc\u03cc\u03c2 \u039a\u03b1\u03c3\u03c4\u03b1\u03bd\u03ac", "name:en": "Kastanas Railway Station", "name:es": "Estaci\u00f3n de Kastan\u00e1s", "name:fr": "Gare de Kastanas", "name:it": "Stazione di Kastan\u00e0s", "name:jp": "\u30ab\u30b9\u30bf\u30ca\u30b9 \u99c5", "name:ru": "\u0416\u0435\u043b\u0435\u0437\u043d\u043e\u0434\u043e\u0440\u043e\u0436\u043d\u0430\u044f \u0441\u0442\u0430\u043d\u0446\u0438\u044f \u041a\u0430\u0441\u0442\u0430\u043d\u0430\u0441", "operator": "\u039f\u03c1\u03b3\u03b1\u03bd\u03b9\u03c3\u03bc\u03cc\u03c2 \u03a3\u03b9\u03b4\u03b7\u03c1\u03bf\u03b4\u03c1\u03cc\u03bc\u03c9\u03bd \u0395\u03bb\u03bb\u03ac\u03b4\u03bf\u03c2", "phone": "+30(231)0711910", "public_transport": "station", "railway": "station", "railway:position": "36.3", "railway:ref": "\u039a\u0391", "wheelchair": "no"}}, {"type": "node", "id": 4906158273, "lat": 40.8382362, "lon": 22.662424, "tags": {"public_transport": "stop_position", "railway": "stop", "railway:position": "37.6", "train": "no"}}, {"type": "node", "id": 4734874450, "lat": 40.8905297, "lon": 22.6554288, "tags": {"public_transport": "stop_position", "railway": "stop", "railway:position": "43.6", "train": "no"}}, {"type": "node", "id": 4899862316, "lat": 40.8905919, "lon": 22.6551446, "tags": {"ele": "27", "int_name": "Aspros", "internet_access": "no", "name": "\u0386\u03c3\u03c0\u03c1\u03bf\u03c2", "name:de": "Bahnhof Aspros", "name:el": "\u03a3\u03b9\u03b4\u03b7\u03c1\u03bf\u03b4\u03c1\u03bf\u03bc\u03b9\u03ba\u03cc\u03c2 \u03a3\u03c4\u03b1\u03b8\u03bc\u03cc\u03c2 \u0386\u03c3\u03c0\u03c1\u03bf\u03c5", "name:en": "Aspros Railway Station", "name:es": "Estaci\u00f3n de Aspros", "name:fr": "Gare d' \u00c1spros", "name:it": "Stazione di Aspros", "name:jp": "\u30a2\u30b9\u30d7\u30ed\u30b9 \u99c5", "name:mk": "\u0416\u0421 \u0410\u043c\u0430\u0442\u043e\u0432\u043e", "name:ru": "\u0416\u0435\u043b\u0435\u0437\u043d\u043e\u0434\u043e\u0440\u043e\u0436\u043d\u0430\u044f \u0441\u0442\u0430\u043d\u0446\u0438\u044f \u0410\u0441\u043f\u0440\u043e\u0441", "operator": "\u039f\u03c1\u03b3\u03b1\u03bd\u03b9\u03c3\u03bc\u03cc\u03c2 \u03a3\u03b9\u03b4\u03b7\u03c1\u03bf\u03b4\u03c1\u03cc\u03bc\u03c9\u03bd \u0395\u03bb\u03bb\u03ac\u03b4\u03bf\u03c2", "phone": "no", "public_transport": "station", "railway": "station", "railway:position": "43.6", "railway:ref": "\u0391\u039f", "wheelchair": "no"}}, {"type": "node", "id": 4728021949, "lat": 40.8590293, "lon": 22.8847191, "tags": {"public_transport": "stop_position", "railway": "stop", "railway:position": "28.7", "train": "yes"}}, {"type": "node", "id": 4813400168, "lat": 40.8591026, "lon": 22.8847041, "tags": {"ele": "87", "int_name": "Gallikos", "internet_access": "no", "name": "\u0393\u03b1\u03bb\u03bb\u03b9\u03ba\u03cc\u03c2", "name:de": "Bahnhof Gallikos", "name:el": "\u03a3\u03b9\u03b4\u03b7\u03c1\u03bf\u03b4\u03c1\u03bf\u03bc\u03b9\u03ba\u03cc\u03c2 \u03a3\u03c4\u03b1\u03b8\u03bc\u03cc\u03c2 \u0393\u03b1\u03bb\u03bb\u03b9\u03ba\u03bf\u03cd", "name:en": "Gallikos Railway Station", "name:es": "Estaci\u00f3n de Galik\u00f3s", "name:fr": "Gare de Gallik\u00f3s", "name:it": "Stazione di Gallikos", "name:jp": "\u30ac\u30ea\u30b3\u30b9 \u99c5", "name:ru": "\u0416\u0435\u043b\u0435\u0437\u043d\u043e\u0434\u043e\u0440\u043e\u0436\u043d\u0430\u044f \u0441\u0442\u0430\u043d\u0446\u0438\u044f \u0413\u0430\u043b\u0438\u043a\u043e\u0441", "operator": "\u039f\u03c1\u03b3\u03b1\u03bd\u03b9\u03c3\u03bc\u03cc\u03c2 \u03a3\u03b9\u03b4\u03b7\u03c1\u03bf\u03b4\u03c1\u03cc\u03bc\u03c9\u03bd \u0395\u03bb\u03bb\u03ac\u03b4\u03bf\u03c2", "phone": "+30 234 104 1900", "public_transport": "station", "railway": "station", "railway:position": "28.7", "railway:ref": "\u0393\u039b", "wheelchair": "no"}}, {"type": "node", "id": 4727972852, "lat": 40.9589024, "lon": 22.8570104, "tags": {"public_transport": "stop_position", "railway": "stop", "railway:position": "41.2", "train": "yes"}}, {"type": "node", "id": 4813400250, "lat": 40.9589039, "lon": 22.856849, "tags": {"ele": "207", "int_name": "Kilkis", "internet_access": "no", "name": "\u039a\u03b9\u03bb\u03ba\u03af\u03c2", "name:de": "Bahnhof Kilkis", "name:el": "\u03a3\u03b9\u03b4\u03b7\u03c1\u03bf\u03b4\u03c1\u03bf\u03bc\u03b9\u03ba\u03cc\u03c2 \u03a3\u03c4\u03b1\u03b8\u03bc\u03cc\u03c2 \u039a\u03b9\u03bb\u03ba\u03af\u03c2", "name:en": "Kilkis Railway Station", "name:es": "Estaci\u00f3n de Kilk\u00eds", "name:fr": "Gare de Kilk\u00eds", "name:it": "Stazione di Kilkis", "name:jp": "\u30ad\u30eb\u30ad\u30b9 \u99c5", "name:ru": "\u0416\u0435\u043b\u0435\u0437\u043d\u043e\u0434\u043e\u0440\u043e\u0436\u043d\u0430\u044f \u0441\u0442\u0430\u043d\u0446\u0438\u044f \u041a\u0438\u043b\u043a\u0438\u0441", "operator": "\u039f\u03c1\u03b3\u03b1\u03bd\u03b9\u03c3\u03bc\u03cc\u03c2 \u03a3\u03b9\u03b4\u03b7\u03c1\u03bf\u03b4\u03c1\u03cc\u03bc\u03c9\u03bd \u0395\u03bb\u03bb\u03ac\u03b4\u03bf\u03c2", "phone": "+30 234 102 8585", "public_transport": "station", "railway": "station", "railway:position": "41.2", "railway:ref": "\u039a\u03a3", "wheelchair": "no"}}, {"type": "node", "id": 4727968153, "lat": 41.0251301, "lon": 22.8034714, "tags": {"public_transport": "stop_position", "railway": "stop", "railway:position": "51.3", "train": "yes"}}, {"type": "node", "id": 4814821554, "lat": 41.0250958, "lon": 22.803685, "tags": {"ele": "119", "int_name": "Metalliko", "internet_access": "no", "name": "\u039c\u03b5\u03c4\u03b1\u03bb\u03bb\u03b9\u03ba\u03cc", "name:de": "Bahnhof Metaliko", "name:el": "\u03a3\u03b9\u03b4\u03b7\u03c1\u03bf\u03b4\u03c1\u03bf\u03bc\u03b9\u03ba\u03cc\u03c2 \u03a3\u03c4\u03b1\u03b8\u03bc\u03cc\u03c2 \u039c\u03b5\u03c4\u03b1\u03bb\u03bb\u03b9\u03ba\u03bf\u03cd", "name:en": "Metalliko Railway Station", "name:es": "Estaci\u00f3n de Metalik\u00f3", "name:fr": "Gare de Metallik\u00f3", "name:it": "Stazione di Metaliko", "name:jp": "\u30e1\u30bf\u30eb\u30b3 \u99c5", "name:ru": "\u0416\u0435\u043b\u0435\u0437\u043d\u043e\u0434\u043e\u0440\u043e\u0436\u043d\u0430\u044f \u0441\u0442\u0430\u043d\u0446\u0438\u044f \u041c\u0435\u0442\u0430\u043b\u0438\u043a\u043e", "operator": "\u039f\u03c1\u03b3\u03b1\u03bd\u03b9\u03c3\u03bc\u03cc\u03c2 \u03a3\u03b9\u03b4\u03b7\u03c1\u03bf\u03b4\u03c1\u03cc\u03bc\u03c9\u03bd \u0395\u03bb\u03bb\u03ac\u03b4\u03bf\u03c2", "phone": "no", "public_transport": "station", "railway": "station", "railway:position": "51.3", "railway:ref": "\u039c\u0395'", "wheelchair": "no"}}, {"type": "node", "id": 4726882642, "lat": 41.0902595, "lon": 22.7832219, "tags": {"public_transport": "stop_position", "railway": "stop", "railway:position": "58.9", "train": "yes"}}, {"type": "node", "id": 4726365756, "lat": 41.1101208, "lon": 22.7829977, "tags": {"public_transport": "stop_position", "railway": "stop", "railway:position": "26.5", "train": "yes"}}, {"type": "node", "id": 4814821586, "lat": 41.1100772, "lon": 22.7827553, "tags": {"ele": "101", "int_name": "Kalindoia", "internet_access": "no", "internet_access:fee": "no", "name": "\u039a\u03b1\u03bb\u03af\u03bd\u03b4\u03bf\u03b9\u03b1", "name:de": "Bahnhof Kaleendia", "name:el": "\u03a3\u03b9\u03b4\u03b7\u03c1\u03bf\u03b4\u03c1\u03bf\u03bc\u03b9\u03ba\u03cc\u03c2 \u03a3\u03c4\u03b1\u03b8\u03bc\u03cc\u03c2 \u039a\u03b1\u03bb\u03af\u03bd\u03b4\u03bf\u03b9\u03b1\u03c2", "name:en": "Kalindia Railway Station", "name:es": "Estaci\u00f3n de Calindia", "name:fr": "Gare de Kalindia", "name:it": "Stazione di Calindia", "name:jp": "\u30ab\u30ec\u30f3\u30c7\u30a3\u30a2 \u99c5", "name:ru": "\u0416\u0435\u043b\u0435\u0437\u043d\u043e\u0434\u043e\u0440\u043e\u0436\u043d\u0430\u044f \u0441\u0442\u0430\u043d\u0446\u0438\u044f \u041a\u0430\u043b\u0438\u043d\u0434\u0438\u044f", "operator": "\u039f\u03c1\u03b3\u03b1\u03bd\u03b9\u03c3\u03bc\u03cc\u03c2 \u03a3\u03b9\u03b4\u03b7\u03c1\u03bf\u03b4\u03c1\u03cc\u03bc\u03c9\u03bd \u0395\u03bb\u03bb\u03ac\u03b4\u03bf\u03c2", "phone": "+30 234 105 1295", "public_transport": "station", "railway": "station", "railway:position": "26.5", "railway:ref": "\u039a\u0394", "wheelchair": "no"}}, {"type": "node", "id": 1278562014, "lat": 40.9158089, "lon": 22.87643, "tags": {"public_transport": "stop_position", "railway": "stop", "railway:position": "35.8", "train": "yes"}}, {"type": "node", "id": 4887864047, "lat": 41.1021771, "lon": 23.4282017, "tags": {"public_transport": "stop_position", "railway": "stop", "railway:position": "116.2", "train": "yes"}}, {"type": "node", "id": 4887837488, "lat": 41.0898455, "lon": 23.4558967, "tags": {"public_transport": "stop_position", "railway": "stop", "railway:position": "118.8", "train": "yes"}}, {"type": "node", "id": 4726320235, "lat": 41.1728163, "lon": 22.7721978, "tags": {"public_transport": "stop_position", "railway": "stop", "railway:position": "33.6", "train": "yes"}}, {"type": "node", "id": 4814821592, "lat": 41.172778, "lon": 22.772055, "tags": {"ele": "155", "int_name": "Doirani", "internet_access": "no", "name": "\u0394\u03bf\u03ca\u03c1\u03ac\u03bd\u03b7", "name:de": "Bahnhof Doirani", "name:el": "\u03a3\u03b9\u03b4\u03b7\u03c1\u03bf\u03b4\u03c1\u03bf\u03bc\u03b9\u03ba\u03cc\u03c2 \u03a3\u03c4\u03b1\u03b8\u03bc\u03cc\u03c2 \u0394\u03bf\u03ca\u03c1\u03ac\u03bd\u03b7\u03c2", "name:en": "Doirani Railway Station", "name:es": "Estaci\u00f3n de Doirani", "name:fr": "Gare de Do\u00efr\u00e1ni", "name:it": "Stazione di Doirani", "name:jp": "\u30c9\u30a4\u30e9\u30cb \u99c5", "name:mk": "\u0416\u0421 \u0414\u043e\u0458\u0440\u0430\u043d", "name:ru": "\u0416\u0435\u043b\u0435\u0437\u043d\u043e\u0434\u043e\u0440\u043e\u0436\u043d\u0430\u044f \u0441\u0442\u0430\u043d\u0446\u0438\u044f \u0414\u043e\u0439\u0440\u0430\u043d\u0438", "operator": "\u039f\u03c1\u03b3\u03b1\u03bd\u03b9\u03c3\u03bc\u03cc\u03c2 \u03a3\u03b9\u03b4\u03b7\u03c1\u03bf\u03b4\u03c1\u03cc\u03bc\u03c9\u03bd \u0395\u03bb\u03bb\u03ac\u03b4\u03bf\u03c2", "phone": "no", "public_transport": "station", "railway": "station", "railway:position": "33.6", "railway:ref": "\u0394\u039f", "wheelchair": "no"}}, {"type": "node", "id": 2514145014, "lat": 41.2170083, "lon": 22.8029167, "tags": {"public_transport": "stop_position", "railway": "stop", "railway:position": "41.0", "train": "yes"}}, {"type": "node", "id": 4726224285, "lat": 41.2614116, "lon": 22.8401473, "tags": {"public_transport": "stop_position", "railway": "stop", "railway:position": "47.0", "train": "yes"}}, {"type": "node", "id": 4815020481, "lat": 41.2615397, "lon": 22.840039, "tags": {"ele": "195", "int_name": "Mouries", "internet_access": "no", "name": "\u039c\u03bf\u03c5\u03c1\u03b9\u03ad\u03c2", "name:de": "Bahnhof Muri\u00e4s", "name:el": "\u03a3\u03b9\u03b4\u03b7\u03c1\u03bf\u03b4\u03c1\u03bf\u03bc\u03b9\u03ba\u03cc\u03c2 \u03a3\u03c4\u03b1\u03b8\u03bc\u03cc\u03c2 \u039c\u03bf\u03c5\u03c1\u03b9\u03ce\u03bd", "name:en": "Mouries Railway Station", "name:es": "Estaci\u00f3n de Muri\u00e9s", "name:fr": "Gare de Mouri\u00e9s", "name:it": "Stazione di Mouries", "name:jp": "\u6851 \u99c5", "name:mk": "\u0416\u0421 \u0410\u043a\u0430\u043d\u045f\u0430\u043b\u0438", "name:ru": "\u0416\u0435\u043b\u0435\u0437\u043d\u043e\u0434\u043e\u0440\u043e\u0436\u043d\u0430\u044f \u0441\u0442\u0430\u043d\u0446\u0438\u044f \u041c\u0443\u0440\u0438ec", "operator": "\u039f\u03c1\u03b3\u03b1\u03bd\u03b9\u03c3\u03bc\u03cc\u03c2 \u03a3\u03b9\u03b4\u03b7\u03c1\u03bf\u03b4\u03c1\u03cc\u03bc\u03c9\u03bd \u0395\u03bb\u03bb\u03ac\u03b4\u03bf\u03c2", "phone": "+30 234 103 1346", "public_transport": "station", "railway": "station", "railway:position": "47.0", "railway:ref": "\u039c\u03a1", "wheelchair": "no"}}, {"type": "node", "id": 4606490350, "lat": 41.2760917, "lon": 22.8962794, "tags": {"name": "\u039a\u03b1\u03c3\u03c4\u03b1\u03bd\u03bf\u03cd\u03c3\u03c3\u03b1", "public_transport": "stop_position", "railway": "station", "railway:position": "52.1", "train": "yes"}}, {"type": "node", "id": 4724691528, "lat": 41.2800001, "lon": 22.9288722, "tags": {"public_transport": "stop_position", "railway": "stop", "railway:position": "55.0", "train": "yes"}}, {"type": "node", "id": 4724644222, "lat": 41.2590587, "lon": 22.999817, "tags": {"public_transport": "stop_position", "railway": "stop", "railway:position": "61.6", "train": "yes"}}, {"type": "node", "id": 4815451745, "lat": 41.2592343, "lon": 22.9998246, "tags": {"ele": "96", "int_name": "Rodopoli", "internet_access": "no", "name": "\u03a1\u03bf\u03b4\u03cc\u03c0\u03bf\u03bb\u03b7", "name:de": "Bahnhof Rodopoli", "name:el": "\u03a3\u03b9\u03b4\u03b7\u03c1\u03bf\u03b4\u03c1\u03bf\u03bc\u03b9\u03ba\u03cc\u03c2 \u03a3\u03c4\u03b1\u03b8\u03bc\u03cc\u03c2 \u03a1\u03bf\u03b4\u03cc\u03c0\u03bf\u03bb\u03b7\u03c2", "name:en": "Rodopoli Railway Station", "name:es": "Estaci\u00f3n de Rod\u00f3poli", "name:fr": "Gare de Rod\u00f3poli", "name:it": "Stazione di Rodopoli", "name:jp": "\u30ed\u30c3\u30c9\u30dd\u30ea\u30fc \u99c5", "name:ru": "\u0416\u0435\u043b\u0435\u0437\u043d\u043e\u0434\u043e\u0440\u043e\u0436\u043d\u0430\u044f \u0441\u0442\u0430\u043d\u0446\u0438\u044f \u0420\u043e\u0434\u043e\u043f\u043e\u043b\u0438\u0441", "operator": "\u039f\u03c1\u03b3\u03b1\u03bd\u03b9\u03c3\u03bc\u03cc\u03c2 \u03a3\u03b9\u03b4\u03b7\u03c1\u03bf\u03b4\u03c1\u03cc\u03bc\u03c9\u03bd \u0395\u03bb\u03bb\u03ac\u03b4\u03bf\u03c2", "phone": "+30 232 702 2210", "public_transport": "station", "railway": "station", "railway:position": "61.6", "railway:ref": "\u03a1\u039f", "wheelchair": "no"}}, {"type": "node", "id": 1278507319, "lat": 41.244919, "lon": 23.0199472, "tags": {"public_transport": "stop_position", "railway": "stop", "railway:position": "64.0", "train": "yes"}}, {"type": "node", "id": 4724370049, "lat": 41.2554435, "lon": 23.0720844, "tags": {"public_transport": "stop_position", "railway": "stop", "railway:position": "68.6", "train": "yes"}}, {"type": "node", "id": 4724400852, "lat": 41.2606856, "lon": 23.1393162, "tags": {"public_transport": "stop_position", "railway": "stop", "railway:position": "74.4", "train": "yes"}}, {"type": "node", "id": 4815451766, "lat": 41.2608826, "lon": 23.1392245, "tags": {"ele": "60", "int_name": "Mandraki", "internet_access": "no", "internet_access:fee": "no", "name": "\u039c\u03b1\u03bd\u03b4\u03c1\u03ac\u03ba\u03b9", "name:de": "Bahnhof Mandraki", "name:el": "\u03a3\u03b9\u03b4\u03b7\u03c1\u03bf\u03b4\u03c1\u03bf\u03bc\u03b9\u03ba\u03cc\u03c2 \u03a3\u03c4\u03b1\u03b8\u03bc\u03cc\u03c2 \u039c\u03b1\u03bd\u03b4\u03c1\u03b1\u03ba\u03af\u03bf\u03c5", "name:en": "Mandraki Railway Station", "name:es": "Estaci\u00f3n de Mandraki", "name:fr": "Gare de Mandraki", "name:it": "Stazione di Mandraki", "name:jp": "\u30de\u30f3\u30c9\u30e9\u30ad \u99c5", "name:ru": "\u0416\u0435\u043b\u0435\u0437\u043d\u043e\u0434\u043e\u0440\u043e\u0436\u043d\u0430\u044f \u0441\u0442\u0430\u043d\u0446\u0438\u044f \u041c\u0430\u043d\u0434\u0440\u0430\u043a\u0438", "operator": "\u039f\u03c1\u03b3\u03b1\u03bd\u03b9\u03c3\u03bc\u03cc\u03c2 \u03a3\u03b9\u03b4\u03b7\u03c1\u03bf\u03b4\u03c1\u03cc\u03bc\u03c9\u03bd \u0395\u03bb\u03bb\u03ac\u03b4\u03bf\u03c2", "phone": "no", "public_transport": "station", "railway": "station", "railway:position": "74.4", "railway:ref": "\u039c\u0391", "wheelchair": "no"}}, {"type": "node", "id": 4724539429, "lat": 41.2621997, "lon": 23.1821237, "tags": {"public_transport": "stop_position", "railway": "stop", "railway:position": "78.0", "train": "yes"}}, {"type": "node", "id": 4138675889, "lat": 41.2613383, "lon": 23.1962157, "tags": {"public_transport": "stop_position", "railway": "stop", "railway:position": "79.2", "train": "yes"}}, {"type": "node", "id": 4724517143, "lat": 41.2623876, "lon": 23.2556186, "tags": {"public_transport": "stop_position", "railway": "stop", "railway:position": "84.6", "train": "yes"}}, {"type": "node", "id": 4816980799, "lat": 41.2625192, "lon": 23.2554148, "tags": {"ele": "42", "int_name": "Vyroneia", "internet_access": "no", "internet_access:fee": "no", "name": "\u0392\u03c5\u03c1\u03ce\u03bd\u03b5\u03b9\u03b1", "name:de": "Bahnhof Vironia", "name:el": "\u03a3\u03b9\u03b4\u03b7\u03c1\u03bf\u03b4\u03c1\u03bf\u03bc\u03b9\u03ba\u03cc\u03c2 \u03a3\u03c4\u03b1\u03b8\u03bc\u03cc\u03c2 \u0392\u03c5\u03c1\u03ce\u03bd\u03b5\u03b9\u03b1\u03c2", "name:en": "Vyroneia Railway Station", "name:es": "Estaci\u00f3n de Vironia", "name:fr": "Gare de V\u00fdroneia", "name:it": "Stazione di Vironia", "name:jp": "\u30d3\u30ed\u30cb\u30a2 \u99c5", "name:ru": "\u0416\u0435\u043b\u0435\u0437\u043d\u043e\u0434\u043e\u0440\u043e\u0436\u043d\u0430\u044f \u0441\u0442\u0430\u043d\u0446\u0438\u044f \u0412\u0438\u0440\u043e\u043d\u0438\u044f", "operator": "\u039f\u03c1\u03b3\u03b1\u03bd\u03b9\u03c3\u03bc\u03cc\u03c2 \u03a3\u03b9\u03b4\u03b7\u03c1\u03bf\u03b4\u03c1\u03cc\u03bc\u03c9\u03bd \u0395\u03bb\u03bb\u03ac\u03b4\u03bf\u03c2", "phone": "no", "public_transport": "station", "railway": "station", "railway:position": "84.6", "railway:ref": "\u0392\u03a5", "wheelchair": "no"}}, {"type": "node", "id": 4819638797, "lat": 41.1295271, "lon": 23.3765392, "tags": {"ele": "28", "int_name": "Skotousa", "internet_access": "no", "internet_access:fee": "no", "name": "\u03a3\u03ba\u03bf\u03c4\u03bf\u03cd\u03c3\u03b1", "name:de": "Bahnhof Skotousa", "name:el": "\u03a3\u03b9\u03b4\u03b7\u03c1\u03bf\u03b4\u03c1\u03bf\u03bc\u03b9\u03ba\u03cc\u03c2 \u03a3\u03c4\u03b1\u03b8\u03bc\u03cc\u03c2 \u03a3\u03ba\u03bf\u03c4\u03bf\u03cd\u03c3\u03b1\u03c2", "name:en": "Skotousa Railway Station", "name:es": "Estaci\u00f3n de Skot\u00fasa", "name:fr": "Gare de Skoto\u00fasa", "name:it": "Stazione di Skotousa", "name:jp": "\u30b9\u30ab\u30c8\u30a5\u30fc\u30b5 \u99c5", "name:ru": "\u0416\u0435\u043b\u0435\u0437\u043d\u043e\u0434\u043e\u0440\u043e\u0436\u043d\u0430\u044f \u0441\u0442\u0430\u043d\u0446\u0438\u044f \u0421\u043a\u043e\u0442\u0443\u0441\u0430", "operator": "\u039f\u03c1\u03b3\u03b1\u03bd\u03b9\u03c3\u03bc\u03cc\u03c2 \u03a3\u03b9\u03b4\u03b7\u03c1\u03bf\u03b4\u03c1\u03cc\u03bc\u03c9\u03bd \u0395\u03bb\u03bb\u03ac\u03b4\u03bf\u03c2", "phone": "no", "public_transport": "station", "railway": "station", "railway:position": "110.7", "railway:ref": "\u03a3\u0391", "wheelchair": "no"}}, {"type": "node", "id": 4819638807, "lat": 41.1294588, "lon": 23.3763443, "tags": {"public_transport": "stop_position", "railway": "stop", "railway:position": "110.7", "train": "yes"}}, {"type": "node", "id": 4138674508, "lat": 41.1613115, "lon": 23.3665825, "tags": {"public_transport": "stop_position", "railway": "stop", "railway:position": "106.6", "train": "yes"}}, {"type": "node", "id": 4819244399, "lat": 41.1940653, "lon": 23.3786089, "tags": {"public_transport": "stop_position", "railway": "stop", "railway:position": "102.7", "train": "yes"}}, {"type": "node", "id": 4724327286, "lat": 41.2698715, "lon": 23.2977561, "tags": {"public_transport": "stop_position", "railway": "stop", "railway:position": "88.3", "train": "yes"}}, {"type": "node", "id": 1278447135, "lat": 41.2290767, "lon": 23.3758067, "tags": {"public_transport": "stop_position", "railway": "stop", "railway:position": "98.9", "train": "yes"}}, {"type": "node", "id": 4819390971, "lat": 41.2291362, "lon": 23.3759162, "tags": {"ele": "65", "int_name": "Sidirokastro", "internet_access": "no", "name": "\u03a3\u03b9\u03b4\u03b7\u03c1\u03cc\u03ba\u03b1\u03c3\u03c4\u03c1\u03bf", "name:de": "Bahnhof Sidirokastro", "name:el": "\u03a3\u03b9\u03b4\u03b7\u03c1\u03bf\u03b4\u03c1\u03bf\u03bc\u03b9\u03ba\u03cc\u03c2 \u03a3\u03c4\u03b1\u03b8\u03bc\u03cc\u03c2 \u03a3\u03b9\u03b4\u03b7\u03c1\u03bf\u03ba\u03ac\u03c3\u03c4\u03c1\u03bf\u03c5", "name:en": "Sidirokastro Railway Station", "name:es": "Estaci\u00f3n de Sidir\u00f3kastro", "name:fr": "Gare de Sidir\u00f3kastro", "name:it": "Stazione di Sidirokastro", "name:jp": "\u30b7\u30c7\u30a3\u30ed\u30c3\u30ab\u30b9\u30c8\u30ed \u99c5", "name:ru": "\u0416\u0435\u043b\u0435\u0437\u043d\u043e\u0434\u043e\u0440\u043e\u0436\u043d\u0430\u044f \u0441\u0442\u0430\u043d\u0446\u0438\u044f \u0421\u0438\u0434\u0438\u0440\u043e\u043a\u0430\u0441\u0442\u0440\u043e", "operator": "\u039f\u03c1\u03b3\u03b1\u03bd\u03b9\u03c3\u03bc\u03cc\u03c2 \u03a3\u03b9\u03b4\u03b7\u03c1\u03bf\u03b4\u03c1\u03cc\u03bc\u03c9\u03bd \u0395\u03bb\u03bb\u03ac\u03b4\u03bf\u03c2", "phone": "+30 232 302 2320", "public_transport": "station", "railway": "station", "railway:position": "98.9", "railway:ref": "\u03a3\u03a0", "wheelchair": "no"}}, {"type": "node", "id": 4721172692, "lat": 41.2620382, "lon": 23.3454644, "tags": {"public_transport": "stop_position", "railway": "stop", "railway:position": "94.3", "train": "yes"}}, {"type": "node", "id": 4768466407, "lat": 41.2620649, "lon": 23.3455174, "tags": {"public_transport": "stop_position", "railway": "stop", "railway:position": "0.0", "train": "yes"}}, {"type": "node", "id": 4817385719, "lat": 41.2621969, "lon": 23.3456395, "tags": {"ele": "50", "int_name": "Strymonas", "internet_access": "no", "internet_access:fee": "no", "name": "\u03a3\u03c4\u03c1\u03c5\u03bc\u03ce\u03bd\u03b1\u03c2", "name:de": "Bahnhof Struma", "name:el": "\u03a3\u03b9\u03b4\u03b7\u03c1\u03bf\u03b4\u03c1\u03bf\u03bc\u03b9\u03ba\u03cc\u03c2 \u03a3\u03c4\u03b1\u03b8\u03bc\u03cc\u03c2 \u03a3\u03c4\u03c1\u03c5\u03bc\u03ce\u03bd\u03b1", "name:en": "Strym\u00f3nas Railway Station", "name:es": "Estaci\u00f3n de Estrim\u00f3n", "name:fr": "Gare de Strymonas", "name:it": "Stazione di Strymonas", "name:jp": "\u30b9\u30c8\u30eb\u30de \u99c5", "name:ru": "\u0416\u0435\u043b\u0435\u0437\u043d\u043e\u0434\u043e\u0440\u043e\u0436\u043d\u0430\u044f \u0441\u0442\u0430\u043d\u0446\u0438\u044f \u0441\u0442\u0440\u0438\u043c\u043e\u043d\u0430\u0441", "operator": "\u039f\u03c1\u03b3\u03b1\u03bd\u03b9\u03c3\u03bc\u03cc\u03c2 \u03a3\u03b9\u03b4\u03b7\u03c1\u03bf\u03b4\u03c1\u03cc\u03bc\u03c9\u03bd \u0395\u03bb\u03bb\u03ac\u03b4\u03bf\u03c2", "phone": "+30 232 302 2490", "public_transport": "station", "railway": "station", "railway:position": "94.3", "railway:ref": "\u03a3\u039a", "wheelchair": "no"}}, {"type": "node", "id": 985941841, "lat": 41.3703787, "lon": 23.361379, "tags": {"public_transport": "stop_position", "railway": "stop", "railway:position": "13.5", "train": "yes"}}, {"type": "node", "id": 4818046632, "lat": 41.3704883, "lon": 23.3611878, "tags": {"ele": "80", "int_name": "Promachonas", "internet_access": "no", "name": "\u03a0\u03c1\u03bf\u03bc\u03b1\u03c7\u03ce\u03bd\u03b1\u03c2", "name:de": "Bahnhof Pr\u00f6machonas", "name:el": "\u03a3\u03b9\u03b4\u03b7\u03c1\u03bf\u03b4\u03c1\u03bf\u03bc\u03b9\u03ba\u03cc\u03c2 \u03a3\u03c4\u03b1\u03b8\u03bc\u03cc\u03c2 \u03a0\u03c1\u03bf\u03bc\u03b1\u03c7\u03ce\u03bd\u03b1", "name:en": "Promachonas Railway Station", "name:es": "Estaci\u00f3n de Promajonas", "name:fr": "Gare de Promach\u00f3nas", "name:it": "Stazione di Promachonas", "name:jp": "\u30d7\u30ed\u30e0\u30db\u30fc\u30ca\u30b9 \u99c5", "name:ru": "\u0416\u0435\u043b\u0435\u0437\u043d\u043e\u0434\u043e\u0440\u043e\u0436\u043d\u0430\u044f \u0441\u0442\u0430\u043d\u0446\u0438\u044f \u041f\u0440\u043e\u043c\u0430\u0445\u043e\u043d\u0430\u0441", "operator": "\u039f\u03c1\u03b3\u03b1\u03bd\u03b9\u03c3\u03bc\u03cc\u03c2 \u03a3\u03b9\u03b4\u03b7\u03c1\u03bf\u03b4\u03c1\u03cc\u03bc\u03c9\u03bd \u0395\u03bb\u03bb\u03ac\u03b4\u03bf\u03c2", "phone": "no", "public_transport": "station", "railway": "station", "railway:position": "13.5", "railway:ref": "\u03a0\u039c", "wheelchair": "no"}}, {"type": "node", "id": 4886402097, "lat": 41.0469187, "lon": 23.5758288, "tags": {"public_transport": "stop_position", "railway": "stop", "railway:position": "130.7", "train": "yes"}}, {"type": "node", "id": 4883927548, "lat": 41.0739505, "lon": 23.5362605, "tags": {"ele": "27", "int_name": "Serres", "internet_access": "no", "internet_access:fee": "no", "name": "\u03a3\u03ad\u03c1\u03c1\u03b1\u03b9", "name:de": "Bahnhof Serres", "name:el": "\u03a3\u03b9\u03b4\u03b7\u03c1\u03bf\u03b4\u03c1\u03bf\u03bc\u03b9\u03ba\u03cc\u03c2 \u03a3\u03c4\u03b1\u03b8\u03bc\u03cc\u03c2 \u03a3\u03b5\u03c1\u03c1\u03ce\u03bd", "name:en": "Serres Railway Station", "name:es": "Estaci\u00f3n de Serres", "name:fr": "Gare de S\u00e9rres", "name:it": "Stazione di Serres", "name:jp": "\u30bb\u30ec \u99c5", "name:ru": "\u0416\u0435\u043b\u0435\u0437\u043d\u043e\u0434\u043e\u0440\u043e\u0436\u043d\u0430\u044f \u0441\u0442\u0430\u043d\u0446\u0438\u044f \u0421\u0435\u0440\u0435", "operator": "\u039f\u03c1\u03b3\u03b1\u03bd\u03b9\u03c3\u03bc\u03cc\u03c2 \u03a3\u03b9\u03b4\u03b7\u03c1\u03bf\u03b4\u03c1\u03cc\u03bc\u03c9\u03bd \u0395\u03bb\u03bb\u03ac\u03b4\u03bf\u03c2", "phone": "+30 232 105 9700", "public_transport": "station", "railway": "station", "railway:position": "126.0", "railway:ref": "\u03a3\u03a1", "wheelchair": "limited", "wikidata": "Q18009328"}}, {"type": "node", "id": 4885873059, "lat": 41.0738126, "lon": 23.5365098, "tags": {"public_transport": "stop_position", "railway": "stop", "railway:position": "126.0", "train": "yes"}}, {"type": "node", "id": 5300112926, "lat": 41.0341073, "lon": 23.6151066, "tags": {"public_transport": "stop_position", "railway": "stop", "railway:position": "134.3", "train": "yes"}}, {"type": "node", "id": 1277499659, "lat": 41.0299313, "lon": 23.6492858, "tags": {"public_transport": "stop_position", "railway": "stop", "railway:position": "137.4", "train": "yes"}}, {"type": "node", "id": 5300112619, "lat": 41.0298947, "lon": 23.6496369, "tags": {"ele": "39", "int_name": "Chryso", "internet_access": "no", "internet_access:fee": "no", "name": "\u03a7\u03c1\u03c5\u03c3\u03cc\u03bd", "name:de": "Bahnhof Chrisso", "name:el": "\u03a3\u03b9\u03b4\u03b7\u03c1\u03bf\u03b4\u03c1\u03bf\u03bc\u03b9\u03ba\u03cc\u03c2 \u03a3\u03c4\u03b1\u03b8\u03bc\u03cc\u03c2 \u03a7\u03c1\u03c5\u03c3\u03cc", "name:en": "Chriso Railway Station", "name:es": "Estaci\u00f3n de Chris\u00f3", "name:fr": "Gare de Chrys\u00f3", "name:it": "Stazione di Chriso", "name:jp": "\u30af\u30ea\u30bd \u99c5", "name:ru": "\u0416\u0435\u043b\u0435\u0437\u043d\u043e\u0434\u043e\u0440\u043e\u0436\u043d\u0430\u044f \u0441\u0442\u0430\u043d\u0446\u0438\u044f \u0425\u0440\u0438\u0441\u043e", "operator": "\u039f\u03c1\u03b3\u03b1\u03bd\u03b9\u03c3\u03bc\u03cc\u03c2 \u03a3\u03b9\u03b4\u03b7\u03c1\u03bf\u03b4\u03c1\u03cc\u03bc\u03c9\u03bd \u0395\u03bb\u03bb\u03ac\u03b4\u03bf\u03c2", "phone": "no", "public_transport": "station", "railway": "station", "railway:position": "137.4", "railway:ref": "\u03a7\u03a1", "wheelchair": "no"}}, {"type": "node", "id": 3896920951, "lat": 40.9996931, "lon": 23.7794573, "tags": {"public_transport": "stop_position", "railway": "stop", "railway:position": "151.1", "train": "yes"}}, {"type": "node", "id": 5300111775, "lat": 40.9554425, "lon": 23.8217396, "tags": {"ele": "11", "int_name": "Nea Zichni", "internet_access": "no", "internet_access:fee": "no", "name": "\u039d\u03ad\u03b1 \u0396\u03af\u03c7\u03bd\u03b7", "name:de": "Bahnhof N\u00e4a Zichni", "name:el": "\u03a3\u03b9\u03b4\u03b7\u03c1\u03bf\u03b4\u03c1\u03bf\u03bc\u03b9\u03ba\u03cc\u03c2 \u03a3\u03c4\u03b1\u03b8\u03bc\u03cc\u03c2 \u039d\u03ad\u03b1 \u0396\u03af\u03c7\u03bd\u03b7", "name:en": "Nea Zichni Railway Station", "name:es": "Estaci\u00f3n de Nea Ziqni", "name:fr": "Gare de N\u00e9a Z\u00edchni", "name:it": "Stazione di Nea Zichni", "name:jp": "\u30cd\u30a2 \u30b8\u30fc\u30af\u30cb \u99c5", "name:ru": "\u0416\u0435\u043b\u0435\u0437\u043d\u043e\u0434\u043e\u0440\u043e\u0436\u043d\u0430\u044f \u0441\u0442\u0430\u043d\u0446\u0438\u044f \u041d\u0435\u0430-\u0417\u0438\u0445\u043d\u0438", "operator": "\u039f\u03c1\u03b3\u03b1\u03bd\u03b9\u03c3\u03bc\u03cc\u03c2 \u03a3\u03b9\u03b4\u03b7\u03c1\u03bf\u03b4\u03c1\u03cc\u03bc\u03c9\u03bd \u0395\u03bb\u03bb\u03ac\u03b4\u03bf\u03c2", "phone": "no", "public_transport": "station", "railway": "station", "railway:position": "158.2", "railway:ref": "\u039c\u03a5", "wheelchair": "no"}}, {"type": "node", "id": 5300111840, "lat": 40.9553493, "lon": 23.8217342, "tags": {"public_transport": "stop_position", "railway": "stop", "railway:position": "158.2", "train": "yes"}}, {"type": "node", "id": 3908301007, "lat": 40.9718582, "lon": 23.8769656, "tags": {"public_transport": "stop_position", "railway": "stop", "railway:position": "163.2", "train": "yes"}}, {"type": "node", "id": 5300111552, "lat": 40.9719219, "lon": 23.8766568, "tags": {"ele": "15", "int_name": "Dimitra", "internet_access": "no", "internet_access:fee": "no", "name": "\u0394\u03ae\u03bc\u03b7\u03c4\u03c1\u03b1", "name:de": "Bahnhof Dimitra", "name:el": "\u03a3\u03b9\u03b4\u03b7\u03c1\u03bf\u03b4\u03c1\u03bf\u03bc\u03b9\u03ba\u03cc\u03c2 \u03a3\u03c4\u03b1\u03b8\u03bc\u03cc\u03c2 \u0394\u03ae\u03bc\u03b7\u03c4\u03c1\u03b1", "name:en": "Dimitra Railway Station", "name:es": "Estaci\u00f3n de D\u00edmitra", "name:fr": "Gare de Dimitra", "name:it": "Stazione di Dimitra", "name:jp": "\u30c7\u30df\u30c8\u30a5\u30e9 \u99c5", "name:ru": "\u0416\u0435\u043b\u0435\u0437\u043d\u043e\u0434\u043e\u0440\u043e\u0436\u043d\u0430\u044f \u0441\u0442\u0430\u043d\u0446\u0438\u044f \u0414\u0438\u043c\u0438\u0442\u0440\u0430", "operator": "\u039f\u03c1\u03b3\u03b1\u03bd\u03b9\u03c3\u03bc\u03cc\u03c2 \u03a3\u03b9\u03b4\u03b7\u03c1\u03bf\u03b4\u03c1\u03cc\u03bc\u03c9\u03bd \u0395\u03bb\u03bb\u03ac\u03b4\u03bf\u03c2", "phone": "no", "public_transport": "station", "railway": "station", "railway:position": "163.2", "railway:ref": "\u0394\u039c", "wheelchair": "no"}}, {"type": "node", "id": 1274743218, "lat": 41.0278366, "lon": 23.7059842, "tags": {"public_transport": "stop_position", "railway": "stop", "railway:position": "143.3", "train": "yes"}}, {"type": "node", "id": 5300113022, "lat": 41.0279889, "lon": 23.706001, "tags": {"public_transport": "stop_position", "railway": "stop", "railway:position": "143.3", "train": "yes"}}, {"type": "node", "id": 2514129331, "lat": 41.0164777, "lon": 23.7661141, "tags": {"public_transport": "stop_position", "railway": "stop", "railway:position": "149.2", "train": "yes"}}, {"type": "node", "id": 5300112351, "lat": 41.0164301, "lon": 23.7663984, "tags": {"ele": "80", "int_name": "Gazoros", "internet_access": "no", "internet_access:fee": "no", "name": "\u0393\u03ac\u03b6\u03c9\u03c1\u03bf\u03c2", "name:de": "Bahnhof Gazoros", "name:el": "\u03a3\u03b9\u03b4\u03b7\u03c1\u03bf\u03b4\u03c1\u03bf\u03bc\u03b9\u03ba\u03cc\u03c2 \u03a3\u03c4\u03b1\u03b8\u03bc\u03cc\u03c2 \u0393\u03ac\u03b6\u03c9\u03c1\u03bf\u03c2", "name:en": "Gazoros Railway Station", "name:es": "Estaci\u00f3n de Gazoros", "name:fr": "Gare de G\u00e1zoros", "name:it": "Stazione di Gasoros", "name:jp": "\u30ac\u30be\u30ed\u30b9 \u99c5", "name:ru": "\u0416\u0435\u043b\u0435\u0437\u043d\u043e\u0434\u043e\u0440\u043e\u0436\u043d\u0430\u044f \u0441\u0442\u0430\u043d\u0446\u0438\u044f \u0413\u0430\u0437\u043e\u0440\u043e\u0441", "operator": "\u039f\u03c1\u03b3\u03b1\u03bd\u03b9\u03c3\u03bc\u03cc\u03c2 \u03a3\u03b9\u03b4\u03b7\u03c1\u03bf\u03b4\u03c1\u03cc\u03bc\u03c9\u03bd \u0395\u03bb\u03bb\u03ac\u03b4\u03bf\u03c2", "phone": "no", "public_transport": "station", "railway": "station", "railway:position": "149.2", "railway:ref": "\u0393\u0391", "wheelchair": "no"}}, {"type": "node", "id": 1277499135, "lat": 41.0121679, "lon": 23.9327878, "tags": {"public_transport": "stop_position", "railway": "stop", "railway:position": "170.3", "train": "yes"}}, {"type": "node", "id": 5300111263, "lat": 41.0120998, "lon": 23.9329829, "tags": {"ele": "28", "int_name": "Lefkothea", "internet_access": "no", "internet_access:fee": "no", "name": "\u039b\u03b5\u03c5\u03ba\u03bf\u03b8\u03ad\u03b1", "name:de": "Bahnhof Lefkotea", "name:el": "\u03a3\u03b9\u03b4\u03b7\u03c1\u03bf\u03b4\u03c1\u03bf\u03bc\u03b9\u03ba\u03cc\u03c2 \u03a3\u03c4\u03b1\u03b8\u03bc\u03cc\u03c2 \u039b\u03b5\u03c5\u03ba\u03bf\u03b8\u03ad\u03b1", "name:en": "Lefkothea Railway Station", "name:es": "Estaci\u00f3n de Lefkotea", "name:fr": "Gare de Lefkothea", "name:it": "Stazione di Lefkotea", "name:jp": "\u30ec\u30d5\u30b3\u30c6\u30a2 \u99c5", "name:ru": "\u0416\u0435\u043b\u0435\u0437\u043d\u043e\u0434\u043e\u0440\u043e\u0436\u043d\u0430\u044f \u0441\u0442\u0430\u043d\u0446\u0438\u044f \u041b\u0435\u0444\u043a\u043e\u0442\u0435\u0430", "operator": "\u039f\u03c1\u03b3\u03b1\u03bd\u03b9\u03c3\u03bc\u03cc\u03c2 \u03a3\u03b9\u03b4\u03b7\u03c1\u03bf\u03b4\u03c1\u03cc\u03bc\u03c9\u03bd \u0395\u03bb\u03bb\u03ac\u03b4\u03bf\u03c2", "phone": "no", "public_transport": "station", "railway": "station", "railway:position": "170.3", "railway:ref": "\u0393\u0393", "wheelchair": "no"}}, {"type": "node", "id": 5300110797, "lat": 41.0070361, "lon": 23.9387212, "tags": {"ele": "30", "int_name": "Angista", "internet_access": "no", "internet_access:fee": "no", "name": "\u0391\u03b3\u03b3\u03af\u03c3\u03c4\u03b1", "name:en": "Stathmos Aggistis", "operator": "\u039f\u03c1\u03b3\u03b1\u03bd\u03b9\u03c3\u03bc\u03cc\u03c2 \u03a3\u03b9\u03b4\u03b7\u03c1\u03bf\u03b4\u03c1\u03cc\u03bc\u03c9\u03bd \u0395\u03bb\u03bb\u03ac\u03b4\u03bf\u03c2", "phone": "no", "public_transport": "station", "railway": "station", "railway:position": "0", "railway:ref": "\u0393\u0393", "wheelchair": "no"}}, {"type": "node", "id": 5300110398, "lat": 41.0258356, "lon": 24.0131583, "tags": {"public_transport": "stop_position", "railway": "stop", "railway:position": "178.0", "train": "yes"}}, {"type": "node", "id": 2514123184, "lat": 41.0597079, "lon": 24.0491966, "tags": {"ele": "61", "int_name": "Fotolivos", "internet_access": "no", "internet_access:fee": "no", "name": "\u03a6\u03c9\u03c4\u03bf\u03bb\u03af\u03b2\u03bf\u03c2", "name:de": "Bahnhof Fotolivos", "name:el": "\u03a3\u03b9\u03b4\u03b7\u03c1\u03bf\u03b4\u03c1\u03bf\u03bc\u03b9\u03ba\u03cc\u03c2 \u03a3\u03c4\u03b1\u03b8\u03bc\u03cc\u03c2 \u03a6\u03c9\u03c4\u03bf\u03bb\u03af\u03b2\u03bf\u03c2", "name:en": "Fotolivos Railway Station", "name:es": "Estaci\u00f3n de Fotolivos", "name:fr": "Gare de Fotol\u00edvos", "name:it": "Stazione di Fotolivos", "name:jp": "\u30d5\u30a9\u30c8\u30ea\u30dc\u30b9 \u99c5", "name:ru": "\u0416\u0435\u043b\u0435\u0437\u043d\u043e\u0434\u043e\u0440\u043e\u0436\u043d\u0430\u044f \u0441\u0442\u0430\u043d\u0446\u0438\u044f \u0424\u043e\u0442\u043e\u043b\u0438\u0432\u043e\u0441", "operator": "\u039f\u03c1\u03b3\u03b1\u03bd\u03b9\u03c3\u03bc\u03cc\u03c2 \u03a3\u03b9\u03b4\u03b7\u03c1\u03bf\u03b4\u03c1\u03cc\u03bc\u03c9\u03bd \u0395\u03bb\u03bb\u03ac\u03b4\u03bf\u03c2", "phone": "no", "public_transport": "station", "railway": "station", "railway:position": "183.5", "railway:ref": "\u03a6\u03a9", "wheelchair": "no"}}, {"type": "node", "id": 5301424391, "lat": 41.0598392, "lon": 24.0490867, "tags": {"public_transport": "stop_position", "railway": "stop", "railway:position": "183.5", "train": "yes"}}, {"type": "node", "id": 5301424203, "lat": 41.1036417, "lon": 24.0891166, "tags": {"public_transport": "stop_position", "railway": "stop", "railway:position": "189.6", "train": "yes"}}, {"type": "node", "id": 5300113631, "lat": 41.1404906, "lon": 24.1471344, "tags": {"ele": "98", "int_name": "Drama", "internet_access": "no", "internet_access:fee": "no", "name": "\u0394\u03c1\u03ac\u03bc\u03b1", "name:de": "Bahnhof Drama", "name:el": "\u03a3\u03b9\u03b4\u03b7\u03c1\u03bf\u03b4\u03c1\u03bf\u03bc\u03b9\u03ba\u03cc\u03c2 \u03a3\u03c4\u03b1\u03b8\u03bc\u03cc\u03c2 \u0394\u03c1\u03ac\u03bc\u03b1", "name:en": "Drama Railway Station", "name:es": "Estaci\u00f3n de Drama", "name:fr": "Gare de Dr\u00e1ma", "name:it": "Stazione di Drama", "name:jp": "\u30c9\u30e9\u30de \u99c5", "name:ru": "\u0416\u0435\u043b\u0435\u0437\u043d\u043e\u0434\u043e\u0440\u043e\u0436\u043d\u0430\u044f \u0441\u0442\u0430\u043d\u0446\u0438\u044f \u0414\u0440\u0430\u043c\u0430", "operator": "\u039f\u03c1\u03b3\u03b1\u03bd\u03b9\u03c3\u03bc\u03cc\u03c2 \u03a3\u03b9\u03b4\u03b7\u03c1\u03bf\u03b4\u03c1\u03cc\u03bc\u03c9\u03bd \u0395\u03bb\u03bb\u03ac\u03b4\u03bf\u03c2", "phone": "+30 252 103 2444", "public_transport": "station", "railway": "station", "railway:position": "230700,0", "railway:ref": "\u0394", "wheelchair": "limited", "wikidata": "Q17449764"}}, {"type": "node", "id": 5300113692, "lat": 41.1403447, "lon": 24.1471666, "tags": {"public_transport": "stop_position", "railway": "stop", "railway:position": "230700,0", "train": "yes"}}, {"type": "node", "id": 2514122670, "lat": 41.1672645, "lon": 24.3099189, "tags": {"name": "\u039d\u03b9\u03ba\u03b7\u03c6\u03cc\u03c1\u03bf\u03c2", "name:en": "Nikiforos", "railway": "station"}}, {"type": "node", "id": 4874485936, "lat": 41.0868702, "lon": 24.7801093, "tags": {"name": "\u03a4\u03bf\u03be\u03cc\u03c4\u03b5\u03c2", "public_transport": "stop_position", "railway": "station"}}, {"type": "node", "id": 4874485938, "lat": 41.0868728, "lon": 24.780186, "tags": {"name": "\u03a4\u03bf\u03be\u03cc\u03c4\u03b5\u03c2", "public_transport": "stop_position", "train": "yes"}}, {"type": "node", "id": 1277449602, "lat": 41.2044736, "lon": 24.4217942, "tags": {"name": "\u03a0\u03bb\u03b1\u03c4\u03ac\u03bd\u03b9\u03b1", "name:en": "Platania", "railway": "station"}}, {"type": "node", "id": 1277435470, "lat": 41.265638, "lon": 24.5019464, "tags": {"name": "\u03a0\u03b1\u03c1\u03b1\u03bd\u03ad\u03c3\u03c4\u03b9", "name:de": "Paranesti", "name:el": "\u03a0\u03b1\u03c1\u03b1\u03bd\u03ad\u03c3\u03c4\u03b9", "name:en": "Paranesti", "name:fr": "Paranesti", "railway": "station"}}, {"type": "node", "id": 1277423135, "lat": 41.2208583, "lon": 24.6333954, "tags": {"name": "\u03a3\u03b9\u03b4\u03b7\u03c1\u03bf\u03b4\u03c1\u03bf\u03bc\u03b9\u03ba\u03cc\u03c2 \u03a3\u03c4\u03b1\u03b8\u03bc\u03cc\u03c2 \u039d\u03b5\u03bf\u03c7\u03c9\u03c1\u03af\u03bf\u03c5", "name:en": "Neochorio Railway Station", "railway": "station"}}, {"type": "node", "id": 2291093708, "lat": 41.1932364, "lon": 24.7032736, "tags": {"name": "\u03a3\u03c4\u03b1\u03c5\u03c1\u03bf\u03cd\u03c0\u03bf\u03bb\u03b7\u03c2", "name:en": "Stavroupolis", "opening_hours": "7:00 - 15:00", "phone": "+302542022363", "railway": "station"}}, {"type": "node", "id": 308841776, "lat": 41.1238904, "lon": 24.8929027, "tags": {"addr:city": "\u039e\u03ac\u03bd\u03b8\u03b7", "addr:country": "GR", "name": "\u039e\u03ac\u03bd\u03b8\u03b7", "name:de": "Xanthi", "name:el": "\u039e\u03ac\u03bd\u03b8\u03b7", "name:en": "Xanthi", "name:fr": "Xanthi", "railway": "station"}}, {"type": "node", "id": 1313057851, "lat": 41.1101238, "lon": 25.3939687, "tags": {"int_name": "Komotini Railway Station", "name": "\u039a\u03bf\u03bc\u03bf\u03c4\u03b7\u03bd\u03ae\u03c2", "name:de": "Komotini", "name:el": "\u03a3.\u03a3. \u039a\u03bf\u03bc\u03bf\u03c4\u03b7\u03bd\u03ae\u03c2", "name:en": "Komotini", "name:fr": "Komotini", "public_transport": "station", "railway": "station"}}, {"type": "node", "id": 1544586944, "lat": 41.0226794, "lon": 25.5052107, "tags": {"name": "\u0392\u03ad\u03bd\u03bd\u03b1", "name:el": "\u0392\u03ad\u03bd\u03bd\u03b1", "name:en": "Venna", "public_transport": "station", "railway": "station"}}, {"type": "node", "id": 6004882977, "lat": 40.845253, "lon": 25.8788025, "tags": {"name": "\u0391\u03bb\u03b5\u03be\u03b1\u03bd\u03b4\u03c1\u03bf\u03cd\u03c0\u03bf\u03bb\u03b7", "name:mk": "\u0416\u0421 \u0414\u0435\u0434\u0435\u0430\u0433\u0430\u0447", "railway": "station"}}, {"type": "node", "id": 5358572367, "lat": 40.8480051, "lon": 25.8917876, "tags": {"name": "\u0391\u03bb\u03b5\u03be\u03b1\u03bd\u03b4\u03c1\u03bf\u03cd\u03c0\u03bf\u03bb\u03b9\u03c2 - \u0394\u03b9\u03b1\u03bb\u03bf\u03b3\u03ae", "name:en": "Alexandroupolis - Dialogi", "railway": "station"}}, {"type": "node", "id": 2514113362, "lat": 40.9671997, "lon": 25.6404462, "tags": {"name": "\u039c\u03ad\u03c3\u03c4\u03b7", "name:el": "\u039c\u03ad\u03c3\u03c4\u03b7", "name:en": "Mesti", "public_transport": "station", "railway": "station"}}, {"type": "node", "id": 2291096476, "lat": 40.9756196, "lon": 25.7978359, "tags": {"name": "\u039a\u03af\u03c1\u03ba\u03b7", "name:en": "Kirki", "railway": "station"}}, {"type": "node", "id": 1791262359, "lat": 41.1260377, "lon": 25.1874058, "tags": {"name": "\u038a\u03b1\u03c3\u03bc\u03bf\u03c2", "name:en": "Iasmos", "railway": "station"}}, {"type": "node", "id": 2599343704, "lat": 41.1256906, "lon": 25.2278228, "tags": {"name": "\u03a0\u03bf\u03bb\u03cd\u03b1\u03bd\u03b8\u03bf", "name:en": "Polyantho", "railway": "station"}}, {"type": "node", "id": 301098266, "lat": 40.8910599, "lon": 26.185149, "tags": {"name": "\u03a6\u03ad\u03c1\u03b5\u03c2", "name:de": "Feres", "name:el": "\u03a6\u03ad\u03c1\u03b5\u03c2", "name:en": "Feres", "name:fr": "Feres", "railway": "station"}}, {"type": "node", "id": 1305655684, "lat": 40.959332, "lon": 26.2769929, "tags": {"name": "\u03a0\u03ad\u03c0\u03bb\u03bf\u03c2", "name:el": "\u03a0\u03ad\u03c0\u03bb\u03bf\u03c2", "name:en": "Peplos", "public_transport": "station", "railway": "station"}}, {"type": "node", "id": 1305963175, "lat": 41.0348863, "lon": 26.2933272, "tags": {"name": "\u03a4\u03c5\u03c7\u03b5\u03c1\u03cc", "name:de": "Tychero", "name:el": "\u03a4\u03c5\u03c7\u03b5\u03c1\u03cc", "name:en": "Tychero", "name:fr": "Tychero", "railway": "station"}}, {"type": "node", "id": 1305962955, "lat": 41.0863918, "lon": 26.3013478, "tags": {"name": "\u039b\u03b1\u03b3\u03c5\u03bd\u03ac", "name:en": "Lagina", "railway": "station"}}, {"type": "node", "id": 1307273578, "lat": 41.1881803, "lon": 26.3017371, "tags": {"name": "\u03a3\u03bf\u03c5\u03c6\u03bb\u03af", "name:de": "Soufli", "name:el": "\u03a3\u03bf\u03c5\u03c6\u03bb\u03af", "name:en": "Soufli", "name:fr": "Soufli", "railway": "station", "wheelchair": "no"}}, {"type": "node", "id": 301068611, "lat": 41.3520883, "lon": 26.5113144, "tags": {"name": "\u0394\u03b9\u03b4\u03c5\u03bc\u03cc\u03c4\u03b5\u03b9\u03c7\u03bf", "name:bg": "\u0414\u0438\u043c\u043e\u0442\u0438\u043a\u0430", "name:de": "Didymoticho", "name:el": "\u0394\u03b9\u03b4\u03c5\u03bc\u03cc\u03c4\u03b5\u03b9\u03c7\u03bf", "name:en": "Didymoticho", "name:fr": "Didymoticho", "public_transport": "stop_position", "railway": "station", "train": "yes"}}, {"type": "node", "id": 1306285599, "lat": 41.3696317, "lon": 26.6217978, "tags": {"name": "\u03a0\u03cd\u03b8\u03b9\u03bf \u0394\u03b9\u03b4\u03c5\u03bc\u03bf\u03c4\u03b5\u03af\u03c7\u03bf\u03c5", "name:el": "\u03a0\u03cd\u03b8\u03b9\u03bf \u0394\u03b9\u03b4\u03c5\u03bc\u03bf\u03c4\u03b5\u03af\u03c7\u03bf\u03c5", "name:en": "Pythion of Didymoteicho", "railway": "station", "uic_ref": "7300933"}}, {"type": "node", "id": 2514082300, "lat": 41.4500327, "lon": 26.5556128, "tags": {"name": "\u03a7\u03b5\u03b9\u03bc\u03ce\u03bd\u03b9\u03bf\u03bd", "name:en": "Chimonion", "railway": "station"}}, {"type": "node", "id": 1376325938, "lat": 41.5029814, "lon": 26.5373822, "tags": {"name": "\u039d\u03ad\u03bf \u039f\u03c1\u03b5\u03c3\u03c4\u03b9\u03ac\u03b4\u03b1", "name:en": "Nea Orestias", "public_transport": "stop_position", "railway": "station", "train": "yes"}}, {"type": "node", "id": 6113774346, "lat": 41.7283429, "lon": 26.2121417, "tags": {"name": "\u039f\u03c1\u03bc\u03ad\u03bd\u03b9\u03bf", "railway": "station"}}, {"type": "node", "id": 1307050441, "lat": 41.7061339, "lon": 26.2973673, "tags": {"int_name": "Dikea", "name": "\u0394\u03af\u03ba\u03b1\u03b9\u03b1", "name:de": "Dikea", "name:el": "\u0394\u03af\u03ba\u03b1\u03b9\u03b1", "name:en": "Dikea", "name:fr": "Dikea", "public_transport": "station", "railway": "station", "train": "yes"}}, {"type": "node", "id": 2291099195, "lat": 41.5786006, "lon": 26.5347148, "tags": {"name": "\u039d\u03ad\u03b1 \u0392\u03cd\u03c3\u03c3\u03b1", "name:en": "Nea Vissa", "railway": "station"}}]}